<?xml version="1.0" encoding="UTF-8"?>
<gpx xmlns="http://www.topografix.com/GPX/1/1" xmlns:xsi="http://www.w3.org/2001/XMLSchema-instance" xsi:schemaLocation="http://www.topografix.com/GPX/1/1 http://www.topografix.com/GPX/1/1/gpx.xsd" version="1.1" creator="align_patterns_times.py">
  <trk>
    <name>Aligned Pattern Track - Pasada 3</name>
    <trkseg>
      <trkpt lat="43.385408" lon="-5.820863">
        <ele>165.0</ele>
        <time>2024-08-27T11:29:04.953733Z</time>
      </trkpt>
      <trkpt lat="43.385453" lon="-5.820821">
        <ele>165.0</ele>
        <time>2024-08-27T11:29:11Z</time>
      </trkpt>
      <trkpt lat="43.385605" lon="-5.82117">
        <ele>165.0</ele>
        <time>2024-08-27T11:29:11Z</time>
      </trkpt>
      <trkpt lat="43.385675" lon="-5.821102">
        <ele>165.0</ele>
        <time>2024-08-27T11:29:11Z</time>
      </trkpt>
      <trkpt lat="43.385737" lon="-5.821036">
        <ele>165.0</ele>
        <time>2024-08-27T11:29:11Z</time>
      </trkpt>
      <trkpt lat="43.385798" lon="-5.820955">
        <ele>165.0</ele>
        <time>2024-08-27T11:29:11Z</time>
      </trkpt>
      <trkpt lat="43.38587" lon="-5.820877">
        <ele>164.0</ele>
        <time>2024-08-27T11:29:17.235319Z</time>
      </trkpt>
      <trkpt lat="43.385931" lon="-5.820789">
        <ele>164.0</ele>
        <time>2024-08-27T11:29:23.249038Z</time>
      </trkpt>
      <trkpt lat="43.385993" lon="-5.82068">
        <ele>164.0</ele>
        <time>2024-08-27T11:29:30.093789Z</time>
      </trkpt>
      <trkpt lat="43.386046" lon="-5.820557">
        <ele>164.0</ele>
        <time>2024-08-27T11:29:37.164928Z</time>
      </trkpt>
      <trkpt lat="43.386075" lon="-5.820465">
        <ele>164.0</ele>
        <time>2024-08-27T11:29:42.123866Z</time>
      </trkpt>
      <trkpt lat="43.386087" lon="-5.820442">
        <ele>164.0</ele>
        <time>2024-08-27T11:29:43.523971Z</time>
      </trkpt>
      <trkpt lat="43.386222" lon="-5.820527">
        <ele>164.0</ele>
        <time>2024-08-27T11:29:53.625875Z</time>
      </trkpt>
      <trkpt lat="43.38624" lon="-5.820498">
        <ele>164.2</ele>
        <time>2024-08-27T11:29:55.511775Z</time>
      </trkpt>
      <trkpt lat="43.386247" lon="-5.820457">
        <ele>164.0</ele>
        <time>2024-08-27T11:29:57.594428Z</time>
      </trkpt>
      <trkpt lat="43.38626" lon="-5.820431">
        <ele>164.0</ele>
        <time>2024-08-27T11:29:59.155035Z</time>
      </trkpt>
      <trkpt lat="43.386466" lon="-5.820539">
        <ele>161.2</ele>
        <time>2024-08-27T11:30:14.155001Z</time>
      </trkpt>
      <trkpt lat="43.386564" lon="-5.820582">
        <ele>161.0</ele>
        <time>2024-08-27T11:30:21.154106Z</time>
      </trkpt>
      <trkpt lat="43.386753" lon="-5.820668">
        <ele>161.0</ele>
        <time>2024-08-27T11:30:34.699292Z</time>
      </trkpt>
      <trkpt lat="43.386925" lon="-5.820754">
        <ele>161.0</ele>
        <time>2024-08-27T11:30:47.151517Z</time>
      </trkpt>
      <trkpt lat="43.387068" lon="-5.820909">
        <ele>161.0</ele>
        <time>2024-08-27T11:30:59.538012Z</time>
      </trkpt>
      <trkpt lat="43.387179" lon="-5.820987">
        <ele>161.0</ele>
        <time>2024-08-27T11:31:08.018731Z</time>
      </trkpt>
      <trkpt lat="43.387275" lon="-5.821028">
        <ele>161.0</ele>
        <time>2024-08-27T11:31:14.858332Z</time>
      </trkpt>
      <trkpt lat="43.387322" lon="-5.821044">
        <ele>161.0</ele>
        <time>2024-08-27T11:31:18.152806Z</time>
      </trkpt>
      <trkpt lat="43.387443" lon="-5.820941">
        <ele>161.0</ele>
        <time>2024-08-27T11:31:27.834160Z</time>
      </trkpt>
      <trkpt lat="43.387575" lon="-5.82082">
        <ele>161.0</ele>
        <time>2024-08-27T11:31:38.626415Z</time>
      </trkpt>
      <trkpt lat="43.387693" lon="-5.820824">
        <ele>161.0</ele>
        <time>2024-08-27T11:31:46.658020Z</time>
      </trkpt>
      <trkpt lat="43.387747" lon="-5.820836">
        <ele>161.0</ele>
        <time>2024-08-27T11:31:50.379991Z</time>
      </trkpt>
      <trkpt lat="43.387901" lon="-5.821146">
        <ele>161.0</ele>
        <time>2024-08-27T11:32:08.948422Z</time>
      </trkpt>
      <trkpt lat="43.387937" lon="-5.821194">
        <ele>160.2</ele>
        <time>2024-08-27T11:32:12.359305Z</time>
      </trkpt>
      <trkpt lat="43.387976" lon="-5.821197">
        <ele>160.0</ele>
        <time>2024-08-27T11:32:15.017156Z</time>
      </trkpt>
      <trkpt lat="43.388013" lon="-5.821203">
        <ele>160.0</ele>
        <time>2024-08-27T11:32:17.552198Z</time>
      </trkpt>
      <trkpt lat="43.388079" lon="-5.821313">
        <ele>160.1</ele>
        <time>2024-08-27T11:32:24.605896Z</time>
      </trkpt>
      <trkpt lat="43.388126" lon="-5.821297">
        <ele>160.0</ele>
        <time>2024-08-27T11:32:27.900367Z</time>
      </trkpt>
      <trkpt lat="43.388169" lon="-5.821259">
        <ele>160.0</ele>
        <time>2024-08-27T11:32:31.377666Z</time>
      </trkpt>
      <trkpt lat="43.388267" lon="-5.821431">
        <ele>160.0</ele>
        <time>2024-08-27T11:32:42.185238Z</time>
      </trkpt>
      <trkpt lat="43.388383" lon="-5.821665">
        <ele>160.0</ele>
        <time>2024-08-27T11:32:56.191923Z</time>
      </trkpt>
      <trkpt lat="43.388477" lon="-5.821879">
        <ele>160.0</ele>
        <time>2024-08-27T11:33:08.556708Z</time>
      </trkpt>
      <trkpt lat="43.388453" lon="-5.821929">
        <ele>161.0</ele>
        <time>2024-08-27T11:33:11.519763Z</time>
      </trkpt>
      <trkpt lat="43.38846" lon="-5.822017">
        <ele>161.0</ele>
        <time>2024-08-27T11:33:15.897206Z</time>
      </trkpt>
      <trkpt lat="43.388507" lon="-5.822106">
        <ele>161.0</ele>
        <time>2024-08-27T11:33:21.337380Z</time>
      </trkpt>
      <trkpt lat="43.388621" lon="-5.822222">
        <ele>161.0</ele>
        <time>2024-08-27T11:33:30.984794Z</time>
      </trkpt>
      <trkpt lat="43.388694" lon="-5.822236">
        <ele>161.0</ele>
        <time>2024-08-27T11:33:36Z</time>
      </trkpt>
      <trkpt lat="43.388796" lon="-5.822134">
        <ele>161.0</ele>
        <time>2024-08-27T11:33:45Z</time>
      </trkpt>
      <trkpt lat="43.389075" lon="-5.821882">
        <ele>161.0</ele>
        <time>2024-08-27T11:34:08Z</time>
      </trkpt>
      <trkpt lat="43.389299" lon="-5.821666">
        <ele>160.0</ele>
        <time>2024-08-27T11:34:26Z</time>
      </trkpt>
      <trkpt lat="43.389591" lon="-5.821391">
        <ele>160.0</ele>
        <time>2024-08-27T11:34:49Z</time>
      </trkpt>
      <trkpt lat="43.389763" lon="-5.821218">
        <ele>159.0</ele>
        <time>2024-08-27T11:35:02Z</time>
      </trkpt>
      <trkpt lat="43.389945" lon="-5.82105">
        <ele>159.0</ele>
        <time>2024-08-27T11:35:16Z</time>
      </trkpt>
      <trkpt lat="43.390266" lon="-5.820749">
        <ele>158.8</ele>
        <time>2024-08-27T11:35:41Z</time>
      </trkpt>
      <trkpt lat="43.390515" lon="-5.820522">
        <ele>158.0</ele>
        <time>2024-08-27T11:36:02Z</time>
      </trkpt>
      <trkpt lat="43.3908" lon="-5.820249">
        <ele>158.0</ele>
        <time>2024-08-27T11:36:24.333447Z</time>
      </trkpt>
      <trkpt lat="43.39117" lon="-5.819907">
        <ele>158.0</ele>
        <time>2024-08-27T11:36:53Z</time>
      </trkpt>
      <trkpt lat="43.390968" lon="-5.8195">
        <ele>157.0</ele>
        <time>2024-08-27T11:37:17Z</time>
      </trkpt>
      <trkpt lat="43.391052" lon="-5.819441">
        <ele>157.0</ele>
        <time>2024-08-27T11:37:23Z</time>
      </trkpt>
      <trkpt lat="43.391187" lon="-5.819364">
        <ele>157.0</ele>
        <time>2024-08-27T11:37:33Z</time>
      </trkpt>
      <trkpt lat="43.391351" lon="-5.819226">
        <ele>157.0</ele>
        <time>2024-08-27T11:37:44Z</time>
      </trkpt>
      <trkpt lat="43.391517" lon="-5.819086">
        <ele>157.0</ele>
        <time>2024-08-27T11:37:57Z</time>
      </trkpt>
      <trkpt lat="43.391687" lon="-5.818936">
        <ele>157.0</ele>
        <time>2024-08-27T11:38:11Z</time>
      </trkpt>
      <trkpt lat="43.391851" lon="-5.818782">
        <ele>157.0</ele>
        <time>2024-08-27T11:38:24Z</time>
      </trkpt>
      <trkpt lat="43.392021" lon="-5.818633">
        <ele>157.0</ele>
        <time>2024-08-27T11:38:37Z</time>
      </trkpt>
      <trkpt lat="43.392174" lon="-5.818497">
        <ele>157.0</ele>
        <time>2024-08-27T11:38:49Z</time>
      </trkpt>
      <trkpt lat="43.392369" lon="-5.818332">
        <ele>158.0</ele>
        <time>2024-08-27T11:39:04Z</time>
      </trkpt>
      <trkpt lat="43.392508" lon="-5.818229">
        <ele>158.0</ele>
        <time>2024-08-27T11:39:13Z</time>
      </trkpt>
      <trkpt lat="43.392688" lon="-5.818075">
        <ele>158.0</ele>
        <time>2024-08-27T11:39:27Z</time>
      </trkpt>
      <trkpt lat="43.392886" lon="-5.81787">
        <ele>158.0</ele>
        <time>2024-08-27T11:39:42Z</time>
      </trkpt>
      <trkpt lat="43.393124" lon="-5.817678">
        <ele>158.0</ele>
        <time>2024-08-27T11:40:01Z</time>
      </trkpt>
      <trkpt lat="43.393217" lon="-5.817614">
        <ele>158.0</ele>
        <time>2024-08-27T11:40:08Z</time>
      </trkpt>
      <trkpt lat="43.393403" lon="-5.817677">
        <ele>158.0</ele>
        <time>2024-08-27T11:40:22Z</time>
      </trkpt>
      <trkpt lat="43.393479" lon="-5.817805">
        <ele>158.0</ele>
        <time>2024-08-27T11:40:29Z</time>
      </trkpt>
      <trkpt lat="43.393502" lon="-5.817971">
        <ele>158.0</ele>
        <time>2024-08-27T11:40:38Z</time>
      </trkpt>
      <trkpt lat="43.393516" lon="-5.818143">
        <ele>158.0</ele>
        <time>2024-08-27T11:40:46.161713Z</time>
      </trkpt>
      <trkpt lat="43.393486" lon="-5.818296">
        <ele>158.0</ele>
        <time>2024-08-27T11:40:53.634776Z</time>
      </trkpt>
      <trkpt lat="43.393444" lon="-5.818486">
        <ele>158.0</ele>
        <time>2024-08-27T11:41:03Z</time>
      </trkpt>
      <trkpt lat="43.393393" lon="-5.818711">
        <ele>157.0</ele>
        <time>2024-08-27T11:41:13Z</time>
      </trkpt>
      <trkpt lat="43.393361" lon="-5.818913">
        <ele>157.0</ele>
        <time>2024-08-27T11:41:22.759359Z</time>
      </trkpt>
      <trkpt lat="43.393346" lon="-5.819126">
        <ele>157.0</ele>
        <time>2024-08-27T11:41:32.861118Z</time>
      </trkpt>
      <trkpt lat="43.393353" lon="-5.819368">
        <ele>157.0</ele>
        <time>2024-08-27T11:41:44.293761Z</time>
      </trkpt>
      <trkpt lat="43.393369" lon="-5.819524">
        <ele>157.0</ele>
        <time>2024-08-27T11:41:51.730721Z</time>
      </trkpt>
      <trkpt lat="43.393407" lon="-5.819655">
        <ele>156.2</ele>
        <time>2024-08-27T11:41:58.389076Z</time>
      </trkpt>
      <trkpt lat="43.393446" lon="-5.819766">
        <ele>156.0</ele>
        <time>2024-08-27T11:42:04.209180Z</time>
      </trkpt>
      <trkpt lat="43.393501" lon="-5.819889">
        <ele>156.0</ele>
        <time>2024-08-27T11:42:11.026629Z</time>
      </trkpt>
      <trkpt lat="43.393565" lon="-5.820037">
        <ele>156.1</ele>
        <time>2024-08-27T11:42:19.156445Z</time>
      </trkpt>
      <trkpt lat="43.393653" lon="-5.820137">
        <ele>156.0</ele>
        <time>2024-08-27T11:42:26.570152Z</time>
      </trkpt>
      <trkpt lat="43.393776" lon="-5.820267">
        <ele>156.0</ele>
        <time>2024-08-27T11:42:36.645035Z</time>
      </trkpt>
      <trkpt lat="43.39386" lon="-5.820336">
        <ele>156.0</ele>
        <time>2024-08-27T11:42:43Z</time>
      </trkpt>
      <trkpt lat="43.393983" lon="-5.820387">
        <ele>156.0</ele>
        <time>2024-08-27T11:42:51Z</time>
      </trkpt>
      <trkpt lat="43.394117" lon="-5.820431">
        <ele>156.0</ele>
        <time>2024-08-27T11:43:00Z</time>
      </trkpt>
      <trkpt lat="43.394255" lon="-5.820454">
        <ele>156.0</ele>
        <time>2024-08-27T11:43:09Z</time>
      </trkpt>
      <trkpt lat="43.394402" lon="-5.820464">
        <ele>156.0</ele>
        <time>2024-08-27T11:43:19Z</time>
      </trkpt>
      <trkpt lat="43.394549" lon="-5.820474">
        <ele>156.0</ele>
        <time>2024-08-27T11:43:29Z</time>
      </trkpt>
      <trkpt lat="43.394712" lon="-5.82049">
        <ele>156.0</ele>
        <time>2024-08-27T11:43:38Z</time>
      </trkpt>
      <trkpt lat="43.394879" lon="-5.820509">
        <ele>156.0</ele>
        <time>2024-08-27T11:43:50Z</time>
      </trkpt>
      <trkpt lat="43.395048" lon="-5.820525">
        <ele>156.0</ele>
        <time>2024-08-27T11:44:01Z</time>
      </trkpt>
      <trkpt lat="43.395217" lon="-5.820542">
        <ele>156.0</ele>
        <time>2024-08-27T11:44:11Z</time>
      </trkpt>
      <trkpt lat="43.395386" lon="-5.820558">
        <ele>156.0</ele>
        <time>2024-08-27T11:44:21Z</time>
      </trkpt>
      <trkpt lat="43.395555" lon="-5.820574">
        <ele>156.0</ele>
        <time>2024-08-27T11:44:32Z</time>
      </trkpt>
      <trkpt lat="43.395724" lon="-5.820591">
        <ele>156.0</ele>
        <time>2024-08-27T11:44:44Z</time>
      </trkpt>
      <trkpt lat="43.395892" lon="-5.820607">
        <ele>156.0</ele>
        <time>2024-08-27T11:44:55Z</time>
      </trkpt>
      <trkpt lat="43.396061" lon="-5.820623">
        <ele>156.0</ele>
        <time>2024-08-27T11:45:07Z</time>
      </trkpt>
      <trkpt lat="43.39623" lon="-5.820639">
        <ele>156.0</ele>
        <time>2024-08-27T11:45:18Z</time>
      </trkpt>
      <trkpt lat="43.396399" lon="-5.820656">
        <ele>156.0</ele>
        <time>2024-08-27T11:45:29Z</time>
      </trkpt>
      <trkpt lat="43.396568" lon="-5.820672">
        <ele>156.0</ele>
        <time>2024-08-27T11:45:39Z</time>
      </trkpt>
      <trkpt lat="43.396736" lon="-5.820688">
        <ele>156.0</ele>
        <time>2024-08-27T11:45:49Z</time>
      </trkpt>
      <trkpt lat="43.396905" lon="-5.820704">
        <ele>156.0</ele>
        <time>2024-08-27T11:45:59Z</time>
      </trkpt>
      <trkpt lat="43.397074" lon="-5.820721">
        <ele>156.0</ele>
        <time>2024-08-27T11:46:10Z</time>
      </trkpt>
      <trkpt lat="43.397243" lon="-5.820737">
        <ele>156.0</ele>
        <time>2024-08-27T11:46:22Z</time>
      </trkpt>
      <trkpt lat="43.3974" lon="-5.820753">
        <ele>156.0</ele>
        <time>2024-08-27T11:46:33Z</time>
      </trkpt>
      <trkpt lat="43.397557" lon="-5.820792">
        <ele>156.0</ele>
        <time>2024-08-27T11:46:42Z</time>
      </trkpt>
      <trkpt lat="43.397694" lon="-5.820894">
        <ele>156.0</ele>
        <time>2024-08-27T11:46:51.494226Z</time>
      </trkpt>
      <trkpt lat="43.39778" lon="-5.820981">
        <ele>156.0</ele>
        <time>2024-08-27T11:46:58Z</time>
      </trkpt>
      <trkpt lat="43.397824" lon="-5.82107">
        <ele>156.0</ele>
        <time>2024-08-27T11:47:03Z</time>
      </trkpt>
      <trkpt lat="43.39806" lon="-5.821338">
        <ele>156.0</ele>
        <time>2024-08-27T11:47:24Z</time>
      </trkpt>
      <trkpt lat="43.398127" lon="-5.82141">
        <ele>156.0</ele>
        <time>2024-08-27T11:47:31Z</time>
      </trkpt>
      <trkpt lat="43.398207" lon="-5.821468">
        <ele>156.0</ele>
        <time>2024-08-27T11:47:36.374457Z</time>
      </trkpt>
      <trkpt lat="43.398318" lon="-5.821555">
        <ele>156.0</ele>
        <time>2024-08-27T11:47:43.966945Z</time>
      </trkpt>
      <trkpt lat="43.398437" lon="-5.821607">
        <ele>156.0</ele>
        <time>2024-08-27T11:47:51.388022Z</time>
      </trkpt>
      <trkpt lat="43.398575" lon="-5.821635">
        <ele>156.0</ele>
        <time>2024-08-27T11:47:59.679122Z</time>
      </trkpt>
      <trkpt lat="43.398731" lon="-5.821657">
        <ele>155.0</ele>
        <time>2024-08-27T11:48:09Z</time>
      </trkpt>
      <trkpt lat="43.398888" lon="-5.821678">
        <ele>155.0</ele>
        <time>2024-08-27T11:48:19Z</time>
      </trkpt>
      <trkpt lat="43.399055" lon="-5.821678">
        <ele>155.0</ele>
        <time>2024-08-27T11:48:30Z</time>
      </trkpt>
      <trkpt lat="43.399225" lon="-5.821683">
        <ele>155.0</ele>
        <time>2024-08-27T11:48:42Z</time>
      </trkpt>
      <trkpt lat="43.399395" lon="-5.821688">
        <ele>155.0</ele>
        <time>2024-08-27T11:48:53Z</time>
      </trkpt>
      <trkpt lat="43.399559" lon="-5.821704">
        <ele>155.0</ele>
        <time>2024-08-27T11:49:07Z</time>
      </trkpt>
      <trkpt lat="43.399737" lon="-5.821746">
        <ele>155.0</ele>
        <time>2024-08-27T11:49:19Z</time>
      </trkpt>
      <trkpt lat="43.399858" lon="-5.821819">
        <ele>155.0</ele>
        <time>2024-08-27T11:49:26Z</time>
      </trkpt>
      <trkpt lat="43.399876" lon="-5.8219">
        <ele>155.0</ele>
        <time>2024-08-27T11:49:31Z</time>
      </trkpt>
      <trkpt lat="43.399867" lon="-5.822001">
        <ele>155.0</ele>
        <time>2024-08-27T11:49:35Z</time>
      </trkpt>
      <trkpt lat="43.399818" lon="-5.822098">
        <ele>155.0</ele>
        <time>2024-08-27T11:49:41Z</time>
      </trkpt>
      <trkpt lat="43.399757" lon="-5.822137">
        <ele>155.0</ele>
        <time>2024-08-27T11:49:46Z</time>
      </trkpt>
      <trkpt lat="43.399697" lon="-5.822179">
        <ele>155.0</ele>
        <time>2024-08-27T11:49:49Z</time>
      </trkpt>
      <trkpt lat="43.399637" lon="-5.822233">
        <ele>155.0</ele>
        <time>2024-08-27T11:49:54Z</time>
      </trkpt>
      <trkpt lat="43.399581" lon="-5.8223">
        <ele>155.0</ele>
        <time>2024-08-27T11:49:58Z</time>
      </trkpt>
      <trkpt lat="43.399522" lon="-5.822364">
        <ele>155.0</ele>
        <time>2024-08-27T11:50:03Z</time>
      </trkpt>
      <trkpt lat="43.399469" lon="-5.822431">
        <ele>155.0</ele>
        <time>2024-08-27T11:50:08Z</time>
      </trkpt>
      <trkpt lat="43.39942" lon="-5.822502">
        <ele>155.0</ele>
        <time>2024-08-27T11:50:13Z</time>
      </trkpt>
      <trkpt lat="43.399374" lon="-5.822581">
        <ele>155.0</ele>
        <time>2024-08-27T11:50:19Z</time>
      </trkpt>
      <trkpt lat="43.399328" lon="-5.822661">
        <ele>155.0</ele>
        <time>2024-08-27T11:50:23Z</time>
      </trkpt>
      <trkpt lat="43.399286" lon="-5.822754">
        <ele>155.0</ele>
        <time>2024-08-27T11:50:29Z</time>
      </trkpt>
      <trkpt lat="43.399245" lon="-5.822847">
        <ele>155.0</ele>
        <time>2024-08-27T11:50:35Z</time>
      </trkpt>
      <trkpt lat="43.399204" lon="-5.82294">
        <ele>155.2</ele>
        <time>2024-08-27T11:50:39Z</time>
      </trkpt>
      <trkpt lat="43.399163" lon="-5.823046">
        <ele>156.0</ele>
        <time>2024-08-27T11:50:45Z</time>
      </trkpt>
      <trkpt lat="43.399154" lon="-5.823114">
        <ele>156.0</ele>
        <time>2024-08-27T11:50:48Z</time>
      </trkpt>
      <trkpt lat="43.399151" lon="-5.823173">
        <ele>156.0</ele>
        <time>2024-08-27T11:50:50Z</time>
      </trkpt>
      <trkpt lat="43.399158" lon="-5.823231">
        <ele>156.0</ele>
        <time>2024-08-27T11:50:53Z</time>
      </trkpt>
      <trkpt lat="43.399172" lon="-5.823294">
        <ele>156.4</ele>
        <time>2024-08-27T11:50:56Z</time>
      </trkpt>
      <trkpt lat="43.399199" lon="-5.823374">
        <ele>157.0</ele>
        <time>2024-08-27T11:51:01Z</time>
      </trkpt>
      <trkpt lat="43.399234" lon="-5.823468">
        <ele>157.0</ele>
        <time>2024-08-27T11:51:06Z</time>
      </trkpt>
      <trkpt lat="43.399279" lon="-5.823608">
        <ele>157.0</ele>
        <time>2024-08-27T11:51:13Z</time>
      </trkpt>
      <trkpt lat="43.399327" lon="-5.823757">
        <ele>157.0</ele>
        <time>2024-08-27T11:51:21Z</time>
      </trkpt>
      <trkpt lat="43.39938" lon="-5.823924">
        <ele>157.2</ele>
        <time>2024-08-27T11:51:29Z</time>
      </trkpt>
      <trkpt lat="43.399442" lon="-5.824114">
        <ele>157.0</ele>
        <time>2024-08-27T11:51:37Z</time>
      </trkpt>
      <trkpt lat="43.399504" lon="-5.82431">
        <ele>157.0</ele>
        <time>2024-08-27T11:51:47Z</time>
      </trkpt>
      <trkpt lat="43.399607" lon="-5.82462">
        <ele>157.0</ele>
        <time>2024-08-27T11:52:04Z</time>
      </trkpt>
      <trkpt lat="43.399714" lon="-5.824901">
        <ele>157.0</ele>
        <time>2024-08-27T11:52:19Z</time>
      </trkpt>
      <trkpt lat="43.399788" lon="-5.825064">
        <ele>157.0</ele>
        <time>2024-08-27T11:52:27Z</time>
      </trkpt>
      <trkpt lat="43.399906" lon="-5.825238">
        <ele>157.0</ele>
        <time>2024-08-27T11:52:39Z</time>
      </trkpt>
      <trkpt lat="43.400039" lon="-5.825425">
        <ele>157.0</ele>
        <time>2024-08-27T11:52:52Z</time>
      </trkpt>
      <trkpt lat="43.400187" lon="-5.825633">
        <ele>157.0</ele>
        <time>2024-08-27T11:54:36Z</time>
      </trkpt>
      <trkpt lat="43.400338" lon="-5.825848">
        <ele>158.0</ele>
        <time>2024-08-27T11:54:22Z</time>
      </trkpt>
      <trkpt lat="43.400471" lon="-5.826069">
        <ele>159.0</ele>
        <time>2024-08-27T11:54:18Z</time>
      </trkpt>
      <trkpt lat="43.400572" lon="-5.826235">
        <ele>160.0</ele>
        <time>2024-08-27T11:54:09.056034Z</time>
      </trkpt>
      <trkpt lat="43.400688" lon="-5.826347">
        <ele>160.3</ele>
        <time>2024-08-27T11:54:01Z</time>
      </trkpt>
      <trkpt lat="43.400735" lon="-5.826393">
        <ele>161.0</ele>
        <time>2024-08-27T11:54:05Z</time>
      </trkpt>
      <trkpt lat="43.400734" lon="-5.826416">
        <ele>161.0</ele>
        <time>2024-08-27T11:54:06Z</time>
      </trkpt>
      <trkpt lat="43.400735" lon="-5.826444">
        <ele>162.0</ele>
        <time>2024-08-27T11:54:07Z</time>
      </trkpt>
      <trkpt lat="43.400715" lon="-5.826485">
        <ele>162.0</ele>
        <time>2024-08-27T11:54:09Z</time>
      </trkpt>
      <trkpt lat="43.400648" lon="-5.826646">
        <ele>163.0</ele>
        <time>2024-08-27T11:54:18Z</time>
      </trkpt>
      <trkpt lat="43.400627" lon="-5.826685">
        <ele>163.0</ele>
        <time>2024-08-27T11:54:21Z</time>
      </trkpt>
      <trkpt lat="43.400608" lon="-5.826714">
        <ele>163.0</ele>
        <time>2024-08-27T11:54:22Z</time>
      </trkpt>
      <trkpt lat="43.400594" lon="-5.82672">
        <ele>163.0</ele>
        <time>2024-08-27T11:54:23Z</time>
      </trkpt>
      <trkpt lat="43.400478" lon="-5.826599">
        <ele>164.0</ele>
        <time>2024-08-27T11:54:32Z</time>
      </trkpt>
      <trkpt lat="43.400347" lon="-5.826477">
        <ele>164.0</ele>
        <time>2024-08-27T11:54:42Z</time>
      </trkpt>
      <trkpt lat="43.400219" lon="-5.82638">
        <ele>164.7</ele>
        <time>2024-08-27T11:54:51Z</time>
      </trkpt>
      <trkpt lat="43.40009" lon="-5.826281">
        <ele>165.0</ele>
        <time>2024-08-27T11:55:00Z</time>
      </trkpt>
      <trkpt lat="43.399929" lon="-5.826176">
        <ele>165.0</ele>
        <time>2024-08-27T11:55:11Z</time>
      </trkpt>
      <trkpt lat="43.399765" lon="-5.826065">
        <ele>165.0</ele>
        <time>2024-08-27T11:55:22Z</time>
      </trkpt>
      <trkpt lat="43.3996" lon="-5.82595">
        <ele>165.0</ele>
        <time>2024-08-27T11:55:34Z</time>
      </trkpt>
      <trkpt lat="43.399434" lon="-5.825835">
        <ele>165.0</ele>
        <time>2024-08-27T11:55:46Z</time>
      </trkpt>
      <trkpt lat="43.399263" lon="-5.825719">
        <ele>165.0</ele>
        <time>2024-08-27T11:55:58Z</time>
      </trkpt>
      <trkpt lat="43.399087" lon="-5.825595">
        <ele>165.0</ele>
        <time>2024-08-27T11:56:11Z</time>
      </trkpt>
      <trkpt lat="43.398893" lon="-5.825459">
        <ele>165.0</ele>
        <time>2024-08-27T11:56:29Z</time>
      </trkpt>
      <trkpt lat="43.398696" lon="-5.825324">
        <ele>165.0</ele>
        <time>2024-08-27T11:56:45Z</time>
      </trkpt>
      <trkpt lat="43.398499" lon="-5.82519">
        <ele>166.0</ele>
        <time>2024-08-27T11:57:01Z</time>
      </trkpt>
      <trkpt lat="43.398293" lon="-5.825047">
        <ele>167.0</ele>
        <time>2024-08-27T11:57:16Z</time>
      </trkpt>
      <trkpt lat="43.39824" lon="-5.825009">
        <ele>167.0</ele>
        <time>2024-08-27T11:57:21Z</time>
      </trkpt>
      <trkpt lat="43.39818" lon="-5.824988">
        <ele>168.0</ele>
        <time>2024-08-27T11:57:25Z</time>
      </trkpt>
      <trkpt lat="43.398099" lon="-5.824987">
        <ele>168.0</ele>
        <time>2024-08-27T11:57:30Z</time>
      </trkpt>
      <trkpt lat="43.397997" lon="-5.825001">
        <ele>169.0</ele>
        <time>2024-08-27T11:57:37Z</time>
      </trkpt>
      <trkpt lat="43.397888" lon="-5.825031">
        <ele>169.0</ele>
        <time>2024-08-27T11:57:45Z</time>
      </trkpt>
      <trkpt lat="43.397769" lon="-5.825074">
        <ele>170.0</ele>
        <time>2024-08-27T11:58:08Z</time>
      </trkpt>
      <trkpt lat="43.397652" lon="-5.825133">
        <ele>170.0</ele>
        <time>2024-08-27T11:58:17Z</time>
      </trkpt>
      <trkpt lat="43.397534" lon="-5.825203">
        <ele>170.9</ele>
        <time>2024-08-27T11:58:26Z</time>
      </trkpt>
      <trkpt lat="43.397405" lon="-5.825275">
        <ele>171.0</ele>
        <time>2024-08-27T11:58:36Z</time>
      </trkpt>
      <trkpt lat="43.39727" lon="-5.82535">
        <ele>171.7</ele>
        <time>2024-08-27T11:58:47Z</time>
      </trkpt>
      <trkpt lat="43.39722" lon="-5.825376">
        <ele>172.0</ele>
        <time>2024-08-27T11:58:51Z</time>
      </trkpt>
      <trkpt lat="43.397162" lon="-5.825396">
        <ele>172.0</ele>
        <time>2024-08-27T11:58:55Z</time>
      </trkpt>
      <trkpt lat="43.397073" lon="-5.825418">
        <ele>172.0</ele>
        <time>2024-08-27T11:59:01Z</time>
      </trkpt>
      <trkpt lat="43.396994" lon="-5.825434">
        <ele>172.0</ele>
        <time>2024-08-27T11:59:07Z</time>
      </trkpt>
      <trkpt lat="43.396897" lon="-5.825441">
        <ele>173.0</ele>
        <time>2024-08-27T11:59:14Z</time>
      </trkpt>
      <trkpt lat="43.396787" lon="-5.825442">
        <ele>173.2</ele>
        <time>2024-08-27T11:59:23Z</time>
      </trkpt>
      <trkpt lat="43.396659" lon="-5.825447">
        <ele>174.0</ele>
        <time>2024-08-27T11:59:32Z</time>
      </trkpt>
      <trkpt lat="43.396523" lon="-5.825456">
        <ele>175.0</ele>
        <time>2024-08-27T11:59:41Z</time>
      </trkpt>
      <trkpt lat="43.396379" lon="-5.825463">
        <ele>176.0</ele>
        <time>2024-08-27T11:59:50Z</time>
      </trkpt>
      <trkpt lat="43.396225" lon="-5.825458">
        <ele>177.3</ele>
        <time>2024-08-27T12:00:00Z</time>
      </trkpt>
      <trkpt lat="43.396066" lon="-5.825467">
        <ele>178.0</ele>
        <time>2024-08-27T12:00:09Z</time>
      </trkpt>
      <trkpt lat="43.395898" lon="-5.825475">
        <ele>179.0</ele>
        <time>2024-08-27T12:00:19Z</time>
      </trkpt>
      <trkpt lat="43.395715" lon="-5.825475">
        <ele>180.0</ele>
        <time>2024-08-27T12:00:31Z</time>
      </trkpt>
      <trkpt lat="43.395519" lon="-5.825468">
        <ele>181.0</ele>
        <time>2024-08-27T12:00:44Z</time>
      </trkpt>
      <trkpt lat="43.395321" lon="-5.825447">
        <ele>181.0</ele>
        <time>2024-08-27T12:00:56Z</time>
      </trkpt>
      <trkpt lat="43.395122" lon="-5.825426">
        <ele>180.8</ele>
        <time>2024-08-27T12:01:10Z</time>
      </trkpt>
      <trkpt lat="43.394921" lon="-5.825407">
        <ele>181.0</ele>
        <time>2024-08-27T12:01:24Z</time>
      </trkpt>
      <trkpt lat="43.39471" lon="-5.825377">
        <ele>181.0</ele>
        <time>2024-08-27T12:01:40Z</time>
      </trkpt>
      <trkpt lat="43.394603" lon="-5.825367">
        <ele>181.0</ele>
        <time>2024-08-27T12:01:48Z</time>
      </trkpt>
      <trkpt lat="43.394542" lon="-5.825383">
        <ele>181.9</ele>
        <time>2024-08-27T12:01:52Z</time>
      </trkpt>
      <trkpt lat="43.394494" lon="-5.825405">
        <ele>182.0</ele>
        <time>2024-08-27T12:01:55Z</time>
      </trkpt>
      <trkpt lat="43.394424" lon="-5.825457">
        <ele>182.0</ele>
        <time>2024-08-27T12:02:01Z</time>
      </trkpt>
      <trkpt lat="43.394322" lon="-5.825516">
        <ele>183.0</ele>
        <time>2024-08-27T12:02:08Z</time>
      </trkpt>
      <trkpt lat="43.394239" lon="-5.825574">
        <ele>184.0</ele>
        <time>2024-08-27T12:02:14Z</time>
      </trkpt>
      <trkpt lat="43.39416" lon="-5.825643">
        <ele>185.0</ele>
        <time>2024-08-27T12:02:20Z</time>
      </trkpt>
      <trkpt lat="43.394081" lon="-5.825711">
        <ele>186.0</ele>
        <time>2024-08-27T12:02:25Z</time>
      </trkpt>
      <trkpt lat="43.393991" lon="-5.825773">
        <ele>186.0</ele>
        <time>2024-08-27T12:02:32Z</time>
      </trkpt>
      <trkpt lat="43.393901" lon="-5.825805">
        <ele>186.0</ele>
        <time>2024-08-27T12:02:39Z</time>
      </trkpt>
      <trkpt lat="43.393858" lon="-5.825813">
        <ele>186.0</ele>
        <time>2024-08-27T12:02:42Z</time>
      </trkpt>
      <trkpt lat="43.393809" lon="-5.825812">
        <ele>186.0</ele>
        <time>2024-08-27T12:02:44Z</time>
      </trkpt>
      <trkpt lat="43.393751" lon="-5.825807">
        <ele>186.0</ele>
        <time>2024-08-27T12:02:48Z</time>
      </trkpt>
      <trkpt lat="43.393689" lon="-5.825785">
        <ele>186.0</ele>
        <time>2024-08-27T12:02:52Z</time>
      </trkpt>
      <trkpt lat="43.393622" lon="-5.825748">
        <ele>186.0</ele>
        <time>2024-08-27T12:02:58Z</time>
      </trkpt>
      <trkpt lat="43.39355" lon="-5.825689">
        <ele>185.0</ele>
        <time>2024-08-27T12:03:03Z</time>
      </trkpt>
      <trkpt lat="43.393458" lon="-5.825584">
        <ele>184.0</ele>
        <time>2024-08-27T12:03:10Z</time>
      </trkpt>
      <trkpt lat="43.393327" lon="-5.825444">
        <ele>184.0</ele>
        <time>2024-08-27T12:03:20Z</time>
      </trkpt>
      <trkpt lat="43.393172" lon="-5.825262">
        <ele>183.0</ele>
        <time>2024-08-27T12:03:35Z</time>
      </trkpt>
      <trkpt lat="43.393015" lon="-5.825078">
        <ele>182.0</ele>
        <time>2024-08-27T12:03:49Z</time>
      </trkpt>
      <trkpt lat="43.392851" lon="-5.824887">
        <ele>182.0</ele>
        <time>2024-08-27T12:04:02Z</time>
      </trkpt>
      <trkpt lat="43.392751" lon="-5.824797">
        <ele>181.2</ele>
        <time>2024-08-27T12:04:11Z</time>
      </trkpt>
      <trkpt lat="43.392639" lon="-5.824698">
        <ele>181.0</ele>
        <time>2024-08-27T12:04:19Z</time>
      </trkpt>
      <trkpt lat="43.39258" lon="-5.824655">
        <ele>181.9</ele>
        <time>2024-08-27T12:04:23Z</time>
      </trkpt>
      <trkpt lat="43.392528" lon="-5.824645">
        <ele>182.0</ele>
        <time>2024-08-27T12:04:26Z</time>
      </trkpt>
      <trkpt lat="43.392464" lon="-5.824646">
        <ele>182.0</ele>
        <time>2024-08-27T12:04:31Z</time>
      </trkpt>
      <trkpt lat="43.392391" lon="-5.824662">
        <ele>181.4</ele>
        <time>2024-08-27T12:04:35Z</time>
      </trkpt>
      <trkpt lat="43.392342" lon="-5.824686">
        <ele>181.0</ele>
        <time>2024-08-27T12:04:38Z</time>
      </trkpt>
      <trkpt lat="43.392232" lon="-5.824729">
        <ele>180.7</ele>
        <time>2024-08-27T12:04:46Z</time>
      </trkpt>
      <trkpt lat="43.392194" lon="-5.824748">
        <ele>180.4</ele>
        <time>2024-08-27T12:04:50Z</time>
      </trkpt>
      <trkpt lat="43.39216" lon="-5.824767">
        <ele>180.0</ele>
        <time>2024-08-27T12:04:52Z</time>
      </trkpt>
      <trkpt lat="43.392121" lon="-5.82479">
        <ele>180.0</ele>
        <time>2024-08-27T12:04:55Z</time>
      </trkpt>
      <trkpt lat="43.392071" lon="-5.824818">
        <ele>180.0</ele>
        <time>2024-08-27T12:04:59Z</time>
      </trkpt>
      <trkpt lat="43.392006" lon="-5.82485">
        <ele>179.0</ele>
        <time>2024-08-27T12:05:03Z</time>
      </trkpt>
      <trkpt lat="43.391934" lon="-5.824887">
        <ele>179.0</ele>
        <time>2024-08-27T12:05:08Z</time>
      </trkpt>
      <trkpt lat="43.391857" lon="-5.824927">
        <ele>178.0</ele>
        <time>2024-08-27T12:05:13Z</time>
      </trkpt>
      <trkpt lat="43.391767" lon="-5.824975">
        <ele>177.0</ele>
        <time>2024-08-27T12:05:19Z</time>
      </trkpt>
      <trkpt lat="43.391695" lon="-5.825001">
        <ele>176.0</ele>
        <time>2024-08-27T12:05:23Z</time>
      </trkpt>
      <trkpt lat="43.39161" lon="-5.82504">
        <ele>175.7</ele>
        <time>2024-08-27T12:05:29.017171Z</time>
      </trkpt>
      <trkpt lat="43.391524" lon="-5.825083">
        <ele>174.4</ele>
        <time>2024-08-27T12:05:35.161981Z</time>
      </trkpt>
      <trkpt lat="43.391491" lon="-5.825121">
        <ele>175.0</ele>
        <time>2024-08-27T12:05:38.051648Z</time>
      </trkpt>
      <trkpt lat="43.391399" lon="-5.825166">
        <ele>174.0</ele>
        <time>2024-08-27T12:05:44.608662Z</time>
      </trkpt>
      <trkpt lat="43.391298" lon="-5.825222">
        <ele>173.0</ele>
        <time>2024-08-27T12:05:51.921255Z</time>
      </trkpt>
      <trkpt lat="43.391191" lon="-5.825278">
        <ele>172.0</ele>
        <time>2024-08-27T12:05:59.609065Z</time>
      </trkpt>
      <trkpt lat="43.391018" lon="-5.825357">
        <ele>170.0</ele>
        <time>2024-08-27T12:06:11.849991Z</time>
      </trkpt>
      <trkpt lat="43.390846" lon="-5.825436">
        <ele>169.0</ele>
        <time>2024-08-27T12:06:24.027200Z</time>
      </trkpt>
      <trkpt lat="43.390766" lon="-5.825471">
        <ele>169.0</ele>
        <time>2024-08-27T12:06:29.664649Z</time>
      </trkpt>
      <trkpt lat="43.39071" lon="-5.825489">
        <ele>168.4</ele>
        <time>2024-08-27T12:06:33.526605Z</time>
      </trkpt>
      <trkpt lat="43.390647" lon="-5.825506">
        <ele>168.0</ele>
        <time>2024-08-27T12:06:37.837998Z</time>
      </trkpt>
      <trkpt lat="43.390587" lon="-5.825505">
        <ele>168.0</ele>
        <time>2024-08-27T12:06:41.867646Z</time>
      </trkpt>
      <trkpt lat="43.390508" lon="-5.825499">
        <ele>168.0</ele>
        <time>2024-08-27T12:06:47.181034Z</time>
      </trkpt>
      <trkpt lat="43.390398" lon="-5.825483">
        <ele>168.0</ele>
        <time>2024-08-27T12:06:54.609332Z</time>
      </trkpt>
      <trkpt lat="43.390273" lon="-5.825472">
        <ele>168.0</ele>
        <time>2024-08-27T12:07:03.020963Z</time>
      </trkpt>
      <trkpt lat="43.390145" lon="-5.825463">
        <ele>167.0</ele>
        <time>2024-08-27T12:07:11.628129Z</time>
      </trkpt>
      <trkpt lat="43.39001" lon="-5.825445">
        <ele>167.0</ele>
        <time>2024-08-27T12:07:20.736629Z</time>
      </trkpt>
      <trkpt lat="43.389812" lon="-5.825411">
        <ele>167.0</ele>
        <time>2024-08-27T12:07:34.136619Z</time>
      </trkpt>
      <trkpt lat="43.389608" lon="-5.825373">
        <ele>167.0</ele>
        <time>2024-08-27T12:07:47.961364Z</time>
      </trkpt>
      <trkpt lat="43.389398" lon="-5.825327">
        <ele>167.0</ele>
        <time>2024-08-27T12:08:02.241654Z</time>
      </trkpt>
      <trkpt lat="43.389094" lon="-5.82525">
        <ele>167.0</ele>
        <time>2024-08-27T12:08:23Z</time>
      </trkpt>
      <trkpt lat="43.388861" lon="-5.825327">
        <ele>167.0</ele>
        <time>2024-08-27T12:08:40Z</time>
      </trkpt>
      <trkpt lat="43.388749" lon="-5.825318">
        <ele>167.0</ele>
        <time>2024-08-27T12:08:48.550587Z</time>
      </trkpt>
      <trkpt lat="43.388674" lon="-5.825339">
        <ele>167.1</ele>
        <time>2024-08-27T12:08:54.383822Z</time>
      </trkpt>
      <trkpt lat="43.388591" lon="-5.825374">
        <ele>168.0</ele>
        <time>2024-08-27T12:09:01Z</time>
      </trkpt>
      <trkpt lat="43.388453" lon="-5.825491">
        <ele>168.0</ele>
        <time>2024-08-27T12:09:12Z</time>
      </trkpt>
      <trkpt lat="43.388267" lon="-5.825661">
        <ele>169.0</ele>
        <time>2024-08-27T12:09:27Z</time>
      </trkpt>
      <trkpt lat="43.388239" lon="-5.825754">
        <ele>170.0</ele>
        <time>2024-08-27T12:09:33Z</time>
      </trkpt>
      <trkpt lat="43.388123" lon="-5.825876">
        <ele>170.3</ele>
        <time>2024-08-27T12:09:42.602966Z</time>
      </trkpt>
      <trkpt lat="43.387894" lon="-5.826097">
        <ele>172.0</ele>
        <time>2024-08-27T12:10:01Z</time>
      </trkpt>
      <trkpt lat="43.387631" lon="-5.826338">
        <ele>173.0</ele>
        <time>2024-08-27T12:10:24.332965Z</time>
      </trkpt>
      <trkpt lat="43.387367" lon="-5.826579">
        <ele>174.0</ele>
        <time>2024-08-27T12:10:47.727459Z</time>
      </trkpt>
      <trkpt lat="43.387099" lon="-5.826834">
        <ele>176.0</ele>
        <time>2024-08-27T12:11:11.787902Z</time>
      </trkpt>
      <trkpt lat="43.386831" lon="-5.82709">
        <ele>177.1</ele>
        <time>2024-08-27T12:11:35.878942Z</time>
      </trkpt>
      <trkpt lat="43.386563" lon="-5.827345">
        <ele>179.0</ele>
        <time>2024-08-27T12:11:59.939454Z</time>
      </trkpt>
      <trkpt lat="43.386295" lon="-5.8276">
        <ele>180.0</ele>
        <time>2024-08-27T12:12:24Z</time>
      </trkpt>
      <trkpt lat="43.386237" lon="-5.827649">
        <ele>180.3</ele>
        <time>2024-08-27T12:12:29Z</time>
      </trkpt>
      <trkpt lat="43.386122" lon="-5.827482">
        <ele>180.0</ele>
        <time>2024-08-27T12:12:41.283111Z</time>
      </trkpt>
      <trkpt lat="43.386067" lon="-5.827526">
        <ele>181.0</ele>
        <time>2024-08-27T12:12:45.956966Z</time>
      </trkpt>
      <trkpt lat="43.386008" lon="-5.827533">
        <ele>181.0</ele>
        <time>2024-08-27T12:12:50.307494Z</time>
      </trkpt>
      <trkpt lat="43.385962" lon="-5.827529">
        <ele>181.0</ele>
        <time>2024-08-27T12:12:53.693634Z</time>
      </trkpt>
      <trkpt lat="43.385932" lon="-5.827527">
        <ele>181.0</ele>
        <time>2024-08-27T12:12:55.900175Z</time>
      </trkpt>
      <trkpt lat="43.385907" lon="-5.827509">
        <ele>181.0</ele>
        <time>2024-08-27T12:12:57.973043Z</time>
      </trkpt>
      <trkpt lat="43.385885" lon="-5.827496">
        <ele>181.0</ele>
        <time>2024-08-27T12:12:59.732007Z</time>
      </trkpt>
      <trkpt lat="43.38585" lon="-5.82746">
        <ele>181.0</ele>
        <time>2024-08-27T12:13:02.942270Z</time>
      </trkpt>
      <trkpt lat="43.385802" lon="-5.827372">
        <ele>181.0</ele>
        <time>2024-08-27T12:13:08.816756Z</time>
      </trkpt>
      <trkpt lat="43.385722" lon="-5.827219">
        <ele>181.0</ele>
        <time>2024-08-27T12:13:18.880061Z</time>
      </trkpt>
      <trkpt lat="43.385632" lon="-5.827028">
        <ele>180.0</ele>
        <time>2024-08-27T12:13:31.033574Z</time>
      </trkpt>
      <trkpt lat="43.38552" lon="-5.826797">
        <ele>179.0</ele>
        <time>2024-08-27T12:13:45.859586Z</time>
      </trkpt>
      <trkpt lat="43.385442" lon="-5.826683">
        <ele>179.0</ele>
        <time>2024-08-27T12:13:54.219145Z</time>
      </trkpt>
      <trkpt lat="43.385359" lon="-5.82654">
        <ele>178.0</ele>
        <time>2024-08-27T12:14:03.990143Z</time>
      </trkpt>
      <trkpt lat="43.385281" lon="-5.826374">
        <ele>178.0</ele>
        <time>2024-08-27T12:14:14.544146Z</time>
      </trkpt>
      <trkpt lat="43.385195" lon="-5.826188">
        <ele>178.0</ele>
        <time>2024-08-27T12:14:26.314296Z</time>
      </trkpt>
      <trkpt lat="43.385086" lon="-5.825946">
        <ele>177.0</ele>
        <time>2024-08-27T12:14:41.515158Z</time>
      </trkpt>
      <trkpt lat="43.38502" lon="-5.825807">
        <ele>176.9</ele>
        <time>2024-08-27T12:14:50.380068Z</time>
      </trkpt>
      <trkpt lat="43.384949" lon="-5.825534">
        <ele>176.0</ele>
        <time>2024-08-27T12:15:05.861050Z</time>
      </trkpt>
      <trkpt lat="43.384846" lon="-5.825279">
        <ele>175.0</ele>
        <time>2024-08-27T12:15:21.437324Z</time>
      </trkpt>
      <trkpt lat="43.384767" lon="-5.825131">
        <ele>175.0</ele>
        <time>2024-08-27T12:15:31.241603Z</time>
      </trkpt>
      <trkpt lat="43.384767" lon="-5.825089">
        <ele>174.9</ele>
        <time>2024-08-27T12:15:33.484041Z</time>
      </trkpt>
      <trkpt lat="43.384796" lon="-5.82505">
        <ele>174.8</ele>
        <time>2024-08-27T12:15:36.463103Z</time>
      </trkpt>
      <trkpt lat="43.384865" lon="-5.82499">
        <ele>174.0</ele>
        <time>2024-08-27T12:15:42.459605Z</time>
      </trkpt>
      <trkpt lat="43.384913" lon="-5.824904">
        <ele>174.0</ele>
        <time>2024-08-27T12:15:48.249098Z</time>
      </trkpt>
      <trkpt lat="43.384926" lon="-5.824818">
        <ele>173.4</ele>
        <time>2024-08-27T12:15:52.939016Z</time>
      </trkpt>
      <trkpt lat="43.384934" lon="-5.824748">
        <ele>173.5</ele>
        <time>2024-08-27T12:15:56.722331Z</time>
      </trkpt>
      <trkpt lat="43.384936" lon="-5.82471">
        <ele>173.0</ele>
        <time>2024-08-27T12:15:58.756511Z</time>
      </trkpt>
      <trkpt lat="43.384929" lon="-5.824613">
        <ele>173.0</ele>
        <time>2024-08-27T12:16:03.960930Z</time>
      </trkpt>
      <trkpt lat="43.384899" lon="-5.824566">
        <ele>173.0</ele>
        <time>2024-08-27T12:16:07.300759Z</time>
      </trkpt>
      <trkpt lat="43.38488" lon="-5.824518">
        <ele>172.4</ele>
        <time>2024-08-27T12:16:10.219014Z</time>
      </trkpt>
      <trkpt lat="43.384891" lon="-5.82445">
        <ele>172.2</ele>
        <time>2024-08-27T12:16:13.938471Z</time>
      </trkpt>
      <trkpt lat="43.384909" lon="-5.82439">
        <ele>172.0</ele>
        <time>2024-08-27T12:16:17.404150Z</time>
      </trkpt>
      <trkpt lat="43.384806" lon="-5.824233">
        <ele>172.0</ele>
        <time>2024-08-27T12:16:28.696778Z</time>
      </trkpt>
      <trkpt lat="43.384762" lon="-5.824254">
        <ele>172.0</ele>
        <time>2024-08-27T12:16:32.118180Z</time>
      </trkpt>
      <trkpt lat="43.384669" lon="-5.824234">
        <ele>172.0</ele>
        <time>2024-08-27T12:16:39.033388Z</time>
      </trkpt>
      <trkpt lat="43.384608" lon="-5.824234">
        <ele>172.0</ele>
        <time>2024-08-27T12:16:43.514766Z</time>
      </trkpt>
      <trkpt lat="43.384551" lon="-5.82424">
        <ele>171.9</ele>
        <time>2024-08-27T12:16:47.714519Z</time>
      </trkpt>
      <trkpt lat="43.384509" lon="-5.824249">
        <ele>171.0</ele>
        <time>2024-08-27T12:16:50.837251Z</time>
      </trkpt>
      <trkpt lat="43.384474" lon="-5.824284">
        <ele>171.0</ele>
        <time>2024-08-27T12:16:54.015861Z</time>
      </trkpt>
      <trkpt lat="43.384438" lon="-5.824306">
        <ele>171.0</ele>
        <time>2024-08-27T12:16:56.909719Z</time>
      </trkpt>
      <trkpt lat="43.384416" lon="-5.824292">
        <ele>171.0</ele>
        <time>2024-08-27T12:16:58.690434Z</time>
      </trkpt>
      <trkpt lat="43.384316" lon="-5.824112">
        <ele>170.5</ele>
        <time>2024-08-27T12:17:10.787264Z</time>
      </trkpt>
      <trkpt lat="43.384331" lon="-5.824024">
        <ele>170.2</ele>
        <time>2024-08-27T12:17:15.613238Z</time>
      </trkpt>
      <trkpt lat="43.384351" lon="-5.823888">
        <ele>170.0</ele>
        <time>2024-08-27T12:17:23.021680Z</time>
      </trkpt>
      <trkpt lat="43.384435" lon="-5.823528">
        <ele>169.0</ele>
        <time>2024-08-27T12:17:43.209041Z</time>
      </trkpt>
      <trkpt lat="43.384545" lon="-5.82292">
        <ele>168.0</ele>
        <time>2024-08-27T12:18:16.661896Z</time>
      </trkpt>
      <trkpt lat="43.384583" lon="-5.822695">
        <ele>167.8</ele>
        <time>2024-08-27T12:18:28.995104Z</time>
      </trkpt>
      <trkpt lat="43.384603" lon="-5.822569">
        <ele>167.0</ele>
        <time>2024-08-27T12:18:35.881021Z</time>
      </trkpt>
      <trkpt lat="43.384586" lon="-5.822428">
        <ele>167.0</ele>
        <time>2024-08-27T12:18:43.512118Z</time>
      </trkpt>
      <trkpt lat="43.38458" lon="-5.822323">
        <ele>167.0</ele>
        <time>2024-08-27T12:18:49.135531Z</time>
      </trkpt>
      <trkpt lat="43.38459" lon="-5.822287">
        <ele>167.0</ele>
        <time>2024-08-27T12:18:51.193239Z</time>
      </trkpt>
      <trkpt lat="43.384601" lon="-5.822251">
        <ele>167.0</ele>
        <time>2024-08-27T12:18:53.278305Z</time>
      </trkpt>
      <trkpt lat="43.38462" lon="-5.822219">
        <ele>167.0</ele>
        <time>2024-08-27T12:18:55.484531Z</time>
      </trkpt>
      <trkpt lat="43.384675" lon="-5.822144">
        <ele>166.0</ele>
        <time>2024-08-27T12:19:01.173224Z</time>
      </trkpt>
      <trkpt lat="43.384689" lon="-5.822095">
        <ele>166.0</ele>
        <time>2024-08-27T12:19:03.984316Z</time>
      </trkpt>
      <trkpt lat="43.384727" lon="-5.821934">
        <ele>166.0</ele>
        <time>2024-08-27T12:19:13.022290Z</time>
      </trkpt>
      <trkpt lat="43.384718" lon="-5.821864">
        <ele>166.0</ele>
        <time>2024-08-27T12:19:16.817723Z</time>
      </trkpt>
      <trkpt lat="43.384719" lon="-5.821799">
        <ele>166.0</ele>
        <time>2024-08-27T12:19:20.288942Z</time>
      </trkpt>
      <trkpt lat="43.384735" lon="-5.821725">
        <ele>166.0</ele>
        <time>2024-08-27T12:19:24.411051Z</time>
      </trkpt>
      <trkpt lat="43.384752" lon="-5.821632">
        <ele>166.0</ele>
        <time>2024-08-27T12:19:29.531106Z</time>
      </trkpt>
      <trkpt lat="43.384852" lon="-5.821482">
        <ele>165.0</ele>
        <time>2024-08-27T12:19:40.398978Z</time>
      </trkpt>
      <trkpt lat="43.3849" lon="-5.821415">
        <ele>165.0</ele>
        <time>2024-08-27T12:19:45.422072Z</time>
      </trkpt>
      <trkpt lat="43.384929" lon="-5.821351">
        <ele>165.0</ele>
        <time>2024-08-27T12:19:49.448876Z</time>
      </trkpt>
    </trkseg>
  </trk>
</gpx>