<?xml version="1.0" encoding="UTF-8"?>
<gpx xmlns="http://www.topografix.com/GPX/1/1" xmlns:xsi="http://www.w3.org/2001/XMLSchema-instance" xsi:schemaLocation="http://www.topografix.com/GPX/1/1 http://www.topografix.com/GPX/1/1/gpx.xsd" version="1.1" creator="gpx.py -- https://github.com/tkrajina/gpxpy">
  <wpt lat="43.288413" lon="-5.985397">
    <ele>152.6</ele>
    <name>56: -22.0%</name>
    <desc>Pendiente -22.0% (umbral 20%)</desc>
  </wpt>
  <wpt lat="43.274429" lon="-5.99753">
    <ele>167.0</ele>
    <name>119: -20.1%</name>
    <desc>Pendiente -20.1% (umbral 20%)</desc>
  </wpt>
  <wpt lat="43.273916" lon="-6.001163">
    <ele>172.0</ele>
    <name>130: 28.2%</name>
    <desc>Pendiente 28.2% (umbral 20%)</desc>
  </wpt>
  <wpt lat="43.268741" lon="-6.002097">
    <ele>177.0</ele>
    <name>161: 24.0%</name>
    <desc>Pendiente 24.0% (umbral 20%)</desc>
  </wpt>
  <wpt lat="43.250836" lon="-6.011276">
    <ele>196.8</ele>
    <name>227: 20.2%</name>
    <desc>Pendiente 20.2% (umbral 20%)</desc>
  </wpt>
  <wpt lat="43.238616" lon="-6.030278">
    <ele>220.0</ele>
    <name>307: 20.8%</name>
    <desc>Pendiente 20.8% (umbral 20%)</desc>
  </wpt>
  <wpt lat="43.225113" lon="-6.038543">
    <ele>243.1</ele>
    <name>351: -21.2%</name>
    <desc>Pendiente -21.2% (umbral 20%)</desc>
  </wpt>
  <wpt lat="43.225085" lon="-6.038562">
    <ele>243.5</ele>
    <name>353: 26.4%</name>
    <desc>Pendiente 26.4% (umbral 20%)</desc>
  </wpt>
  <wpt lat="43.225073" lon="-6.038576">
    <ele>244.0</ele>
    <name>354: 28.6%</name>
    <desc>Pendiente 28.6% (umbral 20%)</desc>
  </wpt>
  <wpt lat="43.224975" lon="-6.038636">
    <ele>243.2</ele>
    <name>360: -27.0%</name>
    <desc>Pendiente -27.0% (umbral 20%)</desc>
  </wpt>
  <wpt lat="43.223412" lon="-6.03962">
    <ele>246.3</ele>
    <name>373: -24.2%</name>
    <desc>Pendiente -24.2% (umbral 20%)</desc>
  </wpt>
  <wpt lat="43.216937" lon="-6.042655">
    <ele>255.7</ele>
    <name>409: 25.4%</name>
    <desc>Pendiente 25.4% (umbral 20%)</desc>
  </wpt>
  <wpt lat="43.214786" lon="-6.043636">
    <ele>262.9</ele>
    <name>418: 24.7%</name>
    <desc>Pendiente 24.7% (umbral 20%)</desc>
  </wpt>
  <wpt lat="43.214751" lon="-6.043645">
    <ele>262.0</ele>
    <name>419: -22.7%</name>
    <desc>Pendiente -22.7% (umbral 20%)</desc>
  </wpt>
  <wpt lat="43.214525" lon="-6.046461">
    <ele>266.0</ele>
    <name>438: 24.0%</name>
    <desc>Pendiente 24.0% (umbral 20%)</desc>
  </wpt>
  <wpt lat="43.214527" lon="-6.046546">
    <ele>264.4</ele>
    <name>439: -23.2%</name>
    <desc>Pendiente -23.2% (umbral 20%)</desc>
  </wpt>
  <wpt lat="43.213579" lon="-6.051263">
    <ele>271.0</ele>
    <name>454: 20.0%</name>
    <desc>Pendiente 20.0% (umbral 20%)</desc>
  </wpt>
  <wpt lat="43.210137" lon="-6.057214">
    <ele>284.5</ele>
    <name>492: -22.0%</name>
    <desc>Pendiente -22.0% (umbral 20%)</desc>
  </wpt>
  <wpt lat="43.210106" lon="-6.057439">
    <ele>287.2</ele>
    <name>495: 24.2%</name>
    <desc>Pendiente 24.2% (umbral 20%)</desc>
  </wpt>
  <wpt lat="43.19749" lon="-6.067517">
    <ele>330.5</ele>
    <name>564: 28.3%</name>
    <desc>Pendiente 28.3% (umbral 20%)</desc>
  </wpt>
  <wpt lat="43.175094" lon="-6.088546">
    <ele>410.6</ele>
    <name>670: 20.9%</name>
    <desc>Pendiente 20.9% (umbral 20%)</desc>
  </wpt>
  <wpt lat="43.174351" lon="-6.094243">
    <ele>423.5</ele>
    <name>692: -20.6%</name>
    <desc>Pendiente -20.6% (umbral 20%)</desc>
  </wpt>
  <wpt lat="43.174304" lon="-6.094281">
    <ele>422.3</ele>
    <name>694: -25.6%</name>
    <desc>Pendiente -25.6% (umbral 20%)</desc>
  </wpt>
</gpx>