<?xml version="1.0" encoding="UTF-8"?>
<gpx xmlns="http://www.topografix.com/GPX/1/1" xmlns:xsi="http://www.w3.org/2001/XMLSchema-instance" xsi:schemaLocation="http://www.topografix.com/GPX/1/1 http://www.topografix.com/GPX/1/1/gpx.xsd" version="1.1" creator="gpx.py -- https://github.com/tkrajina/gpxpy">
  <wpt lat="43.174328" lon="-6.094261">
    <ele>423.1</ele>
    <name>23: 25.6%</name>
    <desc>Pendiente 25.6% (umbral 20%)</desc>
  </wpt>
  <wpt lat="43.174369" lon="-6.094226">
    <ele>424.0</ele>
    <name>25: 20.6%</name>
    <desc>Pendiente 20.6% (umbral 20%)</desc>
  </wpt>
  <wpt lat="43.175113" lon="-6.088522">
    <ele>410.0</ele>
    <name>47: -20.9%</name>
    <desc>Pendiente -20.9% (umbral 20%)</desc>
  </wpt>
  <wpt lat="43.197556" lon="-6.067578">
    <ele>328.0</ele>
    <name>153: -28.2%</name>
    <desc>Pendiente -28.2% (umbral 20%)</desc>
  </wpt>
  <wpt lat="43.210113" lon="-6.057322">
    <ele>284.9</ele>
    <name>222: -24.2%</name>
    <desc>Pendiente -24.2% (umbral 20%)</desc>
  </wpt>
  <wpt lat="43.210152" lon="-6.057174">
    <ele>285.3</ele>
    <name>225: 21.9%</name>
    <desc>Pendiente 21.9% (umbral 20%)</desc>
  </wpt>
  <wpt lat="43.213619" lon="-6.051235">
    <ele>270.0</ele>
    <name>263: -20.0%</name>
    <desc>Pendiente -20.0% (umbral 20%)</desc>
  </wpt>
  <wpt lat="43.214525" lon="-6.046461">
    <ele>266.0</ele>
    <name>278: 23.2%</name>
    <desc>Pendiente 23.2% (umbral 20%)</desc>
  </wpt>
  <wpt lat="43.214513" lon="-6.046429">
    <ele>265.3</ele>
    <name>279: -24.0%</name>
    <desc>Pendiente -24.0% (umbral 20%)</desc>
  </wpt>
  <wpt lat="43.214786" lon="-6.043636">
    <ele>262.9</ele>
    <name>298: 22.7%</name>
    <desc>Pendiente 22.7% (umbral 20%)</desc>
  </wpt>
  <wpt lat="43.214809" lon="-6.043604">
    <ele>262.0</ele>
    <name>299: -24.7%</name>
    <desc>Pendiente -24.7% (umbral 20%)</desc>
  </wpt>
  <wpt lat="43.216953" lon="-6.042629">
    <ele>255.0</ele>
    <name>308: -25.4%</name>
    <desc>Pendiente -25.4% (umbral 20%)</desc>
  </wpt>
  <wpt lat="43.223415" lon="-6.039623">
    <ele>246.4</ele>
    <name>344: 24.2%</name>
    <desc>Pendiente 24.2% (umbral 20%)</desc>
  </wpt>
  <wpt lat="43.224988" lon="-6.038632">
    <ele>243.6</ele>
    <name>357: 27.0%</name>
    <desc>Pendiente 27.0% (umbral 20%)</desc>
  </wpt>
  <wpt lat="43.225085" lon="-6.038562">
    <ele>243.5</ele>
    <name>363: -28.5%</name>
    <desc>Pendiente -28.5% (umbral 20%)</desc>
  </wpt>
  <wpt lat="43.225101" lon="-6.038554">
    <ele>243.0</ele>
    <name>364: -26.4%</name>
    <desc>Pendiente -26.4% (umbral 20%)</desc>
  </wpt>
  <wpt lat="43.225128" lon="-6.038532">
    <ele>243.5</ele>
    <name>366: 21.1%</name>
    <desc>Pendiente 21.1% (umbral 20%)</desc>
  </wpt>
  <wpt lat="43.238643" lon="-6.030297">
    <ele>219.3</ele>
    <name>410: -20.7%</name>
    <desc>Pendiente -20.7% (umbral 20%)</desc>
  </wpt>
  <wpt lat="43.250875" lon="-6.011263">
    <ele>195.9</ele>
    <name>490: -20.2%</name>
    <desc>Pendiente -20.2% (umbral 20%)</desc>
  </wpt>
  <wpt lat="43.268771" lon="-6.002095">
    <ele>176.2</ele>
    <name>556: -24.0%</name>
    <desc>Pendiente -24.0% (umbral 20%)</desc>
  </wpt>
  <wpt lat="43.273856" lon="-6.001008">
    <ele>168.0</ele>
    <name>587: -28.1%</name>
    <desc>Pendiente -28.1% (umbral 20%)</desc>
  </wpt>
  <wpt lat="43.274424" lon="-5.9975">
    <ele>167.5</ele>
    <name>598: 20.0%</name>
    <desc>Pendiente 20.0% (umbral 20%)</desc>
  </wpt>
  <wpt lat="43.288458" lon="-5.985398">
    <ele>153.7</ele>
    <name>661: 22.0%</name>
    <desc>Pendiente 22.0% (umbral 20%)</desc>
  </wpt>
</gpx>