<?xml version="1.0" encoding="UTF-8"?>
<gpx xmlns="http://www.topografix.com/GPX/1/1" xmlns:xsi="http://www.w3.org/2001/XMLSchema-instance" xsi:schemaLocation="http://www.topografix.com/GPX/1/1 http://www.topografix.com/GPX/1/1/gpx.xsd" version="1.1" creator="gpx.py -- https://github.com/tkrajina/gpxpy">
  <wpt lat="43.325059" lon="-4.261054">
    <ele>213.0</ele>
    <name>12: -21.7%</name>
    <desc>Pendiente -21.7% (umbral 20%)</desc>
  </wpt>
  <wpt lat="43.322314" lon="-4.264187">
    <ele>202.6</ele>
    <name>71: -22.6%</name>
    <desc>Pendiente -22.6% (umbral 20%)</desc>
  </wpt>
  <wpt lat="43.322233" lon="-4.266226">
    <ele>171.0</ele>
    <name>95: -21.9%</name>
    <desc>Pendiente -21.9% (umbral 20%)</desc>
  </wpt>
  <wpt lat="43.322191" lon="-4.266222">
    <ele>170.0</ele>
    <name>96: -21.4%</name>
    <desc>Pendiente -21.4% (umbral 20%)</desc>
  </wpt>
  <wpt lat="43.322153" lon="-4.266237">
    <ele>169.0</ele>
    <name>97: -22.7%</name>
    <desc>Pendiente -22.7% (umbral 20%)</desc>
  </wpt>
  <wpt lat="43.322043" lon="-4.266954">
    <ele>152.3</ele>
    <name>117: -22.6%</name>
    <desc>Pendiente -22.6% (umbral 20%)</desc>
  </wpt>
  <wpt lat="43.322469" lon="-4.267076">
    <ele>157.0</ele>
    <name>153: 28.4%</name>
    <desc>Pendiente 28.4% (umbral 20%)</desc>
  </wpt>
  <wpt lat="43.322415" lon="-4.267018">
    <ele>158.0</ele>
    <name>155: 24.4%</name>
    <desc>Pendiente 24.4% (umbral 20%)</desc>
  </wpt>
  <wpt lat="43.322343" lon="-4.266892">
    <ele>160.9</ele>
    <name>157: 25.7%</name>
    <desc>Pendiente 25.7% (umbral 20%)</desc>
  </wpt>
  <wpt lat="43.322213" lon="-4.266592">
    <ele>165.0</ele>
    <name>160: 20.3%</name>
    <desc>Pendiente 20.3% (umbral 20%)</desc>
  </wpt>
  <wpt lat="43.322232" lon="-4.266208">
    <ele>171.0</ele>
    <name>167: 21.1%</name>
    <desc>Pendiente 21.1% (umbral 20%)</desc>
  </wpt>
  <wpt lat="43.322306" lon="-4.266259">
    <ele>173.0</ele>
    <name>168: 21.7%</name>
    <desc>Pendiente 21.7% (umbral 20%)</desc>
  </wpt>
  <wpt lat="43.322739" lon="-4.266267">
    <ele>179.0</ele>
    <name>174: 24.9%</name>
    <desc>Pendiente 24.9% (umbral 20%)</desc>
  </wpt>
  <wpt lat="43.322973" lon="-4.265994">
    <ele>183.0</ele>
    <name>181: 21.2%</name>
    <desc>Pendiente 21.2% (umbral 20%)</desc>
  </wpt>
  <wpt lat="43.322669" lon="-4.265317">
    <ele>191.0</ele>
    <name>191: 21.3%</name>
    <desc>Pendiente 21.3% (umbral 20%)</desc>
  </wpt>
  <wpt lat="43.322478" lon="-4.264669">
    <ele>198.0</ele>
    <name>198: 20.5%</name>
    <desc>Pendiente 20.5% (umbral 20%)</desc>
  </wpt>
  <wpt lat="43.322392" lon="-4.264448">
    <ele>200.0</ele>
    <name>202: 21.0%</name>
    <desc>Pendiente 21.0% (umbral 20%)</desc>
  </wpt>
  <wpt lat="43.322357" lon="-4.264367">
    <ele>201.0</ele>
    <name>204: 26.2%</name>
    <desc>Pendiente 26.2% (umbral 20%)</desc>
  </wpt>
  <wpt lat="43.322311" lon="-4.264133">
    <ele>203.4</ele>
    <name>211: 26.9%</name>
    <desc>Pendiente 26.9% (umbral 20%)</desc>
  </wpt>
  <wpt lat="43.322314" lon="-4.264071">
    <ele>204.5</ele>
    <name>212: 21.9%</name>
    <desc>Pendiente 21.9% (umbral 20%)</desc>
  </wpt>
  <wpt lat="43.322318" lon="-4.263975">
    <ele>203.7</ele>
    <name>214: -38.3%</name>
    <desc>Pendiente -38.3% (umbral 20%)</desc>
  </wpt>
  <wpt lat="43.322296" lon="-4.263829">
    <ele>205.0</ele>
    <name>217: 21.0%</name>
    <desc>Pendiente 21.0% (umbral 20%)</desc>
  </wpt>
  <wpt lat="43.32183" lon="-4.263389">
    <ele>203.1</ele>
    <name>234: -24.9%</name>
    <desc>Pendiente -24.9% (umbral 20%)</desc>
  </wpt>
  <wpt lat="43.321782" lon="-4.263381">
    <ele>202.2</ele>
    <name>236: -28.5%</name>
    <desc>Pendiente -28.5% (umbral 20%)</desc>
  </wpt>
  <wpt lat="43.321752" lon="-4.26336">
    <ele>201.4</ele>
    <name>237: -21.4%</name>
    <desc>Pendiente -21.4% (umbral 20%)</desc>
  </wpt>
  <wpt lat="43.321682" lon="-4.263336">
    <ele>200.0</ele>
    <name>239: -22.4%</name>
    <desc>Pendiente -22.4% (umbral 20%)</desc>
  </wpt>
  <wpt lat="43.321173" lon="-4.263192">
    <ele>196.1</ele>
    <name>252: -35.2%</name>
    <desc>Pendiente -35.2% (umbral 20%)</desc>
  </wpt>
  <wpt lat="43.320941" lon="-4.263309">
    <ele>193.1</ele>
    <name>259: -22.2%</name>
    <desc>Pendiente -22.2% (umbral 20%)</desc>
  </wpt>
  <wpt lat="43.320934" lon="-4.263524">
    <ele>191.1</ele>
    <name>263: -24.3%</name>
    <desc>Pendiente -24.3% (umbral 20%)</desc>
  </wpt>
  <wpt lat="43.321182" lon="-4.26403">
    <ele>185.6</ele>
    <name>270: -28.6%</name>
    <desc>Pendiente -28.6% (umbral 20%)</desc>
  </wpt>
  <wpt lat="43.321047" lon="-4.264158">
    <ele>179.7</ele>
    <name>279: -22.9%</name>
    <desc>Pendiente -22.9% (umbral 20%)</desc>
  </wpt>
  <wpt lat="43.321018" lon="-4.264142">
    <ele>178.7</ele>
    <name>280: -28.8%</name>
    <desc>Pendiente -28.8% (umbral 20%)</desc>
  </wpt>
  <wpt lat="43.320996" lon="-4.264128">
    <ele>178.1</ele>
    <name>281: -22.3%</name>
    <desc>Pendiente -22.3% (umbral 20%)</desc>
  </wpt>
  <wpt lat="43.320913" lon="-4.264093">
    <ele>178.1</ele>
    <name>284: -20.0%</name>
    <desc>Pendiente -20.0% (umbral 20%)</desc>
  </wpt>
  <wpt lat="43.320842" lon="-4.264045">
    <ele>176.7</ele>
    <name>287: -23.4%</name>
    <desc>Pendiente -23.4% (umbral 20%)</desc>
  </wpt>
  <wpt lat="43.320819" lon="-4.264031">
    <ele>176.0</ele>
    <name>288: -25.0%</name>
    <desc>Pendiente -25.0% (umbral 20%)</desc>
  </wpt>
  <wpt lat="43.320798" lon="-4.26402">
    <ele>175.3</ele>
    <name>289: -28.0%</name>
    <desc>Pendiente -28.0% (umbral 20%)</desc>
  </wpt>
  <wpt lat="43.320769" lon="-4.264008">
    <ele>173.4</ele>
    <name>290: -56.4%</name>
    <desc>Pendiente -56.4% (umbral 20%)</desc>
  </wpt>
  <wpt lat="43.320729" lon="-4.26399">
    <ele>174.6</ele>
    <name>291: 25.6%</name>
    <desc>Pendiente 25.6% (umbral 20%)</desc>
  </wpt>
  <wpt lat="43.320682" lon="-4.263969">
    <ele>175.9</ele>
    <name>292: 23.7%</name>
    <desc>Pendiente 23.7% (umbral 20%)</desc>
  </wpt>
  <wpt lat="43.320571" lon="-4.263936">
    <ele>174.1</ele>
    <name>294: -26.7%</name>
    <desc>Pendiente -26.7% (umbral 20%)</desc>
  </wpt>
  <wpt lat="43.320471" lon="-4.263851">
    <ele>171.6</ele>
    <name>296: -25.8%</name>
    <desc>Pendiente -25.8% (umbral 20%)</desc>
  </wpt>
  <wpt lat="43.320237" lon="-4.263189">
    <ele>167.0</ele>
    <name>305: -21.7%</name>
    <desc>Pendiente -21.7% (umbral 20%)</desc>
  </wpt>
  <wpt lat="43.32022" lon="-4.263072">
    <ele>163.7</ele>
    <name>306: -34.2%</name>
    <desc>Pendiente -34.2% (umbral 20%)</desc>
  </wpt>
  <wpt lat="43.320167" lon="-4.262986">
    <ele>161.0</ele>
    <name>307: -29.6%</name>
    <desc>Pendiente -29.6% (umbral 20%)</desc>
  </wpt>
  <wpt lat="43.320016" lon="-4.262677">
    <ele>158.0</ele>
    <name>310: -28.9%</name>
    <desc>Pendiente -28.9% (umbral 20%)</desc>
  </wpt>
  <wpt lat="43.319947" lon="-4.262643">
    <ele>156.0</ele>
    <name>311: -24.5%</name>
    <desc>Pendiente -24.5% (umbral 20%)</desc>
  </wpt>
  <wpt lat="43.318596" lon="-4.260812">
    <ele>146.0</ele>
    <name>339: 23.5%</name>
    <desc>Pendiente 23.5% (umbral 20%)</desc>
  </wpt>
  <wpt lat="43.318684" lon="-4.260719">
    <ele>147.0</ele>
    <name>342: 22.7%</name>
    <desc>Pendiente 22.7% (umbral 20%)</desc>
  </wpt>
  <wpt lat="43.318915" lon="-4.260454">
    <ele>149.5</ele>
    <name>351: 23.1%</name>
    <desc>Pendiente 23.1% (umbral 20%)</desc>
  </wpt>
  <wpt lat="43.318962" lon="-4.26041">
    <ele>151.0</ele>
    <name>353: 26.4%</name>
    <desc>Pendiente 26.4% (umbral 20%)</desc>
  </wpt>
  <wpt lat="43.319058" lon="-4.260035">
    <ele>155.2</ele>
    <name>357: 31.7%</name>
    <desc>Pendiente 31.7% (umbral 20%)</desc>
  </wpt>
  <wpt lat="43.319087" lon="-4.26">
    <ele>156.8</ele>
    <name>358: 37.3%</name>
    <desc>Pendiente 37.3% (umbral 20%)</desc>
  </wpt>
  <wpt lat="43.319106" lon="-4.259965">
    <ele>157.9</ele>
    <name>359: 31.1%</name>
    <desc>Pendiente 31.1% (umbral 20%)</desc>
  </wpt>
  <wpt lat="43.319109" lon="-4.259923">
    <ele>158.6</ele>
    <name>360: 20.5%</name>
    <desc>Pendiente 20.5% (umbral 20%)</desc>
  </wpt>
  <wpt lat="43.319117" lon="-4.259894">
    <ele>159.4</ele>
    <name>361: 31.9%</name>
    <desc>Pendiente 31.9% (umbral 20%)</desc>
  </wpt>
  <wpt lat="43.31911" lon="-4.259835">
    <ele>159.0</ele>
    <name>363: -24.6%</name>
    <desc>Pendiente -24.6% (umbral 20%)</desc>
  </wpt>
  <wpt lat="43.319264" lon="-4.259355">
    <ele>163.3</ele>
    <name>369: 33.6%</name>
    <desc>Pendiente 33.6% (umbral 20%)</desc>
  </wpt>
  <wpt lat="43.319319" lon="-4.259084">
    <ele>166.1</ele>
    <name>373: 21.9%</name>
    <desc>Pendiente 21.9% (umbral 20%)</desc>
  </wpt>
  <wpt lat="43.319686" lon="-4.258795">
    <ele>170.5</ele>
    <name>379: 27.9%</name>
    <desc>Pendiente 27.9% (umbral 20%)</desc>
  </wpt>
  <wpt lat="43.319811" lon="-4.258848">
    <ele>176.0</ele>
    <name>380: 37.8%</name>
    <desc>Pendiente 37.8% (umbral 20%)</desc>
  </wpt>
  <wpt lat="43.31984" lon="-4.258942">
    <ele>178.9</ele>
    <name>381: 35.1%</name>
    <desc>Pendiente 35.1% (umbral 20%)</desc>
  </wpt>
  <wpt lat="43.319895" lon="-4.259">
    <ele>181.0</ele>
    <name>382: 27.2%</name>
    <desc>Pendiente 27.2% (umbral 20%)</desc>
  </wpt>
  <wpt lat="43.320124" lon="-4.258141">
    <ele>181.4</ele>
    <name>389: -23.5%</name>
    <desc>Pendiente -23.5% (umbral 20%)</desc>
  </wpt>
  <wpt lat="43.320127" lon="-4.258322">
    <ele>185.5</ele>
    <name>390: 28.0%</name>
    <desc>Pendiente 28.0% (umbral 20%)</desc>
  </wpt>
  <wpt lat="43.320185" lon="-4.259035">
    <ele>184.5</ele>
    <name>397: -23.6%</name>
    <desc>Pendiente -23.6% (umbral 20%)</desc>
  </wpt>
  <wpt lat="43.320047" lon="-4.259374">
    <ele>180.7</ele>
    <name>401: -32.8%</name>
    <desc>Pendiente -32.8% (umbral 20%)</desc>
  </wpt>
  <wpt lat="43.320071" lon="-4.259446">
    <ele>178.8</ele>
    <name>402: -29.7%</name>
    <desc>Pendiente -29.7% (umbral 20%)</desc>
  </wpt>
  <wpt lat="43.319736" lon="-4.260006">
    <ele>169.8</ele>
    <name>411: -32.6%</name>
    <desc>Pendiente -32.6% (umbral 20%)</desc>
  </wpt>
  <wpt lat="43.319732" lon="-4.260018">
    <ele>169.3</ele>
    <name>412: -46.8%</name>
    <desc>Pendiente -46.8% (umbral 20%)</desc>
  </wpt>
  <wpt lat="43.319562" lon="-4.260039">
    <ele>168.0</ele>
    <name>416: -22.0%</name>
    <desc>Pendiente -22.0% (umbral 20%)</desc>
  </wpt>
  <wpt lat="43.319373" lon="-4.260125">
    <ele>164.7</ele>
    <name>420: -28.6%</name>
    <desc>Pendiente -28.6% (umbral 20%)</desc>
  </wpt>
  <wpt lat="43.319323" lon="-4.260136">
    <ele>163.2</ele>
    <name>421: -26.6%</name>
    <desc>Pendiente -26.6% (umbral 20%)</desc>
  </wpt>
  <wpt lat="43.319188" lon="-4.260245">
    <ele>159.4</ele>
    <name>424: -29.1%</name>
    <desc>Pendiente -29.1% (umbral 20%)</desc>
  </wpt>
  <wpt lat="43.319097" lon="-4.260216">
    <ele>157.0</ele>
    <name>426: -29.9%</name>
    <desc>Pendiente -29.9% (umbral 20%)</desc>
  </wpt>
  <wpt lat="43.31904" lon="-4.260312">
    <ele>154.3</ele>
    <name>427: -26.9%</name>
    <desc>Pendiente -26.9% (umbral 20%)</desc>
  </wpt>
  <wpt lat="43.319018" lon="-4.260365">
    <ele>153.0</ele>
    <name>428: -26.3%</name>
    <desc>Pendiente -26.3% (umbral 20%)</desc>
  </wpt>
  <wpt lat="43.31899" lon="-4.260429">
    <ele>151.7</ele>
    <name>429: -21.5%</name>
    <desc>Pendiente -21.5% (umbral 20%)</desc>
  </wpt>
  <wpt lat="43.318948" lon="-4.260475">
    <ele>150.4</ele>
    <name>430: -21.8%</name>
    <desc>Pendiente -21.8% (umbral 20%)</desc>
  </wpt>
  <wpt lat="43.318831" lon="-4.260679">
    <ele>148.0</ele>
    <name>434: -28.8%</name>
    <desc>Pendiente -28.8% (umbral 20%)</desc>
  </wpt>
  <wpt lat="43.318923" lon="-4.260454">
    <ele>150.0</ele>
    <name>439: 22.7%</name>
    <desc>Pendiente 22.7% (umbral 20%)</desc>
  </wpt>
  <wpt lat="43.31904" lon="-4.260341">
    <ele>153.8</ele>
    <name>441: 27.1%</name>
    <desc>Pendiente 27.1% (umbral 20%)</desc>
  </wpt>
  <wpt lat="43.319071" lon="-4.260294">
    <ele>155.6</ele>
    <name>442: 35.1%</name>
    <desc>Pendiente 35.1% (umbral 20%)</desc>
  </wpt>
  <wpt lat="43.319168" lon="-4.260195">
    <ele>159.4</ele>
    <name>443: 28.3%</name>
    <desc>Pendiente 28.3% (umbral 20%)</desc>
  </wpt>
  <wpt lat="43.319211" lon="-4.260123">
    <ele>161.8</ele>
    <name>444: 31.8%</name>
    <desc>Pendiente 31.8% (umbral 20%)</desc>
  </wpt>
  <wpt lat="43.319282" lon="-4.259253">
    <ele>165.2</ele>
    <name>451: 27.8%</name>
    <desc>Pendiente 27.8% (umbral 20%)</desc>
  </wpt>
  <wpt lat="43.319699" lon="-4.258789">
    <ele>170.9</ele>
    <name>454: 20.5%</name>
    <desc>Pendiente 20.5% (umbral 20%)</desc>
  </wpt>
  <wpt lat="43.319805" lon="-4.258835">
    <ele>175.7</ele>
    <name>455: 38.8%</name>
    <desc>Pendiente 38.8% (umbral 20%)</desc>
  </wpt>
  <wpt lat="43.31983" lon="-4.258935">
    <ele>178.3</ele>
    <name>456: 30.4%</name>
    <desc>Pendiente 30.4% (umbral 20%)</desc>
  </wpt>
  <wpt lat="43.319907" lon="-4.259011">
    <ele>181.0</ele>
    <name>457: 25.6%</name>
    <desc>Pendiente 25.6% (umbral 20%)</desc>
  </wpt>
  <wpt lat="43.320373" lon="-4.25759">
    <ele>198.1</ele>
    <name>468: -23.1%</name>
    <desc>Pendiente -23.1% (umbral 20%)</desc>
  </wpt>
</gpx>