<?xml version="1.0" encoding="UTF-8"?>
<gpx xmlns="http://www.topografix.com/GPX/1/1" xmlns:xsi="http://www.w3.org/2001/XMLSchema-instance" xsi:schemaLocation="http://www.topografix.com/GPX/1/1 http://www.topografix.com/GPX/1/1/gpx.xsd" version="1.1" creator="gpx.py -- https://github.com/tkrajina/gpxpy">
  <wpt lat="43.200876" lon="-3.584455">
    <ele>686.3</ele>
    <name>Tramo 4: -61.1%</name>
    <desc>Pendiente -61.1% en ventana de 8.0m (umbral 35%)</desc>
  </wpt>
  <wpt lat="43.200839" lon="-3.584475">
    <ele>687.2</ele>
    <name>Tramo 7: 46.2%</name>
    <desc>Pendiente 46.2% en ventana de 6.3m (umbral 35%)</desc>
  </wpt>
  <wpt lat="43.199514" lon="-3.587331">
    <ele>717.9</ele>
    <name>Tramo 47: 48.2%</name>
    <desc>Pendiente 48.2% en ventana de 7.7m (umbral 35%)</desc>
  </wpt>
  <wpt lat="43.199543" lon="-3.587421">
    <ele>719.3</ele>
    <name>Tramo 51: 96.1%</name>
    <desc>Pendiente 96.1% en ventana de 9.9m (umbral 35%)</desc>
  </wpt>
  <wpt lat="43.199557" lon="-3.587437">
    <ele>720.2</ele>
    <name>Tramo 52: 44.4%</name>
    <desc>Pendiente 44.4% en ventana de 2.0m (umbral 35%)</desc>
  </wpt>
  <wpt lat="43.199588" lon="-3.587501">
    <ele>722.0</ele>
    <name>Tramo 54: 45.0%</name>
    <desc>Pendiente 45.0% en ventana de 6.6m (umbral 35%)</desc>
  </wpt>
  <wpt lat="43.199581" lon="-3.587513">
    <ele>723.6</ele>
    <name>Tramo 55: 128.4%</name>
    <desc>Pendiente 128.4% en ventana de 1.2m (umbral 35%)</desc>
  </wpt>
  <wpt lat="43.199607" lon="-3.587554">
    <ele>722.0</ele>
    <name>Tramo 56: -36.3%</name>
    <desc>Pendiente -36.3% en ventana de 4.4m (umbral 35%)</desc>
  </wpt>
  <wpt lat="43.199632" lon="-3.587635">
    <ele>726.4</ele>
    <name>Tramo 58: 104.1%</name>
    <desc>Pendiente 104.1% en ventana de 7.2m (umbral 35%)</desc>
  </wpt>
  <wpt lat="43.19964" lon="-3.587658">
    <ele>728.2</ele>
    <name>Tramo 59: 87.1%</name>
    <desc>Pendiente 87.1% en ventana de 2.1m (umbral 35%)</desc>
  </wpt>
  <wpt lat="43.199624" lon="-3.587818">
    <ele>731.9</ele>
    <name>Tramo 63: 41.7%</name>
    <desc>Pendiente 41.7% en ventana de 9.6m (umbral 35%)</desc>
  </wpt>
  <wpt lat="43.199628" lon="-3.587993">
    <ele>736.3</ele>
    <name>Tramo 69: 49.6%</name>
    <desc>Pendiente 49.6% en ventana de 8.6m (umbral 35%)</desc>
  </wpt>
  <wpt lat="43.199609" lon="-3.588157">
    <ele>740.1</ele>
    <name>Tramo 73: 51.0%</name>
    <desc>Pendiente 51.0% en ventana de 8.4m (umbral 35%)</desc>
  </wpt>
  <wpt lat="43.199596" lon="-3.588204">
    <ele>742.0</ele>
    <name>Tramo 74: 46.6%</name>
    <desc>Pendiente 46.6% en ventana de 4.1m (umbral 35%)</desc>
  </wpt>
  <wpt lat="43.199603" lon="-3.588309">
    <ele>744.3</ele>
    <name>Tramo 76: 42.0%</name>
    <desc>Pendiente 42.0% en ventana de 8.9m (umbral 35%)</desc>
  </wpt>
  <wpt lat="43.19957" lon="-3.588846">
    <ele>756.1</ele>
    <name>Tramo 84: 37.0%</name>
    <desc>Pendiente 37.0% en ventana de 6.5m (umbral 35%)</desc>
  </wpt>
  <wpt lat="43.199325" lon="-3.589342">
    <ele>772.2</ele>
    <name>Tramo 92: 41.8%</name>
    <desc>Pendiente 41.8% en ventana de 8.9m (umbral 35%)</desc>
  </wpt>
  <wpt lat="43.199461" lon="-3.589513">
    <ele>776.5</ele>
    <name>Tramo 96: 44.9%</name>
    <desc>Pendiente 44.9% en ventana de 7.2m (umbral 35%)</desc>
  </wpt>
  <wpt lat="43.199586" lon="-3.589802">
    <ele>784.2</ele>
    <name>Tramo 100: 46.8%</name>
    <desc>Pendiente 46.8% en ventana de 4.9m (umbral 35%)</desc>
  </wpt>
  <wpt lat="43.199899" lon="-3.590251">
    <ele>793.6</ele>
    <name>Tramo 109: 38.2%</name>
    <desc>Pendiente 38.2% en ventana de 7.6m (umbral 35%)</desc>
  </wpt>
  <wpt lat="43.200115" lon="-3.590748">
    <ele>805.1</ele>
    <name>Tramo 115: 46.2%</name>
    <desc>Pendiente 46.2% en ventana de 3.0m (umbral 35%)</desc>
  </wpt>
  <wpt lat="43.201239" lon="-3.593535">
    <ele>844.4</ele>
    <name>Tramo 149: 35.6%</name>
    <desc>Pendiente 35.6% en ventana de 9.1m (umbral 35%)</desc>
  </wpt>
  <wpt lat="43.201268" lon="-3.593742">
    <ele>849.4</ele>
    <name>Tramo 152: 36.4%</name>
    <desc>Pendiente 36.4% en ventana de 5.8m (umbral 35%)</desc>
  </wpt>
  <wpt lat="43.201131" lon="-3.594241">
    <ele>862.2</ele>
    <name>Tramo 159: 47.4%</name>
    <desc>Pendiente 47.4% en ventana de 4.2m (umbral 35%)</desc>
  </wpt>
  <wpt lat="43.20112" lon="-3.594383">
    <ele>865.5</ele>
    <name>Tramo 161: 48.7%</name>
    <desc>Pendiente 48.7% en ventana de 4.7m (umbral 35%)</desc>
  </wpt>
  <wpt lat="43.201194" lon="-3.594886">
    <ele>878.0</ele>
    <name>Tramo 170: 53.5%</name>
    <desc>Pendiente 53.5% en ventana de 9.2m (umbral 35%)</desc>
  </wpt>
  <wpt lat="43.201204" lon="-3.594915">
    <ele>879.1</ele>
    <name>Tramo 171: 42.3%</name>
    <desc>Pendiente 42.3% en ventana de 2.6m (umbral 35%)</desc>
  </wpt>
  <wpt lat="43.201228" lon="-3.594935">
    <ele>880.6</ele>
    <name>Tramo 172: 48.0%</name>
    <desc>Pendiente 48.0% en ventana de 3.1m (umbral 35%)</desc>
  </wpt>
  <wpt lat="43.201253" lon="-3.594944">
    <ele>881.7</ele>
    <name>Tramo 173: 38.3%</name>
    <desc>Pendiente 38.3% en ventana de 2.9m (umbral 35%)</desc>
  </wpt>
  <wpt lat="43.201657" lon="-3.595119">
    <ele>891.5</ele>
    <name>Tramo 189: 41.0%</name>
    <desc>Pendiente 41.0% en ventana de 8.5m (umbral 35%)</desc>
  </wpt>
  <wpt lat="43.202494" lon="-3.59896">
    <ele>924.5</ele>
    <name>Tramo 229: 57.6%</name>
    <desc>Pendiente 57.6% en ventana de 9.1m (umbral 35%)</desc>
  </wpt>
  <wpt lat="43.202247" lon="-3.600159">
    <ele>949.3</ele>
    <name>Tramo 244: 37.2%</name>
    <desc>Pendiente 37.2% en ventana de 3.5m (umbral 35%)</desc>
  </wpt>
  <wpt lat="43.202207" lon="-3.600225">
    <ele>952.0</ele>
    <name>Tramo 246: 46.7%</name>
    <desc>Pendiente 46.7% en ventana de 7.4m (umbral 35%)</desc>
  </wpt>
  <wpt lat="43.201759" lon="-3.601287">
    <ele>948.4</ele>
    <name>Tramo 261: -37.5%</name>
    <desc>Pendiente -37.5% en ventana de 8.6m (umbral 35%)</desc>
  </wpt>
  <wpt lat="43.201569" lon="-3.604632">
    <ele>941.8</ele>
    <name>Tramo 286: -51.9%</name>
    <desc>Pendiente -51.9% en ventana de 6.4m (umbral 35%)</desc>
  </wpt>
  <wpt lat="43.202118" lon="-3.610113">
    <ele>988.4</ele>
    <name>Tramo 358: 47.9%</name>
    <desc>Pendiente 47.9% en ventana de 6.7m (umbral 35%)</desc>
  </wpt>
  <wpt lat="43.202213" lon="-3.61029">
    <ele>996.1</ele>
    <name>Tramo 360: 53.5%</name>
    <desc>Pendiente 53.5% en ventana de 8.8m (umbral 35%)</desc>
  </wpt>
  <wpt lat="43.202423" lon="-3.61175">
    <ele>1009.7</ele>
    <name>Tramo 372: 63.0%</name>
    <desc>Pendiente 63.0% en ventana de 8.8m (umbral 35%)</desc>
  </wpt>
  <wpt lat="43.20242" lon="-3.611753">
    <ele>1010.1</ele>
    <name>Tramo 373: 96.9%</name>
    <desc>Pendiente 96.9% en ventana de 0.4m (umbral 35%)</desc>
  </wpt>
  <wpt lat="43.202417" lon="-3.61175">
    <ele>1010.5</ele>
    <name>Tramo 374: 96.9%</name>
    <desc>Pendiente 96.9% en ventana de 0.4m (umbral 35%)</desc>
  </wpt>
  <wpt lat="43.202282" lon="-3.613092">
    <ele>1026.2</ele>
    <name>Tramo 389: 37.7%</name>
    <desc>Pendiente 37.7% en ventana de 7.9m (umbral 35%)</desc>
  </wpt>
  <wpt lat="43.202243" lon="-3.613155">
    <ele>1030.8</ele>
    <name>Tramo 390: 68.7%</name>
    <desc>Pendiente 68.7% en ventana de 6.7m (umbral 35%)</desc>
  </wpt>
  <wpt lat="43.202187" lon="-3.613199">
    <ele>1035.7</ele>
    <name>Tramo 391: 68.3%</name>
    <desc>Pendiente 68.3% en ventana de 7.2m (umbral 35%)</desc>
  </wpt>
  <wpt lat="43.201994" lon="-3.613282">
    <ele>1043.5</ele>
    <name>Tramo 395: 37.0%</name>
    <desc>Pendiente 37.0% en ventana de 9.8m (umbral 35%)</desc>
  </wpt>
  <wpt lat="43.201881" lon="-3.613289">
    <ele>1048.8</ele>
    <name>Tramo 397: 50.5%</name>
    <desc>Pendiente 50.5% en ventana de 8.9m (umbral 35%)</desc>
  </wpt>
  <wpt lat="43.201817" lon="-3.613432">
    <ele>1053.1</ele>
    <name>Tramo 399: 35.3%</name>
    <desc>Pendiente 35.3% en ventana de 6.0m (umbral 35%)</desc>
  </wpt>
  <wpt lat="43.201709" lon="-3.6136">
    <ele>1059.7</ele>
    <name>Tramo 402: 44.8%</name>
    <desc>Pendiente 44.8% en ventana de 5.8m (umbral 35%)</desc>
  </wpt>
  <wpt lat="43.201576" lon="-3.613632">
    <ele>1063.1</ele>
    <name>Tramo 407: 42.7%</name>
    <desc>Pendiente 42.7% en ventana de 9.9m (umbral 35%)</desc>
  </wpt>
  <wpt lat="43.201543" lon="-3.613656">
    <ele>1065.3</ele>
    <name>Tramo 408: 53.0%</name>
    <desc>Pendiente 53.0% en ventana de 4.2m (umbral 35%)</desc>
  </wpt>
  <wpt lat="43.201381" lon="-3.613748">
    <ele>1069.7</ele>
    <name>Tramo 413: 36.9%</name>
    <desc>Pendiente 36.9% en ventana de 7.0m (umbral 35%)</desc>
  </wpt>
  <wpt lat="43.201173" lon="-3.614678">
    <ele>1081.5</ele>
    <name>Tramo 427: 42.2%</name>
    <desc>Pendiente 42.2% en ventana de 6.2m (umbral 35%)</desc>
  </wpt>
  <wpt lat="43.201162" lon="-3.614765">
    <ele>1084.6</ele>
    <name>Tramo 429: 51.3%</name>
    <desc>Pendiente 51.3% en ventana de 7.2m (umbral 35%)</desc>
  </wpt>
  <wpt lat="43.201172" lon="-3.614809">
    <ele>1085.9</ele>
    <name>Tramo 431: 78.3%</name>
    <desc>Pendiente 78.3% en ventana de 5.6m (umbral 35%)</desc>
  </wpt>
  <wpt lat="43.201168" lon="-3.614823">
    <ele>1086.8</ele>
    <name>Tramo 432: 73.8%</name>
    <desc>Pendiente 73.8% en ventana de 1.2m (umbral 35%)</desc>
  </wpt>
  <wpt lat="43.201067" lon="-3.614787">
    <ele>1089.8</ele>
    <name>Tramo 434: 52.4%</name>
    <desc>Pendiente 52.4% en ventana de 5.3m (umbral 35%)</desc>
  </wpt>
  <wpt lat="43.201046" lon="-3.61481">
    <ele>1092.2</ele>
    <name>Tramo 435: 80.3%</name>
    <desc>Pendiente 80.3% en ventana de 3.0m (umbral 35%)</desc>
  </wpt>
  <wpt lat="43.201019" lon="-3.614805">
    <ele>1098.8</ele>
    <name>Tramo 436: 217.9%</name>
    <desc>Pendiente 217.9% en ventana de 3.0m (umbral 35%)</desc>
  </wpt>
  <wpt lat="43.200994" lon="-3.61483">
    <ele>1103.7</ele>
    <name>Tramo 437: 142.4%</name>
    <desc>Pendiente 142.4% en ventana de 3.4m (umbral 35%)</desc>
  </wpt>
  <wpt lat="43.200995" lon="-3.614825">
    <ele>1104.0</ele>
    <name>Tramo 438: 71.4%</name>
    <desc>Pendiente 71.4% en ventana de 0.4m (umbral 35%)</desc>
  </wpt>
  <wpt lat="43.200971" lon="-3.614898">
    <ele>1105.4</ele>
    <name>Tramo 440: 41.6%</name>
    <desc>Pendiente 41.6% en ventana de 6.5m (umbral 35%)</desc>
  </wpt>
  <wpt lat="43.200912" lon="-3.614944">
    <ele>1110.5</ele>
    <name>Tramo 442: 88.5%</name>
    <desc>Pendiente 88.5% en ventana de 8.0m (umbral 35%)</desc>
  </wpt>
  <wpt lat="43.200868" lon="-3.614914">
    <ele>1120.7</ele>
    <name>Tramo 443: 186.7%</name>
    <desc>Pendiente 186.7% en ventana de 5.5m (umbral 35%)</desc>
  </wpt>
  <wpt lat="43.200858" lon="-3.614964">
    <ele>1123.3</ele>
    <name>Tramo 444: 61.9%</name>
    <desc>Pendiente 61.9% en ventana de 4.2m (umbral 35%)</desc>
  </wpt>
  <wpt lat="43.200809" lon="-3.614974">
    <ele>1130.1</ele>
    <name>Tramo 445: 123.4%</name>
    <desc>Pendiente 123.4% en ventana de 5.5m (umbral 35%)</desc>
  </wpt>
  <wpt lat="43.200767" lon="-3.614939">
    <ele>1135.6</ele>
    <name>Tramo 446: 100.7%</name>
    <desc>Pendiente 100.7% en ventana de 5.5m (umbral 35%)</desc>
  </wpt>
  <wpt lat="43.200745" lon="-3.614901">
    <ele>1139.1</ele>
    <name>Tramo 447: 89.0%</name>
    <desc>Pendiente 89.0% en ventana de 3.9m (umbral 35%)</desc>
  </wpt>
  <wpt lat="43.20071" lon="-3.614848">
    <ele>1147.8</ele>
    <name>Tramo 448: 150.1%</name>
    <desc>Pendiente 150.1% en ventana de 5.8m (umbral 35%)</desc>
  </wpt>
  <wpt lat="43.200691" lon="-3.614798">
    <ele>1155.1</ele>
    <name>Tramo 449: 159.7%</name>
    <desc>Pendiente 159.7% en ventana de 4.6m (umbral 35%)</desc>
  </wpt>
  <wpt lat="43.200672" lon="-3.614773">
    <ele>1165.4</ele>
    <name>Tramo 450: 351.8%</name>
    <desc>Pendiente 351.8% en ventana de 2.9m (umbral 35%)</desc>
  </wpt>
  <wpt lat="43.20064" lon="-3.614759">
    <ele>1172.5</ele>
    <name>Tramo 451: 190.1%</name>
    <desc>Pendiente 190.1% en ventana de 3.7m (umbral 35%)</desc>
  </wpt>
  <wpt lat="43.200607" lon="-3.614735">
    <ele>1184.1</ele>
    <name>Tramo 452: 279.3%</name>
    <desc>Pendiente 279.3% en ventana de 4.2m (umbral 35%)</desc>
  </wpt>
  <wpt lat="43.200579" lon="-3.614709">
    <ele>1194.0</ele>
    <name>Tramo 453: 263.3%</name>
    <desc>Pendiente 263.3% en ventana de 3.8m (umbral 35%)</desc>
  </wpt>
  <wpt lat="43.200543" lon="-3.614737">
    <ele>1190.7</ele>
    <name>Tramo 455: -131.0%</name>
    <desc>Pendiente -131.0% en ventana de 4.9m (umbral 35%)</desc>
  </wpt>
  <wpt lat="43.200535" lon="-3.614783">
    <ele>1184.1</ele>
    <name>Tramo 456: -172.2%</name>
    <desc>Pendiente -172.2% en ventana de 3.8m (umbral 35%)</desc>
  </wpt>
  <wpt lat="43.200483" lon="-3.61486">
    <ele>1186.5</ele>
    <name>Tramo 458: 82.8%</name>
    <desc>Pendiente 82.8% en ventana de 8.5m (umbral 35%)</desc>
  </wpt>
  <wpt lat="43.200458" lon="-3.614881">
    <ele>1189.4</ele>
    <name>Tramo 459: 89.0%</name>
    <desc>Pendiente 89.0% en ventana de 3.3m (umbral 35%)</desc>
  </wpt>
  <wpt lat="43.200446" lon="-3.614893">
    <ele>1190.0</ele>
    <name>Tramo 460: 36.3%</name>
    <desc>Pendiente 36.3% en ventana de 1.7m (umbral 35%)</desc>
  </wpt>
  <wpt lat="43.200439" lon="-3.614947">
    <ele>1181.6</ele>
    <name>Tramo 461: -188.9%</name>
    <desc>Pendiente -188.9% en ventana de 4.4m (umbral 35%)</desc>
  </wpt>
  <wpt lat="43.200421" lon="-3.614979">
    <ele>1178.5</ele>
    <name>Tramo 462: -94.6%</name>
    <desc>Pendiente -94.6% en ventana de 3.3m (umbral 35%)</desc>
  </wpt>
  <wpt lat="43.200398" lon="-3.615028">
    <ele>1180.9</ele>
    <name>Tramo 463: 50.8%</name>
    <desc>Pendiente 50.8% en ventana de 4.7m (umbral 35%)</desc>
  </wpt>
  <wpt lat="43.200338" lon="-3.615106">
    <ele>1189.2</ele>
    <name>Tramo 465: 144.6%</name>
    <desc>Pendiente 144.6% en ventana de 9.3m (umbral 35%)</desc>
  </wpt>
  <wpt lat="43.200298" lon="-3.615104">
    <ele>1189.0</ele>
    <name>Tramo 467: -59.3%</name>
    <desc>Pendiente -59.3% en ventana de 4.7m (umbral 35%)</desc>
  </wpt>
  <wpt lat="43.200283" lon="-3.615087">
    <ele>1188.2</ele>
    <name>Tramo 468: -37.0%</name>
    <desc>Pendiente -37.0% en ventana de 2.2m (umbral 35%)</desc>
  </wpt>
  <wpt lat="43.200211" lon="-3.615071">
    <ele>1191.4</ele>
    <name>Tramo 470: 46.1%</name>
    <desc>Pendiente 46.1% en ventana de 8.1m (umbral 35%)</desc>
  </wpt>
  <wpt lat="43.200173" lon="-3.615066">
    <ele>1193.1</ele>
    <name>Tramo 471: 40.0%</name>
    <desc>Pendiente 40.0% en ventana de 4.2m (umbral 35%)</desc>
  </wpt>
  <wpt lat="43.199886" lon="-3.615244">
    <ele>1187.6</ele>
    <name>Tramo 477: -52.5%</name>
    <desc>Pendiente -52.5% en ventana de 7.9m (umbral 35%)</desc>
  </wpt>
  <wpt lat="43.19988" lon="-3.615445">
    <ele>1188.6</ele>
    <name>Tramo 480: 35.2%</name>
    <desc>Pendiente 35.2% en ventana de 7.9m (umbral 35%)</desc>
  </wpt>
  <wpt lat="43.199864" lon="-3.61563">
    <ele>1201.8</ele>
    <name>Tramo 482: 131.6%</name>
    <desc>Pendiente 131.6% en ventana de 4.3m (umbral 35%)</desc>
  </wpt>
  <wpt lat="43.19986" lon="-3.615688">
    <ele>1207.0</ele>
    <name>Tramo 483: 110.1%</name>
    <desc>Pendiente 110.1% en ventana de 4.7m (umbral 35%)</desc>
  </wpt>
  <wpt lat="43.199884" lon="-3.615809">
    <ele>1213.1</ele>
    <name>Tramo 485: 94.4%</name>
    <desc>Pendiente 94.4% en ventana de 5.2m (umbral 35%)</desc>
  </wpt>
  <wpt lat="43.19991" lon="-3.615879">
    <ele>1215.6</ele>
    <name>Tramo 486: 39.3%</name>
    <desc>Pendiente 39.3% en ventana de 6.4m (umbral 35%)</desc>
  </wpt>
  <wpt lat="43.19993" lon="-3.615947">
    <ele>1219.0</ele>
    <name>Tramo 487: 57.2%</name>
    <desc>Pendiente 57.2% en ventana de 5.9m (umbral 35%)</desc>
  </wpt>
  <wpt lat="43.199952" lon="-3.616014">
    <ele>1224.1</ele>
    <name>Tramo 488: 85.6%</name>
    <desc>Pendiente 85.6% en ventana de 6.0m (umbral 35%)</desc>
  </wpt>
  <wpt lat="43.200005" lon="-3.61609">
    <ele>1229.4</ele>
    <name>Tramo 489: 62.2%</name>
    <desc>Pendiente 62.2% en ventana de 8.5m (umbral 35%)</desc>
  </wpt>
  <wpt lat="43.200012" lon="-3.616128">
    <ele>1231.8</ele>
    <name>Tramo 490: 75.5%</name>
    <desc>Pendiente 75.5% en ventana de 3.2m (umbral 35%)</desc>
  </wpt>
  <wpt lat="43.200005" lon="-3.61618">
    <ele>1234.8</ele>
    <name>Tramo 491: 70.0%</name>
    <desc>Pendiente 70.0% en ventana de 4.3m (umbral 35%)</desc>
  </wpt>
  <wpt lat="43.200024" lon="-3.616255">
    <ele>1237.4</ele>
    <name>Tramo 492: 40.4%</name>
    <desc>Pendiente 40.4% en ventana de 6.4m (umbral 35%)</desc>
  </wpt>
  <wpt lat="43.200023" lon="-3.616324">
    <ele>1242.6</ele>
    <name>Tramo 493: 93.0%</name>
    <desc>Pendiente 93.0% en ventana de 5.6m (umbral 35%)</desc>
  </wpt>
  <wpt lat="43.200019" lon="-3.61637">
    <ele>1245.4</ele>
    <name>Tramo 494: 74.6%</name>
    <desc>Pendiente 74.6% en ventana de 3.8m (umbral 35%)</desc>
  </wpt>
  <wpt lat="43.200018" lon="-3.616674">
    <ele>1251.5</ele>
    <name>Tramo 500: 64.9%</name>
    <desc>Pendiente 64.9% en ventana de 4.5m (umbral 35%)</desc>
  </wpt>
  <wpt lat="43.200026" lon="-3.61673">
    <ele>1253.9</ele>
    <name>Tramo 501: 51.9%</name>
    <desc>Pendiente 51.9% en ventana de 4.6m (umbral 35%)</desc>
  </wpt>
  <wpt lat="43.200051" lon="-3.616797">
    <ele>1258.7</ele>
    <name>Tramo 502: 78.7%</name>
    <desc>Pendiente 78.7% en ventana de 6.1m (umbral 35%)</desc>
  </wpt>
  <wpt lat="43.200054" lon="-3.616951">
    <ele>1263.8</ele>
    <name>Tramo 505: 79.2%</name>
    <desc>Pendiente 79.2% en ventana de 8.0m (umbral 35%)</desc>
  </wpt>
  <wpt lat="43.200077" lon="-3.61697">
    <ele>1266.2</ele>
    <name>Tramo 506: 80.4%</name>
    <desc>Pendiente 80.4% en ventana de 3.0m (umbral 35%)</desc>
  </wpt>
  <wpt lat="43.200084" lon="-3.617001">
    <ele>1268.0</ele>
    <name>Tramo 507: 68.4%</name>
    <desc>Pendiente 68.4% en ventana de 2.6m (umbral 35%)</desc>
  </wpt>
  <wpt lat="43.200091" lon="-3.61707">
    <ele>1271.6</ele>
    <name>Tramo 508: 63.8%</name>
    <desc>Pendiente 63.8% en ventana de 5.6m (umbral 35%)</desc>
  </wpt>
  <wpt lat="43.200123" lon="-3.617166">
    <ele>1277.7</ele>
    <name>Tramo 510: 105.3%</name>
    <desc>Pendiente 105.3% en ventana de 8.6m (umbral 35%)</desc>
  </wpt>
  <wpt lat="43.200122" lon="-3.61719">
    <ele>1278.7</ele>
    <name>Tramo 511: 51.3%</name>
    <desc>Pendiente 51.3% en ventana de 1.9m (umbral 35%)</desc>
  </wpt>
  <wpt lat="43.200122" lon="-3.617287">
    <ele>1280.8</ele>
    <name>Tramo 514: 44.5%</name>
    <desc>Pendiente 44.5% en ventana de 7.9m (umbral 35%)</desc>
  </wpt>
  <wpt lat="43.200128" lon="-3.617336">
    <ele>1282.6</ele>
    <name>Tramo 515: 44.7%</name>
    <desc>Pendiente 44.7% en ventana de 4.0m (umbral 35%)</desc>
  </wpt>
  <wpt lat="43.200136" lon="-3.617374">
    <ele>1283.9</ele>
    <name>Tramo 516: 40.5%</name>
    <desc>Pendiente 40.5% en ventana de 3.2m (umbral 35%)</desc>
  </wpt>
  <wpt lat="43.200122" lon="-3.617598">
    <ele>1287.7</ele>
    <name>Tramo 521: 38.9%</name>
    <desc>Pendiente 38.9% en ventana de 8.5m (umbral 35%)</desc>
  </wpt>
  <wpt lat="43.200105" lon="-3.617693">
    <ele>1286.8</ele>
    <name>Tramo 524: -39.0%</name>
    <desc>Pendiente -39.0% en ventana de 7.9m (umbral 35%)</desc>
  </wpt>
  <wpt lat="43.200083" lon="-3.617702">
    <ele>1287.8</ele>
    <name>Tramo 525: 39.2%</name>
    <desc>Pendiente 39.2% en ventana de 2.6m (umbral 35%)</desc>
  </wpt>
  <wpt lat="43.195064" lon="-3.622953">
    <ele>1283.1</ele>
    <name>Tramo 598: 56.7%</name>
    <desc>Pendiente 56.7% en ventana de 1.2m (umbral 35%)</desc>
  </wpt>
  <wpt lat="43.194764" lon="-3.6234">
    <ele>1281.7</ele>
    <name>Tramo 603: -41.9%</name>
    <desc>Pendiente -41.9% en ventana de 4.8m (umbral 35%)</desc>
  </wpt>
  <wpt lat="43.19427" lon="-3.623702">
    <ele>1290.1</ele>
    <name>Tramo 616: 66.6%</name>
    <desc>Pendiente 66.6% en ventana de 6.8m (umbral 35%)</desc>
  </wpt>
  <wpt lat="43.194256" lon="-3.623669">
    <ele>1291.4</ele>
    <name>Tramo 617: 42.0%</name>
    <desc>Pendiente 42.0% en ventana de 3.1m (umbral 35%)</desc>
  </wpt>
  <wpt lat="43.194182" lon="-3.623593">
    <ele>1295.2</ele>
    <name>Tramo 619: 42.7%</name>
    <desc>Pendiente 42.7% en ventana de 7.3m (umbral 35%)</desc>
  </wpt>
  <wpt lat="43.193983" lon="-3.623477">
    <ele>1305.9</ele>
    <name>Tramo 622: 77.7%</name>
    <desc>Pendiente 77.7% en ventana de 5.8m (umbral 35%)</desc>
  </wpt>
  <wpt lat="43.193913" lon="-3.623413">
    <ele>1310.1</ele>
    <name>Tramo 624: 91.1%</name>
    <desc>Pendiente 91.1% en ventana de 4.1m (umbral 35%)</desc>
  </wpt>
  <wpt lat="43.193931" lon="-3.623362">
    <ele>1313.8</ele>
    <name>Tramo 625: 80.6%</name>
    <desc>Pendiente 80.6% en ventana de 4.6m (umbral 35%)</desc>
  </wpt>
  <wpt lat="43.193932" lon="-3.623357">
    <ele>1314.1</ele>
    <name>Tramo 626: 71.4%</name>
    <desc>Pendiente 71.4% en ventana de 0.4m (umbral 35%)</desc>
  </wpt>
  <wpt lat="43.193927" lon="-3.623329">
    <ele>1315.4</ele>
    <name>Tramo 627: 55.6%</name>
    <desc>Pendiente 55.6% en ventana de 2.3m (umbral 35%)</desc>
  </wpt>
  <wpt lat="43.192861" lon="-3.623402">
    <ele>1323.1</ele>
    <name>Tramo 646: 35.1%</name>
    <desc>Pendiente 35.1% en ventana de 1.4m (umbral 35%)</desc>
  </wpt>
  <wpt lat="43.190769" lon="-3.624062">
    <ele>1298.3</ele>
    <name>Tramo 685: -42.1%</name>
    <desc>Pendiente -42.1% en ventana de 7.8m (umbral 35%)</desc>
  </wpt>
  <wpt lat="43.189751" lon="-3.62627">
    <ele>1289.8</ele>
    <name>Tramo 722: -37.8%</name>
    <desc>Pendiente -37.8% en ventana de 5.8m (umbral 35%)</desc>
  </wpt>
  <wpt lat="43.189674" lon="-3.626589">
    <ele>1283.7</ele>
    <name>Tramo 729: -40.8%</name>
    <desc>Pendiente -40.8% en ventana de 6.3m (umbral 35%)</desc>
  </wpt>
  <wpt lat="43.189525" lon="-3.627594">
    <ele>1265.0</ele>
    <name>Tramo 744: -35.6%</name>
    <desc>Pendiente -35.6% en ventana de 9.3m (umbral 35%)</desc>
  </wpt>
  <wpt lat="43.189952" lon="-3.627789">
    <ele>1250.9</ele>
    <name>Tramo 751: -51.3%</name>
    <desc>Pendiente -51.3% en ventana de 5.7m (umbral 35%)</desc>
  </wpt>
  <wpt lat="43.189983" lon="-3.627824">
    <ele>1248.4</ele>
    <name>Tramo 752: -56.0%</name>
    <desc>Pendiente -56.0% en ventana de 4.5m (umbral 35%)</desc>
  </wpt>
  <wpt lat="43.188474" lon="-3.631036">
    <ele>1225.9</ele>
    <name>Tramo 788: -37.1%</name>
    <desc>Pendiente -37.1% en ventana de 9.2m (umbral 35%)</desc>
  </wpt>
  <wpt lat="43.194486" lon="-3.628511">
    <ele>1102.0</ele>
    <name>Tramo 873: -42.5%</name>
    <desc>Pendiente -42.5% en ventana de 6.6m (umbral 35%)</desc>
  </wpt>
  <wpt lat="43.194693" lon="-3.62847">
    <ele>1094.9</ele>
    <name>Tramo 876: -44.5%</name>
    <desc>Pendiente -44.5% en ventana de 3.4m (umbral 35%)</desc>
  </wpt>
  <wpt lat="43.192883" lon="-3.633826">
    <ele>1059.7</ele>
    <name>Tramo 938: 58.5%</name>
    <desc>Pendiente 58.5% en ventana de 6.3m (umbral 35%)</desc>
  </wpt>
  <wpt lat="43.192951" lon="-3.634204">
    <ele>1055.0</ele>
    <name>Tramo 942: -35.6%</name>
    <desc>Pendiente -35.6% en ventana de 2.5m (umbral 35%)</desc>
  </wpt>
  <wpt lat="43.192973" lon="-3.634516">
    <ele>1045.3</ele>
    <name>Tramo 945: -60.2%</name>
    <desc>Pendiente -60.2% en ventana de 3.3m (umbral 35%)</desc>
  </wpt>
  <wpt lat="43.1931" lon="-3.634862">
    <ele>1035.6</ele>
    <name>Tramo 949: -37.4%</name>
    <desc>Pendiente -37.4% en ventana de 7.0m (umbral 35%)</desc>
  </wpt>
  <wpt lat="43.193202" lon="-3.635088">
    <ele>1038.4</ele>
    <name>Tramo 952: 39.2%</name>
    <desc>Pendiente 39.2% en ventana de 9.2m (umbral 35%)</desc>
  </wpt>
  <wpt lat="43.193382" lon="-3.635445">
    <ele>1031.6</ele>
    <name>Tramo 955: -65.6%</name>
    <desc>Pendiente -65.6% en ventana de 6.4m (umbral 35%)</desc>
  </wpt>
  <wpt lat="43.193446" lon="-3.636235">
    <ele>1039.4</ele>
    <name>Tramo 961: 49.5%</name>
    <desc>Pendiente 49.5% en ventana de 7.9m (umbral 35%)</desc>
  </wpt>
  <wpt lat="43.193404" lon="-3.636521">
    <ele>1056.4</ele>
    <name>Tramo 964: 131.9%</name>
    <desc>Pendiente 131.9% en ventana de 7.0m (umbral 35%)</desc>
  </wpt>
  <wpt lat="43.193358" lon="-3.636572">
    <ele>1060.9</ele>
    <name>Tramo 965: 68.4%</name>
    <desc>Pendiente 68.4% en ventana de 6.6m (umbral 35%)</desc>
  </wpt>
  <wpt lat="43.193273" lon="-3.636761">
    <ele>1073.1</ele>
    <name>Tramo 967: 97.7%</name>
    <desc>Pendiente 97.7% en ventana de 8.4m (umbral 35%)</desc>
  </wpt>
  <wpt lat="43.193268" lon="-3.637025">
    <ele>1079.1</ele>
    <name>Tramo 969: 46.8%</name>
    <desc>Pendiente 46.8% en ventana de 9.4m (umbral 35%)</desc>
  </wpt>
  <wpt lat="43.193321" lon="-3.637221">
    <ele>1076.6</ele>
    <name>Tramo 971: -49.2%</name>
    <desc>Pendiente -49.2% en ventana de 7.7m (umbral 35%)</desc>
  </wpt>
  <wpt lat="43.193286" lon="-3.637464">
    <ele>1084.8</ele>
    <name>Tramo 973: 63.4%</name>
    <desc>Pendiente 63.4% en ventana de 9.1m (umbral 35%)</desc>
  </wpt>
  <wpt lat="43.19327" lon="-3.637558">
    <ele>1088.8</ele>
    <name>Tramo 974: 51.1%</name>
    <desc>Pendiente 51.1% en ventana de 7.8m (umbral 35%)</desc>
  </wpt>
  <wpt lat="43.193087" lon="-3.644179">
    <ele>1116.1</ele>
    <name>Tramo 1036: 60.8%</name>
    <desc>Pendiente 60.8% en ventana de 2.5m (umbral 35%)</desc>
  </wpt>
  <wpt lat="43.193018" lon="-3.644327">
    <ele>1113.9</ele>
    <name>Tramo 1038: -43.8%</name>
    <desc>Pendiente -43.8% en ventana de 6.9m (umbral 35%)</desc>
  </wpt>
  <wpt lat="43.193017" lon="-3.644338">
    <ele>1113.5</ele>
    <name>Tramo 1039: -44.5%</name>
    <desc>Pendiente -44.5% en ventana de 0.9m (umbral 35%)</desc>
  </wpt>
  <wpt lat="43.201184" lon="-3.638827">
    <ele>1083.3</ele>
    <name>Tramo 1263: -38.0%</name>
    <desc>Pendiente -38.0% en ventana de 5.3m (umbral 35%)</desc>
  </wpt>
  <wpt lat="43.201196" lon="-3.638811">
    <ele>1082.6</ele>
    <name>Tramo 1264: -37.6%</name>
    <desc>Pendiente -37.6% en ventana de 1.9m (umbral 35%)</desc>
  </wpt>
  <wpt lat="43.202034" lon="-3.637986">
    <ele>1079.9</ele>
    <name>Tramo 1278: -89.1%</name>
    <desc>Pendiente -89.1% en ventana de 9.7m (umbral 35%)</desc>
  </wpt>
  <wpt lat="43.202267" lon="-3.637694">
    <ele>1075.8</ele>
    <name>Tramo 1283: -54.3%</name>
    <desc>Pendiente -54.3% en ventana de 8.6m (umbral 35%)</desc>
  </wpt>
  <wpt lat="43.202434" lon="-3.637497">
    <ele>1077.0</ele>
    <name>Tramo 1286: -81.9%</name>
    <desc>Pendiente -81.9% en ventana de 3.5m (umbral 35%)</desc>
  </wpt>
  <wpt lat="43.202629" lon="-3.63728">
    <ele>1065.4</ele>
    <name>Tramo 1290: -90.3%</name>
    <desc>Pendiente -90.3% en ventana de 6.6m (umbral 35%)</desc>
  </wpt>
  <wpt lat="43.20266" lon="-3.637253">
    <ele>1063.7</ele>
    <name>Tramo 1291: -41.6%</name>
    <desc>Pendiente -41.6% en ventana de 4.1m (umbral 35%)</desc>
  </wpt>
  <wpt lat="43.202718" lon="-3.637177">
    <ele>1060.4</ele>
    <name>Tramo 1292: -37.0%</name>
    <desc>Pendiente -37.0% en ventana de 8.9m (umbral 35%)</desc>
  </wpt>
  <wpt lat="43.203328" lon="-3.636164">
    <ele>1055.0</ele>
    <name>Tramo 1301: -35.8%</name>
    <desc>Pendiente -35.8% en ventana de 8.4m (umbral 35%)</desc>
  </wpt>
  <wpt lat="43.203361" lon="-3.636108">
    <ele>1051.7</ele>
    <name>Tramo 1302: -56.5%</name>
    <desc>Pendiente -56.5% en ventana de 5.8m (umbral 35%)</desc>
  </wpt>
  <wpt lat="43.203566" lon="-3.635895">
    <ele>1051.1</ele>
    <name>Tramo 1307: 77.8%</name>
    <desc>Pendiente 77.8% en ventana de 9.8m (umbral 35%)</desc>
  </wpt>
  <wpt lat="43.203782" lon="-3.63569">
    <ele>1055.8</ele>
    <name>Tramo 1310: 64.4%</name>
    <desc>Pendiente 64.4% en ventana de 5.9m (umbral 35%)</desc>
  </wpt>
  <wpt lat="43.204364" lon="-3.634895">
    <ele>1050.2</ele>
    <name>Tramo 1318: -87.5%</name>
    <desc>Pendiente -87.5% en ventana de 3.7m (umbral 35%)</desc>
  </wpt>
  <wpt lat="43.20461" lon="-3.634593">
    <ele>1052.7</ele>
    <name>Tramo 1322: 72.7%</name>
    <desc>Pendiente 72.7% en ventana de 0.3m (umbral 35%)</desc>
  </wpt>
  <wpt lat="43.204782" lon="-3.634393">
    <ele>1050.6</ele>
    <name>Tramo 1326: -68.2%</name>
    <desc>Pendiente -68.2% en ventana de 7.2m (umbral 35%)</desc>
  </wpt>
  <wpt lat="43.204814" lon="-3.634347">
    <ele>1047.6</ele>
    <name>Tramo 1327: -58.2%</name>
    <desc>Pendiente -58.2% en ventana de 5.2m (umbral 35%)</desc>
  </wpt>
  <wpt lat="43.204969" lon="-3.634157">
    <ele>1041.0</ele>
    <name>Tramo 1330: -89.9%</name>
    <desc>Pendiente -89.9% en ventana de 8.1m (umbral 35%)</desc>
  </wpt>
  <wpt lat="43.205094" lon="-3.634108">
    <ele>1045.7</ele>
    <name>Tramo 1332: 85.7%</name>
    <desc>Pendiente 85.7% en ventana de 7.2m (umbral 35%)</desc>
  </wpt>
  <wpt lat="43.205143" lon="-3.634079">
    <ele>1048.9</ele>
    <name>Tramo 1333: 53.9%</name>
    <desc>Pendiente 53.9% en ventana de 5.9m (umbral 35%)</desc>
  </wpt>
  <wpt lat="43.205231" lon="-3.63398">
    <ele>1041.6</ele>
    <name>Tramo 1335: -50.7%</name>
    <desc>Pendiente -50.7% en ventana de 2.8m (umbral 35%)</desc>
  </wpt>
  <wpt lat="43.20541" lon="-3.633817">
    <ele>1043.8</ele>
    <name>Tramo 1339: 37.0%</name>
    <desc>Pendiente 37.0% en ventana de 9.7m (umbral 35%)</desc>
  </wpt>
  <wpt lat="43.205405" lon="-3.633796">
    <ele>1043.1</ele>
    <name>Tramo 1340: -39.1%</name>
    <desc>Pendiente -39.1% en ventana de 1.8m (umbral 35%)</desc>
  </wpt>
  <wpt lat="43.205407" lon="-3.633673">
    <ele>1038.9</ele>
    <name>Tramo 1342: -44.8%</name>
    <desc>Pendiente -44.8% en ventana de 10.0m (umbral 35%)</desc>
  </wpt>
  <wpt lat="43.206102" lon="-3.632747">
    <ele>1040.1</ele>
    <name>Tramo 1355: -35.1%</name>
    <desc>Pendiente -35.1% en ventana de 8.6m (umbral 35%)</desc>
  </wpt>
  <wpt lat="43.206363" lon="-3.632218">
    <ele>1036.9</ele>
    <name>Tramo 1362: -44.7%</name>
    <desc>Pendiente -44.7% en ventana de 6.0m (umbral 35%)</desc>
  </wpt>
  <wpt lat="43.207316" lon="-3.630075">
    <ele>1031.5</ele>
    <name>Tramo 1385: 38.5%</name>
    <desc>Pendiente 38.5% en ventana de 2.1m (umbral 35%)</desc>
  </wpt>
  <wpt lat="43.207451" lon="-3.62977">
    <ele>1030.9</ele>
    <name>Tramo 1388: -40.9%</name>
    <desc>Pendiente -40.9% en ventana de 4.6m (umbral 35%)</desc>
  </wpt>
  <wpt lat="43.207532" lon="-3.629413">
    <ele>1026.5</ele>
    <name>Tramo 1392: -62.7%</name>
    <desc>Pendiente -62.7% en ventana de 4.5m (umbral 35%)</desc>
  </wpt>
  <wpt lat="43.20752" lon="-3.62932">
    <ele>1023.1</ele>
    <name>Tramo 1393: -44.4%</name>
    <desc>Pendiente -44.4% en ventana de 7.7m (umbral 35%)</desc>
  </wpt>
  <wpt lat="43.207659" lon="-3.628577">
    <ele>1014.1</ele>
    <name>Tramo 1401: 42.7%</name>
    <desc>Pendiente 42.7% en ventana de 7.5m (umbral 35%)</desc>
  </wpt>
  <wpt lat="43.207796" lon="-3.628304">
    <ele>1014.7</ele>
    <name>Tramo 1405: -41.5%</name>
    <desc>Pendiente -41.5% en ventana de 9.0m (umbral 35%)</desc>
  </wpt>
  <wpt lat="43.207813" lon="-3.627322">
    <ele>1003.3</ele>
    <name>Tramo 1417: -35.6%</name>
    <desc>Pendiente -35.6% en ventana de 8.4m (umbral 35%)</desc>
  </wpt>
  <wpt lat="43.207753" lon="-3.627209">
    <ele>999.9</ele>
    <name>Tramo 1420: -39.4%</name>
    <desc>Pendiente -39.4% en ventana de 8.3m (umbral 35%)</desc>
  </wpt>
  <wpt lat="43.207697" lon="-3.627072">
    <ele>995.8</ele>
    <name>Tramo 1422: -44.9%</name>
    <desc>Pendiente -44.9% en ventana de 3.6m (umbral 35%)</desc>
  </wpt>
  <wpt lat="43.208131" lon="-3.622557">
    <ele>999.0</ele>
    <name>Tramo 1469: 51.2%</name>
    <desc>Pendiente 51.2% en ventana de 9.8m (umbral 35%)</desc>
  </wpt>
  <wpt lat="43.208166" lon="-3.6225">
    <ele>995.0</ele>
    <name>Tramo 1470: -66.2%</name>
    <desc>Pendiente -66.2% en ventana de 6.0m (umbral 35%)</desc>
  </wpt>
  <wpt lat="43.208313" lon="-3.62193">
    <ele>1001.0</ele>
    <name>Tramo 1475: 40.8%</name>
    <desc>Pendiente 40.8% en ventana de 7.4m (umbral 35%)</desc>
  </wpt>
  <wpt lat="43.207983" lon="-3.620126">
    <ele>997.5</ele>
    <name>Tramo 1496: 44.9%</name>
    <desc>Pendiente 44.9% en ventana de 6.3m (umbral 35%)</desc>
  </wpt>
  <wpt lat="43.208352" lon="-3.620454">
    <ele>1010.1</ele>
    <name>Tramo 1505: 37.1%</name>
    <desc>Pendiente 37.1% en ventana de 7.3m (umbral 35%)</desc>
  </wpt>
  <wpt lat="43.208414" lon="-3.620467">
    <ele>1013.5</ele>
    <name>Tramo 1506: 48.8%</name>
    <desc>Pendiente 48.8% en ventana de 7.0m (umbral 35%)</desc>
  </wpt>
  <wpt lat="43.208441" lon="-3.620495">
    <ele>1015.1</ele>
    <name>Tramo 1507: 42.5%</name>
    <desc>Pendiente 42.5% en ventana de 3.8m (umbral 35%)</desc>
  </wpt>
  <wpt lat="43.208488" lon="-3.620515">
    <ele>1018.5</ele>
    <name>Tramo 1508: 62.1%</name>
    <desc>Pendiente 62.1% en ventana de 5.5m (umbral 35%)</desc>
  </wpt>
  <wpt lat="43.208529" lon="-3.620493">
    <ele>1020.9</ele>
    <name>Tramo 1509: 49.0%</name>
    <desc>Pendiente 49.0% en ventana de 4.9m (umbral 35%)</desc>
  </wpt>
  <wpt lat="43.208557" lon="-3.620491">
    <ele>1022.5</ele>
    <name>Tramo 1510: 51.3%</name>
    <desc>Pendiente 51.3% en ventana de 3.1m (umbral 35%)</desc>
  </wpt>
  <wpt lat="43.208604" lon="-3.620438">
    <ele>1026.1</ele>
    <name>Tramo 1511: 53.2%</name>
    <desc>Pendiente 53.2% en ventana de 6.8m (umbral 35%)</desc>
  </wpt>
  <wpt lat="43.208646" lon="-3.620401">
    <ele>1029.4</ele>
    <name>Tramo 1512: 59.5%</name>
    <desc>Pendiente 59.5% en ventana de 5.6m (umbral 35%)</desc>
  </wpt>
  <wpt lat="43.208702" lon="-3.620244">
    <ele>1032.9</ele>
    <name>Tramo 1514: 44.8%</name>
    <desc>Pendiente 44.8% en ventana de 4.2m (umbral 35%)</desc>
  </wpt>
  <wpt lat="43.208757" lon="-3.620135">
    <ele>1037.0</ele>
    <name>Tramo 1516: 49.1%</name>
    <desc>Pendiente 49.1% en ventana de 4.7m (umbral 35%)</desc>
  </wpt>
  <wpt lat="43.208827" lon="-3.620271">
    <ele>1041.7</ele>
    <name>Tramo 1518: 48.5%</name>
    <desc>Pendiente 48.5% en ventana de 4.7m (umbral 35%)</desc>
  </wpt>
  <wpt lat="43.208985" lon="-3.619173">
    <ele>1065.2</ele>
    <name>Tramo 1528: 46.0%</name>
    <desc>Pendiente 46.0% en ventana de 8.7m (umbral 35%)</desc>
  </wpt>
  <wpt lat="43.209091" lon="-3.61885">
    <ele>1071.7</ele>
    <name>Tramo 1532: 38.9%</name>
    <desc>Pendiente 38.9% en ventana de 6.9m (umbral 35%)</desc>
  </wpt>
  <wpt lat="43.208992" lon="-3.618476">
    <ele>1071.0</ele>
    <name>Tramo 1540: -41.8%</name>
    <desc>Pendiente -41.8% en ventana de 9.7m (umbral 35%)</desc>
  </wpt>
  <wpt lat="43.208849" lon="-3.617858">
    <ele>1071.1</ele>
    <name>Tramo 1549: 62.4%</name>
    <desc>Pendiente 62.4% en ventana de 5.9m (umbral 35%)</desc>
  </wpt>
  <wpt lat="43.20872" lon="-3.617607">
    <ele>1065.7</ele>
    <name>Tramo 1554: -59.6%</name>
    <desc>Pendiente -59.6% en ventana de 5.4m (umbral 35%)</desc>
  </wpt>
  <wpt lat="43.208691" lon="-3.617555">
    <ele>1061.2</ele>
    <name>Tramo 1555: -84.8%</name>
    <desc>Pendiente -84.8% en ventana de 5.3m (umbral 35%)</desc>
  </wpt>
  <wpt lat="43.208692" lon="-3.617524">
    <ele>1060.1</ele>
    <name>Tramo 1556: -43.7%</name>
    <desc>Pendiente -43.7% en ventana de 2.5m (umbral 35%)</desc>
  </wpt>
  <wpt lat="43.208712" lon="-3.617394">
    <ele>1061.5</ele>
    <name>Tramo 1559: 50.1%</name>
    <desc>Pendiente 50.1% en ventana de 8.5m (umbral 35%)</desc>
  </wpt>
  <wpt lat="43.208721" lon="-3.617369">
    <ele>1063.1</ele>
    <name>Tramo 1560: 70.8%</name>
    <desc>Pendiente 70.8% en ventana de 2.3m (umbral 35%)</desc>
  </wpt>
  <wpt lat="43.208729" lon="-3.617352">
    <ele>1064.0</ele>
    <name>Tramo 1561: 54.9%</name>
    <desc>Pendiente 54.9% en ventana de 1.6m (umbral 35%)</desc>
  </wpt>
  <wpt lat="43.208746" lon="-3.616875">
    <ele>1070.8</ele>
    <name>Tramo 1566: 77.0%</name>
    <desc>Pendiente 77.0% en ventana de 5.2m (umbral 35%)</desc>
  </wpt>
  <wpt lat="43.208733" lon="-3.616624">
    <ele>1072.7</ele>
    <name>Tramo 1570: 43.0%</name>
    <desc>Pendiente 43.0% en ventana de 6.6m (umbral 35%)</desc>
  </wpt>
  <wpt lat="43.208797" lon="-3.616522">
    <ele>1076.6</ele>
    <name>Tramo 1572: 46.0%</name>
    <desc>Pendiente 46.0% en ventana de 6.1m (umbral 35%)</desc>
  </wpt>
  <wpt lat="43.20884" lon="-3.616492">
    <ele>1081.0</ele>
    <name>Tramo 1573: 82.0%</name>
    <desc>Pendiente 82.0% en ventana de 5.4m (umbral 35%)</desc>
  </wpt>
  <wpt lat="43.208865" lon="-3.61642">
    <ele>1083.4</ele>
    <name>Tramo 1574: 37.1%</name>
    <desc>Pendiente 37.1% en ventana de 6.5m (umbral 35%)</desc>
  </wpt>
  <wpt lat="43.20888" lon="-3.616384">
    <ele>1085.3</ele>
    <name>Tramo 1575: 56.5%</name>
    <desc>Pendiente 56.5% en ventana de 3.4m (umbral 35%)</desc>
  </wpt>
  <wpt lat="43.208909" lon="-3.616381">
    <ele>1087.7</ele>
    <name>Tramo 1576: 74.2%</name>
    <desc>Pendiente 74.2% en ventana de 3.2m (umbral 35%)</desc>
  </wpt>
  <wpt lat="43.208931" lon="-3.616344">
    <ele>1090.0</ele>
    <name>Tramo 1577: 59.4%</name>
    <desc>Pendiente 59.4% en ventana de 3.9m (umbral 35%)</desc>
  </wpt>
  <wpt lat="43.208859" lon="-3.615534">
    <ele>1085.1</ele>
    <name>Tramo 1587: -65.9%</name>
    <desc>Pendiente -65.9% en ventana de 4.6m (umbral 35%)</desc>
  </wpt>
  <wpt lat="43.20886" lon="-3.615464">
    <ele>1089.2</ele>
    <name>Tramo 1588: 72.2%</name>
    <desc>Pendiente 72.2% en ventana de 5.7m (umbral 35%)</desc>
  </wpt>
  <wpt lat="43.208841" lon="-3.615414">
    <ele>1091.9</ele>
    <name>Tramo 1589: 59.1%</name>
    <desc>Pendiente 59.1% en ventana de 4.6m (umbral 35%)</desc>
  </wpt>
  <wpt lat="43.208827" lon="-3.615344">
    <ele>1095.4</ele>
    <name>Tramo 1590: 59.5%</name>
    <desc>Pendiente 59.5% en ventana de 5.9m (umbral 35%)</desc>
  </wpt>
  <wpt lat="43.208852" lon="-3.61504">
    <ele>1089.9</ele>
    <name>Tramo 1593: -73.5%</name>
    <desc>Pendiente -73.5% en ventana de 6.8m (umbral 35%)</desc>
  </wpt>
  <wpt lat="43.208845" lon="-3.614956">
    <ele>1085.5</ele>
    <name>Tramo 1594: -64.2%</name>
    <desc>Pendiente -64.2% en ventana de 6.9m (umbral 35%)</desc>
  </wpt>
  <wpt lat="43.208785" lon="-3.614763">
    <ele>1085.4</ele>
    <name>Tramo 1597: -74.8%</name>
    <desc>Pendiente -74.8% en ventana de 1.6m (umbral 35%)</desc>
  </wpt>
  <wpt lat="43.208747" lon="-3.614742">
    <ele>1080.0</ele>
    <name>Tramo 1598: -118.5%</name>
    <desc>Pendiente -118.5% en ventana de 4.6m (umbral 35%)</desc>
  </wpt>
  <wpt lat="43.208698" lon="-3.614717">
    <ele>1079.5</ele>
    <name>Tramo 1602: 72.9%</name>
    <desc>Pendiente 72.9% en ventana de 7.5m (umbral 35%)</desc>
  </wpt>
  <wpt lat="43.208661" lon="-3.614856">
    <ele>1074.1</ele>
    <name>Tramo 1604: -69.4%</name>
    <desc>Pendiente -69.4% en ventana de 4.0m (umbral 35%)</desc>
  </wpt>
  <wpt lat="43.208616" lon="-3.614914">
    <ele>1070.1</ele>
    <name>Tramo 1606: -64.8%</name>
    <desc>Pendiente -64.8% en ventana de 7.8m (umbral 35%)</desc>
  </wpt>
  <wpt lat="43.208505" lon="-3.61477">
    <ele>1065.9</ele>
    <name>Tramo 1608: -39.9%</name>
    <desc>Pendiente -39.9% en ventana de 8.3m (umbral 35%)</desc>
  </wpt>
  <wpt lat="43.208367" lon="-3.61453">
    <ele>1057.2</ele>
    <name>Tramo 1612: -44.1%</name>
    <desc>Pendiente -44.1% en ventana de 8.6m (umbral 35%)</desc>
  </wpt>
  <wpt lat="43.208362" lon="-3.61453">
    <ele>1056.9</ele>
    <name>Tramo 1613: -54.0%</name>
    <desc>Pendiente -54.0% en ventana de 0.6m (umbral 35%)</desc>
  </wpt>
  <wpt lat="43.208336" lon="-3.614509">
    <ele>1055.4</ele>
    <name>Tramo 1615: -47.2%</name>
    <desc>Pendiente -47.2% en ventana de 3.4m (umbral 35%)</desc>
  </wpt>
  <wpt lat="43.208283" lon="-3.614523">
    <ele>1052.5</ele>
    <name>Tramo 1616: -48.3%</name>
    <desc>Pendiente -48.3% en ventana de 6.0m (umbral 35%)</desc>
  </wpt>
  <wpt lat="43.208176" lon="-3.614525">
    <ele>1047.5</ele>
    <name>Tramo 1618: -64.6%</name>
    <desc>Pendiente -64.6% en ventana de 4.5m (umbral 35%)</desc>
  </wpt>
  <wpt lat="43.20821" lon="-3.61278">
    <ele>1039.4</ele>
    <name>Tramo 1634: -54.3%</name>
    <desc>Pendiente -54.3% en ventana de 4.2m (umbral 35%)</desc>
  </wpt>
  <wpt lat="43.208215" lon="-3.612745">
    <ele>1038.2</ele>
    <name>Tramo 1635: -41.5%</name>
    <desc>Pendiente -41.5% en ventana de 2.9m (umbral 35%)</desc>
  </wpt>
  <wpt lat="43.208983" lon="-3.609469">
    <ele>1028.7</ele>
    <name>Tramo 1670: -39.3%</name>
    <desc>Pendiente -39.3% en ventana de 5.3m (umbral 35%)</desc>
  </wpt>
  <wpt lat="43.208848" lon="-3.609023">
    <ele>1022.7</ele>
    <name>Tramo 1678: -38.1%</name>
    <desc>Pendiente -38.1% en ventana de 8.9m (umbral 35%)</desc>
  </wpt>
  <wpt lat="43.208538" lon="-3.608829">
    <ele>1015.4</ele>
    <name>Tramo 1683: -35.6%</name>
    <desc>Pendiente -35.6% en ventana de 7.0m (umbral 35%)</desc>
  </wpt>
  <wpt lat="43.208413" lon="-3.608824">
    <ele>1010.4</ele>
    <name>Tramo 1685: -54.4%</name>
    <desc>Pendiente -54.4% en ventana de 6.3m (umbral 35%)</desc>
  </wpt>
  <wpt lat="43.208295" lon="-3.608692">
    <ele>1007.4</ele>
    <name>Tramo 1688: -50.3%</name>
    <desc>Pendiente -50.3% en ventana de 1.8m (umbral 35%)</desc>
  </wpt>
  <wpt lat="43.208215" lon="-3.608369">
    <ele>1002.1</ele>
    <name>Tramo 1691: -90.0%</name>
    <desc>Pendiente -90.0% en ventana de 3.8m (umbral 35%)</desc>
  </wpt>
  <wpt lat="43.208231" lon="-3.608279">
    <ele>998.3</ele>
    <name>Tramo 1692: -50.6%</name>
    <desc>Pendiente -50.6% en ventana de 7.5m (umbral 35%)</desc>
  </wpt>
  <wpt lat="43.208215" lon="-3.608246">
    <ele>996.1</ele>
    <name>Tramo 1693: -68.5%</name>
    <desc>Pendiente -68.5% en ventana de 3.2m (umbral 35%)</desc>
  </wpt>
  <wpt lat="43.208171" lon="-3.607714">
    <ele>988.6</ele>
    <name>Tramo 1704: -35.7%</name>
    <desc>Pendiente -35.7% en ventana de 8.3m (umbral 35%)</desc>
  </wpt>
  <wpt lat="43.208041" lon="-3.607776">
    <ele>984.2</ele>
    <name>Tramo 1707: -39.5%</name>
    <desc>Pendiente -39.5% en ventana de 2.0m (umbral 35%)</desc>
  </wpt>
  <wpt lat="43.207606" lon="-3.607884">
    <ele>972.9</ele>
    <name>Tramo 1714: -40.9%</name>
    <desc>Pendiente -40.9% en ventana de 9.7m (umbral 35%)</desc>
  </wpt>
  <wpt lat="43.207536" lon="-3.607929">
    <ele>969.0</ele>
    <name>Tramo 1715: -45.4%</name>
    <desc>Pendiente -45.4% en ventana de 8.6m (umbral 35%)</desc>
  </wpt>
  <wpt lat="43.207468" lon="-3.608033">
    <ele>965.3</ele>
    <name>Tramo 1718: -51.1%</name>
    <desc>Pendiente -51.1% en ventana de 6.2m (umbral 35%)</desc>
  </wpt>
  <wpt lat="43.20739" lon="-3.607957">
    <ele>962.0</ele>
    <name>Tramo 1722: -38.4%</name>
    <desc>Pendiente -38.4% en ventana de 8.5m (umbral 35%)</desc>
  </wpt>
  <wpt lat="43.207216" lon="-3.605869">
    <ele>936.8</ele>
    <name>Tramo 1744: -78.7%</name>
    <desc>Pendiente -78.7% en ventana de 6.6m (umbral 35%)</desc>
  </wpt>
  <wpt lat="43.207186" lon="-3.605886">
    <ele>935.0</ele>
    <name>Tramo 1745: -49.9%</name>
    <desc>Pendiente -49.9% en ventana de 3.6m (umbral 35%)</desc>
  </wpt>
  <wpt lat="43.207166" lon="-3.605866">
    <ele>932.9</ele>
    <name>Tramo 1747: -52.2%</name>
    <desc>Pendiente -52.2% en ventana de 4.9m (umbral 35%)</desc>
  </wpt>
  <wpt lat="43.207206" lon="-3.605717">
    <ele>930.1</ele>
    <name>Tramo 1749: -52.3%</name>
    <desc>Pendiente -52.3% en ventana de 2.3m (umbral 35%)</desc>
  </wpt>
  <wpt lat="43.207214" lon="-3.6056">
    <ele>926.6</ele>
    <name>Tramo 1750: -36.7%</name>
    <desc>Pendiente -36.7% en ventana de 9.5m (umbral 35%)</desc>
  </wpt>
  <wpt lat="43.207217" lon="-3.605543">
    <ele>924.5</ele>
    <name>Tramo 1751: -45.3%</name>
    <desc>Pendiente -45.3% en ventana de 4.6m (umbral 35%)</desc>
  </wpt>
  <wpt lat="43.207523" lon="-3.604497">
    <ele>907.6</ele>
    <name>Tramo 1764: -36.1%</name>
    <desc>Pendiente -36.1% en ventana de 5.5m (umbral 35%)</desc>
  </wpt>
  <wpt lat="43.207067" lon="-3.604047">
    <ele>892.9</ele>
    <name>Tramo 1776: -35.3%</name>
    <desc>Pendiente -35.3% en ventana de 3.1m (umbral 35%)</desc>
  </wpt>
  <wpt lat="43.207092" lon="-3.60337">
    <ele>888.0</ele>
    <name>Tramo 1785: -42.0%</name>
    <desc>Pendiente -42.0% en ventana de 6.3m (umbral 35%)</desc>
  </wpt>
  <wpt lat="43.201307" lon="-3.589177">
    <ele>708.8</ele>
    <name>Tramo 1909: -78.5%</name>
    <desc>Pendiente -78.5% en ventana de 8.6m (umbral 35%)</desc>
  </wpt>
</gpx>