<?xml version="1.0" encoding="UTF-8"?>
<gpx xmlns="http://www.topografix.com/GPX/1/1" xmlns:xsi="http://www.w3.org/2001/XMLSchema-instance" xsi:schemaLocation="http://www.topografix.com/GPX/1/1 http://www.topografix.com/GPX/1/1/gpx.xsd" version="1.1" creator="gpx.py -- https://github.com/tkrajina/gpxpy">
  <wpt lat="43.199466" lon="-3.587143">
    <ele>714.5</ele>
    <name>Tramo 42: 47.4%</name>
    <desc>Pendiente 47.4% en ventana de 9.6m (umbral 35%)</desc>
  </wpt>
  <wpt lat="43.199511" lon="-3.587298">
    <ele>717.7</ele>
    <name>Tramo 46: 35.8%</name>
    <desc>Pendiente 35.8% en ventana de 7.3m (umbral 35%)</desc>
  </wpt>
  <wpt lat="43.199547" lon="-3.58738">
    <ele>719.1</ele>
    <name>Tramo 49: 42.3%</name>
    <desc>Pendiente 42.3% en ventana de 8.9m (umbral 35%)</desc>
  </wpt>
  <wpt lat="43.199543" lon="-3.587421">
    <ele>721.7</ele>
    <name>Tramo 51: 85.0%</name>
    <desc>Pendiente 85.0% en ventana de 3.7m (umbral 35%)</desc>
  </wpt>
  <wpt lat="43.199581" lon="-3.587513">
    <ele>724.1</ele>
    <name>Tramo 55: 72.2%</name>
    <desc>Pendiente 72.2% en ventana de 9.8m (umbral 35%)</desc>
  </wpt>
  <wpt lat="43.199632" lon="-3.587635">
    <ele>726.8</ele>
    <name>Tramo 58: 35.7%</name>
    <desc>Pendiente 35.7% en ventana de 7.2m (umbral 35%)</desc>
  </wpt>
  <wpt lat="43.199632" lon="-3.587894">
    <ele>732.9</ele>
    <name>Tramo 65: 40.1%</name>
    <desc>Pendiente 40.1% en ventana de 6.4m (umbral 35%)</desc>
  </wpt>
  <wpt lat="43.199634" lon="-3.587949">
    <ele>734.1</ele>
    <name>Tramo 68: 44.5%</name>
    <desc>Pendiente 44.5% en ventana de 5.0m (umbral 35%)</desc>
  </wpt>
  <wpt lat="43.199609" lon="-3.588157">
    <ele>739.5</ele>
    <name>Tramo 73: 36.4%</name>
    <desc>Pendiente 36.4% en ventana de 8.4m (umbral 35%)</desc>
  </wpt>
  <wpt lat="43.199609" lon="-3.588242">
    <ele>742.0</ele>
    <name>Tramo 75: 41.1%</name>
    <desc>Pendiente 41.1% en ventana de 7.5m (umbral 35%)</desc>
  </wpt>
  <wpt lat="43.19966" lon="-3.588422">
    <ele>746.4</ele>
    <name>Tramo 78: 38.0%</name>
    <desc>Pendiente 38.0% en ventana de 3.7m (umbral 35%)</desc>
  </wpt>
  <wpt lat="43.199572" lon="-3.588884">
    <ele>756.2</ele>
    <name>Tramo 85: 38.9%</name>
    <desc>Pendiente 38.9% en ventana de 9.6m (umbral 35%)</desc>
  </wpt>
  <wpt lat="43.199325" lon="-3.589342">
    <ele>771.9</ele>
    <name>Tramo 92: 39.5%</name>
    <desc>Pendiente 39.5% en ventana de 8.9m (umbral 35%)</desc>
  </wpt>
  <wpt lat="43.199461" lon="-3.589513">
    <ele>775.8</ele>
    <name>Tramo 96: 41.4%</name>
    <desc>Pendiente 41.4% en ventana de 7.2m (umbral 35%)</desc>
  </wpt>
  <wpt lat="43.199586" lon="-3.589802">
    <ele>783.3</ele>
    <name>Tramo 100: 42.8%</name>
    <desc>Pendiente 42.8% en ventana de 4.9m (umbral 35%)</desc>
  </wpt>
  <wpt lat="43.199688" lon="-3.589927">
    <ele>787.0</ele>
    <name>Tramo 103: 35.8%</name>
    <desc>Pendiente 35.8% en ventana de 7.9m (umbral 35%)</desc>
  </wpt>
  <wpt lat="43.201184" lon="-3.594075">
    <ele>856.4</ele>
    <name>Tramo 156: 44.1%</name>
    <desc>Pendiente 44.1% en ventana de 5.4m (umbral 35%)</desc>
  </wpt>
  <wpt lat="43.201059" lon="-3.594479">
    <ele>866.9</ele>
    <name>Tramo 164: 45.6%</name>
    <desc>Pendiente 45.6% en ventana de 8.7m (umbral 35%)</desc>
  </wpt>
  <wpt lat="43.201194" lon="-3.594886">
    <ele>876.0</ele>
    <name>Tramo 170: 38.9%</name>
    <desc>Pendiente 38.9% en ventana de 9.2m (umbral 35%)</desc>
  </wpt>
  <wpt lat="43.201296" lon="-3.594944">
    <ele>879.8</ele>
    <name>Tramo 175: 36.5%</name>
    <desc>Pendiente 36.5% en ventana de 7.7m (umbral 35%)</desc>
  </wpt>
  <wpt lat="43.201434" lon="-3.594833">
    <ele>883.4</ele>
    <name>Tramo 178: 42.3%</name>
    <desc>Pendiente 42.3% en ventana de 4.0m (umbral 35%)</desc>
  </wpt>
  <wpt lat="43.201456" lon="-3.594839">
    <ele>884.6</ele>
    <name>Tramo 179: 48.1%</name>
    <desc>Pendiente 48.1% en ventana de 2.5m (umbral 35%)</desc>
  </wpt>
  <wpt lat="43.201657" lon="-3.595119">
    <ele>892.6</ele>
    <name>Tramo 189: 43.4%</name>
    <desc>Pendiente 43.4% en ventana de 8.5m (umbral 35%)</desc>
  </wpt>
  <wpt lat="43.202494" lon="-3.598945">
    <ele>924.0</ele>
    <name>Tramo 228: 35.7%</name>
    <desc>Pendiente 35.7% en ventana de 7.8m (umbral 35%)</desc>
  </wpt>
  <wpt lat="43.202423" lon="-3.61175">
    <ele>1009.4</ele>
    <name>Tramo 372: 52.5%</name>
    <desc>Pendiente 52.5% en ventana de 8.8m (umbral 35%)</desc>
  </wpt>
  <wpt lat="43.20242" lon="-3.611753">
    <ele>1009.8</ele>
    <name>Tramo 373: 96.9%</name>
    <desc>Pendiente 96.9% en ventana de 0.4m (umbral 35%)</desc>
  </wpt>
  <wpt lat="43.202417" lon="-3.61175">
    <ele>1010.1</ele>
    <name>Tramo 374: 72.7%</name>
    <desc>Pendiente 72.7% en ventana de 0.4m (umbral 35%)</desc>
  </wpt>
  <wpt lat="43.202414" lon="-3.611996">
    <ele>1017.5</ele>
    <name>Tramo 377: 57.5%</name>
    <desc>Pendiente 57.5% en ventana de 9.4m (umbral 35%)</desc>
  </wpt>
  <wpt lat="43.20232" lon="-3.61265">
    <ele>1023.5</ele>
    <name>Tramo 384: 40.6%</name>
    <desc>Pendiente 40.6% en ventana de 3.2m (umbral 35%)</desc>
  </wpt>
  <wpt lat="43.202314" lon="-3.612729">
    <ele>1025.8</ele>
    <name>Tramo 385: 35.7%</name>
    <desc>Pendiente 35.7% en ventana de 6.4m (umbral 35%)</desc>
  </wpt>
  <wpt lat="43.202282" lon="-3.613092">
    <ele>1031.1</ele>
    <name>Tramo 389: 45.3%</name>
    <desc>Pendiente 45.3% en ventana de 7.9m (umbral 35%)</desc>
  </wpt>
  <wpt lat="43.202187" lon="-3.613199">
    <ele>1036.4</ele>
    <name>Tramo 391: 43.2%</name>
    <desc>Pendiente 43.2% en ventana de 7.2m (umbral 35%)</desc>
  </wpt>
  <wpt lat="43.201881" lon="-3.613289">
    <ele>1045.4</ele>
    <name>Tramo 397: 49.4%</name>
    <desc>Pendiente 49.4% en ventana de 8.9m (umbral 35%)</desc>
  </wpt>
  <wpt lat="43.201839" lon="-3.613365">
    <ele>1048.7</ele>
    <name>Tramo 398: 42.7%</name>
    <desc>Pendiente 42.7% en ventana de 7.7m (umbral 35%)</desc>
  </wpt>
  <wpt lat="43.201817" lon="-3.613432">
    <ele>1051.3</ele>
    <name>Tramo 399: 43.7%</name>
    <desc>Pendiente 43.7% en ventana de 6.0m (umbral 35%)</desc>
  </wpt>
  <wpt lat="43.20176" lon="-3.613585">
    <ele>1056.0</ele>
    <name>Tramo 401: 36.1%</name>
    <desc>Pendiente 36.1% en ventana de 7.8m (umbral 35%)</desc>
  </wpt>
  <wpt lat="43.201709" lon="-3.6136">
    <ele>1059.7</ele>
    <name>Tramo 402: 63.8%</name>
    <desc>Pendiente 63.8% en ventana de 5.8m (umbral 35%)</desc>
  </wpt>
  <wpt lat="43.201699" lon="-3.613596">
    <ele>1060.4</ele>
    <name>Tramo 403: 60.4%</name>
    <desc>Pendiente 60.4% en ventana de 1.2m (umbral 35%)</desc>
  </wpt>
  <wpt lat="43.201646" lon="-3.613569">
    <ele>1063.3</ele>
    <name>Tramo 404: 46.1%</name>
    <desc>Pendiente 46.1% en ventana de 6.3m (umbral 35%)</desc>
  </wpt>
  <wpt lat="43.201618" lon="-3.613572">
    <ele>1065.8</ele>
    <name>Tramo 405: 80.1%</name>
    <desc>Pendiente 80.1% en ventana de 3.1m (umbral 35%)</desc>
  </wpt>
  <wpt lat="43.201576" lon="-3.613632">
    <ele>1069.2</ele>
    <name>Tramo 407: 61.7%</name>
    <desc>Pendiente 61.7% en ventana de 6.8m (umbral 35%)</desc>
  </wpt>
  <wpt lat="43.201543" lon="-3.613656">
    <ele>1071.7</ele>
    <name>Tramo 408: 60.2%</name>
    <desc>Pendiente 60.2% en ventana de 4.2m (umbral 35%)</desc>
  </wpt>
  <wpt lat="43.201503" lon="-3.613696">
    <ele>1075.3</ele>
    <name>Tramo 409: 65.4%</name>
    <desc>Pendiente 65.4% en ventana de 5.5m (umbral 35%)</desc>
  </wpt>
  <wpt lat="43.201473" lon="-3.6137">
    <ele>1077.8</ele>
    <name>Tramo 410: 74.6%</name>
    <desc>Pendiente 74.6% en ventana de 3.4m (umbral 35%)</desc>
  </wpt>
  <wpt lat="43.201436" lon="-3.613707">
    <ele>1080.7</ele>
    <name>Tramo 411: 69.8%</name>
    <desc>Pendiente 69.8% en ventana de 4.2m (umbral 35%)</desc>
  </wpt>
  <wpt lat="43.201405" lon="-3.613725">
    <ele>1083.5</ele>
    <name>Tramo 412: 74.8%</name>
    <desc>Pendiente 74.8% en ventana de 3.7m (umbral 35%)</desc>
  </wpt>
  <wpt lat="43.201381" lon="-3.613748">
    <ele>1085.5</ele>
    <name>Tramo 413: 61.4%</name>
    <desc>Pendiente 61.4% en ventana de 3.3m (umbral 35%)</desc>
  </wpt>
  <wpt lat="43.201373" lon="-3.613743">
    <ele>1086.0</ele>
    <name>Tramo 414: 51.1%</name>
    <desc>Pendiente 51.1% en ventana de 1.0m (umbral 35%)</desc>
  </wpt>
  <wpt lat="43.201236" lon="-3.614414">
    <ele>1096.8</ele>
    <name>Tramo 422: 52.1%</name>
    <desc>Pendiente 52.1% en ventana de 5.8m (umbral 35%)</desc>
  </wpt>
  <wpt lat="43.201183" lon="-3.614628">
    <ele>1101.7</ele>
    <name>Tramo 425: 74.8%</name>
    <desc>Pendiente 74.8% en ventana de 7.1m (umbral 35%)</desc>
  </wpt>
  <wpt lat="43.201173" lon="-3.614678">
    <ele>1103.3</ele>
    <name>Tramo 427: 52.7%</name>
    <desc>Pendiente 52.7% en ventana de 6.2m (umbral 35%)</desc>
  </wpt>
  <wpt lat="43.201167" lon="-3.614698">
    <ele>1104.2</ele>
    <name>Tramo 428: 51.3%</name>
    <desc>Pendiente 51.3% en ventana de 1.8m (umbral 35%)</desc>
  </wpt>
  <wpt lat="43.201162" lon="-3.614765">
    <ele>1106.6</ele>
    <name>Tramo 429: 44.0%</name>
    <desc>Pendiente 44.0% en ventana de 5.5m (umbral 35%)</desc>
  </wpt>
  <wpt lat="43.201186" lon="-3.614784">
    <ele>1104.8</ele>
    <name>Tramo 430: -58.4%</name>
    <desc>Pendiente -58.4% en ventana de 3.1m (umbral 35%)</desc>
  </wpt>
  <wpt lat="43.201172" lon="-3.614809">
    <ele>1106.5</ele>
    <name>Tramo 431: 66.5%</name>
    <desc>Pendiente 66.5% en ventana de 2.6m (umbral 35%)</desc>
  </wpt>
  <wpt lat="43.201168" lon="-3.614823">
    <ele>1107.1</ele>
    <name>Tramo 432: 49.2%</name>
    <desc>Pendiente 49.2% en ventana de 1.2m (umbral 35%)</desc>
  </wpt>
  <wpt lat="43.201115" lon="-3.614789">
    <ele>1110.9</ele>
    <name>Tramo 433: 58.4%</name>
    <desc>Pendiente 58.4% en ventana de 6.5m (umbral 35%)</desc>
  </wpt>
  <wpt lat="43.201067" lon="-3.614787">
    <ele>1115.5</ele>
    <name>Tramo 434: 86.1%</name>
    <desc>Pendiente 86.1% en ventana de 5.3m (umbral 35%)</desc>
  </wpt>
  <wpt lat="43.201046" lon="-3.61481">
    <ele>1117.5</ele>
    <name>Tramo 435: 66.9%</name>
    <desc>Pendiente 66.9% en ventana de 3.0m (umbral 35%)</desc>
  </wpt>
  <wpt lat="43.201019" lon="-3.614805">
    <ele>1120.0</ele>
    <name>Tramo 436: 82.5%</name>
    <desc>Pendiente 82.5% en ventana de 3.0m (umbral 35%)</desc>
  </wpt>
  <wpt lat="43.200994" lon="-3.61483">
    <ele>1123.8</ele>
    <name>Tramo 437: 110.5%</name>
    <desc>Pendiente 110.5% en ventana de 3.4m (umbral 35%)</desc>
  </wpt>
  <wpt lat="43.200956" lon="-3.614927">
    <ele>1126.2</ele>
    <name>Tramo 441: 48.6%</name>
    <desc>Pendiente 48.6% en ventana de 9.8m (umbral 35%)</desc>
  </wpt>
  <wpt lat="43.200912" lon="-3.614944">
    <ele>1129.7</ele>
    <name>Tramo 442: 68.9%</name>
    <desc>Pendiente 68.9% en ventana de 5.1m (umbral 35%)</desc>
  </wpt>
  <wpt lat="43.200868" lon="-3.614914">
    <ele>1133.1</ele>
    <name>Tramo 443: 62.2%</name>
    <desc>Pendiente 62.2% en ventana de 5.5m (umbral 35%)</desc>
  </wpt>
  <wpt lat="43.200809" lon="-3.614974">
    <ele>1136.7</ele>
    <name>Tramo 445: 56.3%</name>
    <desc>Pendiente 56.3% en ventana de 9.7m (umbral 35%)</desc>
  </wpt>
  <wpt lat="43.200767" lon="-3.614939">
    <ele>1140.6</ele>
    <name>Tramo 446: 71.4%</name>
    <desc>Pendiente 71.4% en ventana de 5.5m (umbral 35%)</desc>
  </wpt>
  <wpt lat="43.200745" lon="-3.614901">
    <ele>1143.0</ele>
    <name>Tramo 447: 61.0%</name>
    <desc>Pendiente 61.0% en ventana de 3.9m (umbral 35%)</desc>
  </wpt>
  <wpt lat="43.20071" lon="-3.614848">
    <ele>1146.9</ele>
    <name>Tramo 448: 67.3%</name>
    <desc>Pendiente 67.3% en ventana de 5.8m (umbral 35%)</desc>
  </wpt>
  <wpt lat="43.200691" lon="-3.614798">
    <ele>1149.0</ele>
    <name>Tramo 449: 45.9%</name>
    <desc>Pendiente 45.9% en ventana de 4.6m (umbral 35%)</desc>
  </wpt>
  <wpt lat="43.200672" lon="-3.614773">
    <ele>1150.6</ele>
    <name>Tramo 450: 54.7%</name>
    <desc>Pendiente 54.7% en ventana de 2.9m (umbral 35%)</desc>
  </wpt>
  <wpt lat="43.20064" lon="-3.614759">
    <ele>1152.8</ele>
    <name>Tramo 451: 58.9%</name>
    <desc>Pendiente 58.9% en ventana de 3.7m (umbral 35%)</desc>
  </wpt>
  <wpt lat="43.200607" lon="-3.614735">
    <ele>1154.8</ele>
    <name>Tramo 452: 48.2%</name>
    <desc>Pendiente 48.2% en ventana de 4.2m (umbral 35%)</desc>
  </wpt>
  <wpt lat="43.200579" lon="-3.614709">
    <ele>1157.3</ele>
    <name>Tramo 453: 66.5%</name>
    <desc>Pendiente 66.5% en ventana de 3.8m (umbral 35%)</desc>
  </wpt>
  <wpt lat="43.200557" lon="-3.614715">
    <ele>1158.5</ele>
    <name>Tramo 454: 48.1%</name>
    <desc>Pendiente 48.1% en ventana de 2.5m (umbral 35%)</desc>
  </wpt>
  <wpt lat="43.200507" lon="-3.614832">
    <ele>1161.4</ele>
    <name>Tramo 457: 35.7%</name>
    <desc>Pendiente 35.7% en ventana de 8.9m (umbral 35%)</desc>
  </wpt>
  <wpt lat="43.200483" lon="-3.61486">
    <ele>1164.0</ele>
    <name>Tramo 458: 74.2%</name>
    <desc>Pendiente 74.2% en ventana de 3.5m (umbral 35%)</desc>
  </wpt>
  <wpt lat="43.200458" lon="-3.614881">
    <ele>1167.8</ele>
    <name>Tramo 459: 116.6%</name>
    <desc>Pendiente 116.6% en ventana de 3.3m (umbral 35%)</desc>
  </wpt>
  <wpt lat="43.200446" lon="-3.614893">
    <ele>1169.7</ele>
    <name>Tramo 460: 115.1%</name>
    <desc>Pendiente 115.1% en ventana de 1.7m (umbral 35%)</desc>
  </wpt>
  <wpt lat="43.200421" lon="-3.614979">
    <ele>1170.8</ele>
    <name>Tramo 462: 58.0%</name>
    <desc>Pendiente 58.0% en ventana de 7.7m (umbral 35%)</desc>
  </wpt>
  <wpt lat="43.200398" lon="-3.615028">
    <ele>1174.1</ele>
    <name>Tramo 463: 69.9%</name>
    <desc>Pendiente 69.9% en ventana de 4.7m (umbral 35%)</desc>
  </wpt>
  <wpt lat="43.200375" lon="-3.615067">
    <ele>1176.9</ele>
    <name>Tramo 464: 68.9%</name>
    <desc>Pendiente 68.9% en ventana de 4.1m (umbral 35%)</desc>
  </wpt>
  <wpt lat="43.200338" lon="-3.615106">
    <ele>1180.6</ele>
    <name>Tramo 465: 71.3%</name>
    <desc>Pendiente 71.3% en ventana de 5.2m (umbral 35%)</desc>
  </wpt>
  <wpt lat="43.200313" lon="-3.615114">
    <ele>1182.8</ele>
    <name>Tramo 466: 77.1%</name>
    <desc>Pendiente 77.1% en ventana de 2.9m (umbral 35%)</desc>
  </wpt>
  <wpt lat="43.200298" lon="-3.615104">
    <ele>1184.4</ele>
    <name>Tramo 467: 86.3%</name>
    <desc>Pendiente 86.3% en ventana de 1.9m (umbral 35%)</desc>
  </wpt>
  <wpt lat="43.200283" lon="-3.615087">
    <ele>1186.2</ele>
    <name>Tramo 468: 83.2%</name>
    <desc>Pendiente 83.2% en ventana de 2.2m (umbral 35%)</desc>
  </wpt>
  <wpt lat="43.200249" lon="-3.615083">
    <ele>1188.4</ele>
    <name>Tramo 469: 58.0%</name>
    <desc>Pendiente 58.0% en ventana de 3.8m (umbral 35%)</desc>
  </wpt>
  <wpt lat="43.200211" lon="-3.615071">
    <ele>1190.0</ele>
    <name>Tramo 470: 36.9%</name>
    <desc>Pendiente 36.9% en ventana de 4.3m (umbral 35%)</desc>
  </wpt>
  <wpt lat="43.199956" lon="-3.615144">
    <ele>1189.2</ele>
    <name>Tramo 474: 35.3%</name>
    <desc>Pendiente 35.3% en ventana de 5.7m (umbral 35%)</desc>
  </wpt>
  <wpt lat="43.199873" lon="-3.615278">
    <ele>1190.5</ele>
    <name>Tramo 478: 61.1%</name>
    <desc>Pendiente 61.1% en ventana de 3.1m (umbral 35%)</desc>
  </wpt>
  <wpt lat="43.19988" lon="-3.615445">
    <ele>1194.6</ele>
    <name>Tramo 480: 46.6%</name>
    <desc>Pendiente 46.6% en ventana de 7.9m (umbral 35%)</desc>
  </wpt>
  <wpt lat="43.199864" lon="-3.61563">
    <ele>1200.2</ele>
    <name>Tramo 482: 57.7%</name>
    <desc>Pendiente 57.7% en ventana de 4.3m (umbral 35%)</desc>
  </wpt>
  <wpt lat="43.19986" lon="-3.615688">
    <ele>1202.8</ele>
    <name>Tramo 483: 55.1%</name>
    <desc>Pendiente 55.1% en ventana de 4.7m (umbral 35%)</desc>
  </wpt>
  <wpt lat="43.199884" lon="-3.615809">
    <ele>1207.6</ele>
    <name>Tramo 485: 80.9%</name>
    <desc>Pendiente 80.9% en ventana de 5.2m (umbral 35%)</desc>
  </wpt>
  <wpt lat="43.19991" lon="-3.615879">
    <ele>1212.6</ele>
    <name>Tramo 486: 78.5%</name>
    <desc>Pendiente 78.5% en ventana de 6.4m (umbral 35%)</desc>
  </wpt>
  <wpt lat="43.19993" lon="-3.615947">
    <ele>1215.5</ele>
    <name>Tramo 487: 48.8%</name>
    <desc>Pendiente 48.8% en ventana de 5.9m (umbral 35%)</desc>
  </wpt>
  <wpt lat="43.199952" lon="-3.616014">
    <ele>1218.4</ele>
    <name>Tramo 488: 48.7%</name>
    <desc>Pendiente 48.7% en ventana de 6.0m (umbral 35%)</desc>
  </wpt>
  <wpt lat="43.200005" lon="-3.61609">
    <ele>1224.1</ele>
    <name>Tramo 489: 66.9%</name>
    <desc>Pendiente 66.9% en ventana de 8.5m (umbral 35%)</desc>
  </wpt>
  <wpt lat="43.200012" lon="-3.616128">
    <ele>1226.3</ele>
    <name>Tramo 490: 69.2%</name>
    <desc>Pendiente 69.2% en ventana de 3.2m (umbral 35%)</desc>
  </wpt>
  <wpt lat="43.200024" lon="-3.616255">
    <ele>1229.8</ele>
    <name>Tramo 492: 55.9%</name>
    <desc>Pendiente 55.9% en ventana de 6.4m (umbral 35%)</desc>
  </wpt>
  <wpt lat="43.200023" lon="-3.616324">
    <ele>1232.1</ele>
    <name>Tramo 493: 41.1%</name>
    <desc>Pendiente 41.1% en ventana de 5.6m (umbral 35%)</desc>
  </wpt>
  <wpt lat="43.20004" lon="-3.616427">
    <ele>1236.3</ele>
    <name>Tramo 495: 61.8%</name>
    <desc>Pendiente 61.8% en ventana de 8.9m (umbral 35%)</desc>
  </wpt>
  <wpt lat="43.200023" lon="-3.61651">
    <ele>1238.4</ele>
    <name>Tramo 497: 41.1%</name>
    <desc>Pendiente 41.1% en ventana de 7.2m (umbral 35%)</desc>
  </wpt>
  <wpt lat="43.200018" lon="-3.616674">
    <ele>1241.5</ele>
    <name>Tramo 500: 62.6%</name>
    <desc>Pendiente 62.6% en ventana de 4.5m (umbral 35%)</desc>
  </wpt>
  <wpt lat="43.200026" lon="-3.61673">
    <ele>1243.5</ele>
    <name>Tramo 501: 43.2%</name>
    <desc>Pendiente 43.2% en ventana de 4.6m (umbral 35%)</desc>
  </wpt>
  <wpt lat="43.200051" lon="-3.616797">
    <ele>1248.1</ele>
    <name>Tramo 502: 75.4%</name>
    <desc>Pendiente 75.4% en ventana de 6.1m (umbral 35%)</desc>
  </wpt>
  <wpt lat="43.200029" lon="-3.616917">
    <ele>1251.7</ele>
    <name>Tramo 504: 49.3%</name>
    <desc>Pendiente 49.3% en ventana de 4.1m (umbral 35%)</desc>
  </wpt>
  <wpt lat="43.200054" lon="-3.616951">
    <ele>1254.4</ele>
    <name>Tramo 505: 69.0%</name>
    <desc>Pendiente 69.0% en ventana de 3.9m (umbral 35%)</desc>
  </wpt>
  <wpt lat="43.200077" lon="-3.61697">
    <ele>1257.0</ele>
    <name>Tramo 506: 87.1%</name>
    <desc>Pendiente 87.1% en ventana de 3.0m (umbral 35%)</desc>
  </wpt>
  <wpt lat="43.200084" lon="-3.617001">
    <ele>1258.1</ele>
    <name>Tramo 507: 41.8%</name>
    <desc>Pendiente 41.8% en ventana de 2.6m (umbral 35%)</desc>
  </wpt>
  <wpt lat="43.200091" lon="-3.61707">
    <ele>1261.3</ele>
    <name>Tramo 508: 56.7%</name>
    <desc>Pendiente 56.7% en ventana de 5.6m (umbral 35%)</desc>
  </wpt>
  <wpt lat="43.200105" lon="-3.617109">
    <ele>1263.9</ele>
    <name>Tramo 509: 73.8%</name>
    <desc>Pendiente 73.8% en ventana de 3.5m (umbral 35%)</desc>
  </wpt>
  <wpt lat="43.200123" lon="-3.617166">
    <ele>1267.3</ele>
    <name>Tramo 510: 67.5%</name>
    <desc>Pendiente 67.5% en ventana de 5.0m (umbral 35%)</desc>
  </wpt>
  <wpt lat="43.200122" lon="-3.61719">
    <ele>1268.1</ele>
    <name>Tramo 511: 41.1%</name>
    <desc>Pendiente 41.1% en ventana de 1.9m (umbral 35%)</desc>
  </wpt>
  <wpt lat="43.200125" lon="-3.617216">
    <ele>1270.1</ele>
    <name>Tramo 512: 93.7%</name>
    <desc>Pendiente 93.7% en ventana de 2.1m (umbral 35%)</desc>
  </wpt>
  <wpt lat="43.200125" lon="-3.61724">
    <ele>1272.3</ele>
    <name>Tramo 513: 113.1%</name>
    <desc>Pendiente 113.1% en ventana de 1.9m (umbral 35%)</desc>
  </wpt>
  <wpt lat="43.200122" lon="-3.617287">
    <ele>1275.1</ele>
    <name>Tramo 514: 73.2%</name>
    <desc>Pendiente 73.2% en ventana de 3.8m (umbral 35%)</desc>
  </wpt>
  <wpt lat="43.200128" lon="-3.617336">
    <ele>1278.3</ele>
    <name>Tramo 515: 79.5%</name>
    <desc>Pendiente 79.5% en ventana de 4.0m (umbral 35%)</desc>
  </wpt>
  <wpt lat="43.200132" lon="-3.617439">
    <ele>1281.2</ele>
    <name>Tramo 517: 35.9%</name>
    <desc>Pendiente 35.9% en ventana de 8.5m (umbral 35%)</desc>
  </wpt>
  <wpt lat="43.200138" lon="-3.617469">
    <ele>1282.2</ele>
    <name>Tramo 518: 39.7%</name>
    <desc>Pendiente 39.7% en ventana de 2.5m (umbral 35%)</desc>
  </wpt>
  <wpt lat="43.200161" lon="-3.617527">
    <ele>1284.1</ele>
    <name>Tramo 520: 76.0%</name>
    <desc>Pendiente 76.0% en ventana de 6.1m (umbral 35%)</desc>
  </wpt>
  <wpt lat="43.19427" lon="-3.623702">
    <ele>1288.2</ele>
    <name>Tramo 616: 44.4%</name>
    <desc>Pendiente 44.4% en ventana de 6.8m (umbral 35%)</desc>
  </wpt>
  <wpt lat="43.194256" lon="-3.623669">
    <ele>1289.9</ele>
    <name>Tramo 617: 54.9%</name>
    <desc>Pendiente 54.9% en ventana de 3.1m (umbral 35%)</desc>
  </wpt>
  <wpt lat="43.194243" lon="-3.623625">
    <ele>1292.7</ele>
    <name>Tramo 618: 72.8%</name>
    <desc>Pendiente 72.8% en ventana de 3.8m (umbral 35%)</desc>
  </wpt>
  <wpt lat="43.194182" lon="-3.623593">
    <ele>1296.5</ele>
    <name>Tramo 619: 52.3%</name>
    <desc>Pendiente 52.3% en ventana de 7.3m (umbral 35%)</desc>
  </wpt>
  <wpt lat="43.193983" lon="-3.623477">
    <ele>1303.3</ele>
    <name>Tramo 622: 48.4%</name>
    <desc>Pendiente 48.4% en ventana de 5.8m (umbral 35%)</desc>
  </wpt>
  <wpt lat="43.193913" lon="-3.623413">
    <ele>1307.5</ele>
    <name>Tramo 624: 56.6%</name>
    <desc>Pendiente 56.6% en ventana de 4.1m (umbral 35%)</desc>
  </wpt>
  <wpt lat="43.193931" lon="-3.623362">
    <ele>1309.9</ele>
    <name>Tramo 625: 52.3%</name>
    <desc>Pendiente 52.3% en ventana de 4.6m (umbral 35%)</desc>
  </wpt>
  <wpt lat="43.193932" lon="-3.623357">
    <ele>1310.1</ele>
    <name>Tramo 626: 47.6%</name>
    <desc>Pendiente 47.6% en ventana de 0.4m (umbral 35%)</desc>
  </wpt>
  <wpt lat="43.193927" lon="-3.623329">
    <ele>1311.5</ele>
    <name>Tramo 627: 59.9%</name>
    <desc>Pendiente 59.9% en ventana de 2.3m (umbral 35%)</desc>
  </wpt>
  <wpt lat="43.193952" lon="-3.623305">
    <ele>1313.6</ele>
    <name>Tramo 628: 61.9%</name>
    <desc>Pendiente 61.9% en ventana de 3.4m (umbral 35%)</desc>
  </wpt>
  <wpt lat="43.193952" lon="-3.623302">
    <ele>1313.7</ele>
    <name>Tramo 629: 41.1%</name>
    <desc>Pendiente 41.1% en ventana de 0.2m (umbral 35%)</desc>
  </wpt>
  <wpt lat="43.193984" lon="-3.623288">
    <ele>1315.9</ele>
    <name>Tramo 630: 58.9%</name>
    <desc>Pendiente 58.9% en ventana de 3.7m (umbral 35%)</desc>
  </wpt>
  <wpt lat="43.190797" lon="-3.624014">
    <ele>1298.5</ele>
    <name>Tramo 684: -42.3%</name>
    <desc>Pendiente -42.3% en ventana de 6.9m (umbral 35%)</desc>
  </wpt>
  <wpt lat="43.189532" lon="-3.62755">
    <ele>1265.0</ele>
    <name>Tramo 743: -48.3%</name>
    <desc>Pendiente -48.3% en ventana de 7.9m (umbral 35%)</desc>
  </wpt>
  <wpt lat="43.189987" lon="-3.627842">
    <ele>1250.3</ele>
    <name>Tramo 753: -45.9%</name>
    <desc>Pendiente -45.9% en ventana de 6.0m (umbral 35%)</desc>
  </wpt>
  <wpt lat="43.194628" lon="-3.62848">
    <ele>1107.6</ele>
    <name>Tramo 877: 37.1%</name>
    <desc>Pendiente 37.1% en ventana de 7.3m (umbral 35%)</desc>
  </wpt>
  <wpt lat="43.19293" lon="-3.633285">
    <ele>1062.6</ele>
    <name>Tramo 934: 64.3%</name>
    <desc>Pendiente 64.3% en ventana de 9.3m (umbral 35%)</desc>
  </wpt>
  <wpt lat="43.192883" lon="-3.633826">
    <ele>1073.0</ele>
    <name>Tramo 938: 72.7%</name>
    <desc>Pendiente 72.7% en ventana de 6.3m (umbral 35%)</desc>
  </wpt>
  <wpt lat="43.192898" lon="-3.63394">
    <ele>1067.8</ele>
    <name>Tramo 939: -55.4%</name>
    <desc>Pendiente -55.4% en ventana de 9.4m (umbral 35%)</desc>
  </wpt>
  <wpt lat="43.192933" lon="-3.634185">
    <ele>1058.3</ele>
    <name>Tramo 941: -86.2%</name>
    <desc>Pendiente -86.2% en ventana de 10.0m (umbral 35%)</desc>
  </wpt>
  <wpt lat="43.192951" lon="-3.634204">
    <ele>1055.6</ele>
    <name>Tramo 942: -106.9%</name>
    <desc>Pendiente -106.9% en ventana de 2.5m (umbral 35%)</desc>
  </wpt>
  <wpt lat="43.192948" lon="-3.634268">
    <ele>1052.3</ele>
    <name>Tramo 943: -63.5%</name>
    <desc>Pendiente -63.5% en ventana de 5.2m (umbral 35%)</desc>
  </wpt>
  <wpt lat="43.193062" lon="-3.634793">
    <ele>1046.9</ele>
    <name>Tramo 947: -68.5%</name>
    <desc>Pendiente -68.5% en ventana de 4.1m (umbral 35%)</desc>
  </wpt>
  <wpt lat="43.193078" lon="-3.634827">
    <ele>1049.7</ele>
    <name>Tramo 948: 85.4%</name>
    <desc>Pendiente 85.4% en ventana de 3.3m (umbral 35%)</desc>
  </wpt>
  <wpt lat="43.1931" lon="-3.634862">
    <ele>1054.7</ele>
    <name>Tramo 949: 133.5%</name>
    <desc>Pendiente 133.5% en ventana de 3.7m (umbral 35%)</desc>
  </wpt>
  <wpt lat="43.193122" lon="-3.634897">
    <ele>1049.2</ele>
    <name>Tramo 950: -146.8%</name>
    <desc>Pendiente -146.8% en ventana de 3.7m (umbral 35%)</desc>
  </wpt>
  <wpt lat="43.193166" lon="-3.634986">
    <ele>1056.4</ele>
    <name>Tramo 951: 82.6%</name>
    <desc>Pendiente 82.6% en ventana de 8.7m (umbral 35%)</desc>
  </wpt>
  <wpt lat="43.193202" lon="-3.635088">
    <ele>1044.4</ele>
    <name>Tramo 952: -130.6%</name>
    <desc>Pendiente -130.6% en ventana de 9.2m (umbral 35%)</desc>
  </wpt>
  <wpt lat="43.193382" lon="-3.635445">
    <ele>1053.7</ele>
    <name>Tramo 955: -174.9%</name>
    <desc>Pendiente -174.9% en ventana de 6.4m (umbral 35%)</desc>
  </wpt>
  <wpt lat="43.193446" lon="-3.636235">
    <ele>1073.5</ele>
    <name>Tramo 961: 138.3%</name>
    <desc>Pendiente 138.3% en ventana de 7.9m (umbral 35%)</desc>
  </wpt>
  <wpt lat="43.193404" lon="-3.636521">
    <ele>1072.3</ele>
    <name>Tramo 964: 78.9%</name>
    <desc>Pendiente 78.9% en ventana de 7.0m (umbral 35%)</desc>
  </wpt>
  <wpt lat="43.193144" lon="-3.63927">
    <ele>1102.6</ele>
    <name>Tramo 987: -58.2%</name>
    <desc>Pendiente -58.2% en ventana de 7.2m (umbral 35%)</desc>
  </wpt>
  <wpt lat="43.19303" lon="-3.639713">
    <ele>1112.3</ele>
    <name>Tramo 991: 66.3%</name>
    <desc>Pendiente 66.3% en ventana de 8.0m (umbral 35%)</desc>
  </wpt>
  <wpt lat="43.193032" lon="-3.639818">
    <ele>1109.0</ele>
    <name>Tramo 992: -38.8%</name>
    <desc>Pendiente -38.8% en ventana de 8.5m (umbral 35%)</desc>
  </wpt>
  <wpt lat="43.193022" lon="-3.639915">
    <ele>1113.3</ele>
    <name>Tramo 993: 54.2%</name>
    <desc>Pendiente 54.2% en ventana de 7.9m (umbral 35%)</desc>
  </wpt>
  <wpt lat="43.192758" lon="-3.640688">
    <ele>1130.0</ele>
    <name>Tramo 1006: 108.6%</name>
    <desc>Pendiente 108.6% en ventana de 6.6m (umbral 35%)</desc>
  </wpt>
  <wpt lat="43.193074" lon="-3.643075">
    <ele>1131.0</ele>
    <name>Tramo 1024: -62.1%</name>
    <desc>Pendiente -62.1% en ventana de 4.8m (umbral 35%)</desc>
  </wpt>
  <wpt lat="43.193095" lon="-3.644188">
    <ele>1114.8</ele>
    <name>Tramo 1035: -45.8%</name>
    <desc>Pendiente -45.8% en ventana de 1.3m (umbral 35%)</desc>
  </wpt>
  <wpt lat="43.193087" lon="-3.644179">
    <ele>1115.7</ele>
    <name>Tramo 1036: 78.2%</name>
    <desc>Pendiente 78.2% en ventana de 1.2m (umbral 35%)</desc>
  </wpt>
  <wpt lat="43.201184" lon="-3.638827">
    <ele>1083.3</ele>
    <name>Tramo 1262: -38.0%</name>
    <desc>Pendiente -38.0% en ventana de 5.3m (umbral 35%)</desc>
  </wpt>
  <wpt lat="43.201196" lon="-3.638811">
    <ele>1082.6</ele>
    <name>Tramo 1263: -37.6%</name>
    <desc>Pendiente -37.6% en ventana de 1.9m (umbral 35%)</desc>
  </wpt>
  <wpt lat="43.202034" lon="-3.637986">
    <ele>1079.9</ele>
    <name>Tramo 1277: -89.1%</name>
    <desc>Pendiente -89.1% en ventana de 9.7m (umbral 35%)</desc>
  </wpt>
  <wpt lat="43.202267" lon="-3.637694">
    <ele>1075.8</ele>
    <name>Tramo 1282: -54.3%</name>
    <desc>Pendiente -54.3% en ventana de 8.6m (umbral 35%)</desc>
  </wpt>
  <wpt lat="43.202434" lon="-3.637497">
    <ele>1077.0</ele>
    <name>Tramo 1285: -81.9%</name>
    <desc>Pendiente -81.9% en ventana de 3.5m (umbral 35%)</desc>
  </wpt>
  <wpt lat="43.202629" lon="-3.63728">
    <ele>1065.4</ele>
    <name>Tramo 1289: -90.3%</name>
    <desc>Pendiente -90.3% en ventana de 6.6m (umbral 35%)</desc>
  </wpt>
  <wpt lat="43.20266" lon="-3.637253">
    <ele>1063.7</ele>
    <name>Tramo 1290: -41.6%</name>
    <desc>Pendiente -41.6% en ventana de 4.1m (umbral 35%)</desc>
  </wpt>
  <wpt lat="43.202718" lon="-3.637177">
    <ele>1060.4</ele>
    <name>Tramo 1291: -37.0%</name>
    <desc>Pendiente -37.0% en ventana de 8.9m (umbral 35%)</desc>
  </wpt>
  <wpt lat="43.203363" lon="-3.63624">
    <ele>1053.0</ele>
    <name>Tramo 1298: -55.0%</name>
    <desc>Pendiente -55.0% en ventana de 9.1m (umbral 35%)</desc>
  </wpt>
  <wpt lat="43.203402" lon="-3.63617">
    <ele>1050.5</ele>
    <name>Tramo 1300: -38.2%</name>
    <desc>Pendiente -38.2% en ventana de 7.1m (umbral 35%)</desc>
  </wpt>
  <wpt lat="43.203566" lon="-3.635895">
    <ele>1051.1</ele>
    <name>Tramo 1304: 77.8%</name>
    <desc>Pendiente 77.8% en ventana de 3.9m (umbral 35%)</desc>
  </wpt>
  <wpt lat="43.203782" lon="-3.63569">
    <ele>1055.8</ele>
    <name>Tramo 1307: 64.4%</name>
    <desc>Pendiente 64.4% en ventana de 5.9m (umbral 35%)</desc>
  </wpt>
  <wpt lat="43.204364" lon="-3.634895">
    <ele>1050.2</ele>
    <name>Tramo 1315: -87.5%</name>
    <desc>Pendiente -87.5% en ventana de 3.7m (umbral 35%)</desc>
  </wpt>
  <wpt lat="43.20461" lon="-3.634593">
    <ele>1052.7</ele>
    <name>Tramo 1319: 72.7%</name>
    <desc>Pendiente 72.7% en ventana de 0.3m (umbral 35%)</desc>
  </wpt>
  <wpt lat="43.204782" lon="-3.634393">
    <ele>1050.6</ele>
    <name>Tramo 1323: -68.2%</name>
    <desc>Pendiente -68.2% en ventana de 7.2m (umbral 35%)</desc>
  </wpt>
  <wpt lat="43.204814" lon="-3.634347">
    <ele>1047.6</ele>
    <name>Tramo 1324: -58.2%</name>
    <desc>Pendiente -58.2% en ventana de 5.2m (umbral 35%)</desc>
  </wpt>
  <wpt lat="43.204969" lon="-3.634157">
    <ele>1041.0</ele>
    <name>Tramo 1327: -89.9%</name>
    <desc>Pendiente -89.9% en ventana de 8.1m (umbral 35%)</desc>
  </wpt>
  <wpt lat="43.205094" lon="-3.634108">
    <ele>1045.7</ele>
    <name>Tramo 1329: 85.7%</name>
    <desc>Pendiente 85.7% en ventana de 7.2m (umbral 35%)</desc>
  </wpt>
  <wpt lat="43.205143" lon="-3.634079">
    <ele>1048.9</ele>
    <name>Tramo 1330: 53.9%</name>
    <desc>Pendiente 53.9% en ventana de 5.9m (umbral 35%)</desc>
  </wpt>
  <wpt lat="43.205231" lon="-3.63398">
    <ele>1041.6</ele>
    <name>Tramo 1332: -50.7%</name>
    <desc>Pendiente -50.7% en ventana de 2.8m (umbral 35%)</desc>
  </wpt>
  <wpt lat="43.20541" lon="-3.633817">
    <ele>1043.8</ele>
    <name>Tramo 1336: 37.0%</name>
    <desc>Pendiente 37.0% en ventana de 9.7m (umbral 35%)</desc>
  </wpt>
  <wpt lat="43.205405" lon="-3.633796">
    <ele>1043.1</ele>
    <name>Tramo 1337: -39.1%</name>
    <desc>Pendiente -39.1% en ventana de 1.8m (umbral 35%)</desc>
  </wpt>
  <wpt lat="43.205407" lon="-3.633673">
    <ele>1038.9</ele>
    <name>Tramo 1339: -44.8%</name>
    <desc>Pendiente -44.8% en ventana de 10.0m (umbral 35%)</desc>
  </wpt>
  <wpt lat="43.206102" lon="-3.632747">
    <ele>1040.1</ele>
    <name>Tramo 1352: -35.1%</name>
    <desc>Pendiente -35.1% en ventana de 8.6m (umbral 35%)</desc>
  </wpt>
  <wpt lat="43.206363" lon="-3.632218">
    <ele>1036.9</ele>
    <name>Tramo 1359: -44.7%</name>
    <desc>Pendiente -44.7% en ventana de 6.0m (umbral 35%)</desc>
  </wpt>
  <wpt lat="43.207316" lon="-3.630075">
    <ele>1031.5</ele>
    <name>Tramo 1382: 38.5%</name>
    <desc>Pendiente 38.5% en ventana de 2.1m (umbral 35%)</desc>
  </wpt>
  <wpt lat="43.207451" lon="-3.62977">
    <ele>1030.9</ele>
    <name>Tramo 1385: -40.9%</name>
    <desc>Pendiente -40.9% en ventana de 4.6m (umbral 35%)</desc>
  </wpt>
  <wpt lat="43.207532" lon="-3.629413">
    <ele>1026.5</ele>
    <name>Tramo 1389: -62.7%</name>
    <desc>Pendiente -62.7% en ventana de 4.5m (umbral 35%)</desc>
  </wpt>
  <wpt lat="43.20752" lon="-3.62932">
    <ele>1023.1</ele>
    <name>Tramo 1390: -44.4%</name>
    <desc>Pendiente -44.4% en ventana de 7.7m (umbral 35%)</desc>
  </wpt>
  <wpt lat="43.207659" lon="-3.628577">
    <ele>1014.1</ele>
    <name>Tramo 1398: 42.7%</name>
    <desc>Pendiente 42.7% en ventana de 7.5m (umbral 35%)</desc>
  </wpt>
  <wpt lat="43.207796" lon="-3.628304">
    <ele>1014.7</ele>
    <name>Tramo 1402: -41.5%</name>
    <desc>Pendiente -41.5% en ventana de 9.0m (umbral 35%)</desc>
  </wpt>
  <wpt lat="43.207813" lon="-3.627322">
    <ele>1003.3</ele>
    <name>Tramo 1414: -35.6%</name>
    <desc>Pendiente -35.6% en ventana de 8.4m (umbral 35%)</desc>
  </wpt>
  <wpt lat="43.207753" lon="-3.627209">
    <ele>999.9</ele>
    <name>Tramo 1417: -39.4%</name>
    <desc>Pendiente -39.4% en ventana de 8.3m (umbral 35%)</desc>
  </wpt>
  <wpt lat="43.207697" lon="-3.627072">
    <ele>995.8</ele>
    <name>Tramo 1419: -44.9%</name>
    <desc>Pendiente -44.9% en ventana de 3.6m (umbral 35%)</desc>
  </wpt>
  <wpt lat="43.208131" lon="-3.622557">
    <ele>999.0</ele>
    <name>Tramo 1466: 51.2%</name>
    <desc>Pendiente 51.2% en ventana de 9.8m (umbral 35%)</desc>
  </wpt>
  <wpt lat="43.208166" lon="-3.6225">
    <ele>995.0</ele>
    <name>Tramo 1467: -66.2%</name>
    <desc>Pendiente -66.2% en ventana de 6.0m (umbral 35%)</desc>
  </wpt>
  <wpt lat="43.208313" lon="-3.62193">
    <ele>1001.0</ele>
    <name>Tramo 1472: 40.8%</name>
    <desc>Pendiente 40.8% en ventana de 7.4m (umbral 35%)</desc>
  </wpt>
  <wpt lat="43.207983" lon="-3.620126">
    <ele>997.5</ele>
    <name>Tramo 1493: 44.9%</name>
    <desc>Pendiente 44.9% en ventana de 6.3m (umbral 35%)</desc>
  </wpt>
  <wpt lat="43.208352" lon="-3.620454">
    <ele>1010.1</ele>
    <name>Tramo 1502: 37.1%</name>
    <desc>Pendiente 37.1% en ventana de 7.3m (umbral 35%)</desc>
  </wpt>
  <wpt lat="43.208414" lon="-3.620467">
    <ele>1013.5</ele>
    <name>Tramo 1503: 48.8%</name>
    <desc>Pendiente 48.8% en ventana de 7.0m (umbral 35%)</desc>
  </wpt>
  <wpt lat="43.208441" lon="-3.620495">
    <ele>1015.1</ele>
    <name>Tramo 1504: 42.5%</name>
    <desc>Pendiente 42.5% en ventana de 3.8m (umbral 35%)</desc>
  </wpt>
  <wpt lat="43.208488" lon="-3.620515">
    <ele>1018.5</ele>
    <name>Tramo 1505: 62.1%</name>
    <desc>Pendiente 62.1% en ventana de 5.5m (umbral 35%)</desc>
  </wpt>
  <wpt lat="43.208529" lon="-3.620493">
    <ele>1020.9</ele>
    <name>Tramo 1506: 49.0%</name>
    <desc>Pendiente 49.0% en ventana de 4.9m (umbral 35%)</desc>
  </wpt>
  <wpt lat="43.208557" lon="-3.620491">
    <ele>1022.5</ele>
    <name>Tramo 1507: 51.3%</name>
    <desc>Pendiente 51.3% en ventana de 3.1m (umbral 35%)</desc>
  </wpt>
  <wpt lat="43.208604" lon="-3.620438">
    <ele>1026.1</ele>
    <name>Tramo 1508: 53.2%</name>
    <desc>Pendiente 53.2% en ventana de 6.8m (umbral 35%)</desc>
  </wpt>
  <wpt lat="43.208646" lon="-3.620401">
    <ele>1029.4</ele>
    <name>Tramo 1509: 59.5%</name>
    <desc>Pendiente 59.5% en ventana de 5.6m (umbral 35%)</desc>
  </wpt>
  <wpt lat="43.208702" lon="-3.620244">
    <ele>1032.9</ele>
    <name>Tramo 1511: 44.8%</name>
    <desc>Pendiente 44.8% en ventana de 4.2m (umbral 35%)</desc>
  </wpt>
  <wpt lat="43.208757" lon="-3.620135">
    <ele>1037.0</ele>
    <name>Tramo 1513: 49.1%</name>
    <desc>Pendiente 49.1% en ventana de 4.7m (umbral 35%)</desc>
  </wpt>
  <wpt lat="43.208827" lon="-3.620271">
    <ele>1041.7</ele>
    <name>Tramo 1515: 48.5%</name>
    <desc>Pendiente 48.5% en ventana de 4.7m (umbral 35%)</desc>
  </wpt>
  <wpt lat="43.208985" lon="-3.619173">
    <ele>1065.2</ele>
    <name>Tramo 1525: 46.0%</name>
    <desc>Pendiente 46.0% en ventana de 8.7m (umbral 35%)</desc>
  </wpt>
  <wpt lat="43.209091" lon="-3.61885">
    <ele>1071.7</ele>
    <name>Tramo 1529: 38.9%</name>
    <desc>Pendiente 38.9% en ventana de 6.9m (umbral 35%)</desc>
  </wpt>
  <wpt lat="43.208992" lon="-3.618476">
    <ele>1071.0</ele>
    <name>Tramo 1537: -41.8%</name>
    <desc>Pendiente -41.8% en ventana de 9.7m (umbral 35%)</desc>
  </wpt>
  <wpt lat="43.208849" lon="-3.617858">
    <ele>1071.1</ele>
    <name>Tramo 1546: 62.4%</name>
    <desc>Pendiente 62.4% en ventana de 5.9m (umbral 35%)</desc>
  </wpt>
  <wpt lat="43.20872" lon="-3.617607">
    <ele>1065.7</ele>
    <name>Tramo 1551: -59.6%</name>
    <desc>Pendiente -59.6% en ventana de 5.4m (umbral 35%)</desc>
  </wpt>
  <wpt lat="43.208691" lon="-3.617555">
    <ele>1061.2</ele>
    <name>Tramo 1552: -84.8%</name>
    <desc>Pendiente -84.8% en ventana de 5.3m (umbral 35%)</desc>
  </wpt>
  <wpt lat="43.208692" lon="-3.617524">
    <ele>1060.1</ele>
    <name>Tramo 1553: -43.7%</name>
    <desc>Pendiente -43.7% en ventana de 2.5m (umbral 35%)</desc>
  </wpt>
  <wpt lat="43.208712" lon="-3.617394">
    <ele>1061.5</ele>
    <name>Tramo 1556: 50.1%</name>
    <desc>Pendiente 50.1% en ventana de 8.5m (umbral 35%)</desc>
  </wpt>
  <wpt lat="43.208721" lon="-3.617369">
    <ele>1063.1</ele>
    <name>Tramo 1557: 70.8%</name>
    <desc>Pendiente 70.8% en ventana de 2.3m (umbral 35%)</desc>
  </wpt>
  <wpt lat="43.208729" lon="-3.617352">
    <ele>1064.0</ele>
    <name>Tramo 1558: 54.9%</name>
    <desc>Pendiente 54.9% en ventana de 1.6m (umbral 35%)</desc>
  </wpt>
  <wpt lat="43.208746" lon="-3.616875">
    <ele>1070.8</ele>
    <name>Tramo 1563: 77.0%</name>
    <desc>Pendiente 77.0% en ventana de 5.2m (umbral 35%)</desc>
  </wpt>
  <wpt lat="43.208733" lon="-3.616624">
    <ele>1072.7</ele>
    <name>Tramo 1567: 43.0%</name>
    <desc>Pendiente 43.0% en ventana de 6.6m (umbral 35%)</desc>
  </wpt>
  <wpt lat="43.208797" lon="-3.616522">
    <ele>1076.6</ele>
    <name>Tramo 1569: 46.0%</name>
    <desc>Pendiente 46.0% en ventana de 6.1m (umbral 35%)</desc>
  </wpt>
  <wpt lat="43.20884" lon="-3.616492">
    <ele>1081.0</ele>
    <name>Tramo 1570: 82.0%</name>
    <desc>Pendiente 82.0% en ventana de 5.4m (umbral 35%)</desc>
  </wpt>
  <wpt lat="43.208865" lon="-3.61642">
    <ele>1083.4</ele>
    <name>Tramo 1571: 37.1%</name>
    <desc>Pendiente 37.1% en ventana de 6.5m (umbral 35%)</desc>
  </wpt>
  <wpt lat="43.20888" lon="-3.616384">
    <ele>1085.3</ele>
    <name>Tramo 1572: 56.5%</name>
    <desc>Pendiente 56.5% en ventana de 3.4m (umbral 35%)</desc>
  </wpt>
  <wpt lat="43.208909" lon="-3.616381">
    <ele>1087.7</ele>
    <name>Tramo 1573: 74.2%</name>
    <desc>Pendiente 74.2% en ventana de 3.2m (umbral 35%)</desc>
  </wpt>
  <wpt lat="43.208931" lon="-3.616344">
    <ele>1090.0</ele>
    <name>Tramo 1574: 59.4%</name>
    <desc>Pendiente 59.4% en ventana de 3.9m (umbral 35%)</desc>
  </wpt>
  <wpt lat="43.208859" lon="-3.615534">
    <ele>1085.1</ele>
    <name>Tramo 1584: -65.9%</name>
    <desc>Pendiente -65.9% en ventana de 4.6m (umbral 35%)</desc>
  </wpt>
  <wpt lat="43.20886" lon="-3.615464">
    <ele>1089.2</ele>
    <name>Tramo 1585: 72.2%</name>
    <desc>Pendiente 72.2% en ventana de 5.7m (umbral 35%)</desc>
  </wpt>
  <wpt lat="43.208841" lon="-3.615414">
    <ele>1091.9</ele>
    <name>Tramo 1586: 59.1%</name>
    <desc>Pendiente 59.1% en ventana de 4.6m (umbral 35%)</desc>
  </wpt>
  <wpt lat="43.208827" lon="-3.615344">
    <ele>1095.4</ele>
    <name>Tramo 1587: 59.5%</name>
    <desc>Pendiente 59.5% en ventana de 5.9m (umbral 35%)</desc>
  </wpt>
  <wpt lat="43.208852" lon="-3.61504">
    <ele>1089.9</ele>
    <name>Tramo 1590: -73.5%</name>
    <desc>Pendiente -73.5% en ventana de 6.8m (umbral 35%)</desc>
  </wpt>
  <wpt lat="43.208845" lon="-3.614956">
    <ele>1085.5</ele>
    <name>Tramo 1591: -64.2%</name>
    <desc>Pendiente -64.2% en ventana de 6.9m (umbral 35%)</desc>
  </wpt>
  <wpt lat="43.208785" lon="-3.614763">
    <ele>1085.4</ele>
    <name>Tramo 1594: -74.8%</name>
    <desc>Pendiente -74.8% en ventana de 1.6m (umbral 35%)</desc>
  </wpt>
  <wpt lat="43.208747" lon="-3.614742">
    <ele>1080.0</ele>
    <name>Tramo 1595: -118.5%</name>
    <desc>Pendiente -118.5% en ventana de 4.6m (umbral 35%)</desc>
  </wpt>
  <wpt lat="43.208661" lon="-3.614856">
    <ele>1074.1</ele>
    <name>Tramo 1601: -69.4%</name>
    <desc>Pendiente -69.4% en ventana de 4.0m (umbral 35%)</desc>
  </wpt>
  <wpt lat="43.208616" lon="-3.614914">
    <ele>1070.1</ele>
    <name>Tramo 1603: -64.8%</name>
    <desc>Pendiente -64.8% en ventana de 7.8m (umbral 35%)</desc>
  </wpt>
  <wpt lat="43.208505" lon="-3.61477">
    <ele>1065.9</ele>
    <name>Tramo 1605: -39.9%</name>
    <desc>Pendiente -39.9% en ventana de 8.3m (umbral 35%)</desc>
  </wpt>
  <wpt lat="43.208367" lon="-3.61453">
    <ele>1057.2</ele>
    <name>Tramo 1609: -44.1%</name>
    <desc>Pendiente -44.1% en ventana de 8.6m (umbral 35%)</desc>
  </wpt>
  <wpt lat="43.208362" lon="-3.61453">
    <ele>1056.9</ele>
    <name>Tramo 1610: -54.0%</name>
    <desc>Pendiente -54.0% en ventana de 0.6m (umbral 35%)</desc>
  </wpt>
  <wpt lat="43.208336" lon="-3.614509">
    <ele>1055.4</ele>
    <name>Tramo 1612: -47.2%</name>
    <desc>Pendiente -47.2% en ventana de 3.4m (umbral 35%)</desc>
  </wpt>
  <wpt lat="43.208283" lon="-3.614523">
    <ele>1052.5</ele>
    <name>Tramo 1613: -48.3%</name>
    <desc>Pendiente -48.3% en ventana de 6.0m (umbral 35%)</desc>
  </wpt>
  <wpt lat="43.208176" lon="-3.614525">
    <ele>1047.5</ele>
    <name>Tramo 1615: -64.6%</name>
    <desc>Pendiente -64.6% en ventana de 4.5m (umbral 35%)</desc>
  </wpt>
</gpx>