<?xml version="1.0" encoding="UTF-8"?>
<gpx xmlns="http://www.topografix.com/GPX/1/1" xmlns:xsi="http://www.w3.org/2001/XMLSchema-instance" xsi:schemaLocation="http://www.topografix.com/GPX/1/1 http://www.topografix.com/GPX/1/1/gpx.xsd" version="1.1" creator="gpx.py -- https://github.com/tkrajina/gpxpy">
  <wpt lat="43.367845" lon="-5.852887">
    <ele>220.0</ele>
    <name>150: 29.1%</name>
    <desc>Pendiente 29.1% (umbral 20%)</desc>
  </wpt>
  <wpt lat="43.387206" lon="-5.850554">
    <ele>548.6</ele>
    <name>347: 25.7%</name>
    <desc>Pendiente 25.7% (umbral 20%)</desc>
  </wpt>
  <wpt lat="43.387408" lon="-5.832398">
    <ele>230.2</ele>
    <name>816: 25.3%</name>
    <desc>Pendiente 25.3% (umbral 20%)</desc>
  </wpt>
  <wpt lat="43.386118" lon="-5.827883">
    <ele>182.0</ele>
    <name>876: -24.3%</name>
    <desc>Pendiente -24.3% (umbral 20%)</desc>
  </wpt>
  <wpt lat="43.386186" lon="-5.827784">
    <ele>181.0</ele>
    <name>878: -20.1%</name>
    <desc>Pendiente -20.1% (umbral 20%)</desc>
  </wpt>
</gpx>