<?xml version="1.0" encoding="UTF-8"?>
<gpx xmlns="http://www.topografix.com/GPX/1/1" xmlns:xsi="http://www.w3.org/2001/XMLSchema-instance" xsi:schemaLocation="http://www.topografix.com/GPX/1/1 http://www.topografix.com/GPX/1/1/gpx.xsd" version="1.1" creator="gpx.py -- https://github.com/tkrajina/gpxpy">
  <wpt lat="43.40134" lon="-5.944889">
    <ele>250.5</ele>
    <name>Tramo 1729: 101.5%</name>
    <desc>Pendiente 101.5% en ventana de 8.5m (umbral 35%)</desc>
  </wpt>
  <wpt lat="43.401371" lon="-5.944887">
    <ele>247.0</ele>
    <name>Tramo 1730: -101.4%</name>
    <desc>Pendiente -101.4% en ventana de 3.5m (umbral 35%)</desc>
  </wpt>
</gpx>