<?xml version="1.0" encoding="UTF-8"?>
<gpx xmlns="http://www.topografix.com/GPX/1/1" xmlns:xsi="http://www.w3.org/2001/XMLSchema-instance" xsi:schemaLocation="http://www.topografix.com/GPX/1/1 http://www.topografix.com/GPX/1/1/gpx.xsd" version="1.1" creator="gpx.py -- https://github.com/tkrajina/gpxpy">
  <wpt lat="43.386653" lon="-5.82791">
    <ele>185.0</ele>
    <name>95: 25.0%</name>
    <desc>Pendiente 25.0% (umbral 20%)</desc>
  </wpt>
  <wpt lat="43.386619" lon="-5.827926">
    <ele>187.0</ele>
    <name>96: 50.1%</name>
    <desc>Pendiente 50.1% (umbral 20%)</desc>
  </wpt>
  <wpt lat="43.386585" lon="-5.827945">
    <ele>188.0</ele>
    <name>97: 24.5%</name>
    <desc>Pendiente 24.5% (umbral 20%)</desc>
  </wpt>
  <wpt lat="43.386354" lon="-5.828048">
    <ele>192.0</ele>
    <name>100: 39.7%</name>
    <desc>Pendiente 39.7% (umbral 20%)</desc>
  </wpt>
  <wpt lat="43.386577" lon="-5.827955">
    <ele>194.0</ele>
    <name>102: 32.5%</name>
    <desc>Pendiente 32.5% (umbral 20%)</desc>
  </wpt>
  <wpt lat="43.386349" lon="-5.828037">
    <ele>196.0</ele>
    <name>104: 27.1%</name>
    <desc>Pendiente 27.1% (umbral 20%)</desc>
  </wpt>
  <wpt lat="43.386586" lon="-5.82796">
    <ele>198.0</ele>
    <name>106: 23.7%</name>
    <desc>Pendiente 23.7% (umbral 20%)</desc>
  </wpt>
  <wpt lat="43.388173" lon="-5.832388">
    <ele>248.5</ele>
    <name>137: 33.3%</name>
    <desc>Pendiente 33.3% (umbral 20%)</desc>
  </wpt>
  <wpt lat="43.388226" lon="-5.832386">
    <ele>250.3</ele>
    <name>138: 30.5%</name>
    <desc>Pendiente 30.5% (umbral 20%)</desc>
  </wpt>
  <wpt lat="43.388676" lon="-5.8325">
    <ele>258.2</ele>
    <name>143: 20.1%</name>
    <desc>Pendiente 20.1% (umbral 20%)</desc>
  </wpt>
  <wpt lat="43.388655" lon="-5.832891">
    <ele>264.5</ele>
    <name>146: 22.0%</name>
    <desc>Pendiente 22.0% (umbral 20%)</desc>
  </wpt>
  <wpt lat="43.388774" lon="-5.832981">
    <ele>267.1</ele>
    <name>149: 21.0%</name>
    <desc>Pendiente 21.0% (umbral 20%)</desc>
  </wpt>
  <wpt lat="43.388817" lon="-5.832946">
    <ele>268.6</ele>
    <name>150: 27.0%</name>
    <desc>Pendiente 27.0% (umbral 20%)</desc>
  </wpt>
  <wpt lat="43.388911" lon="-5.832911">
    <ele>272.3</ele>
    <name>151: 34.2%</name>
    <desc>Pendiente 34.2% (umbral 20%)</desc>
  </wpt>
  <wpt lat="43.397407" lon="-5.835545">
    <ele>323.8</ele>
    <name>212: 32.4%</name>
    <desc>Pendiente 32.4% (umbral 20%)</desc>
  </wpt>
  <wpt lat="43.396635" lon="-5.8363">
    <ele>337.0</ele>
    <name>222: 21.6%</name>
    <desc>Pendiente 21.6% (umbral 20%)</desc>
  </wpt>
  <wpt lat="43.395907" lon="-5.836778">
    <ele>348.5</ele>
    <name>226: 28.3%</name>
    <desc>Pendiente 28.3% (umbral 20%)</desc>
  </wpt>
  <wpt lat="43.395127" lon="-5.839082">
    <ele>378.3</ele>
    <name>233: 29.9%</name>
    <desc>Pendiente 29.9% (umbral 20%)</desc>
  </wpt>
  <wpt lat="43.393941" lon="-5.839393">
    <ele>400.0</ele>
    <name>238: 21.1%</name>
    <desc>Pendiente 21.1% (umbral 20%)</desc>
  </wpt>
  <wpt lat="43.387903" lon="-5.844839">
    <ele>485.0</ele>
    <name>274: 26.3%</name>
    <desc>Pendiente 26.3% (umbral 20%)</desc>
  </wpt>
  <wpt lat="43.387311" lon="-5.848995">
    <ele>528.8</ele>
    <name>295: 26.1%</name>
    <desc>Pendiente 26.1% (umbral 20%)</desc>
  </wpt>
  <wpt lat="43.388252" lon="-5.852009">
    <ele>557.5</ele>
    <name>333: 20.6%</name>
    <desc>Pendiente 20.6% (umbral 20%)</desc>
  </wpt>
  <wpt lat="43.388223" lon="-5.852043">
    <ele>559.0</ele>
    <name>334: 35.4%</name>
    <desc>Pendiente 35.4% (umbral 20%)</desc>
  </wpt>
  <wpt lat="43.388191" lon="-5.852083">
    <ele>560.1</ele>
    <name>335: 22.9%</name>
    <desc>Pendiente 22.9% (umbral 20%)</desc>
  </wpt>
  <wpt lat="43.388174" lon="-5.852113">
    <ele>561.0</ele>
    <name>336: 29.3%</name>
    <desc>Pendiente 29.3% (umbral 20%)</desc>
  </wpt>
  <wpt lat="43.388165" lon="-5.852159">
    <ele>562.0</ele>
    <name>337: 26.0%</name>
    <desc>Pendiente 26.0% (umbral 20%)</desc>
  </wpt>
  <wpt lat="43.388165" lon="-5.852378">
    <ele>563.0</ele>
    <name>343: 31.1%</name>
    <desc>Pendiente 31.1% (umbral 20%)</desc>
  </wpt>
  <wpt lat="43.3882" lon="-5.853162">
    <ele>570.0</ele>
    <name>346: 23.4%</name>
    <desc>Pendiente 23.4% (umbral 20%)</desc>
  </wpt>
  <wpt lat="43.388138" lon="-5.853824">
    <ele>577.0</ele>
    <name>353: 22.5%</name>
    <desc>Pendiente 22.5% (umbral 20%)</desc>
  </wpt>
  <wpt lat="43.38809" lon="-5.853968">
    <ele>577.8</ele>
    <name>357: 42.2%</name>
    <desc>Pendiente 42.2% (umbral 20%)</desc>
  </wpt>
  <wpt lat="43.387862" lon="-5.854266">
    <ele>580.0</ele>
    <name>365: 24.7%</name>
    <desc>Pendiente 24.7% (umbral 20%)</desc>
  </wpt>
  <wpt lat="43.387815" lon="-5.854272">
    <ele>581.8</ele>
    <name>366: 34.3%</name>
    <desc>Pendiente 34.3% (umbral 20%)</desc>
  </wpt>
  <wpt lat="43.38777" lon="-5.854269">
    <ele>583.6</ele>
    <name>367: 35.9%</name>
    <desc>Pendiente 35.9% (umbral 20%)</desc>
  </wpt>
  <wpt lat="43.384505" lon="-5.856938">
    <ele>567.7</ele>
    <name>401: 23.6%</name>
    <desc>Pendiente 23.6% (umbral 20%)</desc>
  </wpt>
  <wpt lat="43.383926" lon="-5.85823">
    <ele>579.0</ele>
    <name>418: 21.7%</name>
    <desc>Pendiente 21.7% (umbral 20%)</desc>
  </wpt>
  <wpt lat="43.383926" lon="-5.85835">
    <ele>581.0</ele>
    <name>419: 20.6%</name>
    <desc>Pendiente 20.6% (umbral 20%)</desc>
  </wpt>
  <wpt lat="43.383935" lon="-5.858448">
    <ele>583.0</ele>
    <name>420: 25.1%</name>
    <desc>Pendiente 25.1% (umbral 20%)</desc>
  </wpt>
  <wpt lat="43.384355" lon="-5.862078">
    <ele>605.3</ele>
    <name>443: 33.8%</name>
    <desc>Pendiente 33.8% (umbral 20%)</desc>
  </wpt>
  <wpt lat="43.384397" lon="-5.862133">
    <ele>607.5</ele>
    <name>444: 34.1%</name>
    <desc>Pendiente 34.1% (umbral 20%)</desc>
  </wpt>
  <wpt lat="43.384424" lon="-5.862239">
    <ele>610.1</ele>
    <name>445: 28.6%</name>
    <desc>Pendiente 28.6% (umbral 20%)</desc>
  </wpt>
  <wpt lat="43.384442" lon="-5.862388">
    <ele>612.8</ele>
    <name>446: 22.1%</name>
    <desc>Pendiente 22.1% (umbral 20%)</desc>
  </wpt>
  <wpt lat="43.384464" lon="-5.862514">
    <ele>615.0</ele>
    <name>447: 21.0%</name>
    <desc>Pendiente 21.0% (umbral 20%)</desc>
  </wpt>
  <wpt lat="43.384472" lon="-5.862585">
    <ele>616.3</ele>
    <name>448: 22.4%</name>
    <desc>Pendiente 22.4% (umbral 20%)</desc>
  </wpt>
  <wpt lat="43.384445" lon="-5.863384">
    <ele>626.0</ele>
    <name>453: 21.4%</name>
    <desc>Pendiente 21.4% (umbral 20%)</desc>
  </wpt>
  <wpt lat="43.384511" lon="-5.863457">
    <ele>628.0</ele>
    <name>454: 21.2%</name>
    <desc>Pendiente 21.2% (umbral 20%)</desc>
  </wpt>
  <wpt lat="43.384577" lon="-5.863536">
    <ele>630.0</ele>
    <name>455: 20.6%</name>
    <desc>Pendiente 20.6% (umbral 20%)</desc>
  </wpt>
  <wpt lat="43.384648" lon="-5.863598">
    <ele>632.2</ele>
    <name>456: 23.5%</name>
    <desc>Pendiente 23.5% (umbral 20%)</desc>
  </wpt>
  <wpt lat="43.384709" lon="-5.86376">
    <ele>634.0</ele>
    <name>459: 20.7%</name>
    <desc>Pendiente 20.7% (umbral 20%)</desc>
  </wpt>
  <wpt lat="43.384723" lon="-5.863816">
    <ele>635.0</ele>
    <name>460: 20.9%</name>
    <desc>Pendiente 20.9% (umbral 20%)</desc>
  </wpt>
  <wpt lat="43.384648" lon="-5.86386">
    <ele>634.0</ele>
    <name>468: -34.1%</name>
    <desc>Pendiente -34.1% (umbral 20%)</desc>
  </wpt>
  <wpt lat="43.384725" lon="-5.863542">
    <ele>632.0</ele>
    <name>481: -32.1%</name>
    <desc>Pendiente -32.1% (umbral 20%)</desc>
  </wpt>
  <wpt lat="43.384596" lon="-5.86287">
    <ele>622.0</ele>
    <name>485: -20.2%</name>
    <desc>Pendiente -20.2% (umbral 20%)</desc>
  </wpt>
  <wpt lat="43.384551" lon="-5.862459">
    <ele>615.0</ele>
    <name>487: -23.5%</name>
    <desc>Pendiente -23.5% (umbral 20%)</desc>
  </wpt>
  <wpt lat="43.384484" lon="-5.862095">
    <ele>608.7</ele>
    <name>489: -22.2%</name>
    <desc>Pendiente -22.2% (umbral 20%)</desc>
  </wpt>
  <wpt lat="43.384462" lon="-5.862001">
    <ele>606.9</ele>
    <name>490: -22.6%</name>
    <desc>Pendiente -22.6% (umbral 20%)</desc>
  </wpt>
  <wpt lat="43.384443" lon="-5.861877">
    <ele>604.0</ele>
    <name>491: -28.3%</name>
    <desc>Pendiente -28.3% (umbral 20%)</desc>
  </wpt>
  <wpt lat="43.384423" lon="-5.861709">
    <ele>601.2</ele>
    <name>492: -20.4%</name>
    <desc>Pendiente -20.4% (umbral 20%)</desc>
  </wpt>
  <wpt lat="43.383755" lon="-5.855202">
    <ele>564.5</ele>
    <name>532: -31.2%</name>
    <desc>Pendiente -31.2% (umbral 20%)</desc>
  </wpt>
  <wpt lat="43.383613" lon="-5.853401">
    <ele>545.1</ele>
    <name>538: -26.5%</name>
    <desc>Pendiente -26.5% (umbral 20%)</desc>
  </wpt>
  <wpt lat="43.383607" lon="-5.853078">
    <ele>537.1</ele>
    <name>539: -30.6%</name>
    <desc>Pendiente -30.6% (umbral 20%)</desc>
  </wpt>
  <wpt lat="43.383611" lon="-5.852835">
    <ele>532.3</ele>
    <name>540: -24.4%</name>
    <desc>Pendiente -24.4% (umbral 20%)</desc>
  </wpt>
  <wpt lat="43.384136" lon="-5.852182">
    <ele>527.9</ele>
    <name>546: -24.2%</name>
    <desc>Pendiente -24.2% (umbral 20%)</desc>
  </wpt>
  <wpt lat="43.384093" lon="-5.852178">
    <ele>526.4</ele>
    <name>547: -31.3%</name>
    <desc>Pendiente -31.3% (umbral 20%)</desc>
  </wpt>
  <wpt lat="43.384069" lon="-5.852143">
    <ele>523.8</ele>
    <name>548: -66.9%</name>
    <desc>Pendiente -66.9% (umbral 20%)</desc>
  </wpt>
  <wpt lat="43.384092" lon="-5.852085">
    <ele>522.0</ele>
    <name>549: -33.7%</name>
    <desc>Pendiente -33.7% (umbral 20%)</desc>
  </wpt>
  <wpt lat="43.384058" lon="-5.85205">
    <ele>519.6</ele>
    <name>550: -50.8%</name>
    <desc>Pendiente -50.8% (umbral 20%)</desc>
  </wpt>
  <wpt lat="43.384041" lon="-5.852041">
    <ele>518.6</ele>
    <name>551: -49.4%</name>
    <desc>Pendiente -49.4% (umbral 20%)</desc>
  </wpt>
  <wpt lat="43.384028" lon="-5.851982">
    <ele>515.0</ele>
    <name>553: -54.3%</name>
    <desc>Pendiente -54.3% (umbral 20%)</desc>
  </wpt>
  <wpt lat="43.383965" lon="-5.851966">
    <ele>513.4</ele>
    <name>555: -47.7%</name>
    <desc>Pendiente -47.7% (umbral 20%)</desc>
  </wpt>
  <wpt lat="43.384215" lon="-5.851695">
    <ele>506.9</ele>
    <name>560: -46.6%</name>
    <desc>Pendiente -46.6% (umbral 20%)</desc>
  </wpt>
  <wpt lat="43.384208" lon="-5.851669">
    <ele>506.0</ele>
    <name>561: -40.2%</name>
    <desc>Pendiente -40.2% (umbral 20%)</desc>
  </wpt>
  <wpt lat="43.383693" lon="-5.851615">
    <ele>498.6</ele>
    <name>567: -22.8%</name>
    <desc>Pendiente -22.8% (umbral 20%)</desc>
  </wpt>
  <wpt lat="43.383549" lon="-5.851572">
    <ele>494.3</ele>
    <name>568: -26.2%</name>
    <desc>Pendiente -26.2% (umbral 20%)</desc>
  </wpt>
  <wpt lat="43.38313" lon="-5.851591">
    <ele>487.3</ele>
    <name>572: -24.6%</name>
    <desc>Pendiente -24.6% (umbral 20%)</desc>
  </wpt>
  <wpt lat="43.382975" lon="-5.851605">
    <ele>483.7</ele>
    <name>573: -20.8%</name>
    <desc>Pendiente -20.8% (umbral 20%)</desc>
  </wpt>
  <wpt lat="43.382813" lon="-5.851612">
    <ele>479.2</ele>
    <name>574: -25.0%</name>
    <desc>Pendiente -25.0% (umbral 20%)</desc>
  </wpt>
  <wpt lat="43.382754" lon="-5.851622">
    <ele>477.0</ele>
    <name>575: -33.3%</name>
    <desc>Pendiente -33.3% (umbral 20%)</desc>
  </wpt>
  <wpt lat="43.382516" lon="-5.851786">
    <ele>471.0</ele>
    <name>578: -27.6%</name>
    <desc>Pendiente -27.6% (umbral 20%)</desc>
  </wpt>
  <wpt lat="43.382429" lon="-5.851948">
    <ele>467.1</ele>
    <name>580: -37.6%</name>
    <desc>Pendiente -37.6% (umbral 20%)</desc>
  </wpt>
  <wpt lat="43.382371" lon="-5.852099">
    <ele>464.2</ele>
    <name>582: -25.1%</name>
    <desc>Pendiente -25.1% (umbral 20%)</desc>
  </wpt>
  <wpt lat="43.382245" lon="-5.852497">
    <ele>460.6</ele>
    <name>589: -22.2%</name>
    <desc>Pendiente -22.2% (umbral 20%)</desc>
  </wpt>
  <wpt lat="43.382209" lon="-5.85256">
    <ele>458.7</ele>
    <name>590: -29.3%</name>
    <desc>Pendiente -29.3% (umbral 20%)</desc>
  </wpt>
  <wpt lat="43.382193" lon="-5.852592">
    <ele>456.9</ele>
    <name>591: -57.3%</name>
    <desc>Pendiente -57.3% (umbral 20%)</desc>
  </wpt>
  <wpt lat="43.382174" lon="-5.852627">
    <ele>455.8</ele>
    <name>592: -31.2%</name>
    <desc>Pendiente -31.2% (umbral 20%)</desc>
  </wpt>
  <wpt lat="43.382153" lon="-5.852651">
    <ele>455.0</ele>
    <name>593: -26.4%</name>
    <desc>Pendiente -26.4% (umbral 20%)</desc>
  </wpt>
  <wpt lat="43.382192" lon="-5.852463">
    <ele>457.2</ele>
    <name>597: 51.0%</name>
    <desc>Pendiente 51.0% (umbral 20%)</desc>
  </wpt>
  <wpt lat="43.382188" lon="-5.8524">
    <ele>455.3</ele>
    <name>598: -37.2%</name>
    <desc>Pendiente -37.2% (umbral 20%)</desc>
  </wpt>
  <wpt lat="43.382201" lon="-5.852094">
    <ele>453.6</ele>
    <name>603: -40.4%</name>
    <desc>Pendiente -40.4% (umbral 20%)</desc>
  </wpt>
  <wpt lat="43.382179" lon="-5.852054">
    <ele>451.3</ele>
    <name>604: -56.7%</name>
    <desc>Pendiente -56.7% (umbral 20%)</desc>
  </wpt>
  <wpt lat="43.382158" lon="-5.852024">
    <ele>450.1</ele>
    <name>605: -35.7%</name>
    <desc>Pendiente -35.7% (umbral 20%)</desc>
  </wpt>
  <wpt lat="43.382126" lon="-5.85201">
    <ele>447.8</ele>
    <name>606: -61.6%</name>
    <desc>Pendiente -61.6% (umbral 20%)</desc>
  </wpt>
  <wpt lat="43.382095" lon="-5.851989">
    <ele>445.6</ele>
    <name>607: -57.3%</name>
    <desc>Pendiente -57.3% (umbral 20%)</desc>
  </wpt>
  <wpt lat="43.382071" lon="-5.851979">
    <ele>445.0</ele>
    <name>608: -21.5%</name>
    <desc>Pendiente -21.5% (umbral 20%)</desc>
  </wpt>
  <wpt lat="43.382024" lon="-5.85197">
    <ele>443.6</ele>
    <name>610: -37.3%</name>
    <desc>Pendiente -37.3% (umbral 20%)</desc>
  </wpt>
  <wpt lat="43.38201" lon="-5.85195">
    <ele>442.8</ele>
    <name>611: -35.7%</name>
    <desc>Pendiente -35.7% (umbral 20%)</desc>
  </wpt>
  <wpt lat="43.38199" lon="-5.85194">
    <ele>441.7</ele>
    <name>612: -46.5%</name>
    <desc>Pendiente -46.5% (umbral 20%)</desc>
  </wpt>
  <wpt lat="43.381976" lon="-5.851928">
    <ele>440.6</ele>
    <name>613: -60.0%</name>
    <desc>Pendiente -60.0% (umbral 20%)</desc>
  </wpt>
  <wpt lat="43.381963" lon="-5.851896">
    <ele>440.0</ele>
    <name>614: -20.3%</name>
    <desc>Pendiente -20.3% (umbral 20%)</desc>
  </wpt>
  <wpt lat="43.38195" lon="-5.851839">
    <ele>439.0</ele>
    <name>615: -20.7%</name>
    <desc>Pendiente -20.7% (umbral 20%)</desc>
  </wpt>
  <wpt lat="43.381823" lon="-5.851654">
    <ele>436.2</ele>
    <name>621: -32.3%</name>
    <desc>Pendiente -32.3% (umbral 20%)</desc>
  </wpt>
  <wpt lat="43.381774" lon="-5.851594">
    <ele>435.2</ele>
    <name>623: -20.4%</name>
    <desc>Pendiente -20.4% (umbral 20%)</desc>
  </wpt>
  <wpt lat="43.381759" lon="-5.851539">
    <ele>434.1</ele>
    <name>624: -23.2%</name>
    <desc>Pendiente -23.2% (umbral 20%)</desc>
  </wpt>
  <wpt lat="43.381816" lon="-5.851156">
    <ele>430.7</ele>
    <name>631: -25.1%</name>
    <desc>Pendiente -25.1% (umbral 20%)</desc>
  </wpt>
  <wpt lat="43.381839" lon="-5.851116">
    <ele>429.1</ele>
    <name>632: -38.8%</name>
    <desc>Pendiente -38.8% (umbral 20%)</desc>
  </wpt>
  <wpt lat="43.381866" lon="-5.851077">
    <ele>428.0</ele>
    <name>633: -25.3%</name>
    <desc>Pendiente -25.3% (umbral 20%)</desc>
  </wpt>
  <wpt lat="43.38189" lon="-5.850875">
    <ele>426.7</ele>
    <name>637: -21.3%</name>
    <desc>Pendiente -21.3% (umbral 20%)</desc>
  </wpt>
  <wpt lat="43.381899" lon="-5.85071">
    <ele>425.5</ele>
    <name>641: -27.2%</name>
    <desc>Pendiente -27.2% (umbral 20%)</desc>
  </wpt>
  <wpt lat="43.381925" lon="-5.850619">
    <ele>424.2</ele>
    <name>644: -26.1%</name>
    <desc>Pendiente -26.1% (umbral 20%)</desc>
  </wpt>
  <wpt lat="43.381969" lon="-5.850501">
    <ele>423.0</ele>
    <name>648: -38.9%</name>
    <desc>Pendiente -38.9% (umbral 20%)</desc>
  </wpt>
  <wpt lat="43.382003" lon="-5.850454">
    <ele>422.3</ele>
    <name>650: -22.5%</name>
    <desc>Pendiente -22.5% (umbral 20%)</desc>
  </wpt>
  <wpt lat="43.382024" lon="-5.850352">
    <ele>420.8</ele>
    <name>653: -32.3%</name>
    <desc>Pendiente -32.3% (umbral 20%)</desc>
  </wpt>
  <wpt lat="43.382024" lon="-5.85029">
    <ele>419.5</ele>
    <name>654: -25.9%</name>
    <desc>Pendiente -25.9% (umbral 20%)</desc>
  </wpt>
  <wpt lat="43.382027" lon="-5.850219">
    <ele>418.3</ele>
    <name>655: -20.9%</name>
    <desc>Pendiente -20.9% (umbral 20%)</desc>
  </wpt>
  <wpt lat="43.382039" lon="-5.850118">
    <ele>416.2</ele>
    <name>657: -36.0%</name>
    <desc>Pendiente -36.0% (umbral 20%)</desc>
  </wpt>
  <wpt lat="43.382069" lon="-5.850037">
    <ele>415.3</ele>
    <name>660: -47.3%</name>
    <desc>Pendiente -47.3% (umbral 20%)</desc>
  </wpt>
  <wpt lat="43.38206" lon="-5.850027">
    <ele>414.4</ele>
    <name>661: -70.0%</name>
    <desc>Pendiente -70.0% (umbral 20%)</desc>
  </wpt>
  <wpt lat="43.382048" lon="-5.850023">
    <ele>414.1</ele>
    <name>662: -21.9%</name>
    <desc>Pendiente -21.9% (umbral 20%)</desc>
  </wpt>
  <wpt lat="43.382033" lon="-5.850019">
    <ele>413.4</ele>
    <name>663: -41.2%</name>
    <desc>Pendiente -41.2% (umbral 20%)</desc>
  </wpt>
  <wpt lat="43.382013" lon="-5.850037">
    <ele>412.4</ele>
    <name>664: -37.6%</name>
    <desc>Pendiente -37.6% (umbral 20%)</desc>
  </wpt>
  <wpt lat="43.381941" lon="-5.850104">
    <ele>410.8</ele>
    <name>666: -22.4%</name>
    <desc>Pendiente -22.4% (umbral 20%)</desc>
  </wpt>
  <wpt lat="43.381901" lon="-5.850149">
    <ele>409.4</ele>
    <name>667: -24.4%</name>
    <desc>Pendiente -24.4% (umbral 20%)</desc>
  </wpt>
  <wpt lat="43.381829" lon="-5.850214">
    <ele>407.9</ele>
    <name>670: -25.5%</name>
    <desc>Pendiente -25.5% (umbral 20%)</desc>
  </wpt>
  <wpt lat="43.381793" lon="-5.850248">
    <ele>406.4</ele>
    <name>671: -30.9%</name>
    <desc>Pendiente -30.9% (umbral 20%)</desc>
  </wpt>
  <wpt lat="43.38176" lon="-5.850268">
    <ele>405.0</ele>
    <name>672: -34.9%</name>
    <desc>Pendiente -34.9% (umbral 20%)</desc>
  </wpt>
  <wpt lat="43.381733" lon="-5.85029">
    <ele>404.1</ele>
    <name>673: -25.8%</name>
    <desc>Pendiente -25.8% (umbral 20%)</desc>
  </wpt>
  <wpt lat="43.381738" lon="-5.850172">
    <ele>402.2</ele>
    <name>677: -43.0%</name>
    <desc>Pendiente -43.0% (umbral 20%)</desc>
  </wpt>
  <wpt lat="43.382056" lon="-5.849347">
    <ele>394.0</ele>
    <name>688: -20.6%</name>
    <desc>Pendiente -20.6% (umbral 20%)</desc>
  </wpt>
  <wpt lat="43.382083" lon="-5.849199">
    <ele>392.0</ele>
    <name>690: -24.5%</name>
    <desc>Pendiente -24.5% (umbral 20%)</desc>
  </wpt>
  <wpt lat="43.382233" lon="-5.84897">
    <ele>388.0</ele>
    <name>695: -29.2%</name>
    <desc>Pendiente -29.2% (umbral 20%)</desc>
  </wpt>
  <wpt lat="43.382224" lon="-5.848903">
    <ele>386.8</ele>
    <name>697: -40.8%</name>
    <desc>Pendiente -40.8% (umbral 20%)</desc>
  </wpt>
  <wpt lat="43.382204" lon="-5.848882">
    <ele>386.0</ele>
    <name>698: -28.6%</name>
    <desc>Pendiente -28.6% (umbral 20%)</desc>
  </wpt>
  <wpt lat="43.382163" lon="-5.848877">
    <ele>385.0</ele>
    <name>700: -27.9%</name>
    <desc>Pendiente -27.9% (umbral 20%)</desc>
  </wpt>
  <wpt lat="43.382144" lon="-5.848889">
    <ele>384.3</ele>
    <name>701: -30.1%</name>
    <desc>Pendiente -30.1% (umbral 20%)</desc>
  </wpt>
  <wpt lat="43.382051" lon="-5.848955">
    <ele>383.0</ele>
    <name>704: -22.8%</name>
    <desc>Pendiente -22.8% (umbral 20%)</desc>
  </wpt>
  <wpt lat="43.381967" lon="-5.848983">
    <ele>380.7</ele>
    <name>706: -34.5%</name>
    <desc>Pendiente -34.5% (umbral 20%)</desc>
  </wpt>
  <wpt lat="43.38188" lon="-5.849072">
    <ele>378.6</ele>
    <name>708: -24.0%</name>
    <desc>Pendiente -24.0% (umbral 20%)</desc>
  </wpt>
  <wpt lat="43.381836" lon="-5.849125">
    <ele>377.1</ele>
    <name>709: -23.1%</name>
    <desc>Pendiente -23.1% (umbral 20%)</desc>
  </wpt>
  <wpt lat="43.381699" lon="-5.849185">
    <ele>374.1</ele>
    <name>712: -33.8%</name>
    <desc>Pendiente -33.8% (umbral 20%)</desc>
  </wpt>
  <wpt lat="43.381603" lon="-5.849194">
    <ele>372.2</ele>
    <name>716: -32.6%</name>
    <desc>Pendiente -32.6% (umbral 20%)</desc>
  </wpt>
  <wpt lat="43.381615" lon="-5.849089">
    <ele>370.3</ele>
    <name>718: -26.6%</name>
    <desc>Pendiente -26.6% (umbral 20%)</desc>
  </wpt>
  <wpt lat="43.381619" lon="-5.849033">
    <ele>369.0</ele>
    <name>719: -28.6%</name>
    <desc>Pendiente -28.6% (umbral 20%)</desc>
  </wpt>
  <wpt lat="43.381621" lon="-5.848985">
    <ele>368.0</ele>
    <name>720: -25.7%</name>
    <desc>Pendiente -25.7% (umbral 20%)</desc>
  </wpt>
  <wpt lat="43.38162" lon="-5.848949">
    <ele>367.0</ele>
    <name>721: -34.3%</name>
    <desc>Pendiente -34.3% (umbral 20%)</desc>
  </wpt>
  <wpt lat="43.381612" lon="-5.848925">
    <ele>366.4</ele>
    <name>722: -28.1%</name>
    <desc>Pendiente -28.1% (umbral 20%)</desc>
  </wpt>
  <wpt lat="43.381571" lon="-5.848907">
    <ele>365.3</ele>
    <name>725: -35.6%</name>
    <desc>Pendiente -35.6% (umbral 20%)</desc>
  </wpt>
  <wpt lat="43.381417" lon="-5.849001">
    <ele>364.0</ele>
    <name>731: -28.4%</name>
    <desc>Pendiente -28.4% (umbral 20%)</desc>
  </wpt>
  <wpt lat="43.381309" lon="-5.849068">
    <ele>365.1</ele>
    <name>734: 22.5%</name>
    <desc>Pendiente 22.5% (umbral 20%)</desc>
  </wpt>
  <wpt lat="43.381151" lon="-5.849197">
    <ele>361.6</ele>
    <name>736: -24.8%</name>
    <desc>Pendiente -24.8% (umbral 20%)</desc>
  </wpt>
  <wpt lat="43.381063" lon="-5.849285">
    <ele>358.3</ele>
    <name>737: -27.3%</name>
    <desc>Pendiente -27.3% (umbral 20%)</desc>
  </wpt>
  <wpt lat="43.380921" lon="-5.849528">
    <ele>354.5</ele>
    <name>740: -29.0%</name>
    <desc>Pendiente -29.0% (umbral 20%)</desc>
  </wpt>
  <wpt lat="43.3809" lon="-5.849593">
    <ele>352.9</ele>
    <name>741: -27.8%</name>
    <desc>Pendiente -27.8% (umbral 20%)</desc>
  </wpt>
  <wpt lat="43.380868" lon="-5.84966">
    <ele>351.2</ele>
    <name>742: -26.2%</name>
    <desc>Pendiente -26.2% (umbral 20%)</desc>
  </wpt>
  <wpt lat="43.380802" lon="-5.849746">
    <ele>348.8</ele>
    <name>744: -43.5%</name>
    <desc>Pendiente -43.5% (umbral 20%)</desc>
  </wpt>
  <wpt lat="43.380768" lon="-5.849747">
    <ele>347.9</ele>
    <name>745: -23.8%</name>
    <desc>Pendiente -23.8% (umbral 20%)</desc>
  </wpt>
  <wpt lat="43.38073" lon="-5.849743">
    <ele>346.5</ele>
    <name>746: -33.0%</name>
    <desc>Pendiente -33.0% (umbral 20%)</desc>
  </wpt>
  <wpt lat="43.38069" lon="-5.849744">
    <ele>345.3</ele>
    <name>747: -27.0%</name>
    <desc>Pendiente -27.0% (umbral 20%)</desc>
  </wpt>
  <wpt lat="43.380663" lon="-5.849732">
    <ele>344.2</ele>
    <name>748: -34.9%</name>
    <desc>Pendiente -34.9% (umbral 20%)</desc>
  </wpt>
  <wpt lat="43.380638" lon="-5.849742">
    <ele>343.5</ele>
    <name>749: -24.2%</name>
    <desc>Pendiente -24.2% (umbral 20%)</desc>
  </wpt>
  <wpt lat="43.380546" lon="-5.849856">
    <ele>340.6</ele>
    <name>751: -24.6%</name>
    <desc>Pendiente -24.6% (umbral 20%)</desc>
  </wpt>
  <wpt lat="43.380487" lon="-5.849933">
    <ele>338.4</ele>
    <name>752: -24.3%</name>
    <desc>Pendiente -24.3% (umbral 20%)</desc>
  </wpt>
  <wpt lat="43.380471" lon="-5.849969">
    <ele>337.6</ele>
    <name>753: -23.5%</name>
    <desc>Pendiente -23.5% (umbral 20%)</desc>
  </wpt>
  <wpt lat="43.380333" lon="-5.850175">
    <ele>334.2</ele>
    <name>757: -25.8%</name>
    <desc>Pendiente -25.8% (umbral 20%)</desc>
  </wpt>
  <wpt lat="43.380265" lon="-5.850278">
    <ele>331.6</ele>
    <name>759: -27.0%</name>
    <desc>Pendiente -27.0% (umbral 20%)</desc>
  </wpt>
  <wpt lat="43.380239" lon="-5.850333">
    <ele>329.9</ele>
    <name>760: -32.1%</name>
    <desc>Pendiente -32.1% (umbral 20%)</desc>
  </wpt>
  <wpt lat="43.380219" lon="-5.850379">
    <ele>329.0</ele>
    <name>761: -20.8%</name>
    <desc>Pendiente -20.8% (umbral 20%)</desc>
  </wpt>
  <wpt lat="43.380191" lon="-5.850414">
    <ele>327.7</ele>
    <name>762: -30.9%</name>
    <desc>Pendiente -30.9% (umbral 20%)</desc>
  </wpt>
  <wpt lat="43.380126" lon="-5.850459">
    <ele>326.1</ele>
    <name>764: -20.4%</name>
    <desc>Pendiente -20.4% (umbral 20%)</desc>
  </wpt>
  <wpt lat="43.380088" lon="-5.850453">
    <ele>325.0</ele>
    <name>765: -25.9%</name>
    <desc>Pendiente -25.9% (umbral 20%)</desc>
  </wpt>
  <wpt lat="43.380047" lon="-5.850431">
    <ele>323.5</ele>
    <name>766: -30.7%</name>
    <desc>Pendiente -30.7% (umbral 20%)</desc>
  </wpt>
  <wpt lat="43.38" lon="-5.850412">
    <ele>322.0</ele>
    <name>767: -27.5%</name>
    <desc>Pendiente -27.5% (umbral 20%)</desc>
  </wpt>
  <wpt lat="43.379967" lon="-5.850409">
    <ele>321.2</ele>
    <name>768: -21.8%</name>
    <desc>Pendiente -21.8% (umbral 20%)</desc>
  </wpt>
  <wpt lat="43.379838" lon="-5.850545">
    <ele>317.3</ele>
    <name>771: -44.0%</name>
    <desc>Pendiente -44.0% (umbral 20%)</desc>
  </wpt>
  <wpt lat="43.379771" lon="-5.85056">
    <ele>315.2</ele>
    <name>772: -27.8%</name>
    <desc>Pendiente -27.8% (umbral 20%)</desc>
  </wpt>
  <wpt lat="43.379322" lon="-5.850778">
    <ele>307.1</ele>
    <name>780: -37.3%</name>
    <desc>Pendiente -37.3% (umbral 20%)</desc>
  </wpt>
  <wpt lat="43.379253" lon="-5.850753">
    <ele>305.3</ele>
    <name>781: -22.7%</name>
    <desc>Pendiente -22.7% (umbral 20%)</desc>
  </wpt>
  <wpt lat="43.379088" lon="-5.850715">
    <ele>301.0</ele>
    <name>783: -26.4%</name>
    <desc>Pendiente -26.4% (umbral 20%)</desc>
  </wpt>
  <wpt lat="43.378997" lon="-5.850679">
    <ele>298.7</ele>
    <name>784: -21.8%</name>
    <desc>Pendiente -21.8% (umbral 20%)</desc>
  </wpt>
  <wpt lat="43.37895" lon="-5.850657">
    <ele>297.1</ele>
    <name>785: -29.0%</name>
    <desc>Pendiente -29.0% (umbral 20%)</desc>
  </wpt>
  <wpt lat="43.390508" lon="-5.833505">
    <ele>287.2</ele>
    <name>970: -31.7%</name>
    <desc>Pendiente -31.7% (umbral 20%)</desc>
  </wpt>
  <wpt lat="43.388779" lon="-5.832956">
    <ele>266.6</ele>
    <name>990: -40.2%</name>
    <desc>Pendiente -40.2% (umbral 20%)</desc>
  </wpt>
  <wpt lat="43.388723" lon="-5.832982">
    <ele>265.4</ele>
    <name>992: -34.3%</name>
    <desc>Pendiente -34.3% (umbral 20%)</desc>
  </wpt>
  <wpt lat="43.388713" lon="-5.832979">
    <ele>265.0</ele>
    <name>993: -35.1%</name>
    <desc>Pendiente -35.1% (umbral 20%)</desc>
  </wpt>
  <wpt lat="43.388669" lon="-5.832936">
    <ele>264.3</ele>
    <name>997: -33.6%</name>
    <desc>Pendiente -33.6% (umbral 20%)</desc>
  </wpt>
  <wpt lat="43.388658" lon="-5.832889">
    <ele>264.7</ele>
    <name>999: 27.3%</name>
    <desc>Pendiente 27.3% (umbral 20%)</desc>
  </wpt>
  <wpt lat="43.38866" lon="-5.832763">
    <ele>262.5</ele>
    <name>1002: -38.2%</name>
    <desc>Pendiente -38.2% (umbral 20%)</desc>
  </wpt>
  <wpt lat="43.388663" lon="-5.83274">
    <ele>261.9</ele>
    <name>1003: -31.8%</name>
    <desc>Pendiente -31.8% (umbral 20%)</desc>
  </wpt>
  <wpt lat="43.38868" lon="-5.832564">
    <ele>259.4</ele>
    <name>1006: -22.0%</name>
    <desc>Pendiente -22.0% (umbral 20%)</desc>
  </wpt>
  <wpt lat="43.388679" lon="-5.832496">
    <ele>258.3</ele>
    <name>1008: -34.6%</name>
    <desc>Pendiente -34.6% (umbral 20%)</desc>
  </wpt>
  <wpt lat="43.388653" lon="-5.832441">
    <ele>257.0</ele>
    <name>1010: -30.5%</name>
    <desc>Pendiente -30.5% (umbral 20%)</desc>
  </wpt>
  <wpt lat="43.388631" lon="-5.832406">
    <ele>256.2</ele>
    <name>1011: -21.4%</name>
    <desc>Pendiente -21.4% (umbral 20%)</desc>
  </wpt>
  <wpt lat="43.388576" lon="-5.832342">
    <ele>255.0</ele>
    <name>1013: -21.6%</name>
    <desc>Pendiente -21.6% (umbral 20%)</desc>
  </wpt>
  <wpt lat="43.388213" lon="-5.832369">
    <ele>248.9</ele>
    <name>1019: -20.7%</name>
    <desc>Pendiente -20.7% (umbral 20%)</desc>
  </wpt>
  <wpt lat="43.388191" lon="-5.832373">
    <ele>248.0</ele>
    <name>1020: -36.5%</name>
    <desc>Pendiente -36.5% (umbral 20%)</desc>
  </wpt>
  <wpt lat="43.388166" lon="-5.83236">
    <ele>247.4</ele>
    <name>1022: -30.1%</name>
    <desc>Pendiente -30.1% (umbral 20%)</desc>
  </wpt>
  <wpt lat="43.388155" lon="-5.832341">
    <ele>247.0</ele>
    <name>1023: -20.4%</name>
    <desc>Pendiente -20.4% (umbral 20%)</desc>
  </wpt>
  <wpt lat="43.388146" lon="-5.832284">
    <ele>246.4</ele>
    <name>1025: -22.5%</name>
    <desc>Pendiente -22.5% (umbral 20%)</desc>
  </wpt>
  <wpt lat="43.388143" lon="-5.83226">
    <ele>246.0</ele>
    <name>1026: -20.3%</name>
    <desc>Pendiente -20.3% (umbral 20%)</desc>
  </wpt>
  <wpt lat="43.388284" lon="-5.831829">
    <ele>239.7</ele>
    <name>1032: -38.7%</name>
    <desc>Pendiente -38.7% (umbral 20%)</desc>
  </wpt>
  <wpt lat="43.388396" lon="-5.831611">
    <ele>235.8</ele>
    <name>1034: -21.4%</name>
    <desc>Pendiente -21.4% (umbral 20%)</desc>
  </wpt>
  <wpt lat="43.389175" lon="-5.830277">
    <ele>222.0</ele>
    <name>1048: -23.7%</name>
    <desc>Pendiente -23.7% (umbral 20%)</desc>
  </wpt>
  <wpt lat="43.388335" lon="-5.830156">
    <ele>212.8</ele>
    <name>1054: -24.1%</name>
    <desc>Pendiente -24.1% (umbral 20%)</desc>
  </wpt>
  <wpt lat="43.386578" lon="-5.827909">
    <ele>193.0</ele>
    <name>1069: -24.0%</name>
    <desc>Pendiente -24.0% (umbral 20%)</desc>
  </wpt>
  <wpt lat="43.386358" lon="-5.828081">
    <ele>191.0</ele>
    <name>1071: -27.1%</name>
    <desc>Pendiente -27.1% (umbral 20%)</desc>
  </wpt>
  <wpt lat="43.386576" lon="-5.827917">
    <ele>188.0</ele>
    <name>1073: -80.8%</name>
    <desc>Pendiente -80.8% (umbral 20%)</desc>
  </wpt>
  <wpt lat="43.386364" lon="-5.828076">
    <ele>185.3</ele>
    <name>1075: -67.4%</name>
    <desc>Pendiente -67.4% (umbral 20%)</desc>
  </wpt>
  <wpt lat="43.384529" lon="-5.82426">
    <ele>171.0</ele>
    <name>1143: -27.7%</name>
    <desc>Pendiente -27.7% (umbral 20%)</desc>
  </wpt>
</gpx>