<?xml version="1.0" encoding="UTF-8"?>
<gpx xmlns="http://www.topografix.com/GPX/1/1" xmlns:xsi="http://www.w3.org/2001/XMLSchema-instance" xsi:schemaLocation="http://www.topografix.com/GPX/1/1 http://www.topografix.com/GPX/1/1/gpx.xsd" version="1.1" creator="gpx.py -- https://github.com/tkrajina/gpxpy">
  <wpt lat="43.388453" lon="-5.821929">
    <ele>161.0</ele>
    <name>38: 20.7%</name>
    <desc>Pendiente 20.7% (umbral 20%)</desc>
  </wpt>
  <wpt lat="43.400735" lon="-5.826444">
    <ele>162.0</ele>
    <name>165: 44.1%</name>
    <desc>Pendiente 44.1% (umbral 20%)</desc>
  </wpt>
</gpx>