<?xml version="1.0" encoding="UTF-8"?>
<gpx xmlns="http://www.topografix.com/GPX/1/1" xmlns:xsi="http://www.w3.org/2001/XMLSchema-instance" xsi:schemaLocation="http://www.topografix.com/GPX/1/1 http://www.topografix.com/GPX/1/1/gpx.xsd" version="1.1" creator="gpx.py -- https://github.com/tkrajina/gpxpy">
  <wpt lat="43.332229" lon="-4.875356">
    <ele>408.0</ele>
    <name>Tramo 55: 36.6%</name>
    <desc>Pendiente 36.6% en ventana de 6.5m (umbral 35%)</desc>
  </wpt>
  <wpt lat="43.335054" lon="-4.873134">
    <ele>482.7</ele>
    <name>Tramo 88: 42.2%</name>
    <desc>Pendiente 42.2% en ventana de 5.7m (umbral 35%)</desc>
  </wpt>
  <wpt lat="43.339647" lon="-4.879391">
    <ele>618.6</ele>
    <name>Tramo 157: 39.9%</name>
    <desc>Pendiente 39.9% en ventana de 8.5m (umbral 35%)</desc>
  </wpt>
  <wpt lat="43.340936" lon="-4.879861">
    <ele>627.1</ele>
    <name>Tramo 172: 74.4%</name>
    <desc>Pendiente 74.4% en ventana de 9.1m (umbral 35%)</desc>
  </wpt>
  <wpt lat="43.342697" lon="-4.879658">
    <ele>651.7</ele>
    <name>Tramo 205: 37.5%</name>
    <desc>Pendiente 37.5% en ventana de 5.1m (umbral 35%)</desc>
  </wpt>
  <wpt lat="43.342407" lon="-4.879062">
    <ele>664.3</ele>
    <name>Tramo 212: 36.7%</name>
    <desc>Pendiente 36.7% en ventana de 5.5m (umbral 35%)</desc>
  </wpt>
  <wpt lat="43.342309" lon="-4.878831">
    <ele>671.9</ele>
    <name>Tramo 216: 43.4%</name>
    <desc>Pendiente 43.4% en ventana de 5.3m (umbral 35%)</desc>
  </wpt>
  <wpt lat="43.342276" lon="-4.878785">
    <ele>673.9</ele>
    <name>Tramo 217: 38.3%</name>
    <desc>Pendiente 38.3% en ventana de 5.2m (umbral 35%)</desc>
  </wpt>
  <wpt lat="43.342245" lon="-4.878745">
    <ele>676.0</ele>
    <name>Tramo 218: 44.4%</name>
    <desc>Pendiente 44.4% en ventana de 4.7m (umbral 35%)</desc>
  </wpt>
  <wpt lat="43.342237" lon="-4.878682">
    <ele>677.9</ele>
    <name>Tramo 219: 36.7%</name>
    <desc>Pendiente 36.7% en ventana de 5.2m (umbral 35%)</desc>
  </wpt>
  <wpt lat="43.342223" lon="-4.878659">
    <ele>678.8</ele>
    <name>Tramo 220: 37.1%</name>
    <desc>Pendiente 37.1% en ventana de 2.4m (umbral 35%)</desc>
  </wpt>
  <wpt lat="43.342128" lon="-4.878504">
    <ele>684.9</ele>
    <name>Tramo 223: 41.7%</name>
    <desc>Pendiente 41.7% en ventana de 7.0m (umbral 35%)</desc>
  </wpt>
  <wpt lat="43.34208" lon="-4.878431">
    <ele>687.9</ele>
    <name>Tramo 224: 37.7%</name>
    <desc>Pendiente 37.7% en ventana de 8.0m (umbral 35%)</desc>
  </wpt>
  <wpt lat="43.342009" lon="-4.878316">
    <ele>693.1</ele>
    <name>Tramo 226: 43.7%</name>
    <desc>Pendiente 43.7% en ventana de 7.1m (umbral 35%)</desc>
  </wpt>
  <wpt lat="43.342373" lon="-4.870643">
    <ele>674.8</ele>
    <name>Tramo 321: 68.4%</name>
    <desc>Pendiente 68.4% en ventana de 7.9m (umbral 35%)</desc>
  </wpt>
  <wpt lat="43.34233" lon="-4.870585">
    <ele>678.1</ele>
    <name>Tramo 323: 55.1%</name>
    <desc>Pendiente 55.1% en ventana de 7.5m (umbral 35%)</desc>
  </wpt>
  <wpt lat="43.342659" lon="-4.868677">
    <ele>702.9</ele>
    <name>Tramo 359: 46.1%</name>
    <desc>Pendiente 46.1% en ventana de 7.1m (umbral 35%)</desc>
  </wpt>
  <wpt lat="43.342771" lon="-4.86842">
    <ele>708.3</ele>
    <name>Tramo 368: 44.4%</name>
    <desc>Pendiente 44.4% en ventana de 9.8m (umbral 35%)</desc>
  </wpt>
  <wpt lat="43.342844" lon="-4.868147">
    <ele>708.2</ele>
    <name>Tramo 378: -35.5%</name>
    <desc>Pendiente -35.5% en ventana de 8.8m (umbral 35%)</desc>
  </wpt>
  <wpt lat="43.34283" lon="-4.868093">
    <ele>709.8</ele>
    <name>Tramo 380: 39.5%</name>
    <desc>Pendiente 39.5% en ventana de 4.6m (umbral 35%)</desc>
  </wpt>
  <wpt lat="43.342794" lon="-4.868">
    <ele>711.5</ele>
    <name>Tramo 383: 47.6%</name>
    <desc>Pendiente 47.6% en ventana de 9.2m (umbral 35%)</desc>
  </wpt>
  <wpt lat="43.343645" lon="-4.864846">
    <ele>711.6</ele>
    <name>Tramo 429: -47.5%</name>
    <desc>Pendiente -47.5% en ventana de 7.8m (umbral 35%)</desc>
  </wpt>
  <wpt lat="43.343629" lon="-4.864795">
    <ele>708.6</ele>
    <name>Tramo 430: -66.8%</name>
    <desc>Pendiente -66.8% en ventana de 4.5m (umbral 35%)</desc>
  </wpt>
  <wpt lat="43.349559" lon="-4.857289">
    <ele>779.9</ele>
    <name>Tramo 529: 37.1%</name>
    <desc>Pendiente 37.1% en ventana de 9.4m (umbral 35%)</desc>
  </wpt>
  <wpt lat="43.349662" lon="-4.857132">
    <ele>786.7</ele>
    <name>Tramo 532: 48.2%</name>
    <desc>Pendiente 48.2% en ventana de 6.4m (umbral 35%)</desc>
  </wpt>
  <wpt lat="43.349684" lon="-4.856987">
    <ele>790.8</ele>
    <name>Tramo 535: 38.7%</name>
    <desc>Pendiente 38.7% en ventana de 9.5m (umbral 35%)</desc>
  </wpt>
  <wpt lat="43.349664" lon="-4.856915">
    <ele>792.2</ele>
    <name>Tramo 537: 45.6%</name>
    <desc>Pendiente 45.6% en ventana de 6.3m (umbral 35%)</desc>
  </wpt>
  <wpt lat="43.349672" lon="-4.856833">
    <ele>794.4</ele>
    <name>Tramo 539: 36.7%</name>
    <desc>Pendiente 36.7% en ventana de 6.7m (umbral 35%)</desc>
  </wpt>
  <wpt lat="43.349687" lon="-4.856781">
    <ele>796.3</ele>
    <name>Tramo 540: 42.0%</name>
    <desc>Pendiente 42.0% en ventana de 4.5m (umbral 35%)</desc>
  </wpt>
  <wpt lat="43.349697" lon="-4.856758">
    <ele>797.1</ele>
    <name>Tramo 541: 36.9%</name>
    <desc>Pendiente 36.9% en ventana de 2.2m (umbral 35%)</desc>
  </wpt>
  <wpt lat="43.349751" lon="-4.856698">
    <ele>800.2</ele>
    <name>Tramo 542: 40.2%</name>
    <desc>Pendiente 40.2% en ventana de 7.7m (umbral 35%)</desc>
  </wpt>
  <wpt lat="43.349811" lon="-4.856696">
    <ele>802.6</ele>
    <name>Tramo 544: 46.8%</name>
    <desc>Pendiente 46.8% en ventana de 6.7m (umbral 35%)</desc>
  </wpt>
  <wpt lat="43.349839" lon="-4.856709">
    <ele>803.8</ele>
    <name>Tramo 545: 36.5%</name>
    <desc>Pendiente 36.5% en ventana de 3.3m (umbral 35%)</desc>
  </wpt>
  <wpt lat="43.349907" lon="-4.856643">
    <ele>808.3</ele>
    <name>Tramo 547: 56.9%</name>
    <desc>Pendiente 56.9% en ventana de 9.5m (umbral 35%)</desc>
  </wpt>
  <wpt lat="43.34996" lon="-4.856639">
    <ele>810.7</ele>
    <name>Tramo 548: 40.7%</name>
    <desc>Pendiente 40.7% en ventana de 5.9m (umbral 35%)</desc>
  </wpt>
  <wpt lat="43.350055" lon="-4.856627">
    <ele>814.9</ele>
    <name>Tramo 550: 44.9%</name>
    <desc>Pendiente 44.9% en ventana de 5.3m (umbral 35%)</desc>
  </wpt>
  <wpt lat="43.350144" lon="-4.856737">
    <ele>819.0</ele>
    <name>Tramo 552: 39.9%</name>
    <desc>Pendiente 39.9% en ventana de 6.5m (umbral 35%)</desc>
  </wpt>
  <wpt lat="43.350291" lon="-4.856987">
    <ele>824.3</ele>
    <name>Tramo 556: 35.8%</name>
    <desc>Pendiente 35.8% en ventana de 3.9m (umbral 35%)</desc>
  </wpt>
  <wpt lat="43.350304" lon="-4.856972">
    <ele>825.1</ele>
    <name>Tramo 557: 42.4%</name>
    <desc>Pendiente 42.4% en ventana de 1.9m (umbral 35%)</desc>
  </wpt>
  <wpt lat="43.350396" lon="-4.855504">
    <ele>852.8</ele>
    <name>Tramo 574: 35.0%</name>
    <desc>Pendiente 35.0% en ventana de 5.5m (umbral 35%)</desc>
  </wpt>
  <wpt lat="43.350883" lon="-4.855945">
    <ele>869.0</ele>
    <name>Tramo 586: 44.1%</name>
    <desc>Pendiente 44.1% en ventana de 6.1m (umbral 35%)</desc>
  </wpt>
  <wpt lat="43.351217" lon="-4.855834">
    <ele>876.7</ele>
    <name>Tramo 595: 38.1%</name>
    <desc>Pendiente 38.1% en ventana de 8.2m (umbral 35%)</desc>
  </wpt>
  <wpt lat="43.351291" lon="-4.855835">
    <ele>879.8</ele>
    <name>Tramo 597: 48.4%</name>
    <desc>Pendiente 48.4% en ventana de 8.2m (umbral 35%)</desc>
  </wpt>
  <wpt lat="43.351381" lon="-4.855834">
    <ele>884.8</ele>
    <name>Tramo 599: 65.9%</name>
    <desc>Pendiente 65.9% en ventana de 5.0m (umbral 35%)</desc>
  </wpt>
  <wpt lat="43.351965" lon="-4.855099">
    <ele>905.6</ele>
    <name>Tramo 614: 40.2%</name>
    <desc>Pendiente 40.2% en ventana de 5.7m (umbral 35%)</desc>
  </wpt>
  <wpt lat="43.352059" lon="-4.855082">
    <ele>909.9</ele>
    <name>Tramo 616: 43.8%</name>
    <desc>Pendiente 43.8% en ventana de 6.2m (umbral 35%)</desc>
  </wpt>
  <wpt lat="43.352385" lon="-4.855487">
    <ele>925.6</ele>
    <name>Tramo 624: 52.2%</name>
    <desc>Pendiente 52.2% en ventana de 10.0m (umbral 35%)</desc>
  </wpt>
  <wpt lat="43.352405" lon="-4.855435">
    <ele>927.3</ele>
    <name>Tramo 625: 35.7%</name>
    <desc>Pendiente 35.7% en ventana de 4.8m (umbral 35%)</desc>
  </wpt>
  <wpt lat="43.353505" lon="-4.848296">
    <ele>966.0</ele>
    <name>Tramo 692: 36.6%</name>
    <desc>Pendiente 36.6% en ventana de 9.8m (umbral 35%)</desc>
  </wpt>
  <wpt lat="43.353343" lon="-4.847922">
    <ele>962.7</ele>
    <name>Tramo 702: -51.0%</name>
    <desc>Pendiente -51.0% en ventana de 8.8m (umbral 35%)</desc>
  </wpt>
  <wpt lat="43.353283" lon="-4.847857">
    <ele>963.5</ele>
    <name>Tramo 707: 59.4%</name>
    <desc>Pendiente 59.4% en ventana de 8.9m (umbral 35%)</desc>
  </wpt>
  <wpt lat="43.353282" lon="-4.847818">
    <ele>962.3</ele>
    <name>Tramo 708: -38.0%</name>
    <desc>Pendiente -38.0% en ventana de 3.2m (umbral 35%)</desc>
  </wpt>
  <wpt lat="43.352752" lon="-4.846389">
    <ele>968.5</ele>
    <name>Tramo 741: -58.3%</name>
    <desc>Pendiente -58.3% en ventana de 7.0m (umbral 35%)</desc>
  </wpt>
  <wpt lat="43.352709" lon="-4.846309">
    <ele>966.0</ele>
    <name>Tramo 743: -37.6%</name>
    <desc>Pendiente -37.6% en ventana de 8.3m (umbral 35%)</desc>
  </wpt>
  <wpt lat="43.351619" lon="-4.845148">
    <ele>982.9</ele>
    <name>Tramo 771: 67.0%</name>
    <desc>Pendiente 67.0% en ventana de 5.1m (umbral 35%)</desc>
  </wpt>
  <wpt lat="43.352587" lon="-4.844005">
    <ele>997.8</ele>
    <name>Tramo 791: -55.5%</name>
    <desc>Pendiente -55.5% en ventana de 7.9m (umbral 35%)</desc>
  </wpt>
  <wpt lat="43.352626" lon="-4.843899">
    <ele>992.8</ele>
    <name>Tramo 792: -52.0%</name>
    <desc>Pendiente -52.0% en ventana de 9.6m (umbral 35%)</desc>
  </wpt>
  <wpt lat="43.352803" lon="-4.843687">
    <ele>979.1</ele>
    <name>Tramo 795: -46.0%</name>
    <desc>Pendiente -46.0% en ventana de 8.5m (umbral 35%)</desc>
  </wpt>
  <wpt lat="43.35288" lon="-4.843684">
    <ele>973.9</ele>
    <name>Tramo 796: -60.7%</name>
    <desc>Pendiente -60.7% en ventana de 8.6m (umbral 35%)</desc>
  </wpt>
  <wpt lat="43.352934" lon="-4.843639">
    <ele>969.7</ele>
    <name>Tramo 797: -59.8%</name>
    <desc>Pendiente -59.8% en ventana de 7.0m (umbral 35%)</desc>
  </wpt>
  <wpt lat="43.353044" lon="-4.843431">
    <ele>959.2</ele>
    <name>Tramo 799: -49.7%</name>
    <desc>Pendiente -49.7% en ventana de 9.7m (umbral 35%)</desc>
  </wpt>
  <wpt lat="43.353102" lon="-4.843082">
    <ele>949.1</ele>
    <name>Tramo 804: -45.0%</name>
    <desc>Pendiente -45.0% en ventana de 6.9m (umbral 35%)</desc>
  </wpt>
  <wpt lat="43.353097" lon="-4.841957">
    <ele>948.4</ele>
    <name>Tramo 815: -46.1%</name>
    <desc>Pendiente -46.1% en ventana de 7.2m (umbral 35%)</desc>
  </wpt>
  <wpt lat="43.352878" lon="-4.84086">
    <ele>938.8</ele>
    <name>Tramo 826: 48.7%</name>
    <desc>Pendiente 48.7% en ventana de 4.9m (umbral 35%)</desc>
  </wpt>
  <wpt lat="43.352917" lon="-4.840686">
    <ele>940.4</ele>
    <name>Tramo 829: 39.0%</name>
    <desc>Pendiente 39.0% en ventana de 3.1m (umbral 35%)</desc>
  </wpt>
  <wpt lat="43.352847" lon="-4.839675">
    <ele>933.3</ele>
    <name>Tramo 843: -41.9%</name>
    <desc>Pendiente -41.9% en ventana de 8.6m (umbral 35%)</desc>
  </wpt>
  <wpt lat="43.353899" lon="-4.838473">
    <ele>953.7</ele>
    <name>Tramo 861: 43.9%</name>
    <desc>Pendiente 43.9% en ventana de 5.5m (umbral 35%)</desc>
  </wpt>
  <wpt lat="43.354344" lon="-4.836473">
    <ele>952.0</ele>
    <name>Tramo 881: -44.1%</name>
    <desc>Pendiente -44.1% en ventana de 7.3m (umbral 35%)</desc>
  </wpt>
  <wpt lat="43.354561" lon="-4.834867">
    <ele>956.6</ele>
    <name>Tramo 900: 38.0%</name>
    <desc>Pendiente 38.0% en ventana de 6.6m (umbral 35%)</desc>
  </wpt>
  <wpt lat="43.34967" lon="-4.816182">
    <ele>947.1</ele>
    <name>Tramo 1047: -38.2%</name>
    <desc>Pendiente -38.2% en ventana de 8.4m (umbral 35%)</desc>
  </wpt>
  <wpt lat="43.350757" lon="-4.813811">
    <ele>968.8</ele>
    <name>Tramo 1085: 35.3%</name>
    <desc>Pendiente 35.3% en ventana de 7.9m (umbral 35%)</desc>
  </wpt>
  <wpt lat="43.3512" lon="-4.813182">
    <ele>989.0</ele>
    <name>Tramo 1097: 39.0%</name>
    <desc>Pendiente 39.0% en ventana de 9.2m (umbral 35%)</desc>
  </wpt>
  <wpt lat="43.351203" lon="-4.812937">
    <ele>994.2</ele>
    <name>Tramo 1102: 40.8%</name>
    <desc>Pendiente 40.8% en ventana de 4.5m (umbral 35%)</desc>
  </wpt>
  <wpt lat="43.351203" lon="-4.812923">
    <ele>994.8</ele>
    <name>Tramo 1103: 53.0%</name>
    <desc>Pendiente 53.0% en ventana de 1.1m (umbral 35%)</desc>
  </wpt>
  <wpt lat="43.352064" lon="-4.810663">
    <ele>991.6</ele>
    <name>Tramo 1128: -36.3%</name>
    <desc>Pendiente -36.3% en ventana de 8.8m (umbral 35%)</desc>
  </wpt>
</gpx>