<?xml version="1.0" encoding="UTF-8"?>
<gpx xmlns="http://www.topografix.com/GPX/1/1" xmlns:xsi="http://www.w3.org/2001/XMLSchema-instance" xsi:schemaLocation="http://www.topografix.com/GPX/1/1 http://www.topografix.com/GPX/1/1/gpx.xsd" version="1.1" creator="gpx.py -- https://github.com/tkrajina/gpxpy">
  <wpt lat="43.219445" lon="-4.898649">
    <ele>436.0</ele>
    <name>Tramo 75: -51.8%</name>
    <desc>Pendiente -51.8% en ventana de 5.8m (umbral 35%)</desc>
  </wpt>
  <wpt lat="43.249391" lon="-4.879247">
    <ele>417.0</ele>
    <name>Tramo 756: 81.8%</name>
    <desc>Pendiente 81.8% en ventana de 6.1m (umbral 35%)</desc>
  </wpt>
  <wpt lat="43.253246" lon="-4.862627">
    <ele>436.5</ele>
    <name>Tramo 1150: 40.9%</name>
    <desc>Pendiente 40.9% en ventana de 6.2m (umbral 35%)</desc>
  </wpt>
  <wpt lat="43.253253" lon="-4.862622">
    <ele>437.1</ele>
    <name>Tramo 1151: 68.4%</name>
    <desc>Pendiente 68.4% en ventana de 0.9m (umbral 35%)</desc>
  </wpt>
  <wpt lat="43.253265" lon="-4.862617">
    <ele>437.7</ele>
    <name>Tramo 1152: 43.0%</name>
    <desc>Pendiente 43.0% en ventana de 1.4m (umbral 35%)</desc>
  </wpt>
  <wpt lat="43.253278" lon="-4.862607">
    <ele>438.4</ele>
    <name>Tramo 1153: 42.2%</name>
    <desc>Pendiente 42.2% en ventana de 1.7m (umbral 35%)</desc>
  </wpt>
  <wpt lat="43.253291" lon="-4.862602">
    <ele>439.1</ele>
    <name>Tramo 1154: 46.6%</name>
    <desc>Pendiente 46.6% en ventana de 1.5m (umbral 35%)</desc>
  </wpt>
  <wpt lat="43.253306" lon="-4.862593">
    <ele>439.8</ele>
    <name>Tramo 1155: 38.5%</name>
    <desc>Pendiente 38.5% en ventana de 1.8m (umbral 35%)</desc>
  </wpt>
  <wpt lat="43.253348" lon="-4.862553">
    <ele>441.9</ele>
    <name>Tramo 1158: 39.0%</name>
    <desc>Pendiente 39.0% en ventana de 6.5m (umbral 35%)</desc>
  </wpt>
  <wpt lat="43.252966" lon="-4.862478">
    <ele>447.8</ele>
    <name>Tramo 1166: 36.8%</name>
    <desc>Pendiente 36.8% en ventana de 7.8m (umbral 35%)</desc>
  </wpt>
  <wpt lat="43.25297" lon="-4.862428">
    <ele>449.1</ele>
    <name>Tramo 1168: 37.5%</name>
    <desc>Pendiente 37.5% en ventana de 4.1m (umbral 35%)</desc>
  </wpt>
  <wpt lat="43.252975" lon="-4.862411">
    <ele>449.7</ele>
    <name>Tramo 1169: 40.4%</name>
    <desc>Pendiente 40.4% en ventana de 1.5m (umbral 35%)</desc>
  </wpt>
  <wpt lat="43.252979" lon="-4.862357">
    <ele>451.2</ele>
    <name>Tramo 1171: 37.9%</name>
    <desc>Pendiente 37.9% en ventana de 4.4m (umbral 35%)</desc>
  </wpt>
  <wpt lat="43.252968" lon="-4.862315">
    <ele>452.7</ele>
    <name>Tramo 1173: 49.9%</name>
    <desc>Pendiente 49.9% en ventana de 3.6m (umbral 35%)</desc>
  </wpt>
  <wpt lat="43.252925" lon="-4.862097">
    <ele>456.9</ele>
    <name>Tramo 1178: 50.5%</name>
    <desc>Pendiente 50.5% en ventana de 8.5m (umbral 35%)</desc>
  </wpt>
  <wpt lat="43.252868" lon="-4.861866">
    <ele>460.8</ele>
    <name>Tramo 1183: 35.6%</name>
    <desc>Pendiente 35.6% en ventana de 6.9m (umbral 35%)</desc>
  </wpt>
  <wpt lat="43.252859" lon="-4.861825">
    <ele>462.3</ele>
    <name>Tramo 1185: 78.5%</name>
    <desc>Pendiente 78.5% en ventana de 3.5m (umbral 35%)</desc>
  </wpt>
  <wpt lat="43.252672" lon="-4.851377">
    <ele>458.5</ele>
    <name>Tramo 1295: -39.6%</name>
    <desc>Pendiente -39.6% en ventana de 3.3m (umbral 35%)</desc>
  </wpt>
  <wpt lat="43.25291" lon="-4.850409">
    <ele>447.0</ele>
    <name>Tramo 1303: -42.6%</name>
    <desc>Pendiente -42.6% en ventana de 3.5m (umbral 35%)</desc>
  </wpt>
  <wpt lat="43.252929" lon="-4.850336">
    <ele>444.2</ele>
    <name>Tramo 1305: -51.9%</name>
    <desc>Pendiente -51.9% en ventana de 8.4m (umbral 35%)</desc>
  </wpt>
  <wpt lat="43.252906" lon="-4.850314">
    <ele>441.4</ele>
    <name>Tramo 1307: -56.1%</name>
    <desc>Pendiente -56.1% en ventana de 7.7m (umbral 35%)</desc>
  </wpt>
  <wpt lat="43.253402" lon="-4.846318">
    <ele>398.3</ele>
    <name>Tramo 1379: -42.1%</name>
    <desc>Pendiente -42.1% en ventana de 6.7m (umbral 35%)</desc>
  </wpt>
  <wpt lat="43.25315" lon="-4.845529">
    <ele>385.9</ele>
    <name>Tramo 1393: -40.8%</name>
    <desc>Pendiente -40.8% en ventana de 7.9m (umbral 35%)</desc>
  </wpt>
  <wpt lat="43.253044" lon="-4.845423">
    <ele>383.3</ele>
    <name>Tramo 1396: -37.5%</name>
    <desc>Pendiente -37.5% en ventana de 5.0m (umbral 35%)</desc>
  </wpt>
  <wpt lat="43.253088" lon="-4.845229">
    <ele>378.5</ele>
    <name>Tramo 1402: -42.9%</name>
    <desc>Pendiente -42.9% en ventana de 5.7m (umbral 35%)</desc>
  </wpt>
  <wpt lat="43.253169" lon="-4.845118">
    <ele>375.1</ele>
    <name>Tramo 1406: -40.7%</name>
    <desc>Pendiente -40.7% en ventana de 8.0m (umbral 35%)</desc>
  </wpt>
  <wpt lat="43.253043" lon="-4.844289">
    <ele>355.5</ele>
    <name>Tramo 1424: -65.9%</name>
    <desc>Pendiente -65.9% en ventana de 5.0m (umbral 35%)</desc>
  </wpt>
  <wpt lat="43.252996" lon="-4.84435">
    <ele>353.0</ele>
    <name>Tramo 1427: -35.4%</name>
    <desc>Pendiente -35.4% en ventana de 9.8m (umbral 35%)</desc>
  </wpt>
  <wpt lat="43.252992" lon="-4.844316">
    <ele>352.0</ele>
    <name>Tramo 1428: -35.8%</name>
    <desc>Pendiente -35.8% en ventana de 2.8m (umbral 35%)</desc>
  </wpt>
  <wpt lat="43.253347" lon="-4.840172">
    <ele>301.9</ele>
    <name>Tramo 1495: -36.1%</name>
    <desc>Pendiente -36.1% en ventana de 3.6m (umbral 35%)</desc>
  </wpt>
  <wpt lat="43.254039" lon="-4.837688">
    <ele>270.8</ele>
    <name>Tramo 1532: -41.0%</name>
    <desc>Pendiente -41.0% en ventana de 5.4m (umbral 35%)</desc>
  </wpt>
</gpx>