<?xml version="1.0" encoding="UTF-8"?>
<gpx xmlns="http://www.topografix.com/GPX/1/1" xmlns:xsi="http://www.w3.org/2001/XMLSchema-instance" xsi:schemaLocation="http://www.topografix.com/GPX/1/1 http://www.topografix.com/GPX/1/1/gpx.xsd" version="1.1" creator="gpx.py -- https://github.com/tkrajina/gpxpy">
  <wpt lat="43.387901" lon="-5.821146">
    <ele>161.0</ele>
    <time>2024-09-06T12:02:14Z</time>
    <name>ANOM:DZ_HAMPEL</name>
    <desc>Tramo #1 (236-238), dur=3s
Causas: DZ_HAMPEL
vh_max=6.69 km/h | grade_ext=-14.4% | vz_ext=-16.0 m/min
max|dx|=1.29 m/s, max|dy|=1.33 m/s, max|dz|=0.27 m/s</desc>
  </wpt>
  <wpt lat="43.388477" lon="-5.821879">
    <ele>160.0</ele>
    <time>2024-09-06T12:03:14Z</time>
    <name>ANOM:DZ_HAMPEL</name>
    <desc>Tramo #2 (296-297), dur=2s
Causas: DZ_HAMPEL
vh_max=8.72 km/h | grade_ext=20.7% | vz_ext=30.0 m/min
max|dx|=2.02 m/s, max|dy|=1.33 m/s, max|dz|=0.50 m/s</desc>
  </wpt>
  <wpt lat="43.399204" lon="-5.82294">
    <ele>155.2</ele>
    <time>2024-09-06T12:21:50Z</time>
    <name>ANOM:DZ_HAMPEL</name>
    <desc>Tramo #3 (1412-1414), dur=3s
Causas: DZ_HAMPEL
vh_max=11.64 km/h | grade_ext=8.2% | vz_ext=16.0 m/min
max|dx|=2.86 m/s, max|dy|=1.52 m/s, max|dz|=0.27 m/s</desc>
  </wpt>
  <wpt lat="43.399158" lon="-5.823231">
    <ele>156.0</ele>
    <time>2024-09-06T12:22:03Z</time>
    <name>ANOM:DZ_HAMPEL</name>
    <desc>Tramo #4 (1425-1431), dur=7s
Causas: DZ_HAMPEL
vh_max=6.42 km/h | grade_ext=8.4% | vz_ext=9.0 m/min
max|dx|=1.70 m/s, max|dy|=0.75 m/s, max|dz|=0.15 m/s</desc>
  </wpt>
  <wpt lat="43.400648" lon="-5.826646">
    <ele>163.0</ele>
    <time>2024-09-06T12:25:26Z</time>
    <name>ANOM:DZ_HAMPEL</name>
    <desc>Tramo #5 (1628-1632), dur=5s
Causas: DZ_HAMPEL
vh_max=11.36 km/h | grade_ext=0.0% | vz_ext=0.0 m/min
max|dx|=2.34 m/s, max|dy|=2.11 m/s, max|dz|=0.00 m/s</desc>
  </wpt>
  <wpt lat="43.39824" lon="-5.825009">
    <ele>167.0</ele>
    <time>2024-09-06T12:28:28Z</time>
    <name>ANOM:DZ_HAMPEL</name>
    <desc>Tramo #6 (1810-1813), dur=4s
Causas: DZ_HAMPEL
vh_max=6.20 km/h | grade_ext=14.5% | vz_ext=15.0 m/min
max|dx|=0.42 m/s, max|dy|=1.67 m/s, max|dz|=0.25 m/s</desc>
  </wpt>
  <wpt lat="43.39808442857143" lon="-5.824989">
    <ele>168.14285714285714</ele>
    <time>2024-09-06T12:28:39Z</time>
    <name>ANOM:DZ_HAMPEL</name>
    <desc>Tramo #7 (1821-1826), dur=6s
Causas: DZ_HAMPEL
vh_max=5.86 km/h | grade_ext=8.8% | vz_ext=8.6 m/min
max|dx|=0.16 m/s, max|dy|=1.62 m/s, max|dz|=0.14 m/s</desc>
  </wpt>
  <wpt lat="43.396994" lon="-5.825434">
    <ele>172.0</ele>
    <time>2024-09-06T12:29:56Z</time>
    <name>ANOM:DZ_HAMPEL</name>
    <desc>Tramo #8 (1898-1904), dur=7s
Causas: DZ_HAMPEL
vh_max=5.55 km/h | grade_ext=9.3% | vz_ext=8.6 m/min
max|dx|=0.08 m/s, max|dy|=1.54 m/s, max|dz|=0.14 m/s</desc>
  </wpt>
  <wpt lat="43.394603" lon="-5.825367">
    <ele>181.0</ele>
    <time>2024-09-06T12:32:38Z</time>
    <name>ANOM:DZ_HAMPEL</name>
    <desc>Tramo #9 (2060-2064), dur=5s
Causas: DZ_HAMPEL
vh_max=6.75 km/h | grade_ext=13.0% | vz_ext=13.5 m/min
max|dx|=0.59 m/s, max|dy|=1.78 m/s, max|dz|=0.23 m/s</desc>
  </wpt>
  <wpt lat="43.392071" lon="-5.824818">
    <ele>180.0</ele>
    <time>2024-09-06T12:36:10Z</time>
    <name>ANOM:DZ_HAMPEL</name>
    <desc>Tramo #10 (2272-2275), dur=4s
Causas: DZ_HAMPEL
vh_max=6.91 km/h | grade_ext=-13.0% | vz_ext=-15.0 m/min
max|dx|=0.65 m/s, max|dy|=1.81 m/s, max|dz|=0.25 m/s</desc>
  </wpt>
  <wpt lat="43.391666666666666" lon="-5.825014">
    <ele>175.9</ele>
    <time>2024-09-06T12:36:37Z</time>
    <name>ANOM:DZ_HAMPEL</name>
    <desc>Tramo #11 (2299-2302), dur=4s
Causas: DZ_HAMPEL
vh_max=5.98 km/h | grade_ext=-3.0% | vz_ext=-3.0 m/min
max|dx|=0.53 m/s, max|dy|=1.58 m/s, max|dz|=0.05 m/s</desc>
  </wpt>
  <wpt lat="43.391524" lon="-5.825083">
    <ele>174.4</ele>
    <time>2024-09-06T12:36:47Z</time>
    <name>ANOM:DZ_HAMPEL</name>
    <desc>Tramo #12 (2309-2310), dur=2s
Causas: DZ_HAMPEL
vh_max=8.61 km/h | grade_ext=12.5% | vz_ext=18.0 m/min
max|dx|=1.54 m/s, max|dy|=1.83 m/s, max|dz|=0.30 m/s</desc>
  </wpt>
  <wpt lat="43.388674" lon="-5.825339">
    <ele>167.1</ele>
    <time>2024-09-06T12:39:59Z</time>
    <name>ANOM:DZ_HAMPEL</name>
    <desc>Tramo #13 (2501-2506), dur=6s
Causas: DZ_HAMPEL
vh_max=5.79 km/h | grade_ext=9.3% | vz_ext=9.0 m/min
max|dx|=0.47 m/s, max|dy|=1.54 m/s, max|dz|=0.15 m/s</desc>
  </wpt>
  <wpt lat="43.388267" lon="-5.825661">
    <ele>169.0</ele>
    <time>2024-09-06T12:40:34Z</time>
    <name>ANOM:DZ_HAMPEL</name>
    <desc>Tramo #14 (2536-2539), dur=4s
Causas: DZ_HAMPEL
vh_max=7.32 km/h | grade_ext=12.3% | vz_ext=15.0 m/min
max|dx|=1.88 m/s, max|dy|=0.78 m/s, max|dz|=0.25 m/s</desc>
  </wpt>
  <wpt lat="43.386122" lon="-5.827482">
    <ele>180.0</ele>
    <time>2024-09-06T12:43:47Z</time>
    <name>ANOM:DZ_HAMPEL</name>
    <desc>Tramo #15 (2729-2732), dur=4s
Causas: DZ_HAMPEL
vh_max=6.37 km/h | grade_ext=14.1% | vz_ext=15.0 m/min
max|dx|=0.89 m/s, max|dy|=1.53 m/s, max|dz|=0.25 m/s</desc>
  </wpt>
  <wpt lat="43.38552" lon="-5.826797">
    <ele>179.0</ele>
    <time>2024-09-06T12:44:49Z</time>
    <name>ANOM:DZ_HAMPEL</name>
    <desc>Tramo #16 (2791-2796), dur=6s
Causas: DZ_HAMPEL
vh_max=7.59 km/h | grade_ext=0.0% | vz_ext=0.0 m/min
max|dx|=1.54 m/s, max|dy|=1.45 m/s, max|dz|=0.00 m/s</desc>
  </wpt>
  <wpt lat="43.384865" lon="-5.82499">
    <ele>174.0</ele>
    <time>2024-09-06T12:46:38Z</time>
    <name>ANOM:DZ_HAMPEL</name>
    <desc>Tramo #17 (2900-2903), dur=4s
Causas: DZ_HAMPEL
vh_max=6.31 km/h | grade_ext=0.0% | vz_ext=0.0 m/min
max|dx|=1.39 m/s, max|dy|=1.07 m/s, max|dz|=0.00 m/s</desc>
  </wpt>
  <wpt lat="43.384913" lon="-5.824904">
    <ele>174.0</ele>
    <time>2024-09-06T12:46:43Z</time>
    <name>ANOM:DZ_HAMPEL</name>
    <desc>Tramo #18 (2905-2908), dur=4s
Causas: DZ_HAMPEL
vh_max=6.39 km/h | grade_ext=-8.5% | vz_ext=-9.0 m/min
max|dx|=1.74 m/s, max|dy|=0.36 m/s, max|dz|=0.15 m/s</desc>
  </wpt>
  <wpt lat="43.38493330787483" lon="-5.824754056095247">
    <ele>173.49134843536118</ele>
    <time>2024-09-06T12:46:51Z</time>
    <name>ANOM:DZ_HAMPEL</name>
    <desc>Tramo #19 (2913-2915), dur=3s
Causas: DZ_HAMPEL
vh_max=4.71 km/h | grade_ext=-16.2% | vz_ext=-12.7 m/min
max|dx|=1.30 m/s, max|dy|=0.14 m/s, max|dz|=0.21 m/s</desc>
  </wpt>
  <wpt lat="43.38454912522827" lon="-5.8242404017368">
    <ele>171.8598263199506</ele>
    <time>2024-09-06T12:47:36Z</time>
    <name>ANOM:DZ_HAMPEL</name>
    <desc>Tramo #20 (2958-2960), dur=3s
Causas: DZ_HAMPEL
vh_max=4.81 km/h | grade_ext=-19.0% | vz_ext=-15.3 m/min
max|dx|=0.21 m/s, max|dy|=1.32 m/s, max|dz|=0.25 m/s</desc>
  </wpt>
  <wpt lat="43.384316" lon="-5.824112">
    <ele>170.5</ele>
    <time>2024-09-06T12:48:02Z</time>
    <name>ANOM:DZ_HAMPEL</name>
    <desc>Tramo #21 (2984-2986), dur=3s
Causas: DZ_HAMPEL
vh_max=8.77 km/h | grade_ext=-4.1% | vz_ext=-6.0 m/min
max|dx|=2.37 m/s, max|dy|=0.56 m/s, max|dz|=0.10 m/s</desc>
  </wpt>
  <wpt lat="43.384583" lon="-5.822695">
    <ele>167.8</ele>
    <time>2024-09-06T12:49:12Z</time>
    <name>ANOM:DZ_HAMPEL</name>
    <desc>Tramo #22 (3054-3058), dur=5s
Causas: DZ_HAMPEL
vh_max=7.50 km/h | grade_ext=-7.7% | vz_ext=-9.6 m/min
max|dx|=2.04 m/s, max|dy|=0.44 m/s, max|dz|=0.16 m/s</desc>
  </wpt>
  <wpt lat="43.38462" lon="-5.822219">
    <ele>167.0</ele>
    <time>2024-09-06T12:49:35Z</time>
    <name>ANOM:DZ_HAMPEL</name>
    <desc>Tramo #23 (3077-3082), dur=6s
Causas: DZ_HAMPEL
vh_max=5.17 km/h | grade_ext=-11.6% | vz_ext=-10.0 m/min
max|dx|=1.01 m/s, max|dy|=1.02 m/s, max|dz|=0.17 m/s</desc>
  </wpt>
  <trk>
    <name>10_aligned_pattern_resampled_anomalies</name>
    <trkseg>
      <trkpt lat="43.387901" lon="-5.821146">
        <ele>161.0</ele>
        <time>2024-09-06T12:02:14Z</time>
      </trkpt>
      <trkpt lat="43.387913" lon="-5.821162">
        <ele>160.73333333333332</ele>
        <time>2024-09-06T12:02:15Z</time>
      </trkpt>
      <trkpt lat="43.387925" lon="-5.821178">
        <ele>160.46666666666667</ele>
        <time>2024-09-06T12:02:16Z</time>
      </trkpt>
    </trkseg>
    <trkseg>
      <trkpt lat="43.388477" lon="-5.821879">
        <ele>160.0</ele>
        <time>2024-09-06T12:03:14Z</time>
      </trkpt>
      <trkpt lat="43.388465" lon="-5.821904">
        <ele>160.5</ele>
        <time>2024-09-06T12:03:15Z</time>
      </trkpt>
    </trkseg>
    <trkseg>
      <trkpt lat="43.399204" lon="-5.82294">
        <ele>155.2</ele>
        <time>2024-09-06T12:21:50Z</time>
      </trkpt>
      <trkpt lat="43.39919033333333" lon="-5.822975333333333">
        <ele>155.46666666666667</ele>
        <time>2024-09-06T12:21:51Z</time>
      </trkpt>
      <trkpt lat="43.39917666666667" lon="-5.823010666666667">
        <ele>155.73333333333332</ele>
        <time>2024-09-06T12:21:52Z</time>
      </trkpt>
    </trkseg>
    <trkseg>
      <trkpt lat="43.399158" lon="-5.823231">
        <ele>156.0</ele>
        <time>2024-09-06T12:22:03Z</time>
      </trkpt>
      <trkpt lat="43.39916266666667" lon="-5.823252">
        <ele>156.13333333333333</ele>
        <time>2024-09-06T12:22:04Z</time>
      </trkpt>
      <trkpt lat="43.39916733333333" lon="-5.8232729999999995">
        <ele>156.26666666666668</ele>
        <time>2024-09-06T12:22:05Z</time>
      </trkpt>
      <trkpt lat="43.399172" lon="-5.823294">
        <ele>156.4</ele>
        <time>2024-09-06T12:22:06Z</time>
      </trkpt>
      <trkpt lat="43.399178750000004" lon="-5.823314">
        <ele>156.55</ele>
        <time>2024-09-06T12:22:07Z</time>
      </trkpt>
      <trkpt lat="43.3991855" lon="-5.823334">
        <ele>156.7</ele>
        <time>2024-09-06T12:22:08Z</time>
      </trkpt>
      <trkpt lat="43.39919225" lon="-5.823354">
        <ele>156.85</ele>
        <time>2024-09-06T12:22:09Z</time>
      </trkpt>
    </trkseg>
    <trkseg>
      <trkpt lat="43.400648" lon="-5.826646">
        <ele>163.0</ele>
        <time>2024-09-06T12:25:26Z</time>
      </trkpt>
      <trkpt lat="43.400641" lon="-5.826659">
        <ele>163.0</ele>
        <time>2024-09-06T12:25:27Z</time>
      </trkpt>
      <trkpt lat="43.400634" lon="-5.826672">
        <ele>163.0</ele>
        <time>2024-09-06T12:25:28Z</time>
      </trkpt>
      <trkpt lat="43.400627" lon="-5.826685">
        <ele>163.0</ele>
        <time>2024-09-06T12:25:29Z</time>
      </trkpt>
      <trkpt lat="43.400608" lon="-5.826714">
        <ele>163.0</ele>
        <time>2024-09-06T12:25:30Z</time>
      </trkpt>
    </trkseg>
    <trkseg>
      <trkpt lat="43.39824" lon="-5.825009">
        <ele>167.0</ele>
        <time>2024-09-06T12:28:28Z</time>
      </trkpt>
      <trkpt lat="43.398225000000004" lon="-5.82500375">
        <ele>167.25</ele>
        <time>2024-09-06T12:28:29Z</time>
      </trkpt>
      <trkpt lat="43.398210000000006" lon="-5.8249984999999995">
        <ele>167.5</ele>
        <time>2024-09-06T12:28:30Z</time>
      </trkpt>
      <trkpt lat="43.398195" lon="-5.82499325">
        <ele>167.75</ele>
        <time>2024-09-06T12:28:31Z</time>
      </trkpt>
    </trkseg>
    <trkseg>
      <trkpt lat="43.39808442857143" lon="-5.824989">
        <ele>168.14285714285714</ele>
        <time>2024-09-06T12:28:39Z</time>
      </trkpt>
      <trkpt lat="43.39806985714286" lon="-5.824991">
        <ele>168.28571428571428</ele>
        <time>2024-09-06T12:28:40Z</time>
      </trkpt>
      <trkpt lat="43.398055285714285" lon="-5.824993">
        <ele>168.42857142857142</ele>
        <time>2024-09-06T12:28:41Z</time>
      </trkpt>
      <trkpt lat="43.39804071428571" lon="-5.824995">
        <ele>168.57142857142858</ele>
        <time>2024-09-06T12:28:42Z</time>
      </trkpt>
      <trkpt lat="43.39802614285714" lon="-5.824997000000001">
        <ele>168.71428571428572</ele>
        <time>2024-09-06T12:28:43Z</time>
      </trkpt>
      <trkpt lat="43.39801157142857" lon="-5.824999">
        <ele>168.85714285714286</ele>
        <time>2024-09-06T12:28:44Z</time>
      </trkpt>
    </trkseg>
    <trkseg>
      <trkpt lat="43.396994" lon="-5.825434">
        <ele>172.0</ele>
        <time>2024-09-06T12:29:56Z</time>
      </trkpt>
      <trkpt lat="43.396980142857146" lon="-5.825435">
        <ele>172.14285714285714</ele>
        <time>2024-09-06T12:29:57Z</time>
      </trkpt>
      <trkpt lat="43.396966285714285" lon="-5.825436">
        <ele>172.28571428571428</ele>
        <time>2024-09-06T12:29:58Z</time>
      </trkpt>
      <trkpt lat="43.39695242857143" lon="-5.825437">
        <ele>172.42857142857142</ele>
        <time>2024-09-06T12:29:59Z</time>
      </trkpt>
      <trkpt lat="43.39693857142857" lon="-5.825437999999999">
        <ele>172.57142857142858</ele>
        <time>2024-09-06T12:30:00Z</time>
      </trkpt>
      <trkpt lat="43.39692471428572" lon="-5.825438999999999">
        <ele>172.71428571428572</ele>
        <time>2024-09-06T12:30:01Z</time>
      </trkpt>
      <trkpt lat="43.396910857142856" lon="-5.8254399999999995">
        <ele>172.85714285714286</ele>
        <time>2024-09-06T12:30:02Z</time>
      </trkpt>
    </trkseg>
    <trkseg>
      <trkpt lat="43.394603" lon="-5.825367">
        <ele>181.0</ele>
        <time>2024-09-06T12:32:38Z</time>
      </trkpt>
      <trkpt lat="43.39458775" lon="-5.8253710000000005">
        <ele>181.225</ele>
        <time>2024-09-06T12:32:39Z</time>
      </trkpt>
      <trkpt lat="43.394572499999995" lon="-5.825375">
        <ele>181.45</ele>
        <time>2024-09-06T12:32:40Z</time>
      </trkpt>
      <trkpt lat="43.39455725" lon="-5.825379">
        <ele>181.675</ele>
        <time>2024-09-06T12:32:41Z</time>
      </trkpt>
      <trkpt lat="43.394542" lon="-5.825383">
        <ele>181.9</ele>
        <time>2024-09-06T12:32:42Z</time>
      </trkpt>
    </trkseg>
    <trkseg>
      <trkpt lat="43.392071" lon="-5.824818">
        <ele>180.0</ele>
        <time>2024-09-06T12:36:10Z</time>
      </trkpt>
      <trkpt lat="43.39205475" lon="-5.824826">
        <ele>179.75</ele>
        <time>2024-09-06T12:36:11Z</time>
      </trkpt>
      <trkpt lat="43.3920385" lon="-5.824833999999999">
        <ele>179.5</ele>
        <time>2024-09-06T12:36:12Z</time>
      </trkpt>
      <trkpt lat="43.392022250000004" lon="-5.824841999999999">
        <ele>179.25</ele>
        <time>2024-09-06T12:36:13Z</time>
      </trkpt>
    </trkseg>
    <trkseg>
      <trkpt lat="43.391666666666666" lon="-5.825014">
        <ele>175.9</ele>
        <time>2024-09-06T12:36:37Z</time>
      </trkpt>
      <trkpt lat="43.3916525" lon="-5.825020500000001">
        <ele>175.85</ele>
        <time>2024-09-06T12:36:38Z</time>
      </trkpt>
      <trkpt lat="43.39163833333333" lon="-5.825027">
        <ele>175.79999999999998</ele>
        <time>2024-09-06T12:36:39Z</time>
      </trkpt>
      <trkpt lat="43.391624166666666" lon="-5.8250335">
        <ele>175.75</ele>
        <time>2024-09-06T12:36:40Z</time>
      </trkpt>
    </trkseg>
    <trkseg>
      <trkpt lat="43.391524" lon="-5.825083">
        <ele>174.4</ele>
        <time>2024-09-06T12:36:47Z</time>
      </trkpt>
      <trkpt lat="43.3915075" lon="-5.825102">
        <ele>174.7</ele>
        <time>2024-09-06T12:36:48Z</time>
      </trkpt>
    </trkseg>
    <trkseg>
      <trkpt lat="43.388674" lon="-5.825339">
        <ele>167.1</ele>
        <time>2024-09-06T12:39:59Z</time>
      </trkpt>
      <trkpt lat="43.38866016666667" lon="-5.825344833333333">
        <ele>167.25</ele>
        <time>2024-09-06T12:40:00Z</time>
      </trkpt>
      <trkpt lat="43.388646333333334" lon="-5.825350666666666">
        <ele>167.4</ele>
        <time>2024-09-06T12:40:01Z</time>
      </trkpt>
      <trkpt lat="43.3886325" lon="-5.8253565">
        <ele>167.55</ele>
        <time>2024-09-06T12:40:02Z</time>
      </trkpt>
      <trkpt lat="43.388618666666666" lon="-5.8253623333333335">
        <ele>167.7</ele>
        <time>2024-09-06T12:40:03Z</time>
      </trkpt>
      <trkpt lat="43.38860483333333" lon="-5.825368166666666">
        <ele>167.85</ele>
        <time>2024-09-06T12:40:04Z</time>
      </trkpt>
    </trkseg>
    <trkseg>
      <trkpt lat="43.388267" lon="-5.825661">
        <ele>169.0</ele>
        <time>2024-09-06T12:40:34Z</time>
      </trkpt>
      <trkpt lat="43.38826" lon="-5.82568425">
        <ele>169.25</ele>
        <time>2024-09-06T12:40:35Z</time>
      </trkpt>
      <trkpt lat="43.388253" lon="-5.8257075">
        <ele>169.5</ele>
        <time>2024-09-06T12:40:36Z</time>
      </trkpt>
      <trkpt lat="43.388245999999995" lon="-5.82573075">
        <ele>169.75</ele>
        <time>2024-09-06T12:40:37Z</time>
      </trkpt>
    </trkseg>
    <trkseg>
      <trkpt lat="43.386122" lon="-5.827482">
        <ele>180.0</ele>
        <time>2024-09-06T12:43:47Z</time>
      </trkpt>
      <trkpt lat="43.38610825" lon="-5.827493">
        <ele>180.25</ele>
        <time>2024-09-06T12:43:48Z</time>
      </trkpt>
      <trkpt lat="43.3860945" lon="-5.827503999999999">
        <ele>180.5</ele>
        <time>2024-09-06T12:43:49Z</time>
      </trkpt>
      <trkpt lat="43.38608075" lon="-5.827515">
        <ele>180.75</ele>
        <time>2024-09-06T12:43:50Z</time>
      </trkpt>
    </trkseg>
    <trkseg>
      <trkpt lat="43.38552" lon="-5.826797">
        <ele>179.0</ele>
        <time>2024-09-06T12:44:49Z</time>
      </trkpt>
      <trkpt lat="43.385507" lon="-5.826778">
        <ele>179.0</ele>
        <time>2024-09-06T12:44:50Z</time>
      </trkpt>
      <trkpt lat="43.385494" lon="-5.826759">
        <ele>179.0</ele>
        <time>2024-09-06T12:44:51Z</time>
      </trkpt>
      <trkpt lat="43.385481" lon="-5.82674">
        <ele>179.0</ele>
        <time>2024-09-06T12:44:52Z</time>
      </trkpt>
      <trkpt lat="43.385467999999996" lon="-5.826721">
        <ele>179.0</ele>
        <time>2024-09-06T12:44:53Z</time>
      </trkpt>
      <trkpt lat="43.385455" lon="-5.826702">
        <ele>179.0</ele>
        <time>2024-09-06T12:44:54Z</time>
      </trkpt>
    </trkseg>
    <trkseg>
      <trkpt lat="43.384865" lon="-5.82499">
        <ele>174.0</ele>
        <time>2024-09-06T12:46:38Z</time>
      </trkpt>
      <trkpt lat="43.384874599999996" lon="-5.824972799999999">
        <ele>174.0</ele>
        <time>2024-09-06T12:46:39Z</time>
      </trkpt>
      <trkpt lat="43.384884199999995" lon="-5.8249556">
        <ele>174.0</ele>
        <time>2024-09-06T12:46:40Z</time>
      </trkpt>
      <trkpt lat="43.3848938" lon="-5.8249384">
        <ele>174.0</ele>
        <time>2024-09-06T12:46:41Z</time>
      </trkpt>
    </trkseg>
    <trkseg>
      <trkpt lat="43.384913" lon="-5.824904">
        <ele>174.0</ele>
        <time>2024-09-06T12:46:43Z</time>
      </trkpt>
      <trkpt lat="43.384916249999996" lon="-5.8248825">
        <ele>173.85</ele>
        <time>2024-09-06T12:46:44Z</time>
      </trkpt>
      <trkpt lat="43.384919499999995" lon="-5.824861">
        <ele>173.7</ele>
        <time>2024-09-06T12:46:45Z</time>
      </trkpt>
      <trkpt lat="43.38492275" lon="-5.8248394999999995">
        <ele>173.55</ele>
        <time>2024-09-06T12:46:46Z</time>
      </trkpt>
    </trkseg>
    <trkseg>
      <trkpt lat="43.38493330787483" lon="-5.824754056095247">
        <ele>173.49134843536118</ele>
        <time>2024-09-06T12:46:51Z</time>
      </trkpt>
      <trkpt lat="43.384934527666154" lon="-5.824737974343084">
        <ele>173.36808346164057</ele>
        <time>2024-09-06T12:46:52Z</time>
      </trkpt>
      <trkpt lat="43.3849353771485" lon="-5.824721834178497">
        <ele>173.1557128749668</ele>
        <time>2024-09-06T12:46:53Z</time>
      </trkpt>
    </trkseg>
    <trkseg>
      <trkpt lat="43.38454912522827" lon="-5.8242404017368">
        <ele>171.8598263199506</ele>
        <time>2024-09-06T12:47:36Z</time>
      </trkpt>
      <trkpt lat="43.38453726183691" lon="-5.824242943892091">
        <ele>171.60561079094077</ele>
        <time>2024-09-06T12:47:37Z</time>
      </trkpt>
      <trkpt lat="43.38452539844556" lon="-5.8242454860473805">
        <ele>171.35139526193097</ele>
        <time>2024-09-06T12:47:38Z</time>
      </trkpt>
    </trkseg>
    <trkseg>
      <trkpt lat="43.384316" lon="-5.824112">
        <ele>170.5</ele>
        <time>2024-09-06T12:48:02Z</time>
      </trkpt>
      <trkpt lat="43.384321" lon="-5.8240826666666665">
        <ele>170.4</ele>
        <time>2024-09-06T12:48:03Z</time>
      </trkpt>
      <trkpt lat="43.384326" lon="-5.8240533333333335">
        <ele>170.29999999999998</ele>
        <time>2024-09-06T12:48:04Z</time>
      </trkpt>
    </trkseg>
    <trkseg>
      <trkpt lat="43.384583" lon="-5.822695">
        <ele>167.8</ele>
        <time>2024-09-06T12:49:12Z</time>
      </trkpt>
      <trkpt lat="43.384586999999996" lon="-5.8226698">
        <ele>167.64000000000001</ele>
        <time>2024-09-06T12:49:13Z</time>
      </trkpt>
      <trkpt lat="43.384591" lon="-5.8226446">
        <ele>167.48000000000002</ele>
        <time>2024-09-06T12:49:14Z</time>
      </trkpt>
      <trkpt lat="43.384595" lon="-5.8226194">
        <ele>167.32</ele>
        <time>2024-09-06T12:49:15Z</time>
      </trkpt>
      <trkpt lat="43.384599" lon="-5.8225942">
        <ele>167.16</ele>
        <time>2024-09-06T12:49:16Z</time>
      </trkpt>
    </trkseg>
    <trkseg>
      <trkpt lat="43.38462" lon="-5.822219">
        <ele>167.0</ele>
        <time>2024-09-06T12:49:35Z</time>
      </trkpt>
      <trkpt lat="43.38462916666666" lon="-5.8222065">
        <ele>166.83333333333334</ele>
        <time>2024-09-06T12:49:36Z</time>
      </trkpt>
      <trkpt lat="43.384638333333335" lon="-5.822194">
        <ele>166.66666666666666</ele>
        <time>2024-09-06T12:49:37Z</time>
      </trkpt>
      <trkpt lat="43.3846475" lon="-5.822181499999999">
        <ele>166.5</ele>
        <time>2024-09-06T12:49:38Z</time>
      </trkpt>
      <trkpt lat="43.384656666666665" lon="-5.822169">
        <ele>166.33333333333334</ele>
        <time>2024-09-06T12:49:39Z</time>
      </trkpt>
      <trkpt lat="43.38466583333334" lon="-5.8221565">
        <ele>166.16666666666666</ele>
        <time>2024-09-06T12:49:40Z</time>
      </trkpt>
    </trkseg>
  </trk>
</gpx>