<?xml version="1.0" encoding="UTF-8"?>
<gpx xmlns="http://www.topografix.com/GPX/1/1" xmlns:xsi="http://www.w3.org/2001/XMLSchema-instance" xsi:schemaLocation="http://www.topografix.com/GPX/1/1 http://www.topografix.com/GPX/1/1/gpx.xsd" version="1.1" creator="gpx.py -- https://github.com/tkrajina/gpxpy">
  <wpt lat="43.38789376336785" lon="-5.821131432753464">
    <ele>161.0</ele>
    <time>2024-09-06T12:02:14Z</time>
    <name>ANOM:DZ_HAMPEL</name>
    <desc>Tramo #1 (225-229), dur=5s
Causas: DZ_HAMPEL
vh_max=9.49 km/h | grade_ext=-14.4% | vz_ext=-22.7 m/min
max|dx|=1.83 m/s, max|dy|=2.24 m/s, max|dz|=0.38 m/s</desc>
  </wpt>
  <wpt lat="43.388477" lon="-5.821879">
    <ele>160.0</ele>
    <time>2024-09-06T12:03:13Z</time>
    <name>ANOM:DZ_HAMPEL</name>
    <desc>Tramo #2 (284-287), dur=4s
Causas: DZ_HAMPEL
vh_max=6.44 km/h | grade_ext=20.7% | vz_ext=17.2 m/min
max|dx|=1.77 m/s, max|dy|=0.77 m/s, max|dz|=0.29 m/s</desc>
  </wpt>
  <wpt lat="43.40073400642972" lon="-5.826415852116338">
    <ele>161.0</ele>
    <time>2024-09-06T12:25:11Z</time>
    <name>ANOM:DZ_HAMPEL,GRADE_UP</name>
    <desc>Tramo #3 (1602-1603), dur=2s
Causas: DZ_HAMPEL,GRADE_UP
vh_max=5.10 km/h | grade_ext=43.8% | vz_ext=37.2 m/min
max|dx|=1.41 m/s, max|dy|=0.28 m/s, max|dz|=0.62 m/s</desc>
  </wpt>
  <wpt lat="43.40064569675685" lon="-5.826650277451566">
    <ele>163.0</ele>
    <time>2024-09-06T12:25:26Z</time>
    <name>ANOM:DZ_HAMPEL</name>
    <desc>Tramo #4 (1617-1621), dur=5s
Causas: DZ_HAMPEL
vh_max=9.47 km/h | grade_ext=0.1% | vz_ext=0.2 m/min
max|dx|=1.41 m/s, max|dy|=2.32 m/s, max|dz|=0.00 m/s</desc>
  </wpt>
  <wpt lat="43.39822261807137" lon="-5.825002916324979">
    <ele>167.28969881051788</ele>
    <time>2024-09-06T12:28:29Z</time>
    <name>ANOM:DZ_HAMPEL</name>
    <desc>Tramo #5 (1800-1802), dur=3s
Causas: DZ_HAMPEL
vh_max=5.52 km/h | grade_ext=14.5% | vz_ext=13.4 m/min
max|dx|=0.38 m/s, max|dy|=1.48 m/s, max|dz|=0.22 m/s</desc>
  </wpt>
  <wpt lat="43.39806961370317" lon="-5.824991033413291">
    <ele>168.28810094932655</ele>
    <time>2024-09-06T12:28:40Z</time>
    <name>ANOM:DZ_HAMPEL</name>
    <desc>Tramo #6 (1811-1815), dur=5s
Causas: DZ_HAMPEL
vh_max=6.04 km/h | grade_ext=8.8% | vz_ext=8.8 m/min
max|dx|=0.19 m/s, max|dy|=1.67 m/s, max|dz|=0.15 m/s</desc>
  </wpt>
  <wpt lat="43.39460234118359" lon="-5.825367172804302">
    <ele>181.00972024202804</ele>
    <time>2024-09-06T12:32:38Z</time>
    <name>ANOM:DZ_HAMPEL</name>
    <desc>Tramo #7 (2049-2052), dur=4s
Causas: DZ_HAMPEL
vh_max=7.20 km/h | grade_ext=13.0% | vz_ext=15.6 m/min
max|dx|=0.50 m/s, max|dy|=1.97 m/s, max|dz|=0.26 m/s</desc>
  </wpt>
  <wpt lat="43.39207315756633" lon="-5.824816791762858">
    <ele>180.0</ele>
    <time>2024-09-06T12:36:10Z</time>
    <name>ANOM:DZ_HAMPEL</name>
    <desc>Tramo #8 (2261-2264), dur=4s
Causas: DZ_HAMPEL
vh_max=6.32 km/h | grade_ext=-13.0% | vz_ext=-13.7 m/min
max|dx|=0.60 m/s, max|dy|=1.65 m/s, max|dz|=0.23 m/s</desc>
  </wpt>
  <wpt lat="43.39198500257595" lon="-5.824860790342913">
    <ele>179.0</ele>
    <time>2024-09-06T12:36:16Z</time>
    <name>ANOM:DZ_HAMPEL</name>
    <desc>Tramo #9 (2267-2268), dur=2s
Causas: DZ_HAMPEL
vh_max=6.07 km/h | grade_ext=0.0% | vz_ext=0.0 m/min
max|dx|=0.59 m/s, max|dy|=1.58 m/s, max|dz|=0.00 m/s</desc>
  </wpt>
  <wpt lat="43.39182348758678" lon="-5.824944873287054">
    <ele>177.62763985304636</ele>
    <time>2024-09-06T12:36:27Z</time>
    <name>ANOM:DZ_HAMPEL</name>
    <desc>Tramo #10 (2278-2279), dur=2s
Causas: DZ_HAMPEL
vh_max=6.10 km/h | grade_ext=-9.3% | vz_ext=-9.5 m/min
max|dx|=0.61 m/s, max|dy|=1.58 m/s, max|dz|=0.16 m/s</desc>
  </wpt>
  <wpt lat="43.391665973200254" lon="-5.825014318178709">
    <ele>175.89755247147752</ele>
    <time>2024-09-06T12:36:38Z</time>
    <name>ANOM:DZ_HAMPEL</name>
    <desc>Tramo #11 (2289-2290), dur=2s
Causas: DZ_HAMPEL
vh_max=6.02 km/h | grade_ext=-3.0% | vz_ext=-3.0 m/min
max|dx|=0.53 m/s, max|dy|=1.59 m/s, max|dz|=0.05 m/s</desc>
  </wpt>
  <wpt lat="43.39151812533063" lon="-5.825089764770793">
    <ele>174.50681217040847</ele>
    <time>2024-09-06T12:36:48Z</time>
    <name>ANOM:DZ_HAMPEL</name>
    <desc>Tramo #12 (2299-2300), dur=2s
Causas: DZ_HAMPEL
vh_max=6.80 km/h | grade_ext=12.5% | vz_ext=14.2 m/min
max|dx|=1.21 m/s, max|dy|=1.45 m/s, max|dz|=0.24 m/s</desc>
  </wpt>
  <wpt lat="43.388670915947216" lon="-5.825340300504185">
    <ele>167.13344153619556</ele>
    <time>2024-09-06T12:40:00Z</time>
    <name>ANOM:DZ_HAMPEL</name>
    <desc>Tramo #13 (2491-2496), dur=6s
Causas: DZ_HAMPEL
vh_max=5.85 km/h | grade_ext=9.3% | vz_ext=9.1 m/min
max|dx|=0.57 m/s, max|dy|=1.55 m/s, max|dz|=0.15 m/s</desc>
  </wpt>
  <wpt lat="43.38612532824619" lon="-5.82748683319229">
    <ele>180.00868238135885</ele>
    <time>2024-09-06T12:43:47Z</time>
    <name>ANOM:DZ_HAMPEL</name>
    <desc>Tramo #14 (2718-2722), dur=5s
Causas: DZ_HAMPEL
vh_max=5.97 km/h | grade_ext=14.1% | vz_ext=14.1 m/min
max|dx|=0.83 m/s, max|dy|=1.44 m/s, max|dz|=0.23 m/s</desc>
  </wpt>
  <wpt lat="43.38455287174223" lon="-5.8242398029745015">
    <ele>171.90328375829822</ele>
    <time>2024-09-06T12:47:36Z</time>
    <name>ANOM:DZ_HAMPEL</name>
    <desc>Tramo #15 (2947-2948), dur=2s
Causas: DZ_HAMPEL
vh_max=9.15 km/h | grade_ext=-19.0% | vz_ext=-29.0 m/min
max|dx|=0.39 m/s, max|dy|=2.51 m/s, max|dz|=0.48 m/s</desc>
  </wpt>
  <wpt lat="43.38433636778006" lon="-5.823987499095626">
    <ele>170.14632219945003</ele>
    <time>2024-09-06T12:48:08Z</time>
    <name>ANOM:DZ_HAMPEL</name>
    <desc>Tramo #16 (2979-2983), dur=5s
Causas: DZ_HAMPEL
vh_max=6.30 km/h | grade_ext=-2.2% | vz_ext=-2.3 m/min
max|dx|=1.72 m/s, max|dy|=0.40 m/s, max|dz|=0.04 m/s</desc>
  </wpt>
  <wpt lat="43.38458507093934" lon="-5.822681953082181">
    <ele>167.71716242654793</ele>
    <time>2024-09-06T12:49:12Z</time>
    <name>ANOM:DZ_HAMPEL</name>
    <desc>Tramo #17 (3043-3047), dur=5s
Causas: DZ_HAMPEL
vh_max=6.08 km/h | grade_ext=-7.7% | vz_ext=-7.8 m/min
max|dx|=1.65 m/s, max|dy|=0.36 m/s, max|dz|=0.13 m/s</desc>
  </wpt>
  <wpt lat="43.38461513918635" lon="-5.822227186633517">
    <ele>167.0</ele>
    <time>2024-09-06T12:49:35Z</time>
    <name>ANOM:DZ_HAMPEL</name>
    <desc>Tramo #18 (3066-3072), dur=7s
Causas: DZ_HAMPEL
vh_max=5.64 km/h | grade_ext=-11.6% | vz_ext=-9.3 m/min
max|dx|=1.17 m/s, max|dy|=1.05 m/s, max|dz|=0.15 m/s</desc>
  </wpt>
  <trk>
    <name>10_pattern_aligned_resampled_anomalies</name>
    <trkseg>
      <trkpt lat="43.38789376336785" lon="-5.821131432753464">
        <ele>161.0</ele>
        <time>2024-09-06T12:02:14Z</time>
      </trkpt>
      <trkpt lat="43.38790250015538" lon="-5.821148000207172">
        <ele>160.96666321379294</ele>
        <time>2024-09-06T12:02:15Z</time>
      </trkpt>
      <trkpt lat="43.38791952802575" lon="-5.821170704034328">
        <ele>160.5882660945302</ele>
        <time>2024-09-06T12:02:16Z</time>
      </trkpt>
      <trkpt lat="43.38793655589611" lon="-5.821193407861484">
        <ele>160.20986897526748</ele>
        <time>2024-09-06T12:02:17Z</time>
      </trkpt>
      <trkpt lat="43.38795667868887" lon="-5.821195513745297">
        <ele>160.0990836468235</ele>
        <time>2024-09-06T12:02:18Z</time>
      </trkpt>
    </trkseg>
    <trkseg>
      <trkpt lat="43.388477" lon="-5.821879">
        <ele>160.0</ele>
        <time>2024-09-06T12:03:13Z</time>
      </trkpt>
      <trkpt lat="43.38847011972172" lon="-5.821893333913092">
        <ele>160.28667826184676</ele>
        <time>2024-09-06T12:03:14Z</time>
      </trkpt>
      <trkpt lat="43.38846323944343" lon="-5.821907667826185">
        <ele>160.57335652369352</ele>
        <time>2024-09-06T12:03:15Z</time>
      </trkpt>
      <trkpt lat="43.38845635916515" lon="-5.821922001739277">
        <ele>160.86003478554028</ele>
        <time>2024-09-06T12:03:16Z</time>
      </trkpt>
    </trkseg>
    <trkseg>
      <trkpt lat="43.40073400642972" lon="-5.826415852116338">
        <ele>161.0</ele>
        <time>2024-09-06T12:25:11Z</time>
      </trkpt>
      <trkpt lat="43.40073461948271" lon="-5.826433345515952">
        <ele>161.6194827125467</ele>
        <time>2024-09-06T12:25:12Z</time>
      </trkpt>
    </trkseg>
    <trkseg>
      <trkpt lat="43.40064569675685" lon="-5.826650277451566">
        <ele>163.0</ele>
        <time>2024-09-06T12:25:26Z</time>
      </trkpt>
      <trkpt lat="43.40063924993499" lon="-5.826662250120725">
        <ele>163.0</ele>
        <time>2024-09-06T12:25:27Z</time>
      </trkpt>
      <trkpt lat="43.40063280311314" lon="-5.826674222789884">
        <ele>163.0</ele>
        <time>2024-09-06T12:25:28Z</time>
      </trkpt>
      <trkpt lat="43.40062585801199" lon="-5.826686743034324">
        <ele>163.0</ele>
        <time>2024-09-06T12:25:29Z</time>
      </trkpt>
      <trkpt lat="43.40061442086184" lon="-5.826704199737186">
        <ele>163.0</ele>
        <time>2024-09-06T12:25:30Z</time>
      </trkpt>
    </trkseg>
    <trkseg>
      <trkpt lat="43.39822261807137" lon="-5.825002916324979">
        <ele>167.28969881051788</ele>
        <time>2024-09-06T12:28:29Z</time>
      </trkpt>
      <trkpt lat="43.39820926510621" lon="-5.824998242787173">
        <ele>167.51224822984193</ele>
        <time>2024-09-06T12:28:30Z</time>
      </trkpt>
      <trkpt lat="43.398195912141055" lon="-5.824993569249368">
        <ele>167.73479764916598</ele>
        <time>2024-09-06T12:28:31Z</time>
      </trkpt>
    </trkseg>
    <trkseg>
      <trkpt lat="43.39806961370317" lon="-5.824991033413291">
        <ele>168.28810094932655</ele>
        <time>2024-09-06T12:28:40Z</time>
      </trkpt>
      <trkpt lat="43.398054594111436" lon="-5.8249930949258815">
        <ele>168.4353518486614</ele>
        <time>2024-09-06T12:28:41Z</time>
      </trkpt>
      <trkpt lat="43.3980395745197" lon="-5.824995156438472">
        <ele>168.58260274799628</ele>
        <time>2024-09-06T12:28:42Z</time>
      </trkpt>
      <trkpt lat="43.39802455492797" lon="-5.824997217951063">
        <ele>168.72985364733114</ele>
        <time>2024-09-06T12:28:43Z</time>
      </trkpt>
      <trkpt lat="43.398009535336236" lon="-5.824999279463654">
        <ele>168.87710454666603</ele>
        <time>2024-09-06T12:28:44Z</time>
      </trkpt>
    </trkseg>
    <trkseg>
      <trkpt lat="43.39460234118359" lon="-5.825367172804302">
        <ele>181.00972024202804</ele>
        <time>2024-09-06T12:32:38Z</time>
      </trkpt>
      <trkpt lat="43.3945846643281" lon="-5.825371809356563">
        <ele>181.27052630663837</ele>
        <time>2024-09-06T12:32:39Z</time>
      </trkpt>
      <trkpt lat="43.394566987472615" lon="-5.825376445908822">
        <ele>181.53133237124874</ele>
        <time>2024-09-06T12:32:40Z</time>
      </trkpt>
      <trkpt lat="43.39454931061712" lon="-5.8253810824610825">
        <ele>181.7921384358591</ele>
        <time>2024-09-06T12:32:41Z</time>
      </trkpt>
    </trkseg>
    <trkseg>
      <trkpt lat="43.39207315756633" lon="-5.824816791762858">
        <ele>180.0</ele>
        <time>2024-09-06T12:36:10Z</time>
      </trkpt>
      <trkpt lat="43.39205831687323" lon="-5.82482424400087">
        <ele>179.80487497281223</ele>
        <time>2024-09-06T12:36:11Z</time>
      </trkpt>
      <trkpt lat="43.39204346641054" lon="-5.824831554997888">
        <ele>179.57640631597033</ele>
        <time>2024-09-06T12:36:12Z</time>
      </trkpt>
      <trkpt lat="43.392028615947844" lon="-5.8248388659949075">
        <ele>179.34793765912843</ele>
        <time>2024-09-06T12:36:13Z</time>
      </trkpt>
    </trkseg>
    <trkseg>
      <trkpt lat="43.39198500257595" lon="-5.824860790342913">
        <ele>179.0</ele>
        <time>2024-09-06T12:36:16Z</time>
      </trkpt>
      <trkpt lat="43.391970787157476" lon="-5.82486809548852">
        <ele>179.0</ele>
        <time>2024-09-06T12:36:17Z</time>
      </trkpt>
    </trkseg>
    <trkseg>
      <trkpt lat="43.39182348758678" lon="-5.824944873287054">
        <ele>177.62763985304636</ele>
        <time>2024-09-06T12:36:27Z</time>
      </trkpt>
      <trkpt lat="43.39180927848885" lon="-5.824952451472615">
        <ele>177.46976098718497</ele>
        <time>2024-09-06T12:36:28Z</time>
      </trkpt>
    </trkseg>
    <trkseg>
      <trkpt lat="43.391665973200254" lon="-5.825014318178709">
        <ele>175.89755247147752</ele>
        <time>2024-09-06T12:36:38Z</time>
      </trkpt>
      <trkpt lat="43.391651717836716" lon="-5.82502085887492">
        <ele>175.84723942369422</ele>
        <time>2024-09-06T12:36:39Z</time>
      </trkpt>
    </trkseg>
    <trkseg>
      <trkpt lat="43.39151812533063" lon="-5.825089764770793">
        <ele>174.50681217040847</ele>
        <time>2024-09-06T12:36:48Z</time>
      </trkpt>
      <trkpt lat="43.3915051015065" lon="-5.8251047619016045">
        <ele>174.74360897270444</ele>
        <time>2024-09-06T12:36:49Z</time>
      </trkpt>
    </trkseg>
    <trkseg>
      <trkpt lat="43.388670915947216" lon="-5.825340300504185">
        <ele>167.13344153619556</ele>
        <time>2024-09-06T12:40:00Z</time>
      </trkpt>
      <trkpt lat="43.388656943064376" lon="-5.825346192683697">
        <ele>167.28495472365088</ele>
        <time>2024-09-06T12:40:01Z</time>
      </trkpt>
      <trkpt lat="43.38864297018153" lon="-5.825352084863209">
        <ele>167.4364679111062</ele>
        <time>2024-09-06T12:40:02Z</time>
      </trkpt>
      <trkpt lat="43.38862899729869" lon="-5.825357977042722">
        <ele>167.58798109856153</ele>
        <time>2024-09-06T12:40:03Z</time>
      </trkpt>
      <trkpt lat="43.38861502441584" lon="-5.825363869222234">
        <ele>167.73949428601682</ele>
        <time>2024-09-06T12:40:04Z</time>
      </trkpt>
      <trkpt lat="43.388601051533" lon="-5.825369761401746">
        <ele>167.89100747347214</ele>
        <time>2024-09-06T12:40:05Z</time>
      </trkpt>
    </trkseg>
    <trkseg>
      <trkpt lat="43.38612532824619" lon="-5.82748683319229">
        <ele>180.00868238135885</ele>
        <time>2024-09-06T12:43:47Z</time>
      </trkpt>
      <trkpt lat="43.38611356942725" lon="-5.8274887444582">
        <ele>180.15328314090922</ele>
        <time>2024-09-06T12:43:48Z</time>
      </trkpt>
      <trkpt lat="43.38610066870138" lon="-5.827499065038892">
        <ele>180.38784179300387</ele>
        <time>2024-09-06T12:43:49Z</time>
      </trkpt>
      <trkpt lat="43.38608776797552" lon="-5.827509385619584">
        <ele>180.6224004450985</ele>
        <time>2024-09-06T12:43:50Z</time>
      </trkpt>
      <trkpt lat="43.386074867249654" lon="-5.827519706200277">
        <ele>180.85695909719314</ele>
        <time>2024-09-06T12:43:51Z</time>
      </trkpt>
    </trkseg>
    <trkseg>
      <trkpt lat="43.38455287174223" lon="-5.8242398029745015">
        <ele>171.90328375829822</ele>
        <time>2024-09-06T12:47:36Z</time>
      </trkpt>
      <trkpt lat="43.3845322902098" lon="-5.824244009240758">
        <ele>171.49907592423708</ele>
        <time>2024-09-06T12:47:37Z</time>
      </trkpt>
    </trkseg>
    <trkseg>
      <trkpt lat="43.38433636778006" lon="-5.823987499095626">
        <ele>170.14632219945003</ele>
        <time>2024-09-06T12:48:08Z</time>
      </trkpt>
      <trkpt lat="43.38433949034884" lon="-5.823966265627871">
        <ele>170.11509651157544</ele>
        <time>2024-09-06T12:48:09Z</time>
      </trkpt>
      <trkpt lat="43.384342612917635" lon="-5.8239450321601165">
        <ele>170.08387082370086</ele>
        <time>2024-09-06T12:48:10Z</time>
      </trkpt>
      <trkpt lat="43.38434573548642" lon="-5.823923798692362">
        <ele>170.05264513582628</ele>
        <time>2024-09-06T12:48:11Z</time>
      </trkpt>
      <trkpt lat="43.384348858055205" lon="-5.823902565224607">
        <ele>170.0214194479517</ele>
        <time>2024-09-06T12:48:12Z</time>
      </trkpt>
    </trkseg>
    <trkseg>
      <trkpt lat="43.38458507093934" lon="-5.822681953082181">
        <ele>167.71716242654793</ele>
        <time>2024-09-06T12:49:12Z</time>
      </trkpt>
      <trkpt lat="43.38458831037073" lon="-5.822661544664389">
        <ele>167.58758517072533</ele>
        <time>2024-09-06T12:49:13Z</time>
      </trkpt>
      <trkpt lat="43.384591549802124" lon="-5.822641136246597">
        <ele>167.45800791490274</ele>
        <time>2024-09-06T12:49:14Z</time>
      </trkpt>
      <trkpt lat="43.384594789233525" lon="-5.822620727828805">
        <ele>167.32843065908014</ele>
        <time>2024-09-06T12:49:15Z</time>
      </trkpt>
      <trkpt lat="43.38459802866492" lon="-5.822600319411013">
        <ele>167.19885340325754</ele>
        <time>2024-09-06T12:49:16Z</time>
      </trkpt>
    </trkseg>
    <trkseg>
      <trkpt lat="43.38461513918635" lon="-5.822227186633517">
        <ele>167.0</ele>
        <time>2024-09-06T12:49:35Z</time>
      </trkpt>
      <trkpt lat="43.384624571957076" lon="-5.822212765513077">
        <ele>166.91687350770516</ele>
        <time>2024-09-06T12:49:36Z</time>
      </trkpt>
      <trkpt lat="43.38463305747954" lon="-5.82220119434608">
        <ele>166.76259128107938</ele>
        <time>2024-09-06T12:49:37Z</time>
      </trkpt>
      <trkpt lat="43.384641543002004" lon="-5.822189623179083">
        <ele>166.6083090544536</ele>
        <time>2024-09-06T12:49:38Z</time>
      </trkpt>
      <trkpt lat="43.38465002852447" lon="-5.822178052012087">
        <ele>166.45402682782782</ele>
        <time>2024-09-06T12:49:39Z</time>
      </trkpt>
      <trkpt lat="43.38465851404693" lon="-5.82216648084509">
        <ele>166.29974460120204</ele>
        <time>2024-09-06T12:49:40Z</time>
      </trkpt>
      <trkpt lat="43.3846669995694" lon="-5.822154909678093">
        <ele>166.14546237457625</ele>
        <time>2024-09-06T12:49:41Z</time>
      </trkpt>
    </trkseg>
  </trk>
</gpx>