<?xml version="1.0" encoding="UTF-8"?>
<gpx xmlns="http://www.topografix.com/GPX/1/1" xmlns:xsi="http://www.w3.org/2001/XMLSchema-instance" xsi:schemaLocation="http://www.topografix.com/GPX/1/1 http://www.topografix.com/GPX/1/1/gpx.xsd" version="1.1" creator="gpx.py -- https://github.com/tkrajina/gpxpy">
  <wpt lat="43.385798" lon="-5.820955">
    <ele>165.0</ele>
    <time>2024-09-06T12:59:10Z</time>
    <name>ANOM:DZ_HAMPEL</name>
    <desc>Tramo #1 (47-52), dur=6s
Causas: DZ_HAMPEL
vh_max=6.11 km/h | grade_ext=-9.8% | vz_ext=-10.0 m/min
max|dx|=1.05 m/s, max|dy|=1.33 m/s, max|dz|=0.17 m/s</desc>
  </wpt>
  <wpt lat="43.387901" lon="-5.821146">
    <ele>161.0</ele>
    <time>2024-09-06T13:01:52Z</time>
    <name>ANOM:DZ_HAMPEL</name>
    <desc>Tramo #2 (209-211), dur=3s
Causas: DZ_HAMPEL
vh_max=6.69 km/h | grade_ext=-14.4% | vz_ext=-16.0 m/min
max|dx|=1.29 m/s, max|dy|=1.33 m/s, max|dz|=0.27 m/s</desc>
  </wpt>
  <wpt lat="43.388477" lon="-5.821879">
    <ele>160.0</ele>
    <time>2024-09-06T13:02:45Z</time>
    <name>ANOM:DZ_HAMPEL</name>
    <desc>Tramo #3 (262-263), dur=2s
Causas: DZ_HAMPEL
vh_max=8.72 km/h | grade_ext=20.7% | vz_ext=30.0 m/min
max|dx|=2.02 m/s, max|dy|=1.33 m/s, max|dz|=0.50 m/s</desc>
  </wpt>
  <wpt lat="43.399158" lon="-5.823231">
    <ele>156.0</ele>
    <time>2024-09-06T13:20:58Z</time>
    <name>ANOM:DZ_HAMPEL</name>
    <desc>Tramo #4 (1355-1361), dur=7s
Causas: DZ_HAMPEL
vh_max=6.42 km/h | grade_ext=8.4% | vz_ext=9.0 m/min
max|dx|=1.70 m/s, max|dy|=0.75 m/s, max|dz|=0.15 m/s</desc>
  </wpt>
  <wpt lat="43.400688" lon="-5.826347">
    <ele>160.3</ele>
    <time>2024-09-06T13:23:55Z</time>
    <name>ANOM:DZ_HAMPEL</name>
    <desc>Tramo #5 (1532-1535), dur=4s
Causas: DZ_HAMPEL
vh_max=5.77 km/h | grade_ext=10.9% | vz_ext=10.5 m/min
max|dx|=0.93 m/s, max|dy|=1.31 m/s, max|dz|=0.18 m/s</desc>
  </wpt>
  <wpt lat="43.400648" lon="-5.826646">
    <ele>163.0</ele>
    <time>2024-09-06T13:24:16Z</time>
    <name>ANOM:DZ_HAMPEL</name>
    <desc>Tramo #6 (1553-1556), dur=4s
Causas: DZ_HAMPEL
vh_max=7.06 km/h | grade_ext=0.0% | vz_ext=0.0 m/min
max|dx|=1.58 m/s, max|dy|=1.17 m/s, max|dz|=0.00 m/s</desc>
  </wpt>
  <wpt lat="43.39824" lon="-5.825009">
    <ele>167.0</ele>
    <time>2024-09-06T13:27:11Z</time>
    <name>ANOM:DZ_HAMPEL</name>
    <desc>Tramo #7 (1728-1731), dur=4s
Causas: DZ_HAMPEL
vh_max=6.20 km/h | grade_ext=14.5% | vz_ext=15.0 m/min
max|dx|=0.42 m/s, max|dy|=1.67 m/s, max|dz|=0.25 m/s</desc>
  </wpt>
  <wpt lat="43.39806985714286" lon="-5.824991">
    <ele>168.28571428571428</ele>
    <time>2024-09-06T13:27:22Z</time>
    <name>ANOM:DZ_HAMPEL</name>
    <desc>Tramo #8 (1739-1743), dur=5s
Causas: DZ_HAMPEL
vh_max=5.86 km/h | grade_ext=8.8% | vz_ext=8.6 m/min
max|dx|=0.16 m/s, max|dy|=1.62 m/s, max|dz|=0.14 m/s</desc>
  </wpt>
  <wpt lat="43.396994" lon="-5.825434">
    <ele>172.0</ele>
    <time>2024-09-06T13:28:36Z</time>
    <name>ANOM:DZ_HAMPEL</name>
    <desc>Tramo #9 (1813-1818), dur=6s
Causas: DZ_HAMPEL
vh_max=6.48 km/h | grade_ext=9.3% | vz_ext=10.0 m/min
max|dx|=0.09 m/s, max|dy|=1.80 m/s, max|dz|=0.17 m/s</desc>
  </wpt>
  <wpt lat="43.394603" lon="-5.825367">
    <ele>181.0</ele>
    <time>2024-09-06T13:31:12Z</time>
    <name>ANOM:DZ_HAMPEL</name>
    <desc>Tramo #10 (1969-1972), dur=4s
Causas: DZ_HAMPEL
vh_max=6.21 km/h | grade_ext=13.0% | vz_ext=13.5 m/min
max|dx|=0.32 m/s, max|dy|=1.70 m/s, max|dz|=0.23 m/s</desc>
  </wpt>
  <wpt lat="43.394322" lon="-5.825516">
    <ele>183.0</ele>
    <time>2024-09-06T13:31:32Z</time>
    <name>ANOM:DZ_HAMPEL</name>
    <desc>Tramo #11 (1989-1994), dur=6s
Causas: DZ_HAMPEL
vh_max=6.21 km/h | grade_ext=9.7% | vz_ext=10.0 m/min
max|dx|=0.78 m/s, max|dy|=1.54 m/s, max|dz|=0.17 m/s</desc>
  </wpt>
  <wpt lat="43.39422771428571" lon="-5.825583857142857">
    <ele>184.14285714285714</ele>
    <time>2024-09-06T13:31:39Z</time>
    <name>ANOM:DZ_HAMPEL</name>
    <desc>Tramo #12 (1996-2000), dur=5s
Causas: DZ_HAMPEL
vh_max=5.35 km/h | grade_ext=9.6% | vz_ext=8.6 m/min
max|dx|=0.80 m/s, max|dy|=1.25 m/s, max|dz|=0.14 m/s</desc>
  </wpt>
  <wpt lat="43.392071" lon="-5.824818">
    <ele>180.0</ele>
    <time>2024-09-06T13:34:18Z</time>
    <name>ANOM:DZ_HAMPEL</name>
    <desc>Tramo #13 (2155-2158), dur=4s
Causas: DZ_HAMPEL
vh_max=6.91 km/h | grade_ext=-13.0% | vz_ext=-15.0 m/min
max|dx|=0.65 m/s, max|dy|=1.81 m/s, max|dz|=0.25 m/s</desc>
  </wpt>
  <wpt lat="43.391670714285716" lon="-5.825012142857143">
    <ele>175.9142857142857</ele>
    <time>2024-09-06T13:34:47Z</time>
    <name>ANOM:DZ_HAMPEL</name>
    <desc>Tramo #14 (2184-2187), dur=4s
Causas: DZ_HAMPEL
vh_max=5.12 km/h | grade_ext=-3.0% | vz_ext=-2.6 m/min
max|dx|=0.45 m/s, max|dy|=1.35 m/s, max|dz|=0.04 m/s</desc>
  </wpt>
  <wpt lat="43.391524" lon="-5.825083">
    <ele>174.4</ele>
    <time>2024-09-06T13:34:58Z</time>
    <name>ANOM:DZ_HAMPEL</name>
    <desc>Tramo #15 (2195-2196), dur=2s
Causas: DZ_HAMPEL
vh_max=8.61 km/h | grade_ext=12.5% | vz_ext=18.0 m/min
max|dx|=1.54 m/s, max|dy|=1.83 m/s, max|dz|=0.30 m/s</desc>
  </wpt>
  <wpt lat="43.390738" lon="-5.825480000000001">
    <ele>168.7</ele>
    <time>2024-09-06T13:35:52Z</time>
    <name>ANOM:DZ_HAMPEL</name>
    <desc>Tramo #16 (2249-2253), dur=5s
Causas: DZ_HAMPEL
vh_max=8.57 km/h | grade_ext=-9.4% | vz_ext=-9.0 m/min
max|dx|=0.46 m/s, max|dy|=2.34 m/s, max|dz|=0.15 m/s</desc>
  </wpt>
  <wpt lat="43.388674" lon="-5.825339">
    <ele>167.1</ele>
    <time>2024-09-06T13:38:03Z</time>
    <name>ANOM:DZ_HAMPEL</name>
    <desc>Tramo #17 (2380-2385), dur=6s
Causas: DZ_HAMPEL
vh_max=5.79 km/h | grade_ext=9.3% | vz_ext=9.0 m/min
max|dx|=0.47 m/s, max|dy|=1.54 m/s, max|dz|=0.15 m/s</desc>
  </wpt>
  <wpt lat="43.386122" lon="-5.827482">
    <ele>180.0</ele>
    <time>2024-09-06T13:41:37Z</time>
    <name>ANOM:DZ_HAMPEL</name>
    <desc>Tramo #18 (2594-2598), dur=5s
Causas: DZ_HAMPEL
vh_max=5.09 km/h | grade_ext=14.1% | vz_ext=12.0 m/min
max|dx|=0.71 m/s, max|dy|=1.22 m/s, max|dz|=0.20 m/s</desc>
  </wpt>
  <wpt lat="43.38552" lon="-5.826797">
    <ele>179.0</ele>
    <time>2024-09-06T13:42:37Z</time>
    <name>ANOM:DZ_HAMPEL</name>
    <desc>Tramo #19 (2654-2659), dur=6s
Causas: DZ_HAMPEL
vh_max=7.59 km/h | grade_ext=0.0% | vz_ext=0.0 m/min
max|dx|=1.54 m/s, max|dy|=1.45 m/s, max|dz|=0.00 m/s</desc>
  </wpt>
  <wpt lat="43.38487778803357" lon="-5.824967088106512">
    <ele>174.0</ele>
    <time>2024-09-06T13:44:26Z</time>
    <name>ANOM:DZ_HAMPEL</name>
    <desc>Tramo #20 (2763-2764), dur=2s
Causas: DZ_HAMPEL
vh_max=6.09 km/h | grade_ext=0.0% | vz_ext=0.0 m/min
max|dx|=1.34 m/s, max|dy|=1.03 m/s, max|dz|=0.00 m/s</desc>
  </wpt>
  <wpt lat="43.384934" lon="-5.824748">
    <ele>173.5</ele>
    <time>2024-09-06T13:44:36Z</time>
    <name>ANOM:DZ_HAMPEL</name>
    <desc>Tramo #21 (2773-2774), dur=2s
Causas: DZ_HAMPEL
vh_max=5.54 km/h | grade_ext=-16.2% | vz_ext=-15.0 m/min
max|dx|=1.54 m/s, max|dy|=0.11 m/s, max|dz|=0.25 m/s</desc>
  </wpt>
  <wpt lat="43.38455513236815" lon="-5.824239565013879">
    <ele>171.90724976868094</ele>
    <time>2024-09-06T13:45:24Z</time>
    <name>ANOM:DZ_HAMPEL</name>
    <desc>Tramo #22 (2821-2823), dur=3s
Causas: DZ_HAMPEL
vh_max=5.79 km/h | grade_ext=-19.0% | vz_ext=-18.4 m/min
max|dx|=0.25 m/s, max|dy|=1.59 m/s, max|dz|=0.31 m/s</desc>
  </wpt>
  <wpt lat="43.38462" lon="-5.822219">
    <ele>167.0</ele>
    <time>2024-09-06T13:47:15Z</time>
    <name>ANOM:DZ_HAMPEL</name>
    <desc>Tramo #23 (2932-2935), dur=4s
Causas: DZ_HAMPEL
vh_max=7.75 km/h | grade_ext=-11.6% | vz_ext=-15.0 m/min
max|dx|=1.52 m/s, max|dy|=1.53 m/s, max|dz|=0.25 m/s</desc>
  </wpt>
  <trk>
    <name>11_aligned_pattern_resampled_anomalies</name>
    <trkseg>
      <trkpt lat="43.385798" lon="-5.820955">
        <ele>165.0</ele>
        <time>2024-09-06T12:59:10Z</time>
      </trkpt>
      <trkpt lat="43.38581" lon="-5.820942">
        <ele>164.83333333333334</ele>
        <time>2024-09-06T12:59:11Z</time>
      </trkpt>
      <trkpt lat="43.385822" lon="-5.820929">
        <ele>164.66666666666666</ele>
        <time>2024-09-06T12:59:12Z</time>
      </trkpt>
      <trkpt lat="43.385834" lon="-5.820916">
        <ele>164.5</ele>
        <time>2024-09-06T12:59:13Z</time>
      </trkpt>
      <trkpt lat="43.385846" lon="-5.820903">
        <ele>164.33333333333334</ele>
        <time>2024-09-06T12:59:14Z</time>
      </trkpt>
      <trkpt lat="43.385858" lon="-5.82089">
        <ele>164.16666666666666</ele>
        <time>2024-09-06T12:59:15Z</time>
      </trkpt>
    </trkseg>
    <trkseg>
      <trkpt lat="43.387901" lon="-5.821146">
        <ele>161.0</ele>
        <time>2024-09-06T13:01:52Z</time>
      </trkpt>
      <trkpt lat="43.387913" lon="-5.821162">
        <ele>160.73333333333332</ele>
        <time>2024-09-06T13:01:53Z</time>
      </trkpt>
      <trkpt lat="43.387925" lon="-5.821178">
        <ele>160.46666666666667</ele>
        <time>2024-09-06T13:01:54Z</time>
      </trkpt>
    </trkseg>
    <trkseg>
      <trkpt lat="43.388477" lon="-5.821879">
        <ele>160.0</ele>
        <time>2024-09-06T13:02:45Z</time>
      </trkpt>
      <trkpt lat="43.388465" lon="-5.821904">
        <ele>160.5</ele>
        <time>2024-09-06T13:02:46Z</time>
      </trkpt>
    </trkseg>
    <trkseg>
      <trkpt lat="43.399158" lon="-5.823231">
        <ele>156.0</ele>
        <time>2024-09-06T13:20:58Z</time>
      </trkpt>
      <trkpt lat="43.39916266666667" lon="-5.823252">
        <ele>156.13333333333333</ele>
        <time>2024-09-06T13:20:59Z</time>
      </trkpt>
      <trkpt lat="43.39916733333333" lon="-5.8232729999999995">
        <ele>156.26666666666668</ele>
        <time>2024-09-06T13:21:00Z</time>
      </trkpt>
      <trkpt lat="43.399172" lon="-5.823294">
        <ele>156.4</ele>
        <time>2024-09-06T13:21:01Z</time>
      </trkpt>
      <trkpt lat="43.399178750000004" lon="-5.823314">
        <ele>156.55</ele>
        <time>2024-09-06T13:21:02Z</time>
      </trkpt>
      <trkpt lat="43.3991855" lon="-5.823334">
        <ele>156.7</ele>
        <time>2024-09-06T13:21:03Z</time>
      </trkpt>
      <trkpt lat="43.39919225" lon="-5.823354">
        <ele>156.85</ele>
        <time>2024-09-06T13:21:04Z</time>
      </trkpt>
    </trkseg>
    <trkseg>
      <trkpt lat="43.400688" lon="-5.826347">
        <ele>160.3</ele>
        <time>2024-09-06T13:23:55Z</time>
      </trkpt>
      <trkpt lat="43.40069975" lon="-5.8263585">
        <ele>160.47500000000002</ele>
        <time>2024-09-06T13:23:56Z</time>
      </trkpt>
      <trkpt lat="43.4007115" lon="-5.826370000000001">
        <ele>160.65</ele>
        <time>2024-09-06T13:23:57Z</time>
      </trkpt>
      <trkpt lat="43.40072325" lon="-5.8263815">
        <ele>160.825</ele>
        <time>2024-09-06T13:23:58Z</time>
      </trkpt>
    </trkseg>
    <trkseg>
      <trkpt lat="43.400648" lon="-5.826646">
        <ele>163.0</ele>
        <time>2024-09-06T13:24:16Z</time>
      </trkpt>
      <trkpt lat="43.4006375" lon="-5.826665500000001">
        <ele>163.0</ele>
        <time>2024-09-06T13:24:17Z</time>
      </trkpt>
      <trkpt lat="43.400627" lon="-5.826685">
        <ele>163.0</ele>
        <time>2024-09-06T13:24:18Z</time>
      </trkpt>
      <trkpt lat="43.400617499999996" lon="-5.8266995">
        <ele>163.0</ele>
        <time>2024-09-06T13:24:19Z</time>
      </trkpt>
    </trkseg>
    <trkseg>
      <trkpt lat="43.39824" lon="-5.825009">
        <ele>167.0</ele>
        <time>2024-09-06T13:27:11Z</time>
      </trkpt>
      <trkpt lat="43.398225000000004" lon="-5.82500375">
        <ele>167.25</ele>
        <time>2024-09-06T13:27:12Z</time>
      </trkpt>
      <trkpt lat="43.398210000000006" lon="-5.8249984999999995">
        <ele>167.5</ele>
        <time>2024-09-06T13:27:13Z</time>
      </trkpt>
      <trkpt lat="43.398195" lon="-5.82499325">
        <ele>167.75</ele>
        <time>2024-09-06T13:27:14Z</time>
      </trkpt>
    </trkseg>
    <trkseg>
      <trkpt lat="43.39806985714286" lon="-5.824991">
        <ele>168.28571428571428</ele>
        <time>2024-09-06T13:27:22Z</time>
      </trkpt>
      <trkpt lat="43.398055285714285" lon="-5.824993">
        <ele>168.42857142857142</ele>
        <time>2024-09-06T13:27:23Z</time>
      </trkpt>
      <trkpt lat="43.39804071428571" lon="-5.824995">
        <ele>168.57142857142858</ele>
        <time>2024-09-06T13:27:24Z</time>
      </trkpt>
      <trkpt lat="43.39802614285714" lon="-5.824997000000001">
        <ele>168.71428571428572</ele>
        <time>2024-09-06T13:27:25Z</time>
      </trkpt>
      <trkpt lat="43.39801157142857" lon="-5.824999">
        <ele>168.85714285714286</ele>
        <time>2024-09-06T13:27:26Z</time>
      </trkpt>
    </trkseg>
    <trkseg>
      <trkpt lat="43.396994" lon="-5.825434">
        <ele>172.0</ele>
        <time>2024-09-06T13:28:36Z</time>
      </trkpt>
      <trkpt lat="43.39697783333333" lon="-5.825435166666666">
        <ele>172.16666666666666</ele>
        <time>2024-09-06T13:28:37Z</time>
      </trkpt>
      <trkpt lat="43.39696166666667" lon="-5.825436333333333">
        <ele>172.33333333333334</ele>
        <time>2024-09-06T13:28:38Z</time>
      </trkpt>
      <trkpt lat="43.3969455" lon="-5.8254375">
        <ele>172.5</ele>
        <time>2024-09-06T13:28:39Z</time>
      </trkpt>
      <trkpt lat="43.39692933333333" lon="-5.825438666666666">
        <ele>172.66666666666666</ele>
        <time>2024-09-06T13:28:40Z</time>
      </trkpt>
      <trkpt lat="43.39691316666667" lon="-5.825439833333333">
        <ele>172.83333333333334</ele>
        <time>2024-09-06T13:28:41Z</time>
      </trkpt>
    </trkseg>
    <trkseg>
      <trkpt lat="43.394603" lon="-5.825367">
        <ele>181.0</ele>
        <time>2024-09-06T13:31:12Z</time>
      </trkpt>
      <trkpt lat="43.39458775" lon="-5.8253710000000005">
        <ele>181.225</ele>
        <time>2024-09-06T13:31:13Z</time>
      </trkpt>
      <trkpt lat="43.394572499999995" lon="-5.825375">
        <ele>181.45</ele>
        <time>2024-09-06T13:31:14Z</time>
      </trkpt>
      <trkpt lat="43.39455725" lon="-5.825379">
        <ele>181.675</ele>
        <time>2024-09-06T13:31:15Z</time>
      </trkpt>
    </trkseg>
    <trkseg>
      <trkpt lat="43.394322" lon="-5.825516">
        <ele>183.0</ele>
        <time>2024-09-06T13:31:32Z</time>
      </trkpt>
      <trkpt lat="43.39430816666667" lon="-5.825525666666667">
        <ele>183.16666666666666</ele>
        <time>2024-09-06T13:31:33Z</time>
      </trkpt>
      <trkpt lat="43.394294333333335" lon="-5.825535333333334">
        <ele>183.33333333333334</ele>
        <time>2024-09-06T13:31:34Z</time>
      </trkpt>
      <trkpt lat="43.3942805" lon="-5.825545">
        <ele>183.5</ele>
        <time>2024-09-06T13:31:35Z</time>
      </trkpt>
      <trkpt lat="43.39426666666667" lon="-5.825554666666666">
        <ele>183.66666666666666</ele>
        <time>2024-09-06T13:31:36Z</time>
      </trkpt>
      <trkpt lat="43.39425283333333" lon="-5.825564333333333">
        <ele>183.83333333333334</ele>
        <time>2024-09-06T13:31:37Z</time>
      </trkpt>
    </trkseg>
    <trkseg>
      <trkpt lat="43.39422771428571" lon="-5.825583857142857">
        <ele>184.14285714285714</ele>
        <time>2024-09-06T13:31:39Z</time>
      </trkpt>
      <trkpt lat="43.394216428571426" lon="-5.825593714285714">
        <ele>184.28571428571428</ele>
        <time>2024-09-06T13:31:40Z</time>
      </trkpt>
      <trkpt lat="43.39420514285714" lon="-5.825603571428571">
        <ele>184.42857142857142</ele>
        <time>2024-09-06T13:31:41Z</time>
      </trkpt>
      <trkpt lat="43.39419385714286" lon="-5.825613428571429">
        <ele>184.57142857142858</ele>
        <time>2024-09-06T13:31:42Z</time>
      </trkpt>
      <trkpt lat="43.39418257142857" lon="-5.825623285714286">
        <ele>184.71428571428572</ele>
        <time>2024-09-06T13:31:43Z</time>
      </trkpt>
    </trkseg>
    <trkseg>
      <trkpt lat="43.392071" lon="-5.824818">
        <ele>180.0</ele>
        <time>2024-09-06T13:34:18Z</time>
      </trkpt>
      <trkpt lat="43.39205475" lon="-5.824826">
        <ele>179.75</ele>
        <time>2024-09-06T13:34:19Z</time>
      </trkpt>
      <trkpt lat="43.3920385" lon="-5.824833999999999">
        <ele>179.5</ele>
        <time>2024-09-06T13:34:20Z</time>
      </trkpt>
      <trkpt lat="43.392022250000004" lon="-5.824841999999999">
        <ele>179.25</ele>
        <time>2024-09-06T13:34:21Z</time>
      </trkpt>
    </trkseg>
    <trkseg>
      <trkpt lat="43.391670714285716" lon="-5.825012142857143">
        <ele>175.9142857142857</ele>
        <time>2024-09-06T13:34:47Z</time>
      </trkpt>
      <trkpt lat="43.39165857142857" lon="-5.825017714285715">
        <ele>175.87142857142857</ele>
        <time>2024-09-06T13:34:48Z</time>
      </trkpt>
      <trkpt lat="43.39164642857143" lon="-5.825023285714286">
        <ele>175.82857142857142</ele>
        <time>2024-09-06T13:34:49Z</time>
      </trkpt>
      <trkpt lat="43.39163428571428" lon="-5.825028857142858">
        <ele>175.78571428571428</ele>
        <time>2024-09-06T13:34:50Z</time>
      </trkpt>
    </trkseg>
    <trkseg>
      <trkpt lat="43.391524" lon="-5.825083">
        <ele>174.4</ele>
        <time>2024-09-06T13:34:58Z</time>
      </trkpt>
      <trkpt lat="43.3915075" lon="-5.825102">
        <ele>174.7</ele>
        <time>2024-09-06T13:34:59Z</time>
      </trkpt>
    </trkseg>
    <trkseg>
      <trkpt lat="43.390738" lon="-5.825480000000001">
        <ele>168.7</ele>
        <time>2024-09-06T13:35:52Z</time>
      </trkpt>
      <trkpt lat="43.390724" lon="-5.8254845">
        <ele>168.55</ele>
        <time>2024-09-06T13:35:53Z</time>
      </trkpt>
      <trkpt lat="43.39071" lon="-5.825489">
        <ele>168.4</ele>
        <time>2024-09-06T13:35:54Z</time>
      </trkpt>
      <trkpt lat="43.390689" lon="-5.825494666666667">
        <ele>168.26666666666668</ele>
        <time>2024-09-06T13:35:55Z</time>
      </trkpt>
      <trkpt lat="43.390668" lon="-5.825500333333333">
        <ele>168.13333333333333</ele>
        <time>2024-09-06T13:35:56Z</time>
      </trkpt>
    </trkseg>
    <trkseg>
      <trkpt lat="43.388674" lon="-5.825339">
        <ele>167.1</ele>
        <time>2024-09-06T13:38:03Z</time>
      </trkpt>
      <trkpt lat="43.38866016666667" lon="-5.825344833333333">
        <ele>167.25</ele>
        <time>2024-09-06T13:38:04Z</time>
      </trkpt>
      <trkpt lat="43.388646333333334" lon="-5.825350666666666">
        <ele>167.4</ele>
        <time>2024-09-06T13:38:05Z</time>
      </trkpt>
      <trkpt lat="43.3886325" lon="-5.8253565">
        <ele>167.55</ele>
        <time>2024-09-06T13:38:06Z</time>
      </trkpt>
      <trkpt lat="43.388618666666666" lon="-5.8253623333333335">
        <ele>167.7</ele>
        <time>2024-09-06T13:38:07Z</time>
      </trkpt>
      <trkpt lat="43.38860483333333" lon="-5.825368166666666">
        <ele>167.85</ele>
        <time>2024-09-06T13:38:08Z</time>
      </trkpt>
    </trkseg>
    <trkseg>
      <trkpt lat="43.386122" lon="-5.827482">
        <ele>180.0</ele>
        <time>2024-09-06T13:41:37Z</time>
      </trkpt>
      <trkpt lat="43.386111" lon="-5.8274908">
        <ele>180.2</ele>
        <time>2024-09-06T13:41:38Z</time>
      </trkpt>
      <trkpt lat="43.3861" lon="-5.8274995999999994">
        <ele>180.4</ele>
        <time>2024-09-06T13:41:39Z</time>
      </trkpt>
      <trkpt lat="43.386089" lon="-5.8275084">
        <ele>180.6</ele>
        <time>2024-09-06T13:41:40Z</time>
      </trkpt>
      <trkpt lat="43.386078" lon="-5.8275172">
        <ele>180.8</ele>
        <time>2024-09-06T13:41:41Z</time>
      </trkpt>
    </trkseg>
    <trkseg>
      <trkpt lat="43.38552" lon="-5.826797">
        <ele>179.0</ele>
        <time>2024-09-06T13:42:37Z</time>
      </trkpt>
      <trkpt lat="43.385507" lon="-5.826778">
        <ele>179.0</ele>
        <time>2024-09-06T13:42:38Z</time>
      </trkpt>
      <trkpt lat="43.385494" lon="-5.826759">
        <ele>179.0</ele>
        <time>2024-09-06T13:42:39Z</time>
      </trkpt>
      <trkpt lat="43.385481" lon="-5.82674">
        <ele>179.0</ele>
        <time>2024-09-06T13:42:40Z</time>
      </trkpt>
      <trkpt lat="43.385467999999996" lon="-5.826721">
        <ele>179.0</ele>
        <time>2024-09-06T13:42:41Z</time>
      </trkpt>
      <trkpt lat="43.385455" lon="-5.826702">
        <ele>179.0</ele>
        <time>2024-09-06T13:42:42Z</time>
      </trkpt>
    </trkseg>
    <trkseg>
      <trkpt lat="43.38487778803357" lon="-5.824967088106512">
        <ele>174.0</ele>
        <time>2024-09-06T13:44:26Z</time>
      </trkpt>
      <trkpt lat="43.38488704997279" lon="-5.824950493798745">
        <ele>174.0</ele>
        <time>2024-09-06T13:44:27Z</time>
      </trkpt>
    </trkseg>
    <trkseg>
      <trkpt lat="43.384934" lon="-5.824748">
        <ele>173.5</ele>
        <time>2024-09-06T13:44:36Z</time>
      </trkpt>
      <trkpt lat="43.384935" lon="-5.824729">
        <ele>173.25</ele>
        <time>2024-09-06T13:44:37Z</time>
      </trkpt>
    </trkseg>
    <trkseg>
      <trkpt lat="43.38455513236815" lon="-5.824239565013879">
        <ele>171.90724976868094</ele>
        <time>2024-09-06T13:45:24Z</time>
      </trkpt>
      <trkpt lat="43.384540803352635" lon="-5.824242184995864">
        <ele>171.6815004136094</ele>
        <time>2024-09-06T13:45:25Z</time>
      </trkpt>
      <trkpt lat="43.38452651162513" lon="-5.824245247508901">
        <ele>171.37524910991462</ele>
        <time>2024-09-06T13:45:26Z</time>
      </trkpt>
    </trkseg>
    <trkseg>
      <trkpt lat="43.38462" lon="-5.822219">
        <ele>167.0</ele>
        <time>2024-09-06T13:47:15Z</time>
      </trkpt>
      <trkpt lat="43.38463375" lon="-5.82220025">
        <ele>166.75</ele>
        <time>2024-09-06T13:47:16Z</time>
      </trkpt>
      <trkpt lat="43.3846475" lon="-5.822181499999999">
        <ele>166.5</ele>
        <time>2024-09-06T13:47:17Z</time>
      </trkpt>
      <trkpt lat="43.38466125" lon="-5.8221627499999995">
        <ele>166.25</ele>
        <time>2024-09-06T13:47:18Z</time>
      </trkpt>
    </trkseg>
  </trk>
</gpx>