<?xml version="1.0" encoding="UTF-8"?>
<gpx xmlns="http://www.topografix.com/GPX/1/1" xmlns:xsi="http://www.w3.org/2001/XMLSchema-instance" xsi:schemaLocation="http://www.topografix.com/GPX/1/1 http://www.topografix.com/GPX/1/1/gpx.xsd" version="1.1" creator="gpx.py -- https://github.com/tkrajina/gpxpy">
  <wpt lat="43.3857928159721" lon="-5.820961883709176">
    <ele>165.0</ele>
    <time>2024-09-06T12:59:10Z</time>
    <name>ANOM:DZ_HAMPEL</name>
    <desc>Tramo #1 (43-49), dur=7s
Causas: DZ_HAMPEL
vh_max=6.51 km/h | grade_ext=-9.8% | vz_ext=-10.5 m/min
max|dx|=1.26 m/s, max|dy|=1.40 m/s, max|dz|=0.17 m/s</desc>
  </wpt>
  <wpt lat="43.38789252508109" lon="-5.821128940098307">
    <ele>161.0</ele>
    <time>2024-09-06T13:01:52Z</time>
    <name>ANOM:DZ_HAMPEL</name>
    <desc>Tramo #2 (205-208), dur=4s
Causas: DZ_HAMPEL
vh_max=13.42 km/h | grade_ext=-14.4% | vz_ext=-23.8 m/min
max|dx|=1.92 m/s, max|dy|=3.72 m/s, max|dz|=0.40 m/s</desc>
  </wpt>
  <wpt lat="43.38847668823806" lon="-5.821878290244089">
    <ele>160.0</ele>
    <time>2024-09-06T13:02:44Z</time>
    <name>ANOM:DZ_HAMPEL</name>
    <desc>Tramo #3 (257-260), dur=4s
Causas: DZ_HAMPEL
vh_max=6.73 km/h | grade_ext=20.7% | vz_ext=18.4 m/min
max|dx|=1.87 m/s, max|dy|=0.82 m/s, max|dz|=0.31 m/s</desc>
  </wpt>
  <wpt lat="43.40069458488807" lon="-5.826353444784072">
    <ele>160.3980728010883</ele>
    <time>2024-09-06T13:23:55Z</time>
    <name>ANOM:DZ_HAMPEL</name>
    <desc>Tramo #4 (1528-1530), dur=3s
Causas: DZ_HAMPEL
vh_max=6.62 km/h | grade_ext=10.9% | vz_ext=12.0 m/min
max|dx|=1.07 m/s, max|dy|=1.50 m/s, max|dz|=0.20 m/s</desc>
  </wpt>
  <wpt lat="43.400734147626416" lon="-5.826420133539664">
    <ele>161.14762641659163</ele>
    <time>2024-09-06T13:24:01Z</time>
    <name>ANOM:GRADE_UP</name>
    <desc>Tramo #5 (1534-1535), dur=2s
Causas: GRADE_UP
vh_max=3.48 km/h | grade_ext=44.1% | vz_ext=25.6 m/min
max|dx|=0.96 m/s, max|dy|=0.05 m/s, max|dz|=0.43 m/s</desc>
  </wpt>
  <wpt lat="43.39821871567334" lon="-5.825001550485667">
    <ele>167.35473877773444</ele>
    <time>2024-09-06T13:27:12Z</time>
    <name>ANOM:DZ_HAMPEL</name>
    <desc>Tramo #6 (1725-1727), dur=3s
Causas: DZ_HAMPEL
vh_max=6.40 km/h | grade_ext=14.5% | vz_ext=15.5 m/min
max|dx|=0.44 m/s, max|dy|=1.72 m/s, max|dz|=0.26 m/s</desc>
  </wpt>
  <wpt lat="43.3946096206964" lon="-5.825367618756673">
    <ele>181.0</ele>
    <time>2024-09-06T13:31:12Z</time>
    <name>ANOM:DZ_HAMPEL</name>
    <desc>Tramo #7 (1965-1969), dur=5s
Causas: DZ_HAMPEL
vh_max=6.55 km/h | grade_ext=13.0% | vz_ext=14.2 m/min
max|dx|=0.52 m/s, max|dy|=1.79 m/s, max|dz|=0.24 m/s</desc>
  </wpt>
  <wpt lat="43.392077330185984" lon="-5.824814455095849">
    <ele>180.0</ele>
    <time>2024-09-06T13:34:17Z</time>
    <name>ANOM:DZ_HAMPEL</name>
    <desc>Tramo #8 (2150-2154), dur=5s
Causas: DZ_HAMPEL
vh_max=6.12 km/h | grade_ext=-13.0% | vz_ext=-13.3 m/min
max|dx|=0.60 m/s, max|dy|=1.60 m/s, max|dz|=0.22 m/s</desc>
  </wpt>
  <wpt lat="43.39166334813605" lon="-5.825015522619932">
    <ele>175.88828753898983</ele>
    <time>2024-09-06T13:34:47Z</time>
    <name>ANOM:DZ_HAMPEL</name>
    <desc>Tramo #9 (2180-2182), dur=3s
Causas: DZ_HAMPEL
vh_max=5.57 km/h | grade_ext=-3.0% | vz_ext=-2.8 m/min
max|dx|=0.49 m/s, max|dy|=1.47 m/s, max|dz|=0.05 m/s</desc>
  </wpt>
  <wpt lat="43.39151573145759" lon="-5.825092521351866">
    <ele>174.55033713473324</ele>
    <time>2024-09-06T13:34:58Z</time>
    <name>ANOM:DZ_HAMPEL</name>
    <desc>Tramo #10 (2191-2192), dur=2s
Causas: DZ_HAMPEL
vh_max=6.45 km/h | grade_ext=12.5% | vz_ext=13.5 m/min
max|dx|=1.15 m/s, max|dy|=1.38 m/s, max|dz|=0.22 m/s</desc>
  </wpt>
  <wpt lat="43.388675320037315" lon="-5.825338630389552">
    <ele>167.09823995024644</ele>
    <time>2024-09-06T13:38:03Z</time>
    <name>ANOM:DZ_HAMPEL</name>
    <desc>Tramo #11 (2376-2380), dur=5s
Causas: DZ_HAMPEL
vh_max=6.24 km/h | grade_ext=9.3% | vz_ext=9.6 m/min
max|dx|=0.51 m/s, max|dy|=1.66 m/s, max|dz|=0.16 m/s</desc>
  </wpt>
  <wpt lat="43.386122" lon="-5.827482">
    <ele>180.0</ele>
    <time>2024-09-06T13:41:37Z</time>
    <name>ANOM:DZ_HAMPEL</name>
    <desc>Tramo #12 (2590-2593), dur=4s
Causas: DZ_HAMPEL
vh_max=5.82 km/h | grade_ext=14.1% | vz_ext=13.7 m/min
max|dx|=0.81 m/s, max|dy|=1.40 m/s, max|dz|=0.23 m/s</desc>
  </wpt>
  <wpt lat="43.38462532484008" lon="-5.824234">
    <ele>172.0</ele>
    <time>2024-09-06T13:45:10Z</time>
    <name>ANOM:DZ_HAMPEL</name>
    <desc>Tramo #13 (2803-2808), dur=6s
Causas: DZ_HAMPEL
vh_max=11.61 km/h | grade_ext=-17.0% | vz_ext=-32.9 m/min
max|dx|=0.83 m/s, max|dy|=3.19 m/s, max|dz|=0.55 m/s</desc>
  </wpt>
  <wpt lat="43.38458435312074" lon="-5.822686475339346">
    <ele>167.7458751704488</ele>
    <time>2024-09-06T13:46:56Z</time>
    <name>ANOM:DZ_HAMPEL</name>
    <desc>Tramo #14 (2909-2912), dur=4s
Causas: DZ_HAMPEL
vh_max=7.82 km/h | grade_ext=-7.7% | vz_ext=-10.0 m/min
max|dx|=2.12 m/s, max|dy|=0.46 m/s, max|dz|=0.17 m/s</desc>
  </wpt>
  <wpt lat="43.384612121178215" lon="-5.822232269594582">
    <ele>167.0</ele>
    <time>2024-09-06T13:47:15Z</time>
    <name>ANOM:DZ_HAMPEL</name>
    <desc>Tramo #15 (2928-2932), dur=5s
Causas: DZ_HAMPEL
vh_max=7.77 km/h | grade_ext=-11.6% | vz_ext=-14.6 m/min
max|dx|=1.62 m/s, max|dy|=1.48 m/s, max|dz|=0.24 m/s</desc>
  </wpt>
  <trk>
    <name>11_pattern_aligned_resampled_anomalies</name>
    <trkseg>
      <trkpt lat="43.3857928159721" lon="-5.820961883709176">
        <ele>165.0</ele>
        <time>2024-09-06T12:59:10Z</time>
      </trkpt>
      <trkpt lat="43.38580381749587" lon="-5.8209486977128115">
        <ele>164.91920144630947</ele>
        <time>2024-09-06T12:59:11Z</time>
      </trkpt>
      <trkpt lat="43.38581637468777" lon="-5.820935094088249">
        <ele>164.74479600318534</ele>
        <time>2024-09-06T12:59:12Z</time>
      </trkpt>
      <trkpt lat="43.38582893187967" lon="-5.820921490463685">
        <ele>164.5703905600612</ele>
        <time>2024-09-06T12:59:13Z</time>
      </trkpt>
      <trkpt lat="43.38584148907158" lon="-5.820907886839121">
        <ele>164.3959851169371</ele>
        <time>2024-09-06T12:59:14Z</time>
      </trkpt>
      <trkpt lat="43.38585404626348" lon="-5.820894283214558">
        <ele>164.22157967381298</ele>
        <time>2024-09-06T12:59:15Z</time>
      </trkpt>
      <trkpt lat="43.38586660345539" lon="-5.820880679589994">
        <ele>164.04717423068888</ele>
        <time>2024-09-06T12:59:16Z</time>
      </trkpt>
    </trkseg>
    <trkseg>
      <trkpt lat="43.38789252508109" lon="-5.821128940098307">
        <ele>161.0</ele>
        <time>2024-09-06T13:01:52Z</time>
      </trkpt>
      <trkpt lat="43.38790100253548" lon="-5.821146003380644">
        <ele>160.99994365593616</ele>
        <time>2024-09-06T13:01:53Z</time>
      </trkpt>
      <trkpt lat="43.38791885804867" lon="-5.82116981073156">
        <ele>160.60315447399643</ele>
        <time>2024-09-06T13:01:54Z</time>
      </trkpt>
      <trkpt lat="43.38793671356186" lon="-5.821193618082477">
        <ele>160.20636529205666</ele>
        <time>2024-09-06T13:01:55Z</time>
      </trkpt>
    </trkseg>
    <trkseg>
      <trkpt lat="43.38847668823806" lon="-5.821878290244089">
        <ele>160.0</ele>
        <time>2024-09-06T13:02:44Z</time>
      </trkpt>
      <trkpt lat="43.388469922133126" lon="-5.821893745555982">
        <ele>160.29491111963574</ele>
        <time>2024-09-06T13:02:45Z</time>
      </trkpt>
      <trkpt lat="43.38846257449783" lon="-5.821909053129526">
        <ele>160.60106259052517</ele>
        <time>2024-09-06T13:02:46Z</time>
      </trkpt>
      <trkpt lat="43.388455226862526" lon="-5.821924360703071">
        <ele>160.9072140614146</ele>
        <time>2024-09-06T13:02:47Z</time>
      </trkpt>
    </trkseg>
    <trkseg>
      <trkpt lat="43.40069458488807" lon="-5.826353444784072">
        <ele>160.3980728010883</ele>
        <time>2024-09-06T13:23:55Z</time>
      </trkpt>
      <trkpt lat="43.40070805659205" lon="-5.826366629856048">
        <ele>160.59871520072554</ele>
        <time>2024-09-06T13:23:56Z</time>
      </trkpt>
      <trkpt lat="43.400721528296025" lon="-5.826379814928024">
        <ele>160.79935760036275</ele>
        <time>2024-09-06T13:23:57Z</time>
      </trkpt>
    </trkseg>
    <trkseg>
      <trkpt lat="43.400734147626416" lon="-5.826420133539664">
        <ele>161.14762641659163</ele>
        <time>2024-09-06T13:24:01Z</time>
      </trkpt>
      <trkpt lat="43.40073457381321" lon="-5.826432066769833">
        <ele>161.5738132082958</ele>
        <time>2024-09-06T13:24:02Z</time>
      </trkpt>
    </trkseg>
    <trkseg>
      <trkpt lat="43.39821871567334" lon="-5.825001550485667">
        <ele>167.35473877773444</ele>
        <time>2024-09-06T13:27:12Z</time>
      </trkpt>
      <trkpt lat="43.39820321976555" lon="-5.8249961269179416">
        <ele>167.61300390755142</ele>
        <time>2024-09-06T13:27:13Z</time>
      </trkpt>
      <trkpt lat="43.39818772385776" lon="-5.824990703350215">
        <ele>167.8712690373684</ele>
        <time>2024-09-06T13:27:14Z</time>
      </trkpt>
    </trkseg>
    <trkseg>
      <trkpt lat="43.3946096206964" lon="-5.825367618756673">
        <ele>181.0</ele>
        <time>2024-09-06T13:31:12Z</time>
      </trkpt>
      <trkpt lat="43.39459364894418" lon="-5.825369452735951">
        <ele>181.1379663972688</ele>
        <time>2024-09-06T13:31:13Z</time>
      </trkpt>
      <trkpt lat="43.39457757990527" lon="-5.825373667565831">
        <ele>181.37505057795855</ele>
        <time>2024-09-06T13:31:14Z</time>
      </trkpt>
      <trkpt lat="43.39456151086636" lon="-5.82537788239571">
        <ele>181.6121347586483</ele>
        <time>2024-09-06T13:31:15Z</time>
      </trkpt>
      <trkpt lat="43.39454544182745" lon="-5.825382097225589">
        <ele>181.84921893933807</ele>
        <time>2024-09-06T13:31:16Z</time>
      </trkpt>
    </trkseg>
    <trkseg>
      <trkpt lat="43.392077330185984" lon="-5.824814455095849">
        <ele>180.0</ele>
        <time>2024-09-06T13:34:17Z</time>
      </trkpt>
      <trkpt lat="43.39206302924772" lon="-5.824821924062661">
        <ele>179.87737304181942</ele>
        <time>2024-09-06T13:34:18Z</time>
      </trkpt>
      <trkpt lat="43.39204862434314" lon="-5.824829015707994">
        <ele>179.65575912517463</ele>
        <time>2024-09-06T13:34:19Z</time>
      </trkpt>
      <trkpt lat="43.39203421943856" lon="-5.824836107353327">
        <ele>179.43414520852983</ele>
        <time>2024-09-06T13:34:20Z</time>
      </trkpt>
      <trkpt lat="43.392019814533974" lon="-5.824843198998659">
        <ele>179.21253129188503</ele>
        <time>2024-09-06T13:34:21Z</time>
      </trkpt>
    </trkseg>
    <trkseg>
      <trkpt lat="43.39166334813605" lon="-5.825015522619932">
        <ele>175.88828753898983</ele>
        <time>2024-09-06T13:34:47Z</time>
      </trkpt>
      <trkpt lat="43.39165015360299" lon="-5.825021576582157">
        <ele>175.84171859879646</ele>
        <time>2024-09-06T13:34:48Z</time>
      </trkpt>
      <trkpt lat="43.391636959069935" lon="-5.825027630544382">
        <ele>175.7951496586031</ele>
        <time>2024-09-06T13:34:49Z</time>
      </trkpt>
    </trkseg>
    <trkseg>
      <trkpt lat="43.39151573145759" lon="-5.825092521351866">
        <ele>174.55033713473324</ele>
        <time>2024-09-06T13:34:58Z</time>
      </trkpt>
      <trkpt lat="43.391503365728795" lon="-5.825106760675934">
        <ele>174.77516856736662</ele>
        <time>2024-09-06T13:34:59Z</time>
      </trkpt>
    </trkseg>
    <trkseg>
      <trkpt lat="43.388675320037315" lon="-5.825338630389552">
        <ele>167.09823995024644</ele>
        <time>2024-09-06T13:38:03Z</time>
      </trkpt>
      <trkpt lat="43.388660369800505" lon="-5.825344747674487">
        <ele>167.24779734396077</ele>
        <time>2024-09-06T13:38:04Z</time>
      </trkpt>
      <trkpt lat="43.38864554197213" lon="-5.825351000373197">
        <ele>167.40858102506027</ele>
        <time>2024-09-06T13:38:05Z</time>
      </trkpt>
      <trkpt lat="43.388630714143765" lon="-5.825357253071906">
        <ele>167.56936470615977</ele>
        <time>2024-09-06T13:38:06Z</time>
      </trkpt>
      <trkpt lat="43.3886158863154" lon="-5.825363505770616">
        <ele>167.73014838725928</ele>
        <time>2024-09-06T13:38:07Z</time>
      </trkpt>
    </trkseg>
    <trkseg>
      <trkpt lat="43.386122" lon="-5.827482">
        <ele>180.0</ele>
        <time>2024-09-06T13:41:37Z</time>
      </trkpt>
      <trkpt lat="43.38610944109015" lon="-5.82749204712788">
        <ele>180.22834381545618</ele>
        <time>2024-09-06T13:41:38Z</time>
      </trkpt>
      <trkpt lat="43.3860968821803" lon="-5.82750209425576">
        <ele>180.45668763091237</ele>
        <time>2024-09-06T13:41:39Z</time>
      </trkpt>
      <trkpt lat="43.386084323270445" lon="-5.82751214138364">
        <ele>180.68503144636855</ele>
        <time>2024-09-06T13:41:40Z</time>
      </trkpt>
    </trkseg>
    <trkseg>
      <trkpt lat="43.38462532484008" lon="-5.824234">
        <ele>172.0</ele>
        <time>2024-09-06T13:45:10Z</time>
      </trkpt>
      <trkpt lat="43.38460320820589" lon="-5.82423450439938">
        <ele>171.99159334366868</ele>
        <time>2024-09-06T13:45:11Z</time>
      </trkpt>
      <trkpt lat="43.384586925315524" lon="-5.824236218387839">
        <ele>171.9630268693401</ele>
        <time>2024-09-06T13:45:12Z</time>
      </trkpt>
      <trkpt lat="43.38457064242516" lon="-5.824237932376299">
        <ele>171.93446039501148</ele>
        <time>2024-09-06T13:45:13Z</time>
      </trkpt>
      <trkpt lat="43.38455435953479" lon="-5.8242396463647585">
        <ele>171.9058939206829</ele>
        <time>2024-09-06T13:45:14Z</time>
      </trkpt>
      <trkpt lat="43.38452567403982" lon="-5.8242454269914665">
        <ele>171.35730085335538</ele>
        <time>2024-09-06T13:45:15Z</time>
      </trkpt>
    </trkseg>
    <trkseg>
      <trkpt lat="43.38458435312074" lon="-5.822686475339346">
        <ele>167.7458751704488</ele>
        <time>2024-09-06T13:46:56Z</time>
      </trkpt>
      <trkpt lat="43.38458851929961" lon="-5.822660228412423">
        <ele>167.57922801538655</ele>
        <time>2024-09-06T13:46:57Z</time>
      </trkpt>
      <trkpt lat="43.38459268547849" lon="-5.8226339814855015">
        <ele>167.41258086032428</ele>
        <time>2024-09-06T13:46:58Z</time>
      </trkpt>
      <trkpt lat="43.38459685165737" lon="-5.822607734558579">
        <ele>167.24593370526202</ele>
        <time>2024-09-06T13:46:59Z</time>
      </trkpt>
    </trkseg>
    <trkseg>
      <trkpt lat="43.384612121178215" lon="-5.822232269594582">
        <ele>167.0</ele>
        <time>2024-09-06T13:47:15Z</time>
      </trkpt>
      <trkpt lat="43.3846249543618" lon="-5.822212244052091">
        <ele>166.90992069455325</ele>
        <time>2024-09-06T13:47:16Z</time>
      </trkpt>
      <trkpt lat="43.38463830667322" lon="-5.822194036354702">
        <ele>166.66715139603272</ele>
        <time>2024-09-06T13:47:17Z</time>
      </trkpt>
      <trkpt lat="43.38465165898464" lon="-5.822175828657313">
        <ele>166.42438209751217</ele>
        <time>2024-09-06T13:47:18Z</time>
      </trkpt>
      <trkpt lat="43.38466501129606" lon="-5.822157620959924">
        <ele>166.18161279899164</ele>
        <time>2024-09-06T13:47:19Z</time>
      </trkpt>
    </trkseg>
  </trk>
</gpx>