<?xml version="1.0" encoding="UTF-8"?>
<gpx xmlns="http://www.topografix.com/GPX/1/1" xmlns:xsi="http://www.w3.org/2001/XMLSchema-instance" xsi:schemaLocation="http://www.topografix.com/GPX/1/1 http://www.topografix.com/GPX/1/1/gpx.xsd" version="1.1" creator="gpx.py -- https://github.com/tkrajina/gpxpy">
  <wpt lat="43.29415" lon="-5.983228">
    <ele>144.0</ele>
    <time>2024-09-07T14:25:56Z</time>
    <name>ANOM:DZ_HAMPEL</name>
    <desc>Tramo #1 (951-955), dur=5s
Causas: DZ_HAMPEL
vh_max=11.17 km/h | grade_ext=-6.4% | vz_ext=-12.0 m/min
max|dx|=1.91 m/s, max|dy|=2.45 m/s, max|dz|=0.20 m/s</desc>
  </wpt>
  <wpt lat="43.290342" lon="-5.984989">
    <ele>150.9</ele>
    <time>2024-09-07T14:28:46Z</time>
    <name>ANOM:DZ_HAMPEL</name>
    <desc>Tramo #2 (1121-1125), dur=5s
Causas: DZ_HAMPEL
vh_max=15.31 km/h | grade_ext=17.5% | vz_ext=42.0 m/min
max|dx|=2.43 m/s, max|dy|=3.63 m/s, max|dz|=0.70 m/s</desc>
  </wpt>
  <wpt lat="43.28938845815492" lon="-5.9852291333862">
    <ele>150.87091197455715</ele>
    <time>2024-09-07T14:29:08Z</time>
    <name>ANOM:DZ_HAMPEL</name>
    <desc>Tramo #3 (1143-1144), dur=2s
Causas: DZ_HAMPEL
vh_max=18.79 km/h | grade_ext=6.0% | vz_ext=18.8 m/min
max|dx|=0.46 m/s, max|dy|=5.20 m/s, max|dz|=0.31 m/s</desc>
  </wpt>
  <wpt lat="43.287113537016424" lon="-5.9842284403393515">
    <ele>152.7332936066286</ele>
    <time>2024-09-07T14:30:10Z</time>
    <name>ANOM:DZ_HAMPEL</name>
    <desc>Tramo #4 (1205-1207), dur=3s
Causas: DZ_HAMPEL
vh_max=14.87 km/h | grade_ext=-17.1% | vz_ext=-42.5 m/min
max|dx|=1.52 m/s, max|dy|=3.94 m/s, max|dz|=0.71 m/s</desc>
  </wpt>
  <wpt lat="43.280619" lon="-5.990891">
    <ele>160.0</ele>
    <time>2024-09-07T14:34:22Z</time>
    <name>ANOM:DZ_HAMPEL</name>
    <desc>Tramo #5 (1457-1462), dur=6s
Causas: DZ_HAMPEL
vh_max=12.05 km/h | grade_ext=-5.0% | vz_ext=-10.0 m/min
max|dx|=1.81 m/s, max|dy|=2.82 m/s, max|dz|=0.17 m/s</desc>
  </wpt>
  <wpt lat="43.273819" lon="-6.000912">
    <ele>167.0</ele>
    <time>2024-09-07T14:40:40Z</time>
    <name>ANOM:DZ_HAMPEL</name>
    <desc>Tramo #6 (1835-1841), dur=7s
Causas: DZ_HAMPEL
vh_max=15.83 km/h | grade_ext=28.2% | vz_ext=48.0 m/min
max|dx|=3.88 m/s, max|dy|=2.06 m/s, max|dz|=0.80 m/s</desc>
  </wpt>
  <wpt lat="43.274024" lon="-6.001418">
    <ele>171.7</ele>
    <time>2024-09-07T14:40:55Z</time>
    <name>ANOM:DZ_HAMPEL</name>
    <desc>Tramo #7 (1850-1854), dur=5s
Causas: DZ_HAMPEL
vh_max=13.20 km/h | grade_ext=-19.1% | vz_ext=-42.0 m/min
max|dx|=2.14 m/s, max|dy|=3.56 m/s, max|dz|=0.70 m/s</desc>
  </wpt>
  <wpt lat="43.271529" lon="-6.003128">
    <ele>177.0</ele>
    <time>2024-09-07T14:42:40Z</time>
    <name>ANOM:DZ_HAMPEL</name>
    <desc>Tramo #8 (1955-1956), dur=2s
Causas: DZ_HAMPEL
vh_max=18.02 km/h | grade_ext=0.0% | vz_ext=0.0 m/min
max|dx|=1.05 m/s, max|dy|=4.89 m/s, max|dz|=0.00 m/s</desc>
  </wpt>
  <wpt lat="43.253187" lon="-6.008013">
    <ele>195.9</ele>
    <time>2024-09-07T14:54:54Z</time>
    <name>ANOM:DZ_HAMPEL</name>
    <desc>Tramo #9 (2689-2694), dur=6s
Causas: DZ_HAMPEL
vh_max=14.83 km/h | grade_ext=8.5% | vz_ext=21.0 m/min
max|dx|=1.40 m/s, max|dy|=3.87 m/s, max|dz|=0.35 m/s</desc>
  </wpt>
  <wpt lat="43.24958481277205" lon="-6.011611760393204">
    <ele>197.66187903326423</ele>
    <time>2024-09-07T14:56:57Z</time>
    <name>ANOM:DZ_HAMPEL</name>
    <desc>Tramo #10 (2812-2814), dur=3s
Causas: DZ_HAMPEL
vh_max=15.28 km/h | grade_ext=-12.9% | vz_ext=-32.8 m/min
max|dx|=2.00 m/s, max|dy|=3.96 m/s, max|dz|=0.55 m/s</desc>
  </wpt>
  <wpt lat="43.249449" lon="-6.021584">
    <ele>198.0</ele>
    <time>2024-09-07T15:01:02Z</time>
    <name>ANOM:DZ_HAMPEL</name>
    <desc>Tramo #11 (3057-3063), dur=7s
Causas: DZ_HAMPEL
vh_max=14.59 km/h | grade_ext=-4.6% | vz_ext=-11.1 m/min
max|dx|=4.01 m/s, max|dy|=0.57 m/s, max|dz|=0.19 m/s</desc>
  </wpt>
  <wpt lat="43.247743523154526" lon="-6.023747878936871">
    <ele>202.3559878001591</ele>
    <time>2024-09-07T15:02:56Z</time>
    <name>ANOM:DZ_HAMPEL</name>
    <desc>Tramo #12 (3171-3175), dur=5s
Causas: DZ_HAMPEL
vh_max=12.81 km/h | grade_ext=3.4% | vz_ext=7.2 m/min
max|dx|=0.85 m/s, max|dy|=3.46 m/s, max|dz|=0.12 m/s</desc>
  </wpt>
  <wpt lat="43.24630934201413" lon="-6.0243590714343">
    <ele>204.0925824396145</ele>
    <time>2024-09-07T15:03:43Z</time>
    <name>ANOM:DZ_HAMPEL</name>
    <desc>Tramo #13 (3218-3223), dur=6s
Causas: DZ_HAMPEL
vh_max=12.81 km/h | grade_ext=10.0% | vz_ext=21.3 m/min
max|dx|=1.35 m/s, max|dy|=3.56 m/s, max|dz|=0.36 m/s</desc>
  </wpt>
  <wpt lat="43.238621957947615" lon="-6.03023462373103">
    <ele>219.2935476100421</ele>
    <time>2024-09-07T15:09:11Z</time>
    <name>ANOM:DZ_HAMPEL</name>
    <desc>Tramo #14 (3546-3547), dur=2s
Causas: DZ_HAMPEL
vh_max=10.13 km/h | grade_ext=19.6% | vz_ext=33.1 m/min
max|dx|=2.72 m/s, max|dy|=2.73 m/s, max|dz|=0.55 m/s</desc>
  </wpt>
  <wpt lat="43.22514492140625" lon="-6.038529311035717">
    <ele>243.61493869046424</ele>
    <time>2024-09-07T15:20:32Z</time>
    <name>ANOM:DZ_HAMPEL</name>
    <desc>Tramo #15 (4227-4230), dur=4s
Causas: DZ_HAMPEL
vh_max=3.48 km/h | grade_ext=-21.2% | vz_ext=-8.0 m/min
max|dx|=0.30 m/s, max|dy|=0.97 m/s, max|dz|=0.13 m/s</desc>
  </wpt>
  <wpt lat="43.225085" lon="-6.038562">
    <ele>243.5</ele>
    <time>2024-09-07T15:20:45Z</time>
    <name>ANOM:DZ_HAMPEL</name>
    <desc>Tramo #16 (4240-4241), dur=2s
Causas: DZ_HAMPEL
vh_max=4.42 km/h | grade_ext=28.6% | vz_ext=21.0 m/min
max|dx|=0.79 m/s, max|dy|=1.01 m/s, max|dz|=0.35 m/s</desc>
  </wpt>
  <wpt lat="43.224988" lon="-6.038632">
    <ele>243.6</ele>
    <time>2024-09-07T15:21:13Z</time>
    <name>ANOM:DZ_HAMPEL</name>
    <desc>Tramo #17 (4268-4274), dur=7s
Causas: DZ_HAMPEL
vh_max=10.28 km/h | grade_ext=-27.0% | vz_ext=18.0 m/min
max|dx|=0.65 m/s, max|dy|=2.78 m/s, max|dz|=0.30 m/s</desc>
  </wpt>
  <wpt lat="43.21716266666667" lon="-6.042061">
    <ele>254.73333333333332</ele>
    <time>2024-09-07T15:30:28Z</time>
    <name>ANOM:DZ_HAMPEL</name>
    <desc>Tramo #18 (4823-4824), dur=2s
Causas: DZ_HAMPEL
vh_max=10.18 km/h | grade_ext=4.7% | vz_ext=8.0 m/min
max|dx|=2.67 m/s, max|dy|=0.93 m/s, max|dz|=0.13 m/s</desc>
  </wpt>
  <wpt lat="43.214513" lon="-6.046429">
    <ele>265.3</ele>
    <time>2024-09-07T15:33:29Z</time>
    <name>ANOM:DZ_HAMPEL</name>
    <desc>Tramo #19 (5004-5006), dur=3s
Causas: DZ_HAMPEL
vh_max=12.39 km/h | grade_ext=24.0% | vz_ext=-48.0 m/min
max|dx|=3.44 m/s, max|dy|=1.33 m/s, max|dz|=0.80 m/s</desc>
  </wpt>
  <wpt lat="43.212552" lon="-6.0533705">
    <ele>274.25</ele>
    <time>2024-09-07T15:37:02Z</time>
    <name>ANOM:DZ_HAMPEL</name>
    <desc>Tramo #20 (5217-5218), dur=2s
Causas: DZ_HAMPEL
vh_max=13.11 km/h | grade_ext=2.8% | vz_ext=-6.0 m/min
max|dx|=3.24 m/s, max|dy|=1.67 m/s, max|dz|=0.10 m/s</desc>
  </wpt>
  <wpt lat="43.212983" lon="-6.054984">
    <ele>274.0</ele>
    <time>2024-09-07T15:37:43Z</time>
    <name>ANOM:DZ_HAMPEL</name>
    <desc>Tramo #21 (5258-5262), dur=5s
Causas: DZ_HAMPEL
vh_max=13.28 km/h | grade_ext=4.5% | vz_ext=10.0 m/min
max|dx|=3.66 m/s, max|dy|=0.50 m/s, max|dz|=0.17 m/s</desc>
  </wpt>
  <wpt lat="43.212956" lon="-6.055255">
    <ele>275.0</ele>
    <time>2024-09-07T15:37:49Z</time>
    <name>ANOM:DZ_HAMPEL</name>
    <desc>Tramo #22 (5264-5268), dur=5s
Causas: DZ_HAMPEL
vh_max=10.63 km/h | grade_ext=0.0% | vz_ext=0.0 m/min
max|dx|=2.57 m/s, max|dy|=1.45 m/s, max|dz|=0.00 m/s</desc>
  </wpt>
  <wpt lat="43.211378978870236" lon="-6.055722253458353">
    <ele>279.0</ele>
    <time>2024-09-07T15:38:42Z</time>
    <name>ANOM:DZ_HAMPEL</name>
    <desc>Tramo #23 (5317-5321), dur=5s
Causas: DZ_HAMPEL
vh_max=13.16 km/h | grade_ext=-10.9% | vz_ext=-23.8 m/min
max|dx|=0.86 m/s, max|dy|=3.59 m/s, max|dz|=0.40 m/s</desc>
  </wpt>
  <wpt lat="43.209781" lon="-6.058631">
    <ele>285.4</ele>
    <time>2024-09-07T15:40:11Z</time>
    <name>ANOM:DZ_HAMPEL</name>
    <desc>Tramo #24 (5406-5408), dur=3s
Causas: DZ_HAMPEL
vh_max=15.84 km/h | grade_ext=-2.3% | vz_ext=-6.0 m/min
max|dx|=2.21 m/s, max|dy|=3.81 m/s, max|dz|=0.10 m/s</desc>
  </wpt>
  <wpt lat="43.200784" lon="-6.064225">
    <ele>313.0</ele>
    <time>2024-09-07T15:47:41Z</time>
    <name>ANOM:DZ_HAMPEL</name>
    <desc>Tramo #25 (5856-5862), dur=7s
Causas: DZ_HAMPEL
vh_max=12.18 km/h | grade_ext=0.0% | vz_ext=0.0 m/min
max|dx|=3.35 m/s, max|dy|=0.46 m/s, max|dz|=0.00 m/s</desc>
  </wpt>
  <wpt lat="43.2001073162015" lon="-6.067578471349864">
    <ele>319.99136995890524</ele>
    <time>2024-09-07T15:49:08Z</time>
    <name>ANOM:DZ_HAMPEL</name>
    <desc>Tramo #26 (5943-5949), dur=7s
Causas: DZ_HAMPEL
vh_max=12.00 km/h | grade_ext=15.1% | vz_ext=30.3 m/min
max|dx|=0.95 m/s, max|dy|=3.31 m/s, max|dz|=0.50 m/s</desc>
  </wpt>
  <wpt lat="43.18908128571429" lon="-6.077188428571429">
    <ele>363.14285714285717</ele>
    <time>2024-09-07T15:59:24Z</time>
    <name>ANOM:DZ_HAMPEL</name>
    <desc>Tramo #27 (6559-6564), dur=6s
Causas: DZ_HAMPEL
vh_max=9.03 km/h | grade_ext=5.7% | vz_ext=8.6 m/min
max|dx|=0.68 m/s, max|dy|=2.41 m/s, max|dz|=0.14 m/s</desc>
  </wpt>
  <wpt lat="43.18859" lon="-6.078237">
    <ele>366.0</ele>
    <time>2024-09-07T16:00:07Z</time>
    <name>ANOM:DZ_HAMPEL</name>
    <desc>Tramo #28 (6602-6608), dur=7s
Causas: DZ_HAMPEL
vh_max=10.57 km/h | grade_ext=4.9% | vz_ext=8.6 m/min
max|dx|=2.68 m/s, max|dy|=1.19 m/s, max|dz|=0.14 m/s</desc>
  </wpt>
  <wpt lat="43.17955501403238" lon="-6.082440458721401">
    <ele>392.5347659205641</ele>
    <time>2024-09-07T16:09:19Z</time>
    <name>ANOM:DZ_HAMPEL</name>
    <desc>Tramo #29 (7154-7158), dur=5s
Causas: DZ_HAMPEL
vh_max=13.06 km/h | grade_ext=-3.2% | vz_ext=-7.0 m/min
max|dx|=0.51 m/s, max|dy|=3.59 m/s, max|dz|=0.12 m/s</desc>
  </wpt>
  <wpt lat="43.17523" lon="-6.088276">
    <ele>410.0</ele>
    <time>2024-09-07T16:13:12Z</time>
    <name>ANOM:DZ_HAMPEL</name>
    <desc>Tramo #30 (7387-7390), dur=4s
Causas: DZ_HAMPEL
vh_max=10.84 km/h | grade_ext=0.0% | vz_ext=0.0 m/min
max|dx|=2.43 m/s, max|dy|=1.78 m/s, max|dz|=0.00 m/s</desc>
  </wpt>
  <wpt lat="43.174451" lon="-6.092592">
    <ele>419.0</ele>
    <time>2024-09-07T16:16:56Z</time>
    <name>ANOM:DZ_HAMPEL</name>
    <desc>Tramo #31 (7611-7617), dur=7s
Causas: DZ_HAMPEL
vh_max=11.92 km/h | grade_ext=-0.4% | vz_ext=-0.9 m/min
max|dx|=3.24 m/s, max|dy|=0.70 m/s, max|dz|=0.01 m/s</desc>
  </wpt>
  <trk>
    <name>12_aligned_pattern_resampled_anomalies</name>
    <trkseg>
      <trkpt lat="43.29415" lon="-5.983228">
        <ele>144.0</ele>
        <time>2024-09-07T14:25:56Z</time>
      </trkpt>
      <trkpt lat="43.294172" lon="-5.9832516">
        <ele>143.8</ele>
        <time>2024-09-07T14:25:57Z</time>
      </trkpt>
      <trkpt lat="43.294194000000005" lon="-5.9832752000000005">
        <ele>143.6</ele>
        <time>2024-09-07T14:25:58Z</time>
      </trkpt>
      <trkpt lat="43.294216" lon="-5.9832988">
        <ele>143.4</ele>
        <time>2024-09-07T14:25:59Z</time>
      </trkpt>
      <trkpt lat="43.294238" lon="-5.9833224000000005">
        <ele>143.2</ele>
        <time>2024-09-07T14:26:00Z</time>
      </trkpt>
    </trkseg>
    <trkseg>
      <trkpt lat="43.290342" lon="-5.984989">
        <ele>150.9</ele>
        <time>2024-09-07T14:28:46Z</time>
      </trkpt>
      <trkpt lat="43.29030933333333" lon="-5.985016333333333">
        <ele>151.03333333333333</ele>
        <time>2024-09-07T14:28:47Z</time>
      </trkpt>
      <trkpt lat="43.29027666666667" lon="-5.985043666666666">
        <ele>151.16666666666669</ele>
        <time>2024-09-07T14:28:48Z</time>
      </trkpt>
      <trkpt lat="43.290244" lon="-5.985071">
        <ele>151.3</ele>
        <time>2024-09-07T14:28:49Z</time>
      </trkpt>
      <trkpt lat="43.2902155" lon="-5.985101">
        <ele>152.0</ele>
        <time>2024-09-07T14:28:50Z</time>
      </trkpt>
    </trkseg>
    <trkseg>
      <trkpt lat="43.28938845815492" lon="-5.9852291333862">
        <ele>150.87091197455715</ele>
        <time>2024-09-07T14:29:08Z</time>
      </trkpt>
      <trkpt lat="43.28934169843002" lon="-5.985234869709329">
        <ele>151.1838023270003</ele>
        <time>2024-09-07T14:29:09Z</time>
      </trkpt>
    </trkseg>
    <trkseg>
      <trkpt lat="43.287113537016424" lon="-5.9842284403393515">
        <ele>152.7332936066286</ele>
        <time>2024-09-07T14:30:10Z</time>
      </trkpt>
      <trkpt lat="43.28707808805308" lon="-5.984214204366126">
        <ele>152.29216494253137</ele>
        <time>2024-09-07T14:30:11Z</time>
      </trkpt>
      <trkpt lat="43.28704353735576" lon="-5.98419547206035">
        <ele>151.58450005765388</ele>
        <time>2024-09-07T14:30:12Z</time>
      </trkpt>
    </trkseg>
    <trkseg>
      <trkpt lat="43.280619" lon="-5.990891">
        <ele>160.0</ele>
        <time>2024-09-07T14:34:22Z</time>
      </trkpt>
      <trkpt lat="43.28059366666667" lon="-5.990913333333333">
        <ele>159.83333333333334</ele>
        <time>2024-09-07T14:34:23Z</time>
      </trkpt>
      <trkpt lat="43.280568333333335" lon="-5.990935666666667">
        <ele>159.66666666666666</ele>
        <time>2024-09-07T14:34:24Z</time>
      </trkpt>
      <trkpt lat="43.280543" lon="-5.990958">
        <ele>159.5</ele>
        <time>2024-09-07T14:34:25Z</time>
      </trkpt>
      <trkpt lat="43.28051766666667" lon="-5.990980333333333">
        <ele>159.33333333333334</ele>
        <time>2024-09-07T14:34:26Z</time>
      </trkpt>
      <trkpt lat="43.280492333333335" lon="-5.991002666666667">
        <ele>159.16666666666666</ele>
        <time>2024-09-07T14:34:27Z</time>
      </trkpt>
    </trkseg>
    <trkseg>
      <trkpt lat="43.273819" lon="-6.000912">
        <ele>167.0</ele>
        <time>2024-09-07T14:40:40Z</time>
      </trkpt>
      <trkpt lat="43.2738375" lon="-6.000959999999999">
        <ele>167.5</ele>
        <time>2024-09-07T14:40:41Z</time>
      </trkpt>
      <trkpt lat="43.273856" lon="-6.001008">
        <ele>168.0</ele>
        <time>2024-09-07T14:40:42Z</time>
      </trkpt>
      <trkpt lat="43.273868" lon="-6.001039">
        <ele>168.8</ele>
        <time>2024-09-07T14:40:43Z</time>
      </trkpt>
      <trkpt lat="43.27388" lon="-6.0010699999999995">
        <ele>169.6</ele>
        <time>2024-09-07T14:40:44Z</time>
      </trkpt>
      <trkpt lat="43.273892000000004" lon="-6.001101">
        <ele>170.4</ele>
        <time>2024-09-07T14:40:45Z</time>
      </trkpt>
      <trkpt lat="43.273904" lon="-6.001132">
        <ele>171.2</ele>
        <time>2024-09-07T14:40:46Z</time>
      </trkpt>
    </trkseg>
    <trkseg>
      <trkpt lat="43.274024" lon="-6.001418">
        <ele>171.7</ele>
        <time>2024-09-07T14:40:55Z</time>
      </trkpt>
      <trkpt lat="43.273992" lon="-6.001429">
        <ele>171.0</ele>
        <time>2024-09-07T14:40:56Z</time>
      </trkpt>
      <trkpt lat="43.27397" lon="-6.0014555000000005">
        <ele>170.75</ele>
        <time>2024-09-07T14:40:57Z</time>
      </trkpt>
      <trkpt lat="43.273948" lon="-6.001482">
        <ele>170.5</ele>
        <time>2024-09-07T14:40:58Z</time>
      </trkpt>
      <trkpt lat="43.273926" lon="-6.001485000000001">
        <ele>170.75</ele>
        <time>2024-09-07T14:40:59Z</time>
      </trkpt>
    </trkseg>
    <trkseg>
      <trkpt lat="43.271529" lon="-6.003128">
        <ele>177.0</ele>
        <time>2024-09-07T14:42:40Z</time>
      </trkpt>
      <trkpt lat="43.271487" lon="-6.003121">
        <ele>177.0</ele>
        <time>2024-09-07T14:42:41Z</time>
      </trkpt>
    </trkseg>
    <trkseg>
      <trkpt lat="43.253187" lon="-6.008013">
        <ele>195.9</ele>
        <time>2024-09-07T14:54:54Z</time>
      </trkpt>
      <trkpt lat="43.253152166666666" lon="-6.008030333333333">
        <ele>196.25</ele>
        <time>2024-09-07T14:54:55Z</time>
      </trkpt>
      <trkpt lat="43.25311733333333" lon="-6.008047666666667">
        <ele>196.6</ele>
        <time>2024-09-07T14:54:56Z</time>
      </trkpt>
      <trkpt lat="43.2530825" lon="-6.008065">
        <ele>196.95</ele>
        <time>2024-09-07T14:54:57Z</time>
      </trkpt>
      <trkpt lat="43.25304766666667" lon="-6.008082333333333">
        <ele>197.3</ele>
        <time>2024-09-07T14:54:58Z</time>
      </trkpt>
      <trkpt lat="43.25301283333333" lon="-6.008099666666667">
        <ele>197.65</ele>
        <time>2024-09-07T14:54:59Z</time>
      </trkpt>
    </trkseg>
    <trkseg>
      <trkpt lat="43.24958481277205" lon="-6.011611760393204">
        <ele>197.66187903326423</ele>
        <time>2024-09-07T14:56:57Z</time>
      </trkpt>
      <trkpt lat="43.2495491877048" lon="-6.0116305912358765">
        <ele>197.22596468923658</ele>
        <time>2024-09-07T14:56:58Z</time>
      </trkpt>
      <trkpt lat="43.24951364454378" lon="-6.01164972986104">
        <ele>196.6791468274311</ele>
        <time>2024-09-07T14:56:59Z</time>
      </trkpt>
    </trkseg>
    <trkseg>
      <trkpt lat="43.249449" lon="-6.021584">
        <ele>198.0</ele>
        <time>2024-09-07T15:01:02Z</time>
      </trkpt>
      <trkpt lat="43.24945414285714" lon="-6.021633571428572">
        <ele>197.81428571428572</ele>
        <time>2024-09-07T15:01:03Z</time>
      </trkpt>
      <trkpt lat="43.24945928571429" lon="-6.0216831428571425">
        <ele>197.62857142857143</ele>
        <time>2024-09-07T15:01:04Z</time>
      </trkpt>
      <trkpt lat="43.24946442857143" lon="-6.021732714285714">
        <ele>197.44285714285715</ele>
        <time>2024-09-07T15:01:05Z</time>
      </trkpt>
      <trkpt lat="43.24946957142857" lon="-6.021782285714286">
        <ele>197.25714285714284</ele>
        <time>2024-09-07T15:01:06Z</time>
      </trkpt>
      <trkpt lat="43.24947471428571" lon="-6.021831857142858">
        <ele>197.07142857142856</ele>
        <time>2024-09-07T15:01:07Z</time>
      </trkpt>
      <trkpt lat="43.24947985714286" lon="-6.021881428571429">
        <ele>196.88571428571427</ele>
        <time>2024-09-07T15:01:08Z</time>
      </trkpt>
    </trkseg>
    <trkseg>
      <trkpt lat="43.247743523154526" lon="-6.023747878936871">
        <ele>202.3559878001591</ele>
        <time>2024-09-07T15:02:56Z</time>
      </trkpt>
      <trkpt lat="43.247712450161146" lon="-6.023758351050661">
        <ele>202.47615959776095</ele>
        <time>2024-09-07T15:02:57Z</time>
      </trkpt>
      <trkpt lat="43.247681377167766" lon="-6.023768823164453">
        <ele>202.59633139536282</ele>
        <time>2024-09-07T15:02:58Z</time>
      </trkpt>
      <trkpt lat="43.24765030417439" lon="-6.023779295278244">
        <ele>202.71650319296467</ele>
        <time>2024-09-07T15:02:59Z</time>
      </trkpt>
      <trkpt lat="43.24761923118101" lon="-6.023789767392035">
        <ele>202.8366749905665</ele>
        <time>2024-09-07T15:03:00Z</time>
      </trkpt>
    </trkseg>
    <trkseg>
      <trkpt lat="43.24630934201413" lon="-6.0243590714343">
        <ele>204.0925824396145</ele>
        <time>2024-09-07T15:03:43Z</time>
      </trkpt>
      <trkpt lat="43.24627986482901" lon="-6.024375722381537">
        <ele>204.0298934212517</ele>
        <time>2024-09-07T15:03:44Z</time>
      </trkpt>
      <trkpt lat="43.24624893338581" lon="-6.024384106661419">
        <ele>204.0</ele>
        <time>2024-09-07T15:03:45Z</time>
      </trkpt>
      <trkpt lat="43.24621869643758" lon="-6.0243970411439784">
        <ele>204.0</ele>
        <time>2024-09-07T15:03:46Z</time>
      </trkpt>
      <trkpt lat="43.24618769063872" lon="-6.024407769787095">
        <ele>204.35526498524067</ele>
        <time>2024-09-07T15:03:47Z</time>
      </trkpt>
      <trkpt lat="43.2461558678302" lon="-6.0244063626090805">
        <ele>204.57582606128076</ele>
        <time>2024-09-07T15:03:48Z</time>
      </trkpt>
    </trkseg>
    <trkseg>
      <trkpt lat="43.238621957947615" lon="-6.03023462373103">
        <ele>219.2935476100421</ele>
        <time>2024-09-07T15:09:11Z</time>
      </trkpt>
      <trkpt lat="43.238615556551906" lon="-6.03026824414198">
        <ele>219.84479316786764</ele>
        <time>2024-09-07T15:09:12Z</time>
      </trkpt>
    </trkseg>
    <trkseg>
      <trkpt lat="43.22514492140625" lon="-6.038529311035717">
        <ele>243.61493869046424</ele>
        <time>2024-09-07T15:20:32Z</time>
      </trkpt>
      <trkpt lat="43.22513669183242" lon="-6.038532">
        <ele>243.56686024937537</ele>
        <time>2024-09-07T15:20:33Z</time>
      </trkpt>
      <trkpt lat="43.225128" lon="-6.038532">
        <ele>243.5</ele>
        <time>2024-09-07T15:20:34Z</time>
      </trkpt>
      <trkpt lat="43.225122999999996" lon="-6.038535666666666">
        <ele>243.36666666666667</ele>
        <time>2024-09-07T15:20:35Z</time>
      </trkpt>
    </trkseg>
    <trkseg>
      <trkpt lat="43.225085" lon="-6.038562">
        <ele>243.5</ele>
        <time>2024-09-07T15:20:45Z</time>
      </trkpt>
      <trkpt lat="43.2250765905141" lon="-6.038571811066883">
        <ele>243.8503952458373</ele>
        <time>2024-09-07T15:20:46Z</time>
      </trkpt>
    </trkseg>
    <trkseg>
      <trkpt lat="43.224988" lon="-6.038632">
        <ele>243.6</ele>
        <time>2024-09-07T15:21:13Z</time>
      </trkpt>
      <trkpt lat="43.224984750000004" lon="-6.038633">
        <ele>243.5</ele>
        <time>2024-09-07T15:21:14Z</time>
      </trkpt>
      <trkpt lat="43.2249815" lon="-6.038634">
        <ele>243.39999999999998</ele>
        <time>2024-09-07T15:21:15Z</time>
      </trkpt>
      <trkpt lat="43.22497825" lon="-6.038635">
        <ele>243.29999999999998</ele>
        <time>2024-09-07T15:21:16Z</time>
      </trkpt>
      <trkpt lat="43.224975" lon="-6.038636">
        <ele>243.2</ele>
        <time>2024-09-07T15:21:17Z</time>
      </trkpt>
      <trkpt lat="43.224963" lon="-6.0386405">
        <ele>242.95</ele>
        <time>2024-09-07T15:21:18Z</time>
      </trkpt>
      <trkpt lat="43.224951" lon="-6.038645">
        <ele>242.7</ele>
        <time>2024-09-07T15:21:19Z</time>
      </trkpt>
    </trkseg>
    <trkseg>
      <trkpt lat="43.21716266666667" lon="-6.042061">
        <ele>254.73333333333332</ele>
        <time>2024-09-07T15:30:28Z</time>
      </trkpt>
      <trkpt lat="43.21715433333333" lon="-6.042094">
        <ele>254.86666666666667</ele>
        <time>2024-09-07T15:30:29Z</time>
      </trkpt>
    </trkseg>
    <trkseg>
      <trkpt lat="43.214513" lon="-6.046429">
        <ele>265.3</ele>
        <time>2024-09-07T15:33:29Z</time>
      </trkpt>
      <trkpt lat="43.214525" lon="-6.046461">
        <ele>266.0</ele>
        <time>2024-09-07T15:33:30Z</time>
      </trkpt>
      <trkpt lat="43.214526" lon="-6.0465035">
        <ele>265.2</ele>
        <time>2024-09-07T15:33:31Z</time>
      </trkpt>
    </trkseg>
    <trkseg>
      <trkpt lat="43.212552" lon="-6.0533705">
        <ele>274.25</ele>
        <time>2024-09-07T15:37:02Z</time>
      </trkpt>
      <trkpt lat="43.212559" lon="-6.05339">
        <ele>274.3</ele>
        <time>2024-09-07T15:37:03Z</time>
      </trkpt>
    </trkseg>
    <trkseg>
      <trkpt lat="43.212983" lon="-6.054984">
        <ele>274.0</ele>
        <time>2024-09-07T15:37:43Z</time>
      </trkpt>
      <trkpt lat="43.2129785" lon="-6.0550291666666665">
        <ele>274.1666666666667</ele>
        <time>2024-09-07T15:37:44Z</time>
      </trkpt>
      <trkpt lat="43.212974" lon="-6.055074333333334">
        <ele>274.3333333333333</ele>
        <time>2024-09-07T15:37:45Z</time>
      </trkpt>
      <trkpt lat="43.2129695" lon="-6.0551195">
        <ele>274.5</ele>
        <time>2024-09-07T15:37:46Z</time>
      </trkpt>
      <trkpt lat="43.212965" lon="-6.055164666666666">
        <ele>274.6666666666667</ele>
        <time>2024-09-07T15:37:47Z</time>
      </trkpt>
    </trkseg>
    <trkseg>
      <trkpt lat="43.212956" lon="-6.055255">
        <ele>275.0</ele>
        <time>2024-09-07T15:37:49Z</time>
      </trkpt>
      <trkpt lat="43.212942999999996" lon="-6.0552868">
        <ele>275.0</ele>
        <time>2024-09-07T15:37:50Z</time>
      </trkpt>
      <trkpt lat="43.21293" lon="-6.0553186">
        <ele>275.0</ele>
        <time>2024-09-07T15:37:51Z</time>
      </trkpt>
      <trkpt lat="43.212917" lon="-6.0553504">
        <ele>275.0</ele>
        <time>2024-09-07T15:37:52Z</time>
      </trkpt>
      <trkpt lat="43.212904" lon="-6.0553821999999995">
        <ele>275.0</ele>
        <time>2024-09-07T15:37:53Z</time>
      </trkpt>
    </trkseg>
    <trkseg>
      <trkpt lat="43.211378978870236" lon="-6.055722253458353">
        <ele>279.0</ele>
        <time>2024-09-07T15:38:42Z</time>
      </trkpt>
      <trkpt lat="43.21134670226446" lon="-6.055714234088151">
        <ele>278.7849998971409</ele>
        <time>2024-09-07T15:38:43Z</time>
      </trkpt>
      <trkpt lat="43.211314761811565" lon="-6.0557035872705205">
        <ele>278.38799991771276</ele>
        <time>2024-09-07T15:38:44Z</time>
      </trkpt>
      <trkpt lat="43.21128282135867" lon="-6.05569294045289">
        <ele>277.9909999382846</ele>
        <time>2024-09-07T15:38:45Z</time>
      </trkpt>
      <trkpt lat="43.21125088090578" lon="-6.05568229363526">
        <ele>277.5939999588564</ele>
        <time>2024-09-07T15:38:46Z</time>
      </trkpt>
    </trkseg>
    <trkseg>
      <trkpt lat="43.209781" lon="-6.058631">
        <ele>285.4</ele>
        <time>2024-09-07T15:40:11Z</time>
      </trkpt>
      <trkpt lat="43.20974675" lon="-6.058658250000001">
        <ele>285.29999999999995</ele>
        <time>2024-09-07T15:40:12Z</time>
      </trkpt>
      <trkpt lat="43.209712499999995" lon="-6.0586855">
        <ele>285.2</ele>
        <time>2024-09-07T15:40:13Z</time>
      </trkpt>
    </trkseg>
    <trkseg>
      <trkpt lat="43.200784" lon="-6.064225">
        <ele>313.0</ele>
        <time>2024-09-07T15:47:41Z</time>
      </trkpt>
      <trkpt lat="43.20078814285714" lon="-6.064266428571429">
        <ele>313.0</ele>
        <time>2024-09-07T15:47:42Z</time>
      </trkpt>
      <trkpt lat="43.200792285714286" lon="-6.0643078571428575">
        <ele>313.0</ele>
        <time>2024-09-07T15:47:43Z</time>
      </trkpt>
      <trkpt lat="43.20079642857143" lon="-6.064349285714286">
        <ele>313.0</ele>
        <time>2024-09-07T15:47:44Z</time>
      </trkpt>
      <trkpt lat="43.200800571428566" lon="-6.0643907142857145">
        <ele>313.0</ele>
        <time>2024-09-07T15:47:45Z</time>
      </trkpt>
      <trkpt lat="43.20080471428571" lon="-6.064432142857143">
        <ele>313.0</ele>
        <time>2024-09-07T15:47:46Z</time>
      </trkpt>
      <trkpt lat="43.20080885714285" lon="-6.064473571428572">
        <ele>313.0</ele>
        <time>2024-09-07T15:47:47Z</time>
      </trkpt>
    </trkseg>
    <trkseg>
      <trkpt lat="43.2001073162015" lon="-6.067578471349864">
        <ele>319.99136995890524</ele>
        <time>2024-09-07T15:49:08Z</time>
      </trkpt>
      <trkpt lat="43.200078727750046" lon="-6.067590232584737">
        <ele>320.1232584737563</ele>
        <time>2024-09-07T15:49:09Z</time>
      </trkpt>
      <trkpt lat="43.200048970643685" lon="-6.067595276162086">
        <ele>320.6276162086454</ele>
        <time>2024-09-07T15:49:10Z</time>
      </trkpt>
      <trkpt lat="43.20001921353733" lon="-6.0676003197394355">
        <ele>321.1319739435345</ele>
        <time>2024-09-07T15:49:11Z</time>
      </trkpt>
      <trkpt lat="43.19998945643097" lon="-6.067605363316784">
        <ele>321.6363316784235</ele>
        <time>2024-09-07T15:49:12Z</time>
      </trkpt>
      <trkpt lat="43.199959699324616" lon="-6.067610406894133">
        <ele>322.1406894133126</ele>
        <time>2024-09-07T15:49:13Z</time>
      </trkpt>
      <trkpt lat="43.199929942218255" lon="-6.067615450471481">
        <ele>322.6450471482016</ele>
        <time>2024-09-07T15:49:14Z</time>
      </trkpt>
    </trkseg>
    <trkseg>
      <trkpt lat="43.18908128571429" lon="-6.077188428571429">
        <ele>363.14285714285717</ele>
        <time>2024-09-07T15:59:24Z</time>
      </trkpt>
      <trkpt lat="43.18905957142857" lon="-6.077196857142857">
        <ele>363.2857142857143</ele>
        <time>2024-09-07T15:59:25Z</time>
      </trkpt>
      <trkpt lat="43.18903785714286" lon="-6.077205285714285">
        <ele>363.42857142857144</ele>
        <time>2024-09-07T15:59:26Z</time>
      </trkpt>
      <trkpt lat="43.18901614285715" lon="-6.0772137142857146">
        <ele>363.57142857142856</ele>
        <time>2024-09-07T15:59:27Z</time>
      </trkpt>
      <trkpt lat="43.188994428571434" lon="-6.077222142857143">
        <ele>363.7142857142857</ele>
        <time>2024-09-07T15:59:28Z</time>
      </trkpt>
      <trkpt lat="43.18897271428572" lon="-6.077230571428571">
        <ele>363.85714285714283</ele>
        <time>2024-09-07T15:59:29Z</time>
      </trkpt>
    </trkseg>
    <trkseg>
      <trkpt lat="43.18859" lon="-6.078237">
        <ele>366.0</ele>
        <time>2024-09-07T16:00:07Z</time>
      </trkpt>
      <trkpt lat="43.18857928571428" lon="-6.078270142857143">
        <ele>366.14285714285717</ele>
        <time>2024-09-07T16:00:08Z</time>
      </trkpt>
      <trkpt lat="43.18856857142857" lon="-6.078303285714285">
        <ele>366.2857142857143</ele>
        <time>2024-09-07T16:00:09Z</time>
      </trkpt>
      <trkpt lat="43.188557857142854" lon="-6.078336428571428">
        <ele>366.42857142857144</ele>
        <time>2024-09-07T16:00:10Z</time>
      </trkpt>
      <trkpt lat="43.188547142857146" lon="-6.0783695714285715">
        <ele>366.57142857142856</ele>
        <time>2024-09-07T16:00:11Z</time>
      </trkpt>
      <trkpt lat="43.18853642857143" lon="-6.078402714285715">
        <ele>366.7142857142857</ele>
        <time>2024-09-07T16:00:12Z</time>
      </trkpt>
      <trkpt lat="43.18852571428572" lon="-6.078435857142857">
        <ele>366.85714285714283</ele>
        <time>2024-09-07T16:00:13Z</time>
      </trkpt>
    </trkseg>
    <trkseg>
      <trkpt lat="43.17955501403238" lon="-6.082440458721401">
        <ele>392.5347659205641</ele>
        <time>2024-09-07T16:09:19Z</time>
      </trkpt>
      <trkpt lat="43.17952272028984" lon="-6.082434100367948">
        <ele>392.41763835693456</ele>
        <time>2024-09-07T16:09:20Z</time>
      </trkpt>
      <trkpt lat="43.1794904265473" lon="-6.082427742014493">
        <ele>392.30051079330497</ele>
        <time>2024-09-07T16:09:21Z</time>
      </trkpt>
      <trkpt lat="43.179458132804754" lon="-6.082421383661039">
        <ele>392.1833832296754</ele>
        <time>2024-09-07T16:09:22Z</time>
      </trkpt>
      <trkpt lat="43.17942583906221" lon="-6.0824150253075855">
        <ele>392.0662556660459</ele>
        <time>2024-09-07T16:09:23Z</time>
      </trkpt>
    </trkseg>
    <trkseg>
      <trkpt lat="43.17523" lon="-6.088276">
        <ele>410.0</ele>
        <time>2024-09-07T16:13:12Z</time>
      </trkpt>
      <trkpt lat="43.175214" lon="-6.088305999999999">
        <ele>410.0</ele>
        <time>2024-09-07T16:13:13Z</time>
      </trkpt>
      <trkpt lat="43.175197999999995" lon="-6.088336">
        <ele>410.0</ele>
        <time>2024-09-07T16:13:14Z</time>
      </trkpt>
      <trkpt lat="43.175182" lon="-6.088366000000001">
        <ele>410.0</ele>
        <time>2024-09-07T16:13:15Z</time>
      </trkpt>
    </trkseg>
    <trkseg>
      <trkpt lat="43.174451" lon="-6.092592">
        <ele>419.0</ele>
        <time>2024-09-07T16:16:56Z</time>
      </trkpt>
      <trkpt lat="43.17444471428571" lon="-6.092632">
        <ele>418.98571428571427</ele>
        <time>2024-09-07T16:16:57Z</time>
      </trkpt>
      <trkpt lat="43.17443842857143" lon="-6.092671999999999">
        <ele>418.9714285714286</ele>
        <time>2024-09-07T16:16:58Z</time>
      </trkpt>
      <trkpt lat="43.17443214285714" lon="-6.092712">
        <ele>418.95714285714286</ele>
        <time>2024-09-07T16:16:59Z</time>
      </trkpt>
      <trkpt lat="43.17442585714286" lon="-6.092752">
        <ele>418.9428571428571</ele>
        <time>2024-09-07T16:17:00Z</time>
      </trkpt>
      <trkpt lat="43.17441957142857" lon="-6.092792">
        <ele>418.9285714285714</ele>
        <time>2024-09-07T16:17:01Z</time>
      </trkpt>
      <trkpt lat="43.17441328571429" lon="-6.092832">
        <ele>418.9142857142857</ele>
        <time>2024-09-07T16:17:02Z</time>
      </trkpt>
    </trkseg>
  </trk>
</gpx>