<?xml version="1.0" encoding="UTF-8"?>
<gpx xmlns="http://www.topografix.com/GPX/1/1" xmlns:xsi="http://www.w3.org/2001/XMLSchema-instance" xsi:schemaLocation="http://www.topografix.com/GPX/1/1 http://www.topografix.com/GPX/1/1/gpx.xsd" version="1.1" creator="gpx.py -- https://github.com/tkrajina/gpxpy">
  <wpt lat="43.291441" lon="-5.982916">
    <ele>146.0</ele>
    <time>2024-09-07T14:24:00Z</time>
    <name>ANOM:DZ_HAMPEL</name>
    <desc>Tramo #1 (0-1), dur=2s
Causas: DZ_HAMPEL
vh_max=8.79 km/h | grade_ext=1.2% | vz_ext=1.7 m/min
max|dx|=1.84 m/s, max|dy|=1.61 m/s, max|dz|=0.03 m/s</desc>
  </wpt>
  <wpt lat="43.29160320856162" lon="-5.982646864127315">
    <ele>146.38505435255317</ele>
    <time>2024-09-07T14:24:12Z</time>
    <name>ANOM:DZ_HAMPEL</name>
    <desc>Tramo #2 (12-13), dur=2s
Causas: DZ_HAMPEL
vh_max=11.16 km/h | grade_ext=-7.9% | vz_ext=-13.3 m/min
max|dx|=2.78 m/s, max|dy|=1.50 m/s, max|dz|=0.22 m/s</desc>
  </wpt>
  <wpt lat="43.294138918822505" lon="-5.983217124029494">
    <ele>144.0</ele>
    <time>2024-09-07T14:25:56Z</time>
    <name>ANOM:DZ_HAMPEL</name>
    <desc>Tramo #3 (116-121), dur=6s
Causas: DZ_HAMPEL
vh_max=12.95 km/h | grade_ext=-6.4% | vz_ext=-11.9 m/min
max|dx|=2.02 m/s, max|dy|=3.41 m/s, max|dz|=0.20 m/s</desc>
  </wpt>
  <wpt lat="43.29026680078223" lon="-5.9850519217944615">
    <ele>151.2069355827433</ele>
    <time>2024-09-07T14:28:47Z</time>
    <name>ANOM:DZ_HAMPEL</name>
    <desc>Tramo #4 (287-288), dur=2s
Causas: DZ_HAMPEL
vh_max=17.19 km/h | grade_ext=17.5% | vz_ext=48.5 m/min
max|dx|=2.81 m/s, max|dy|=3.98 m/s, max|dz|=0.81 m/s</desc>
  </wpt>
  <wpt lat="43.289388832637144" lon="-5.985229087446001">
    <ele>150.86840614551505</ele>
    <time>2024-09-07T14:29:07Z</time>
    <name>ANOM:DZ_HAMPEL</name>
    <desc>Tramo #5 (307-308), dur=2s
Causas: DZ_HAMPEL
vh_max=19.10 km/h | grade_ext=6.0% | vz_ext=19.1 m/min
max|dx|=0.47 m/s, max|dy|=5.29 m/s, max|dz|=0.32 m/s</desc>
  </wpt>
  <wpt lat="43.2884708923969" lon="-5.985395554011655">
    <ele>153.65158981399512</ele>
    <time>2024-09-07T14:29:26Z</time>
    <name>ANOM:DZ_HAMPEL</name>
    <desc>Tramo #6 (326-327), dur=2s
Causas: DZ_HAMPEL
vh_max=20.42 km/h | grade_ext=-19.5% | vz_ext=-63.1 m/min
max|dx|=0.37 m/s, max|dy|=5.67 m/s, max|dz|=1.05 m/s</desc>
  </wpt>
  <wpt lat="43.287082241708674" lon="-5.984216456348076">
    <ele>152.37723981617313</ele>
    <time>2024-09-07T14:30:14Z</time>
    <name>ANOM:DZ_HAMPEL</name>
    <desc>Tramo #7 (374-375), dur=2s
Causas: DZ_HAMPEL
vh_max=16.56 km/h | grade_ext=-17.1% | vz_ext=-47.3 m/min
max|dx|=1.69 m/s, max|dy|=4.37 m/s, max|dz|=0.79 m/s</desc>
  </wpt>
  <wpt lat="43.28670371473265" lon="-5.984197937304464">
    <ele>151.05425609300593</ele>
    <time>2024-09-07T14:30:23Z</time>
    <name>ANOM:DZ_HAMPEL</name>
    <desc>Tramo #8 (383-385), dur=3s
Causas: DZ_HAMPEL
vh_max=23.79 km/h | grade_ext=4.1% | vz_ext=16.3 m/min
max|dx|=2.01 m/s, max|dy|=6.30 m/s, max|dz|=0.27 m/s</desc>
  </wpt>
  <wpt lat="43.280619" lon="-5.990891">
    <ele>160.0</ele>
    <time>2024-09-07T14:34:21Z</time>
    <name>ANOM:DZ_HAMPEL</name>
    <desc>Tramo #9 (621-626), dur=6s
Causas: DZ_HAMPEL
vh_max=12.69 km/h | grade_ext=-5.0% | vz_ext=-10.5 m/min
max|dx|=1.90 m/s, max|dy|=3.14 m/s, max|dz|=0.18 m/s</desc>
  </wpt>
  <wpt lat="43.27442632298853" lon="-5.997481996838887">
    <ele>167.67422413980256</ele>
    <time>2024-09-07T14:39:07Z</time>
    <name>ANOM:DZ_HAMPEL</name>
    <desc>Tramo #10 (907-908), dur=2s
Causas: DZ_HAMPEL
vh_max=8.58 km/h | grade_ext=-15.0% | vz_ext=-20.2 m/min
max|dx|=2.32 m/s, max|dy|=0.55 m/s, max|dz|=0.34 m/s</desc>
  </wpt>
  <wpt lat="43.274021998541016" lon="-6.0014132743329585">
    <ele>171.7055596082842</ele>
    <time>2024-09-07T14:40:54Z</time>
    <name>ANOM:DZ_HAMPEL</name>
    <desc>Tramo #11 (1014-1018), dur=5s
Causas: DZ_HAMPEL
vh_max=13.02 km/h | grade_ext=-20.0% | vz_ext=-27.9 m/min
max|dx|=1.68 m/s, max|dy|=3.60 m/s, max|dz|=0.47 m/s</desc>
  </wpt>
  <wpt lat="43.27357693936142" lon="-6.00203340919543">
    <ele>173.03787994922573</ele>
    <time>2024-09-07T14:41:19Z</time>
    <name>ANOM:DZ_HAMPEL</name>
    <desc>Tramo #12 (1039-1041), dur=3s
Causas: DZ_HAMPEL
vh_max=9.15 km/h | grade_ext=12.6% | vz_ext=19.2 m/min
max|dx|=2.34 m/s, max|dy|=1.00 m/s, max|dz|=0.32 m/s</desc>
  </wpt>
  <wpt lat="43.271529" lon="-6.003128">
    <ele>177.0</ele>
    <time>2024-09-07T14:42:40Z</time>
    <name>ANOM:DZ_HAMPEL</name>
    <desc>Tramo #13 (1120-1121), dur=2s
Causas: DZ_HAMPEL
vh_max=17.32 km/h | grade_ext=0.0% | vz_ext=0.0 m/min
max|dx|=1.01 m/s, max|dy|=4.70 m/s, max|dz|=0.00 m/s</desc>
  </wpt>
  <wpt lat="43.24958650143413" lon="-6.011610974580157">
    <ele>197.64850349204033</ele>
    <time>2024-09-07T14:56:56Z</time>
    <name>ANOM:DZ_HAMPEL</name>
    <desc>Tramo #14 (1976-1978), dur=3s
Causas: DZ_HAMPEL
vh_max=15.16 km/h | grade_ext=-12.9% | vz_ext=-32.5 m/min
max|dx|=1.94 m/s, max|dy|=3.93 m/s, max|dz|=0.54 m/s</desc>
  </wpt>
  <wpt lat="43.247762874009915" lon="-6.023742836755648">
    <ele>202.30233206216252</ele>
    <time>2024-09-07T15:02:55Z</time>
    <name>ANOM:DZ_HAMPEL</name>
    <desc>Tramo #15 (2335-2340), dur=6s
Causas: DZ_HAMPEL
vh_max=12.47 km/h | grade_ext=3.4% | vz_ext=7.0 m/min
max|dx|=0.83 m/s, max|dy|=3.37 m/s, max|dz|=0.12 m/s</desc>
  </wpt>
  <wpt lat="43.24632025610568" lon="-6.024355752529265">
    <ele>204.07981742024796</ele>
    <time>2024-09-07T15:03:44Z</time>
    <name>ANOM:DZ_HAMPEL</name>
    <desc>Tramo #16 (2384-2389), dur=6s
Causas: DZ_HAMPEL
vh_max=14.72 km/h | grade_ext=8.0% | vz_ext=18.6 m/min
max|dx|=1.11 m/s, max|dy|=4.09 m/s, max|dz|=0.31 m/s</desc>
  </wpt>
  <wpt lat="43.23865016177879" lon="-6.030297614472144">
    <ele>219.2936433916063</ele>
    <time>2024-09-07T15:09:11Z</time>
    <name>ANOM:DZ_HAMPEL</name>
    <desc>Tramo #17 (2711-2712), dur=2s
Causas: DZ_HAMPEL
vh_max=11.95 km/h | grade_ext=15.8% | vz_ext=28.9 m/min
max|dx|=1.09 m/s, max|dy|=3.14 m/s, max|dz|=0.48 m/s</desc>
  </wpt>
  <wpt lat="43.22993574391595" lon="-6.035947820105052">
    <ele>239.98388511398952</ele>
    <time>2024-09-07T15:15:24Z</time>
    <name>ANOM:DZ_HAMPEL</name>
    <desc>Tramo #18 (3084-3085), dur=2s
Causas: DZ_HAMPEL
vh_max=7.51 km/h | grade_ext=-4.8% | vz_ext=-5.9 m/min
max|dx|=1.40 m/s, max|dy|=1.55 m/s, max|dz|=0.10 m/s</desc>
  </wpt>
  <wpt lat="43.225125483728725" lon="-6.038533845265599">
    <ele>243.43289943275175</ele>
    <time>2024-09-07T15:20:41Z</time>
    <name>ANOM:DZ_HAMPEL</name>
    <desc>Tramo #19 (3401-3402), dur=2s
Causas: DZ_HAMPEL
vh_max=2.19 km/h | grade_ext=-21.2% | vz_ext=-7.7 m/min
max|dx|=0.29 m/s, max|dy|=0.54 m/s, max|dz|=0.13 m/s</desc>
  </wpt>
  <wpt lat="43.225096792248465" lon="-6.038556103875769">
    <ele>243.1314922355708</ele>
    <time>2024-09-07T15:20:47Z</time>
    <name>ANOM:DZ_HAMPEL</name>
    <desc>Tramo #20 (3407-3408), dur=2s
Causas: DZ_HAMPEL
vh_max=6.48 km/h | grade_ext=27.2% | vz_ext=29.4 m/min
max|dx|=0.91 m/s, max|dy|=1.63 m/s, max|dz|=0.49 m/s</desc>
  </wpt>
  <wpt lat="43.22498923973439" lon="-6.038632309933597">
    <ele>243.59225166006863</ele>
    <time>2024-09-07T15:21:17Z</time>
    <name>ANOM:DZ_HAMPEL</name>
    <desc>Tramo #21 (3437-3439), dur=3s
Causas: DZ_HAMPEL
vh_max=11.10 km/h | grade_ext=-22.0% | vz_ext=-37.5 m/min
max|dx|=0.78 m/s, max|dy|=2.98 m/s, max|dz|=0.62 m/s</desc>
  </wpt>
  <wpt lat="43.21480367369632" lon="-6.043611410509466">
    <ele>262.20842057872414</ele>
    <time>2024-09-07T15:32:11Z</time>
    <name>ANOM:DZ_HAMPEL</name>
    <desc>Tramo #22 (4091-4092), dur=2s
Causas: DZ_HAMPEL
vh_max=10.57 km/h | grade_ext=-22.7% | vz_ext=-40.0 m/min
max|dx|=2.02 m/s, max|dy|=2.88 m/s, max|dz|=0.67 m/s</desc>
  </wpt>
  <wpt lat="43.21244094245766" lon="-6.053160440172109">
    <ele>273.90484001107563</ele>
    <time>2024-09-07T15:36:51Z</time>
    <name>ANOM:DZ_HAMPEL</name>
    <desc>Tramo #23 (4371-4373), dur=3s
Causas: DZ_HAMPEL
vh_max=5.16 km/h | grade_ext=13.8% | vz_ext=11.9 m/min
max|dx|=0.99 m/s, max|dy|=1.04 m/s, max|dz|=0.20 m/s</desc>
  </wpt>
  <wpt lat="43.21298147842851" lon="-6.054962132843998">
    <ele>274.0</ele>
    <time>2024-09-07T15:37:43Z</time>
    <name>ANOM:DZ_HAMPEL</name>
    <desc>Tramo #24 (4423-4425), dur=3s
Causas: DZ_HAMPEL
vh_max=13.06 km/h | grade_ext=4.5% | vz_ext=9.8 m/min
max|dx|=3.59 m/s, max|dy|=0.49 m/s, max|dz|=0.16 m/s</desc>
  </wpt>
  <wpt lat="43.21295870066946" lon="-6.055227893280599">
    <ele>274.89997520516374</ele>
    <time>2024-09-07T15:37:49Z</time>
    <name>ANOM:DZ_HAMPEL</name>
    <desc>Tramo #25 (4429-4433), dur=5s
Causas: DZ_HAMPEL
vh_max=13.56 km/h | grade_ext=2.8% | vz_ext=6.0 m/min
max|dx|=3.47 m/s, max|dy|=1.93 m/s, max|dz|=0.10 m/s</desc>
  </wpt>
  <wpt lat="43.210118129603714" lon="-6.057297930321054">
    <ele>284.702707549623</ele>
    <time>2024-09-07T15:39:40Z</time>
    <name>ANOM:DZ_HAMPEL</name>
    <desc>Tramo #26 (4540-4542), dur=3s
Causas: DZ_HAMPEL
vh_max=17.69 km/h | grade_ext=24.2% | vz_ext=68.2 m/min
max|dx|=4.85 m/s, max|dy|=0.81 m/s, max|dz|=1.14 m/s</desc>
  </wpt>
  <wpt lat="43.20009791601302" lon="-6.067583114357942">
    <ele>319.99517570323087</ele>
    <time>2024-09-07T15:49:09Z</time>
    <name>ANOM:DZ_HAMPEL</name>
    <desc>Tramo #27 (5109-5114), dur=6s
Causas: DZ_HAMPEL
vh_max=15.07 km/h | grade_ext=15.1% | vz_ext=36.8 m/min
max|dx|=0.76 m/s, max|dy|=4.15 m/s, max|dz|=0.61 m/s</desc>
  </wpt>
  <wpt lat="43.19753603551223" lon="-6.067559547973426">
    <ele>328.756230597286</ele>
    <time>2024-09-07T15:50:26Z</time>
    <name>ANOM:DZ_HAMPEL</name>
    <desc>Tramo #28 (5186-5187), dur=2s
Causas: DZ_HAMPEL
vh_max=14.19 km/h | grade_ext=28.3% | vz_ext=66.9 m/min
max|dx|=2.20 m/s, max|dy|=3.38 m/s, max|dz|=1.11 m/s</desc>
  </wpt>
  <wpt lat="43.19613555577811" lon="-6.068014808582146">
    <ele>334.60388508745604</ele>
    <time>2024-09-07T15:51:21Z</time>
    <name>ANOM:DZ_HAMPEL</name>
    <desc>Tramo #29 (5241-5242), dur=2s
Causas: DZ_HAMPEL
vh_max=22.43 km/h | grade_ext=-17.3% | vz_ext=-64.9 m/min
max|dx|=6.23 m/s, max|dy|=1.27 m/s, max|dz|=1.08 m/s</desc>
  </wpt>
  <wpt lat="43.19403795804625" lon="-6.071219446624219">
    <ele>342.5457248546031</ele>
    <time>2024-09-07T15:54:51Z</time>
    <name>ANOM:DZ_HAMPEL</name>
    <desc>Tramo #30 (5451-5452), dur=2s
Causas: DZ_HAMPEL
vh_max=18.25 km/h | grade_ext=18.0% | vz_ext=54.9 m/min
max|dx|=4.94 m/s, max|dy|=1.13 m/s, max|dz|=0.91 m/s</desc>
  </wpt>
  <wpt lat="43.19352115427031" lon="-6.074086367322856">
    <ele>348.77564779491087</ele>
    <time>2024-09-07T15:56:03Z</time>
    <name>ANOM:DZ_HAMPEL</name>
    <desc>Tramo #31 (5523-5524), dur=2s
Causas: DZ_HAMPEL
vh_max=15.18 km/h | grade_ext=4.5% | vz_ext=11.5 m/min
max|dx|=2.81 m/s, max|dy|=3.24 m/s, max|dz|=0.19 m/s</desc>
  </wpt>
  <wpt lat="43.186272" lon="-6.079466">
    <ele>373.0</ele>
    <time>2024-09-07T16:01:55Z</time>
    <name>ANOM:DZ_HAMPEL</name>
    <desc>Tramo #32 (5875-5880), dur=6s
Causas: DZ_HAMPEL
vh_max=11.02 km/h | grade_ext=0.6% | vz_ext=1.1 m/min
max|dx|=1.40 m/s, max|dy|=2.72 m/s, max|dz|=0.02 m/s</desc>
  </wpt>
  <wpt lat="43.17551704504665" lon="-6.087813984905987">
    <ele>408.96517295824543</ele>
    <time>2024-09-07T16:12:55Z</time>
    <name>ANOM:DZ_HAMPEL</name>
    <desc>Tramo #33 (6535-6540), dur=6s
Causas: DZ_HAMPEL
vh_max=12.07 km/h | grade_ext=2.2% | vz_ext=4.2 m/min
max|dx|=2.51 m/s, max|dy|=2.44 m/s, max|dz|=0.07 m/s</desc>
  </wpt>
  <wpt lat="43.17437145730238" lon="-6.094216170790487">
    <ele>423.95559092087524</ele>
    <time>2024-09-07T16:17:39Z</time>
    <name>ANOM:DZ_HAMPEL</name>
    <desc>Tramo #34 (6819-6821), dur=3s
Causas: DZ_HAMPEL
vh_max=13.70 km/h | grade_ext=-16.9% | vz_ext=-32.8 m/min
max|dx|=2.51 m/s, max|dy|=2.86 m/s, max|dz|=0.55 m/s</desc>
  </wpt>
  <trk>
    <name>12_pattern_aligned_resampled_anomalies</name>
    <trkseg>
      <trkpt lat="43.291441" lon="-5.982916">
        <ele>146.0</ele>
        <time>2024-09-07T14:24:00Z</time>
      </trkpt>
      <trkpt lat="43.29145047260479" lon="-5.9829050700714035">
        <ele>146.0</ele>
        <time>2024-09-07T14:24:01Z</time>
      </trkpt>
    </trkseg>
    <trkseg>
      <trkpt lat="43.29160320856162" lon="-5.982646864127315">
        <ele>146.38505435255317</ele>
        <time>2024-09-07T14:24:12Z</time>
      </trkpt>
      <trkpt lat="43.29161666566488" lon="-5.982617541004532">
        <ele>146.16413338825902</ele>
        <time>2024-09-07T14:24:13Z</time>
      </trkpt>
    </trkseg>
    <trkseg>
      <trkpt lat="43.294138918822505" lon="-5.983217124029494">
        <ele>144.0</ele>
        <time>2024-09-07T14:25:56Z</time>
      </trkpt>
      <trkpt lat="43.29416311925265" lon="-5.9832420733801115">
        <ele>143.88073406685285</ele>
        <time>2024-09-07T14:25:57Z</time>
      </trkpt>
      <trkpt lat="43.29418493366436" lon="-5.983265474294493">
        <ele>143.68242123311714</ele>
        <time>2024-09-07T14:25:58Z</time>
      </trkpt>
      <trkpt lat="43.29420674807607" lon="-5.983288875208873">
        <ele>143.48410839938143</ele>
        <time>2024-09-07T14:25:59Z</time>
      </trkpt>
      <trkpt lat="43.29422856248778" lon="-5.983312276123254">
        <ele>143.2857955656457</ele>
        <time>2024-09-07T14:26:00Z</time>
      </trkpt>
      <trkpt lat="43.29425037689949" lon="-5.983335677037635">
        <ele>143.08748273191</ele>
        <time>2024-09-07T14:26:01Z</time>
      </trkpt>
    </trkseg>
    <trkseg>
      <trkpt lat="43.29026680078223" lon="-5.9850519217944615">
        <ele>151.2069355827433</ele>
        <time>2024-09-07T14:28:47Z</time>
      </trkpt>
      <trkpt lat="43.29023105037024" lon="-5.985084631189221">
        <ele>151.61806108183987</ele>
        <time>2024-09-07T14:28:48Z</time>
      </trkpt>
    </trkseg>
    <trkseg>
      <trkpt lat="43.289388832637144" lon="-5.985229087446001">
        <ele>150.86840614551505</ele>
        <time>2024-09-07T14:29:07Z</time>
      </trkpt>
      <trkpt lat="43.28934130283516" lon="-5.985234918239553">
        <ele>151.18644943014593</ele>
        <time>2024-09-07T14:29:08Z</time>
      </trkpt>
    </trkseg>
    <trkseg>
      <trkpt lat="43.2884708923969" lon="-5.985395554011655">
        <ele>153.65158981399512</ele>
        <time>2024-09-07T14:29:26Z</time>
      </trkpt>
      <trkpt lat="43.28841988502198" lon="-5.985397153000489">
        <ele>152.7683005374112</ele>
        <time>2024-09-07T14:29:27Z</time>
      </trkpt>
    </trkseg>
    <trkseg>
      <trkpt lat="43.287082241708674" lon="-5.984216456348076">
        <ele>152.37723981617313</ele>
        <time>2024-09-07T14:30:14Z</time>
      </trkpt>
      <trkpt lat="43.287043770632664" lon="-5.9841955985357815">
        <ele>151.58927801841511</ele>
        <time>2024-09-07T14:30:15Z</time>
      </trkpt>
    </trkseg>
    <trkseg>
      <trkpt lat="43.28670371473265" lon="-5.984197937304464">
        <ele>151.05425609300593</ele>
        <time>2024-09-07T14:30:23Z</time>
      </trkpt>
      <trkpt lat="43.28664708878948" lon="-5.984222711154603">
        <ele>151.32649620442837</ele>
        <time>2024-09-07T14:30:24Z</time>
      </trkpt>
      <trkpt lat="43.286590462846306" lon="-5.984247485004742">
        <ele>151.5987363158508</ele>
        <time>2024-09-07T14:30:25Z</time>
      </trkpt>
    </trkseg>
    <trkseg>
      <trkpt lat="43.280619" lon="-5.990891">
        <ele>160.0</ele>
        <time>2024-09-07T14:34:21Z</time>
      </trkpt>
      <trkpt lat="43.280592318396316" lon="-5.990914521940089">
        <ele>159.82446313365955</ele>
        <time>2024-09-07T14:34:22Z</time>
      </trkpt>
      <trkpt lat="43.28056563679264" lon="-5.990938043880179">
        <ele>159.64892626731913</ele>
        <time>2024-09-07T14:34:23Z</time>
      </trkpt>
      <trkpt lat="43.28053895518895" lon="-5.990961565820268">
        <ele>159.47338940097868</ele>
        <time>2024-09-07T14:34:24Z</time>
      </trkpt>
      <trkpt lat="43.280512273585266" lon="-5.990985087760358">
        <ele>159.29785253463825</ele>
        <time>2024-09-07T14:34:25Z</time>
      </trkpt>
      <trkpt lat="43.28048559198158" lon="-5.991008609700447">
        <ele>159.1223156682978</ele>
        <time>2024-09-07T14:34:26Z</time>
      </trkpt>
    </trkseg>
    <trkseg>
      <trkpt lat="43.27442632298853" lon="-5.997481996838887">
        <ele>167.67422413980256</ele>
        <time>2024-09-07T14:39:07Z</time>
      </trkpt>
      <trkpt lat="43.27442563075407" lon="-5.997509784524378">
        <ele>167.33692459370494</ele>
        <time>2024-09-07T14:39:08Z</time>
      </trkpt>
    </trkseg>
    <trkseg>
      <trkpt lat="43.274021998541016" lon="-6.0014132743329585">
        <ele>171.7055596082842</ele>
        <time>2024-09-07T14:40:54Z</time>
      </trkpt>
      <trkpt lat="43.27400297240204" lon="-6.001425228236799">
        <ele>171.2400212946491</ele>
        <time>2024-09-07T14:40:55Z</time>
      </trkpt>
      <trkpt lat="43.27398236512003" lon="-6.001440605650876">
        <ele>170.89051272759082</ele>
        <time>2024-09-07T14:40:56Z</time>
      </trkpt>
      <trkpt lat="43.27396518256001" lon="-6.0014613028254375">
        <ele>170.6952563637954</ele>
        <time>2024-09-07T14:40:57Z</time>
      </trkpt>
      <trkpt lat="43.273948" lon="-6.001482">
        <ele>170.5</ele>
        <time>2024-09-07T14:40:58Z</time>
      </trkpt>
    </trkseg>
    <trkseg>
      <trkpt lat="43.27357693936142" lon="-6.00203340919543">
        <ele>173.03787994922573</ele>
        <time>2024-09-07T14:41:19Z</time>
      </trkpt>
      <trkpt lat="43.27356795957428" lon="-6.0020622727969535">
        <ele>173.35858663281715</ele>
        <time>2024-09-07T14:41:20Z</time>
      </trkpt>
      <trkpt lat="43.27355897978714" lon="-6.002091136398477">
        <ele>173.67929331640858</ele>
        <time>2024-09-07T14:41:21Z</time>
      </trkpt>
    </trkseg>
    <trkseg>
      <trkpt lat="43.271529" lon="-6.003128">
        <ele>177.0</ele>
        <time>2024-09-07T14:42:40Z</time>
      </trkpt>
      <trkpt lat="43.271487" lon="-6.003121">
        <ele>177.0</ele>
        <time>2024-09-07T14:42:41Z</time>
      </trkpt>
    </trkseg>
    <trkseg>
      <trkpt lat="43.24958650143413" lon="-6.011610974580157">
        <ele>197.64850349204033</ele>
        <time>2024-09-07T14:56:56Z</time>
      </trkpt>
      <trkpt lat="43.249551119155655" lon="-6.011629551223879">
        <ele>197.25567931775186</ele>
        <time>2024-09-07T14:56:57Z</time>
      </trkpt>
      <trkpt lat="43.24951592753956" lon="-6.011648500555622">
        <ele>196.71426983938636</ele>
        <time>2024-09-07T14:56:58Z</time>
      </trkpt>
    </trkseg>
    <trkseg>
      <trkpt lat="43.247762874009915" lon="-6.023742836755648">
        <ele>202.30233206216252</ele>
        <time>2024-09-07T15:02:55Z</time>
      </trkpt>
      <trkpt lat="43.247732557228254" lon="-6.0237515746357815">
        <ele>202.39839745979066</ele>
        <time>2024-09-07T15:02:56Z</time>
      </trkpt>
      <trkpt lat="43.24770230390599" lon="-6.023761770506821">
        <ele>202.51539925860976</ele>
        <time>2024-09-07T15:02:57Z</time>
      </trkpt>
      <trkpt lat="43.24767205058372" lon="-6.023771966377861">
        <ele>202.63240105742884</ele>
        <time>2024-09-07T15:02:58Z</time>
      </trkpt>
      <trkpt lat="43.24764179726145" lon="-6.023782162248901">
        <ele>202.7494028562479</ele>
        <time>2024-09-07T15:02:59Z</time>
      </trkpt>
      <trkpt lat="43.247611543939186" lon="-6.023792358119942">
        <ele>202.866404655067</ele>
        <time>2024-09-07T15:03:00Z</time>
      </trkpt>
    </trkseg>
    <trkseg>
      <trkpt lat="43.24632025610568" lon="-6.024355752529265">
        <ele>204.07981742024796</ele>
        <time>2024-09-07T15:03:44Z</time>
      </trkpt>
      <trkpt lat="43.24628961174971" lon="-6.024369519795641">
        <ele>204.05942954456694</ele>
        <time>2024-09-07T15:03:45Z</time>
      </trkpt>
      <trkpt lat="43.24625774410527" lon="-6.024383225589473">
        <ele>204.0</ele>
        <time>2024-09-07T15:03:46Z</time>
      </trkpt>
      <trkpt lat="43.24622510518986" lon="-6.024393418805733">
        <ele>204.0</ele>
        <time>2024-09-07T15:03:47Z</time>
      </trkpt>
      <trkpt lat="43.2461913691044" lon="-6.024406543631866">
        <ele>204.31067752237192</ele>
        <time>2024-09-07T15:03:48Z</time>
      </trkpt>
      <trkpt lat="43.24615459029067" lon="-6.02440624283975">
        <ele>204.58381068333034</ele>
        <time>2024-09-07T15:03:49Z</time>
      </trkpt>
    </trkseg>
    <trkseg>
      <trkpt lat="43.23865016177879" lon="-6.030297614472144">
        <ele>219.2936433916063</ele>
        <time>2024-09-07T15:09:11Z</time>
      </trkpt>
      <trkpt lat="43.238624678356295" lon="-6.030284106991466">
        <ele>219.7750055775646</ele>
        <time>2024-09-07T15:09:12Z</time>
      </trkpt>
    </trkseg>
    <trkseg>
      <trkpt lat="43.22993574391595" lon="-6.035947820105052">
        <ele>239.98388511398952</ele>
        <time>2024-09-07T15:15:24Z</time>
      </trkpt>
      <trkpt lat="43.22992186783628" lon="-6.03596516520464">
        <ele>239.88477025920022</ele>
        <time>2024-09-07T15:15:25Z</time>
      </trkpt>
    </trkseg>
    <trkseg>
      <trkpt lat="43.225125483728725" lon="-6.038533845265599">
        <ele>243.43289943275175</ele>
        <time>2024-09-07T15:20:41Z</time>
      </trkpt>
      <trkpt lat="43.22512065306911" lon="-6.038537387749319">
        <ele>243.3040818429675</ele>
        <time>2024-09-07T15:20:42Z</time>
      </trkpt>
    </trkseg>
    <trkseg>
      <trkpt lat="43.225096792248465" lon="-6.038556103875769">
        <ele>243.1314922355708</ele>
        <time>2024-09-07T15:20:47Z</time>
      </trkpt>
      <trkpt lat="43.22508209372414" lon="-6.03856539065517">
        <ele>243.62109482748772</ele>
        <time>2024-09-07T15:20:48Z</time>
      </trkpt>
    </trkseg>
    <trkseg>
      <trkpt lat="43.22498923973439" lon="-6.038632309933597">
        <ele>243.59225166006863</ele>
        <time>2024-09-07T15:21:17Z</time>
      </trkpt>
      <trkpt lat="43.22498159585204" lon="-6.038633970507065">
        <ele>243.40294929356185</ele>
        <time>2024-09-07T15:21:18Z</time>
      </trkpt>
      <trkpt lat="43.22495475374107" lon="-6.038643592347097">
        <ele>242.77820293904583</ele>
        <time>2024-09-07T15:21:19Z</time>
      </trkpt>
    </trkseg>
    <trkseg>
      <trkpt lat="43.21480367369632" lon="-6.043611410509466">
        <ele>262.20842057872414</ele>
        <time>2024-09-07T15:32:11Z</time>
      </trkpt>
      <trkpt lat="43.214784764941506" lon="-6.043636317586469">
        <ele>262.8682413530858</ele>
        <time>2024-09-07T15:32:12Z</time>
      </trkpt>
    </trkseg>
    <trkseg>
      <trkpt lat="43.21244094245766" lon="-6.053160440172109">
        <ele>273.90484001107563</ele>
        <time>2024-09-07T15:36:51Z</time>
      </trkpt>
      <trkpt lat="43.212450294971774" lon="-6.053172626781406">
        <ele>274.10322667405046</ele>
        <time>2024-09-07T15:36:52Z</time>
      </trkpt>
      <trkpt lat="43.212459647485886" lon="-6.053184813390703">
        <ele>274.30161333702523</ele>
        <time>2024-09-07T15:36:53Z</time>
      </trkpt>
    </trkseg>
    <trkseg>
      <trkpt lat="43.21298147842851" lon="-6.054962132843998">
        <ele>274.0</ele>
        <time>2024-09-07T15:37:43Z</time>
      </trkpt>
      <trkpt lat="43.212980824284095" lon="-6.05500583774115">
        <ele>274.08058207066216</ele>
        <time>2024-09-07T15:37:44Z</time>
      </trkpt>
      <trkpt lat="43.212976399561164" lon="-6.05505024884904">
        <ele>274.2444606975625</ele>
        <time>2024-09-07T15:37:45Z</time>
      </trkpt>
    </trkseg>
    <trkseg>
      <trkpt lat="43.21295870066946" lon="-6.055227893280599">
        <ele>274.89997520516374</ele>
        <time>2024-09-07T15:37:49Z</time>
      </trkpt>
      <trkpt lat="43.21294955900429" lon="-6.055270755666432">
        <ele>275.0</ele>
        <time>2024-09-07T15:37:50Z</time>
      </trkpt>
      <trkpt lat="43.21293302841405" lon="-6.055311192033323">
        <ele>275.0</ele>
        <time>2024-09-07T15:37:51Z</time>
      </trkpt>
      <trkpt lat="43.21291649782381" lon="-6.055351628400215">
        <ele>275.0</ele>
        <time>2024-09-07T15:37:52Z</time>
      </trkpt>
      <trkpt lat="43.21289996723357" lon="-6.055392064767107">
        <ele>275.0</ele>
        <time>2024-09-07T15:37:53Z</time>
      </trkpt>
    </trkseg>
    <trkseg>
      <trkpt lat="43.210118129603714" lon="-6.057297930321054">
        <ele>284.702707549623</ele>
        <time>2024-09-07T15:39:40Z</time>
      </trkpt>
      <trkpt lat="43.21011085692571" lon="-6.057357819956031">
        <ele>285.604152981794</ele>
        <time>2024-09-07T15:39:41Z</time>
      </trkpt>
      <trkpt lat="43.21010739553065" lon="-6.057415674702048">
        <ele>286.74146850179943</ele>
        <time>2024-09-07T15:39:42Z</time>
      </trkpt>
    </trkseg>
    <trkseg>
      <trkpt lat="43.20009791601302" lon="-6.067583114357942">
        <ele>319.99517570323087</ele>
        <time>2024-09-07T15:49:09Z</time>
      </trkpt>
      <trkpt lat="43.200065104143775" lon="-6.067592541670546">
        <ele>320.354167054592</ele>
        <time>2024-09-07T15:49:10Z</time>
      </trkpt>
      <trkpt lat="43.200028886412596" lon="-6.06759868026905">
        <ele>320.96802690506803</ele>
        <time>2024-09-07T15:49:11Z</time>
      </trkpt>
      <trkpt lat="43.199992668681425" lon="-6.067604818867555">
        <ele>321.581886755544</ele>
        <time>2024-09-07T15:49:12Z</time>
      </trkpt>
      <trkpt lat="43.199956450950246" lon="-6.0676109574660595">
        <ele>322.19574660602007</ele>
        <time>2024-09-07T15:49:13Z</time>
      </trkpt>
      <trkpt lat="43.19992023321907" lon="-6.067617096064565">
        <ele>322.80960645649606</ele>
        <time>2024-09-07T15:49:14Z</time>
      </trkpt>
    </trkseg>
    <trkseg>
      <trkpt lat="43.19753603551223" lon="-6.067559547973426">
        <ele>328.756230597286</ele>
        <time>2024-09-07T15:50:26Z</time>
      </trkpt>
      <trkpt lat="43.19750661804494" lon="-6.067532359102143">
        <ele>329.87052860068684</ele>
        <time>2024-09-07T15:50:27Z</time>
      </trkpt>
    </trkseg>
    <trkseg>
      <trkpt lat="43.19613555577811" lon="-6.068014808582146">
        <ele>334.60388508745604</ele>
        <time>2024-09-07T15:51:21Z</time>
      </trkpt>
      <trkpt lat="43.196124120934705" lon="-6.0680624556336005">
        <ele>334.20186299899603</ele>
        <time>2024-09-07T15:51:22Z</time>
      </trkpt>
    </trkseg>
    <trkseg>
      <trkpt lat="43.19403795804625" lon="-6.071219446624219">
        <ele>342.5457248546031</ele>
        <time>2024-09-07T15:54:51Z</time>
      </trkpt>
      <trkpt lat="43.19402783154998" lon="-6.0712805322630174">
        <ele>343.46037613073764</ele>
        <time>2024-09-07T15:54:52Z</time>
      </trkpt>
    </trkseg>
    <trkseg>
      <trkpt lat="43.19352115427031" lon="-6.074086367322856">
        <ele>348.77564779491087</ele>
        <time>2024-09-07T15:56:03Z</time>
      </trkpt>
      <trkpt lat="43.193492865354116" lon="-6.074121037197585">
        <ele>348.9670765510834</ele>
        <time>2024-09-07T15:56:04Z</time>
      </trkpt>
    </trkseg>
    <trkseg>
      <trkpt lat="43.186272" lon="-6.079466">
        <ele>373.0</ele>
        <time>2024-09-07T16:01:55Z</time>
      </trkpt>
      <trkpt lat="43.186247544280846" lon="-6.079482930882494">
        <ele>373.0</ele>
        <time>2024-09-07T16:01:56Z</time>
      </trkpt>
      <trkpt lat="43.18622308856168" lon="-6.079499861764988">
        <ele>373.0</ele>
        <time>2024-09-07T16:01:57Z</time>
      </trkpt>
      <trkpt lat="43.186198632842526" lon="-6.079516792647482">
        <ele>373.0</ele>
        <time>2024-09-07T16:01:58Z</time>
      </trkpt>
      <trkpt lat="43.18617417712337" lon="-6.079533723529976">
        <ele>373.0</ele>
        <time>2024-09-07T16:01:59Z</time>
      </trkpt>
      <trkpt lat="43.18614972140421" lon="-6.07955065441247">
        <ele>373.0</ele>
        <time>2024-09-07T16:02:00Z</time>
      </trkpt>
    </trkseg>
    <trkseg>
      <trkpt lat="43.17551704504665" lon="-6.087813984905987">
        <ele>408.96517295824543</ele>
        <time>2024-09-07T16:12:55Z</time>
      </trkpt>
      <trkpt lat="43.17549510884107" lon="-6.087840543068504">
        <ele>409.03531650574513</ele>
        <time>2024-09-07T16:12:56Z</time>
      </trkpt>
      <trkpt lat="43.17547511928985" lon="-6.0878715438132">
        <ele>409.08613739868855</ele>
        <time>2024-09-07T16:12:57Z</time>
      </trkpt>
      <trkpt lat="43.17545512973862" lon="-6.087902544557895">
        <ele>409.13695829163197</ele>
        <time>2024-09-07T16:12:58Z</time>
      </trkpt>
      <trkpt lat="43.175435140187396" lon="-6.087933545302591">
        <ele>409.1877791845754</ele>
        <time>2024-09-07T16:12:59Z</time>
      </trkpt>
      <trkpt lat="43.17541515063618" lon="-6.087964546047287">
        <ele>409.2386000775188</ele>
        <time>2024-09-07T16:13:00Z</time>
      </trkpt>
    </trkseg>
    <trkseg>
      <trkpt lat="43.17437145730238" lon="-6.094216170790487">
        <ele>423.95559092087524</ele>
        <time>2024-09-07T16:17:39Z</time>
      </trkpt>
      <trkpt lat="43.17434571699821" lon="-6.09424713452314">
        <ele>423.4081217079814</ele>
        <time>2024-09-07T16:17:40Z</time>
      </trkpt>
      <trkpt lat="43.17432152337033" lon="-6.094266397191392">
        <ele>422.8841123443435</ele>
        <time>2024-09-07T16:17:41Z</time>
      </trkpt>
    </trkseg>
  </trk>
</gpx>