<?xml version="1.0" encoding="UTF-8"?>
<gpx xmlns="http://www.topografix.com/GPX/1/1" xmlns:xsi="http://www.w3.org/2001/XMLSchema-instance" xsi:schemaLocation="http://www.topografix.com/GPX/1/1 http://www.topografix.com/GPX/1/1/gpx.xsd" version="1.1" creator="gpx.py -- https://github.com/tkrajina/gpxpy">
  <wpt lat="43.173385" lon="-6.095131">
    <ele>425.1</ele>
    <time>2024-09-07T16:52:26Z</time>
    <name>ANOM:DZ_HAMPEL</name>
    <desc>Tramo #1 (113-118), dur=6s
Causas: DZ_HAMPEL
vh_max=18.45 km/h | grade_ext=-3.6% | vz_ext=-11.0 m/min
max|dx|=3.60 m/s, max|dy|=3.65 m/s, max|dz|=0.18 m/s</desc>
  </wpt>
  <wpt lat="43.174711" lon="-6.089685">
    <ele>413.0</ele>
    <time>2024-09-07T16:55:42Z</time>
    <name>ANOM:DZ_HAMPEL</name>
    <desc>Tramo #2 (309-313), dur=5s
Causas: DZ_HAMPEL
vh_max=25.17 km/h | grade_ext=-15.0% | vz_ext=-63.0 m/min
max|dx|=6.93 m/s, max|dy|=0.89 m/s, max|dz|=1.05 m/s</desc>
  </wpt>
  <wpt lat="43.175166" lon="-6.088396">
    <ele>410.0</ele>
    <time>2024-09-07T16:56:02Z</time>
    <name>ANOM:DZ_HAMPEL</name>
    <desc>Tramo #3 (329-330), dur=2s
Causas: DZ_HAMPEL
vh_max=21.70 km/h | grade_ext=0.0% | vz_ext=0.0 m/min
max|dx|=4.87 m/s, max|dy|=3.56 m/s, max|dz|=0.00 m/s</desc>
  </wpt>
  <wpt lat="43.175509" lon="-6.087819">
    <ele>409.0</ele>
    <time>2024-09-07T16:56:13Z</time>
    <name>ANOM:DZ_HAMPEL</name>
    <desc>Tramo #4 (340-343), dur=4s
Causas: DZ_HAMPEL
vh_max=25.39 km/h | grade_ext=-3.5% | vz_ext=-15.0 m/min
max|dx|=2.92 m/s, max|dy|=6.42 m/s, max|dz|=0.25 m/s</desc>
  </wpt>
  <wpt lat="43.177954" lon="-6.083403">
    <ele>397.06666666666666</ele>
    <time>2024-09-07T16:57:43Z</time>
    <name>ANOM:DZ_HAMPEL</name>
    <desc>Tramo #5 (430-433), dur=4s
Causas: DZ_HAMPEL
vh_max=20.66 km/h | grade_ext=-9.0% | vz_ext=-31.0 m/min
max|dx|=0.36 m/s, max|dy|=5.73 m/s, max|dz|=0.52 m/s</desc>
  </wpt>
  <wpt lat="43.178998" lon="-6.082567">
    <ele>393.0</ele>
    <time>2024-09-07T16:58:10Z</time>
    <name>ANOM:DZ_HAMPEL</name>
    <desc>Tramo #6 (457-460), dur=4s
Causas: DZ_HAMPEL
vh_max=18.26 km/h | grade_ext=0.5% | vz_ext=1.5 m/min
max|dx|=2.68 m/s, max|dy|=4.31 m/s, max|dz|=0.03 m/s</desc>
  </wpt>
  <wpt lat="43.17938" lon="-6.082406">
    <ele>391.9</ele>
    <time>2024-09-07T16:58:20Z</time>
    <name>ANOM:DZ_HAMPEL</name>
    <desc>Tramo #7 (467-470), dur=4s
Causas: DZ_HAMPEL
vh_max=19.51 km/h | grade_ext=3.2% | vz_ext=10.5 m/min
max|dx|=0.77 m/s, max|dy|=5.37 m/s, max|dz|=0.18 m/s</desc>
  </wpt>
  <wpt lat="43.18609771716916" lon="-6.079589733469701">
    <ele>373.1541026149655</ele>
    <time>2024-09-07T17:00:48Z</time>
    <name>ANOM:DZ_HAMPEL</name>
    <desc>Tramo #8 (615-618), dur=4s
Causas: DZ_HAMPEL
vh_max=20.08 km/h | grade_ext=-2.8% | vz_ext=-9.2 m/min
max|dx|=2.71 m/s, max|dy|=4.98 m/s, max|dz|=0.15 m/s</desc>
  </wpt>
  <wpt lat="43.186797658903735" lon="-6.078926593761077">
    <ele>371.09264376533565</ele>
    <time>2024-09-07T17:01:05Z</time>
    <name>ANOM:DZ_HAMPEL</name>
    <desc>Tramo #9 (632-637), dur=6s
Causas: DZ_HAMPEL
vh_max=20.08 km/h | grade_ext=-4.4% | vz_ext=-14.7 m/min
max|dx|=2.80 m/s, max|dy|=5.53 m/s, max|dz|=0.24 m/s</desc>
  </wpt>
  <wpt lat="43.187388" lon="-6.078805">
    <ele>369.0</ele>
    <time>2024-09-07T17:01:17Z</time>
    <name>ANOM:DZ_HAMPEL</name>
    <desc>Tramo #10 (644-648), dur=5s
Causas: DZ_HAMPEL
vh_max=16.33 km/h | grade_ext=0.0% | vz_ext=0.0 m/min
max|dx|=0.08 m/s, max|dy|=4.54 m/s, max|dz|=0.00 m/s</desc>
  </wpt>
  <wpt lat="43.187667714285716" lon="-6.078812571428571">
    <ele>368.7142857142857</ele>
    <time>2024-09-07T17:01:24Z</time>
    <name>ANOM:DZ_HAMPEL</name>
    <desc>Tramo #11 (651-654), dur=4s
Causas: DZ_HAMPEL
vh_max=15.16 km/h | grade_ext=-3.4% | vz_ext=-8.6 m/min
max|dx|=0.10 m/s, max|dy|=4.21 m/s, max|dz|=0.14 m/s</desc>
  </wpt>
  <wpt lat="43.188515" lon="-6.078469">
    <ele>367.0</ele>
    <time>2024-09-07T17:01:44Z</time>
    <name>ANOM:DZ_HAMPEL</name>
    <desc>Tramo #12 (671-672), dur=2s
Causas: DZ_HAMPEL
vh_max=18.52 km/h | grade_ext=-4.9% | vz_ext=-15.0 m/min
max|dx|=4.70 m/s, max|dy|=2.08 m/s, max|dz|=0.25 m/s</desc>
  </wpt>
  <wpt lat="43.189103" lon="-6.07718">
    <ele>363.0</ele>
    <time>2024-09-07T17:02:04Z</time>
    <name>ANOM:DZ_HAMPEL</name>
    <desc>Tramo #13 (691-693), dur=3s
Causas: DZ_HAMPEL
vh_max=22.33 km/h | grade_ext=0.0% | vz_ext=0.0 m/min
max|dx|=0.38 m/s, max|dy|=6.19 m/s, max|dz|=0.00 m/s</desc>
  </wpt>
  <wpt lat="43.189909" lon="-6.077335">
    <ele>359.4</ele>
    <time>2024-09-07T17:02:17Z</time>
    <name>ANOM:DZ_HAMPEL</name>
    <desc>Tramo #14 (704-706), dur=3s
Causas: DZ_HAMPEL
vh_max=27.20 km/h | grade_ext=7.5% | vz_ext=34.0 m/min
max|dx|=1.46 m/s, max|dy|=7.41 m/s, max|dz|=0.57 m/s</desc>
  </wpt>
  <wpt lat="43.191144" lon="-6.075947">
    <ele>356.9</ele>
    <time>2024-09-07T17:02:49Z</time>
    <name>ANOM:DZ_HAMPEL</name>
    <desc>Tramo #15 (736-742), dur=7s
Causas: DZ_HAMPEL
vh_max=17.76 km/h | grade_ext=5.5% | vz_ext=16.3 m/min
max|dx|=4.88 m/s, max|dy|=0.75 m/s, max|dz|=0.27 m/s</desc>
  </wpt>
  <wpt lat="43.192397" lon="-6.074602">
    <ele>352.0</ele>
    <time>2024-09-07T17:03:29Z</time>
    <name>ANOM:DZ_HAMPEL</name>
    <desc>Tramo #16 (776-779), dur=4s
Causas: DZ_HAMPEL
vh_max=25.97 km/h | grade_ext=-3.5% | vz_ext=-15.0 m/min
max|dx|=0.45 m/s, max|dy|=7.20 m/s, max|dz|=0.25 m/s</desc>
  </wpt>
  <wpt lat="43.195625" lon="-6.069373">
    <ele>339.0</ele>
    <time>2024-09-07T17:05:22Z</time>
    <name>ANOM:DZ_HAMPEL</name>
    <desc>Tramo #17 (889-891), dur=3s
Causas: DZ_HAMPEL
vh_max=8.05 km/h | grade_ext=-14.9% | vz_ext=-20.0 m/min
max|dx|=2.14 m/s, max|dy|=0.67 m/s, max|dz|=0.33 m/s</desc>
  </wpt>
  <wpt lat="43.19633961872327" lon="-6.067609318029464">
    <ele>330.99725011880787</ele>
    <time>2024-09-07T17:06:14Z</time>
    <name>ANOM:DZ_HAMPEL</name>
    <desc>Tramo #18 (941-943), dur=3s
Causas: DZ_HAMPEL
vh_max=19.65 km/h | grade_ext=-3.1% | vz_ext=-10.2 m/min
max|dx|=3.42 m/s, max|dy|=4.25 m/s, max|dz|=0.17 m/s</desc>
  </wpt>
  <wpt lat="43.19987840840319" lon="-6.067624743032114">
    <ele>323.0</ele>
    <time>2024-09-07T17:07:33Z</time>
    <name>ANOM:DZ_HAMPEL</name>
    <desc>Tramo #19 (1020-1024), dur=5s
Causas: DZ_HAMPEL
vh_max=19.54 km/h | grade_ext=-15.1% | vz_ext=-49.3 m/min
max|dx|=1.50 m/s, max|dy|=5.39 m/s, max|dz|=0.82 m/s</desc>
  </wpt>
  <wpt lat="43.202006136573914" lon="-6.060702398558738">
    <ele>305.07358074003935</ele>
    <time>2024-09-07T17:09:30Z</time>
    <name>ANOM:DZ_HAMPEL</name>
    <desc>Tramo #20 (1137-1141), dur=5s
Causas: DZ_HAMPEL
vh_max=23.38 km/h | grade_ext=-7.1% | vz_ext=-27.8 m/min
max|dx|=3.70 m/s, max|dy|=5.84 m/s, max|dz|=0.46 m/s</desc>
  </wpt>
  <wpt lat="43.204984" lon="-6.056284333333333">
    <ele>296.03333333333336</ele>
    <time>2024-09-07T17:11:26Z</time>
    <name>ANOM:DZ_HAMPEL</name>
    <desc>Tramo #21 (1253-1256), dur=4s
Causas: DZ_HAMPEL
vh_max=30.67 km/h | grade_ext=1.9% | vz_ext=6.0 m/min
max|dx|=4.33 m/s, max|dy|=7.34 m/s, max|dz|=0.10 m/s</desc>
  </wpt>
  <wpt lat="43.21000166666666" lon="-6.058196333333333">
    <ele>283.1333333333333</ele>
    <time>2024-09-07T17:13:09Z</time>
    <name>ANOM:DZ_HAMPEL</name>
    <desc>Tramo #22 (1356-1357), dur=2s
Causas: DZ_HAMPEL
vh_max=29.41 km/h | grade_ext=9.0% | vz_ext=44.0 m/min
max|dx|=7.84 m/s, max|dy|=2.30 m/s, max|dz|=0.73 m/s</desc>
  </wpt>
  <wpt lat="43.211257800000006" lon="-6.0556846">
    <ele>277.68</ele>
    <time>2024-09-07T17:13:55Z</time>
    <name>ANOM:DZ_HAMPEL</name>
    <desc>Tramo #23 (1402-1404), dur=3s
Causas: DZ_HAMPEL
vh_max=14.58 km/h | grade_ext=10.9% | vz_ext=26.4 m/min
max|dx|=0.96 m/s, max|dy|=3.94 m/s, max|dz|=0.44 m/s</desc>
  </wpt>
  <wpt lat="43.21296275" lon="-6.0551872499999995">
    <ele>274.75</ele>
    <time>2024-09-07T17:14:39Z</time>
    <name>ANOM:DZ_HAMPEL</name>
    <desc>Tramo #24 (1446-1448), dur=3s
Causas: DZ_HAMPEL
vh_max=19.96 km/h | grade_ext=-4.5% | vz_ext=-15.0 m/min
max|dx|=5.49 m/s, max|dy|=0.75 m/s, max|dz|=0.25 m/s</desc>
  </wpt>
  <wpt lat="43.212574" lon="-6.05343">
    <ele>274.2</ele>
    <time>2024-09-07T17:15:05Z</time>
    <name>ANOM:DZ_HAMPEL</name>
    <desc>Tramo #25 (1472-1476), dur=5s
Causas: DZ_HAMPEL
vh_max=28.65 km/h | grade_ext=-13.8% | vz_ext=-42.0 m/min
max|dx|=6.81 m/s, max|dy|=4.11 m/s, max|dz|=0.70 m/s</desc>
  </wpt>
  <wpt lat="43.212237099396596" lon="-6.0525189745345775">
    <ele>274.68472717915915</ele>
    <time>2024-09-07T17:15:19Z</time>
    <name>ANOM:DZ_HAMPEL</name>
    <desc>Tramo #26 (1486-1488), dur=3s
Causas: DZ_HAMPEL
vh_max=26.06 km/h | grade_ext=-10.1% | vz_ext=-43.7 m/min
max|dx|=6.87 m/s, max|dy|=2.29 m/s, max|dz|=0.73 m/s</desc>
  </wpt>
  <wpt lat="43.21355659905127" lon="-6.051283083609202">
    <ele>271.0</ele>
    <time>2024-09-07T17:15:45Z</time>
    <name>ANOM:DZ_HAMPEL</name>
    <desc>Tramo #27 (1512-1513), dur=2s
Causas: DZ_HAMPEL
vh_max=24.20 km/h | grade_ext=-11.2% | vz_ext=-45.1 m/min
max|dx|=4.47 m/s, max|dy|=5.84 m/s, max|dz|=0.75 m/s</desc>
  </wpt>
  <wpt lat="43.214197" lon="-6.049998">
    <ele>268.9</ele>
    <time>2024-09-07T17:16:04Z</time>
    <name>ANOM:DZ_HAMPEL</name>
    <desc>Tramo #28 (1531-1535), dur=5s
Causas: DZ_HAMPEL
vh_max=22.86 km/h | grade_ext=-3.8% | vz_ext=-14.4 m/min
max|dx|=5.71 m/s, max|dy|=2.78 m/s, max|dz|=0.24 m/s</desc>
  </wpt>
  <wpt lat="43.214417740174696" lon="-6.045869993975579">
    <ele>265.09903768407594</ele>
    <time>2024-09-07T17:17:03Z</time>
    <name>ANOM:DZ_HAMPEL</name>
    <desc>Tramo #29 (1590-1591), dur=2s
Causas: DZ_HAMPEL
vh_max=18.54 km/h | grade_ext=-0.8% | vz_ext=-2.4 m/min
max|dx|=5.01 m/s, max|dy|=1.19 m/s, max|dz|=0.04 m/s</desc>
  </wpt>
  <wpt lat="43.217319" lon="-6.040888833333334">
    <ele>253.16666666666666</ele>
    <time>2024-09-07T17:19:01Z</time>
    <name>ANOM:DZ_HAMPEL</name>
    <desc>Tramo #30 (1708-1712), dur=5s
Causas: DZ_HAMPEL
vh_max=19.81 km/h | grade_ext=1.2% | vz_ext=4.0 m/min
max|dx|=5.45 m/s, max|dy|=0.78 m/s, max|dz|=0.07 m/s</desc>
  </wpt>
  <wpt lat="43.217565" lon="-6.039528">
    <ele>251.4</ele>
    <time>2024-09-07T17:19:24Z</time>
    <name>ANOM:DZ_HAMPEL</name>
    <desc>Tramo #31 (1731-1735), dur=5s
Causas: DZ_HAMPEL
vh_max=20.65 km/h | grade_ext=4.2% | vz_ext=14.4 m/min
max|dx|=3.65 m/s, max|dy|=4.43 m/s, max|dz|=0.24 m/s</desc>
  </wpt>
  <wpt lat="43.22367233333333" lon="-6.0392383333333335">
    <ele>244.66666666666666</ele>
    <time>2024-09-07T17:21:54Z</time>
    <name>ANOM:DZ_HAMPEL</name>
    <desc>Tramo #32 (1881-1882), dur=2s
Causas: DZ_HAMPEL
vh_max=21.24 km/h | grade_ext=-5.7% | vz_ext=-20.0 m/min
max|dx|=4.68 m/s, max|dy|=3.60 m/s, max|dz|=0.33 m/s</desc>
  </wpt>
  <wpt lat="43.224926" lon="-6.038653">
    <ele>243.0</ele>
    <time>2024-09-07T17:22:27Z</time>
    <name>ANOM:DZ_HAMPEL</name>
    <desc>Tramo #33 (1914-1916), dur=3s
Causas: DZ_HAMPEL
vh_max=20.23 km/h | grade_ext=16.0% | vz_ext=30.0 m/min
max|dx|=1.95 m/s, max|dy|=5.45 m/s, max|dz|=0.50 m/s</desc>
  </wpt>
  <wpt lat="43.225073" lon="-6.038576">
    <ele>244.0</ele>
    <time>2024-09-07T17:22:34Z</time>
    <name>ANOM:DZ_HAMPEL</name>
    <desc>Tramo #34 (1921-1922), dur=2s
Causas: DZ_HAMPEL
vh_max=6.82 km/h | grade_ext=-28.5% | vz_ext=-30.0 m/min
max|dx|=1.14 m/s, max|dy|=1.78 m/s, max|dz|=0.50 m/s</desc>
  </wpt>
  <wpt lat="43.225113" lon="-6.038543">
    <ele>243.1</ele>
    <time>2024-09-07T17:22:37Z</time>
    <name>ANOM:DZ_HAMPEL</name>
    <desc>Tramo #35 (1924-1925), dur=2s
Causas: DZ_HAMPEL
vh_max=3.40 km/h | grade_ext=21.1% | vz_ext=12.0 m/min
max|dx|=0.45 m/s, max|dy|=0.83 m/s, max|dz|=0.20 m/s</desc>
  </wpt>
  <wpt lat="43.228633" lon="-6.037094">
    <ele>240.7</ele>
    <time>2024-09-07T17:25:35Z</time>
    <name>ANOM:DZ_HAMPEL</name>
    <desc>Tramo #36 (2102-2107), dur=6s
Causas: DZ_HAMPEL
vh_max=11.04 km/h | grade_ext=15.4% | vz_ext=28.3 m/min
max|dx|=2.06 m/s, max|dy|=2.27 m/s, max|dz|=0.47 m/s</desc>
  </wpt>
  <wpt lat="43.235551696347" lon="-6.0308157352520775">
    <ele>226.00834255806205</ele>
    <time>2024-09-07T17:28:27Z</time>
    <name>ANOM:DZ_HAMPEL</name>
    <desc>Tramo #37 (2274-2279), dur=6s
Causas: DZ_HAMPEL
vh_max=20.73 km/h | grade_ext=-3.0% | vz_ext=-10.4 m/min
max|dx|=1.42 m/s, max|dy|=5.62 m/s, max|dz|=0.17 m/s</desc>
  </wpt>
  <wpt lat="43.23668087953629" lon="-6.030663113030176">
    <ele>223.01027547061264</ele>
    <time>2024-09-07T17:28:49Z</time>
    <name>ANOM:DZ_HAMPEL</name>
    <desc>Tramo #38 (2296-2301), dur=6s
Causas: DZ_HAMPEL
vh_max=20.73 km/h | grade_ext=-2.6% | vz_ext=-8.9 m/min
max|dx|=0.44 m/s, max|dy|=5.74 m/s, max|dz|=0.15 m/s</desc>
  </wpt>
  <wpt lat="43.24121" lon="-6.027472">
    <ele>214.0</ele>
    <time>2024-09-07T17:30:42Z</time>
    <name>ANOM:DZ_HAMPEL</name>
    <desc>Tramo #39 (2409-2413), dur=5s
Causas: DZ_HAMPEL
vh_max=20.51 km/h | grade_ext=-4.0% | vz_ext=-13.6 m/min
max|dx|=2.77 m/s, max|dy|=4.98 m/s, max|dz|=0.23 m/s</desc>
  </wpt>
  <wpt lat="43.24515870459542" lon="-6.024257442326997">
    <ele>205.72713696663172</ele>
    <time>2024-09-07T17:32:14Z</time>
    <name>ANOM:DZ_HAMPEL</name>
    <desc>Tramo #40 (2501-2504), dur=4s
Causas: DZ_HAMPEL
vh_max=20.50 km/h | grade_ext=1.1% | vz_ext=3.7 m/min
max|dx|=0.45 m/s, max|dy|=5.68 m/s, max|dz|=0.06 m/s</desc>
  </wpt>
  <wpt lat="43.246122130586244" lon="-6.024405213962796">
    <ele>204.63144148816548</ele>
    <time>2024-09-07T17:32:33Z</time>
    <name>ANOM:DZ_HAMPEL</name>
    <desc>Tramo #41 (2520-2523), dur=4s
Causas: DZ_HAMPEL
vh_max=20.49 km/h | grade_ext=-8.3% | vz_ext=-28.0 m/min
max|dx|=2.00 m/s, max|dy|=5.69 m/s, max|dz|=0.47 m/s</desc>
  </wpt>
  <wpt lat="43.24758703372139" lon="-6.023800618469589">
    <ele>202.96119555265383</ele>
    <time>2024-09-07T17:33:03Z</time>
    <name>ANOM:DZ_HAMPEL</name>
    <desc>Tramo #42 (2550-2551), dur=2s
Causas: DZ_HAMPEL
vh_max=20.50 km/h | grade_ext=-3.4% | vz_ext=-11.5 m/min
max|dx|=1.36 m/s, max|dy|=5.53 m/s, max|dz|=0.19 m/s</desc>
  </wpt>
  <wpt lat="43.249483999086564" lon="-6.021921352306599">
    <ele>196.73614409631705</ele>
    <time>2024-09-07T17:34:03Z</time>
    <name>ANOM:DZ_HAMPEL</name>
    <desc>Tramo #43 (2610-2614), dur=5s
Causas: DZ_HAMPEL
vh_max=23.38 km/h | grade_ext=4.6% | vz_ext=17.8 m/min
max|dx|=6.46 m/s, max|dy|=0.91 m/s, max|dz|=0.30 m/s</desc>
  </wpt>
  <wpt lat="43.249502" lon="-6.011656">
    <ele>196.5</ele>
    <time>2024-09-07T17:36:51Z</time>
    <name>ANOM:DZ_HAMPEL</name>
    <desc>Tramo #44 (2778-2779), dur=2s
Causas: DZ_HAMPEL
vh_max=16.77 km/h | grade_ext=12.9% | vz_ext=36.0 m/min
max|dx|=1.70 m/s, max|dy|=4.34 m/s, max|dz|=0.60 m/s</desc>
  </wpt>
  <wpt lat="43.252978" lon="-6.008117">
    <ele>198.0</ele>
    <time>2024-09-07T17:38:42Z</time>
    <name>ANOM:DZ_HAMPEL</name>
    <desc>Tramo #45 (2889-2893), dur=5s
Causas: DZ_HAMPEL
vh_max=17.80 km/h | grade_ext=-8.5% | vz_ext=-25.2 m/min
max|dx|=1.69 m/s, max|dy|=4.65 m/s, max|dz|=0.42 m/s</desc>
  </wpt>
  <wpt lat="43.255881" lon="-6.005857">
    <ele>197.0</ele>
    <time>2024-09-07T17:39:50Z</time>
    <name>ANOM:DZ_HAMPEL</name>
    <desc>Tramo #46 (2957-2961), dur=5s
Causas: DZ_HAMPEL
vh_max=19.87 km/h | grade_ext=3.6% | vz_ext=12.0 m/min
max|dx|=4.56 m/s, max|dy|=3.11 m/s, max|dz|=0.20 m/s</desc>
  </wpt>
  <wpt lat="43.25633040752536" lon="-6.005604763903574">
    <ele>197.97048794678233</ele>
    <time>2024-09-07T17:40:01Z</time>
    <name>ANOM:DZ_HAMPEL</name>
    <desc>Tramo #47 (2968-2971), dur=4s
Causas: DZ_HAMPEL
vh_max=24.38 km/h | grade_ext=-3.6% | vz_ext=-14.6 m/min
max|dx|=0.16 m/s, max|dy|=6.77 m/s, max|dz|=0.24 m/s</desc>
  </wpt>
  <wpt lat="43.25813" lon="-6.005053">
    <ele>194.6</ele>
    <time>2024-09-07T17:40:37Z</time>
    <name>ANOM:DZ_HAMPEL</name>
    <desc>Tramo #48 (3004-3005), dur=2s
Causas: DZ_HAMPEL
vh_max=26.14 km/h | grade_ext=4.1% | vz_ext=18.0 m/min
max|dx|=2.60 m/s, max|dy|=6.78 m/s, max|dz|=0.30 m/s</desc>
  </wpt>
  <wpt lat="43.26723470020091" lon="-6.002248385796894">
    <ele>180.8167212312878</ele>
    <time>2024-09-07T17:43:34Z</time>
    <name>ANOM:DZ_HAMPEL</name>
    <desc>Tramo #49 (3181-3186), dur=6s
Causas: DZ_HAMPEL
vh_max=23.02 km/h | grade_ext=-1.6% | vz_ext=-6.0 m/min
max|dx|=0.72 m/s, max|dy|=6.38 m/s, max|dz|=0.10 m/s</desc>
  </wpt>
  <wpt lat="43.27388944260447" lon="-6.001504945718232">
    <ele>171.0</ele>
    <time>2024-09-07T17:46:07Z</time>
    <name>ANOM:DZ_HAMPEL</name>
    <desc>Tramo #50 (3334-3336), dur=3s
Causas: DZ_HAMPEL
vh_max=24.38 km/h | grade_ext=19.1% | vz_ext=42.0 m/min
max|dx|=4.30 m/s, max|dy|=6.51 m/s, max|dz|=0.70 m/s</desc>
  </wpt>
  <wpt lat="43.273916" lon="-6.001163">
    <ele>172.0</ele>
    <time>2024-09-07T17:46:25Z</time>
    <name>ANOM:DZ_HAMPEL</name>
    <desc>Tramo #51 (3352-3356), dur=5s
Causas: DZ_HAMPEL
vh_max=31.70 km/h | grade_ext=-28.1% | vz_ext=-60.0 m/min
max|dx|=7.79 m/s, max|dy|=4.11 m/s, max|dz|=1.00 m/s</desc>
  </wpt>
  <wpt lat="43.278445" lon="-5.990522">
    <ele>163.5</ele>
    <time>2024-09-07T17:52:14Z</time>
    <name>ANOM:DZ_HAMPEL</name>
    <desc>Tramo #52 (3701-3704), dur=4s
Causas: DZ_HAMPEL
vh_max=25.33 km/h | grade_ext=-11.0% | vz_ext=-46.5 m/min
max|dx|=0.24 m/s, max|dy|=7.03 m/s, max|dz|=0.78 m/s</desc>
  </wpt>
  <wpt lat="43.28045761466278" lon="-5.99102655701447">
    <ele>159.0</ele>
    <time>2024-09-07T17:52:53Z</time>
    <name>ANOM:DZ_HAMPEL</name>
    <desc>Tramo #53 (3740-3743), dur=4s
Causas: DZ_HAMPEL
vh_max=21.30 km/h | grade_ext=5.0% | vz_ext=17.7 m/min
max|dx|=3.61 m/s, max|dy|=5.14 m/s, max|dz|=0.29 m/s</desc>
  </wpt>
  <wpt lat="43.28120136247768" lon="-5.990097265670662">
    <ele>159.0</ele>
    <time>2024-09-07T17:53:12Z</time>
    <name>ANOM:DZ_HAMPEL</name>
    <desc>Tramo #54 (3759-3764), dur=6s
Causas: DZ_HAMPEL
vh_max=21.31 km/h | grade_ext=0.0% | vz_ext=0.0 m/min
max|dx|=4.32 m/s, max|dy|=4.05 m/s, max|dz|=0.00 m/s</desc>
  </wpt>
  <wpt lat="43.28702538518876" lon="-5.9841856305240295">
    <ele>151.21270868556255</ele>
    <time>2024-09-07T17:55:45Z</time>
    <name>ANOM:DZ_HAMPEL</name>
    <desc>Tramo #55 (3912-3913), dur=2s
Causas: DZ_HAMPEL
vh_max=15.63 km/h | grade_ext=17.1% | vz_ext=44.6 m/min
max|dx|=1.60 m/s, max|dy|=4.04 m/s, max|dz|=0.74 m/s</desc>
  </wpt>
  <wpt lat="43.287465" lon="-5.984472">
    <ele>153.0</ele>
    <time>2024-09-07T17:56:18Z</time>
    <name>ANOM:DZ_HAMPEL</name>
    <desc>Tramo #56 (3945-3951), dur=7s
Causas: DZ_HAMPEL
vh_max=22.04 km/h | grade_ext=-1.6% | vz_ext=-6.0 m/min
max|dx|=3.66 m/s, max|dy|=4.91 m/s, max|dz|=0.10 m/s</desc>
  </wpt>
  <wpt lat="43.288366" lon="-5.985392">
    <ele>151.6</ele>
    <time>2024-09-07T17:56:38Z</time>
    <name>ANOM:DZ_HAMPEL</name>
    <desc>Tramo #57 (3965-3966), dur=2s
Causas: DZ_HAMPEL
vh_max=18.87 km/h | grade_ext=22.0% | vz_ext=66.0 m/min
max|dx|=0.41 m/s, max|dy|=5.23 m/s, max|dz|=1.10 m/s</desc>
  </wpt>
  <wpt lat="43.29018569435212" lon="-5.985132013002668">
    <ele>152.7</ele>
    <time>2024-09-07T17:57:08Z</time>
    <name>ANOM:DZ_HAMPEL</name>
    <desc>Tramo #58 (3995-3996), dur=2s
Causas: DZ_HAMPEL
vh_max=25.11 km/h | grade_ext=-17.1% | vz_ext=-71.6 m/min
max|dx|=4.23 m/s, max|dy|=5.88 m/s, max|dz|=1.19 m/s</desc>
  </wpt>
  <wpt lat="43.291706" lon="-5.984091">
    <ele>151.0</ele>
    <time>2024-09-07T17:57:34Z</time>
    <name>ANOM:DZ_HAMPEL</name>
    <desc>Tramo #59 (4021-4026), dur=6s
Causas: DZ_HAMPEL
vh_max=30.03 km/h | grade_ext=-3.2% | vz_ext=-16.0 m/min
max|dx|=5.06 m/s, max|dy|=6.63 m/s, max|dz|=0.27 m/s</desc>
  </wpt>
  <wpt lat="43.292446" lon="-5.983365">
    <ele>150.2</ele>
    <time>2024-09-07T17:57:47Z</time>
    <name>ANOM:DZ_HAMPEL</name>
    <desc>Tramo #60 (4034-4036), dur=3s
Causas: DZ_HAMPEL
vh_max=32.89 km/h | grade_ext=-7.3% | vz_ext=-40.0 m/min
max|dx|=3.73 m/s, max|dy|=8.34 m/s, max|dz|=0.67 m/s</desc>
  </wpt>
  <wpt lat="43.29423010635756" lon="-5.98331393227447">
    <ele>143.2717603858505</ele>
    <time>2024-09-07T17:58:44Z</time>
    <name>ANOM:DZ_HAMPEL</name>
    <desc>Tramo #61 (4091-4094), dur=4s
Causas: DZ_HAMPEL
vh_max=12.05 km/h | grade_ext=6.4% | vz_ext=12.9 m/min
max|dx|=2.06 m/s, max|dy|=2.69 m/s, max|dz|=0.22 m/s</desc>
  </wpt>
  <trk>
    <name>13_aligned_pattern_resampled_anomalies</name>
    <trkseg>
      <trkpt lat="43.173385" lon="-6.095131">
        <ele>425.1</ele>
        <time>2024-09-07T16:52:26Z</time>
      </trkpt>
      <trkpt lat="43.17341783333334" lon="-6.095086666666667">
        <ele>424.9166666666667</ele>
        <time>2024-09-07T16:52:27Z</time>
      </trkpt>
      <trkpt lat="43.17345066666667" lon="-6.095042333333334">
        <ele>424.73333333333335</ele>
        <time>2024-09-07T16:52:28Z</time>
      </trkpt>
      <trkpt lat="43.1734835" lon="-6.094998">
        <ele>424.55</ele>
        <time>2024-09-07T16:52:29Z</time>
      </trkpt>
      <trkpt lat="43.17351633333334" lon="-6.094953666666667">
        <ele>424.3666666666667</ele>
        <time>2024-09-07T16:52:30Z</time>
      </trkpt>
      <trkpt lat="43.17354916666667" lon="-6.094909333333334">
        <ele>424.18333333333334</ele>
        <time>2024-09-07T16:52:31Z</time>
      </trkpt>
    </trkseg>
    <trkseg>
      <trkpt lat="43.174711" lon="-6.089685">
        <ele>413.0</ele>
        <time>2024-09-07T16:55:42Z</time>
      </trkpt>
      <trkpt lat="43.174717666666666" lon="-6.089612666666667">
        <ele>413.53333333333336</ele>
        <time>2024-09-07T16:55:43Z</time>
      </trkpt>
      <trkpt lat="43.17472433333334" lon="-6.089540333333334">
        <ele>414.06666666666666</ele>
        <time>2024-09-07T16:55:44Z</time>
      </trkpt>
      <trkpt lat="43.174731" lon="-6.089468">
        <ele>414.6</ele>
        <time>2024-09-07T16:55:45Z</time>
      </trkpt>
      <trkpt lat="43.174739" lon="-6.0893825">
        <ele>413.55</ele>
        <time>2024-09-07T16:55:46Z</time>
      </trkpt>
    </trkseg>
    <trkseg>
      <trkpt lat="43.175166" lon="-6.088396">
        <ele>410.0</ele>
        <time>2024-09-07T16:56:02Z</time>
      </trkpt>
      <trkpt lat="43.175197999999995" lon="-6.088336">
        <ele>410.0</ele>
        <time>2024-09-07T16:56:03Z</time>
      </trkpt>
    </trkseg>
    <trkseg>
      <trkpt lat="43.175509" lon="-6.087819">
        <ele>409.0</ele>
        <time>2024-09-07T16:56:13Z</time>
      </trkpt>
      <trkpt lat="43.17556675" lon="-6.087783">
        <ele>408.75</ele>
        <time>2024-09-07T16:56:14Z</time>
      </trkpt>
      <trkpt lat="43.1756245" lon="-6.087747">
        <ele>408.5</ele>
        <time>2024-09-07T16:56:15Z</time>
      </trkpt>
      <trkpt lat="43.175682249999994" lon="-6.087711">
        <ele>408.25</ele>
        <time>2024-09-07T16:56:16Z</time>
      </trkpt>
    </trkseg>
    <trkseg>
      <trkpt lat="43.177954" lon="-6.083403">
        <ele>397.06666666666666</ele>
        <time>2024-09-07T16:57:43Z</time>
      </trkpt>
      <trkpt lat="43.1780055" lon="-6.0833984999999995">
        <ele>396.55</ele>
        <time>2024-09-07T16:57:44Z</time>
      </trkpt>
      <trkpt lat="43.178056999999995" lon="-6.083394">
        <ele>396.03333333333336</ele>
        <time>2024-09-07T16:57:45Z</time>
      </trkpt>
      <trkpt lat="43.1781085" lon="-6.0833895">
        <ele>395.51666666666665</ele>
        <time>2024-09-07T16:57:46Z</time>
      </trkpt>
    </trkseg>
    <trkseg>
      <trkpt lat="43.178998" lon="-6.082567">
        <ele>393.0</ele>
        <time>2024-09-07T16:58:10Z</time>
      </trkpt>
      <trkpt lat="43.17903675" lon="-6.082534">
        <ele>393.025</ele>
        <time>2024-09-07T16:58:11Z</time>
      </trkpt>
      <trkpt lat="43.179075499999996" lon="-6.082501000000001">
        <ele>393.05</ele>
        <time>2024-09-07T16:58:12Z</time>
      </trkpt>
      <trkpt lat="43.17911425" lon="-6.082468">
        <ele>393.07500000000005</ele>
        <time>2024-09-07T16:58:13Z</time>
      </trkpt>
    </trkseg>
    <trkseg>
      <trkpt lat="43.17938" lon="-6.082406">
        <ele>391.9</ele>
        <time>2024-09-07T16:58:20Z</time>
      </trkpt>
      <trkpt lat="43.17942825" lon="-6.0824155">
        <ele>392.075</ele>
        <time>2024-09-07T16:58:21Z</time>
      </trkpt>
      <trkpt lat="43.1794765" lon="-6.082425">
        <ele>392.25</ele>
        <time>2024-09-07T16:58:22Z</time>
      </trkpt>
      <trkpt lat="43.17952475" lon="-6.0824345">
        <ele>392.425</ele>
        <time>2024-09-07T16:58:23Z</time>
      </trkpt>
    </trkseg>
    <trkseg>
      <trkpt lat="43.18609771716916" lon="-6.079589733469701">
        <ele>373.1541026149655</ele>
        <time>2024-09-07T17:00:48Z</time>
      </trkpt>
      <trkpt lat="43.1861415504745" lon="-6.079556311209958">
        <ele>373.0</ele>
        <time>2024-09-07T17:00:49Z</time>
      </trkpt>
      <trkpt lat="43.18618633569025" lon="-6.0795253060605985">
        <ele>373.0</ele>
        <time>2024-09-07T17:00:50Z</time>
      </trkpt>
      <trkpt lat="43.186231120905994" lon="-6.0794943009112385">
        <ele>373.0</ele>
        <time>2024-09-07T17:00:51Z</time>
      </trkpt>
    </trkseg>
    <trkseg>
      <trkpt lat="43.186797658903735" lon="-6.078926593761077">
        <ele>371.09264376533565</ele>
        <time>2024-09-07T17:01:05Z</time>
      </trkpt>
      <trkpt lat="43.186839939446195" lon="-6.07889211752913">
        <ele>370.9510557573932</ele>
        <time>2024-09-07T17:01:06Z</time>
      </trkpt>
      <trkpt lat="43.186889635434746" lon="-6.078882705410086">
        <ele>370.7063406622367</ele>
        <time>2024-09-07T17:01:07Z</time>
      </trkpt>
      <trkpt lat="43.186939331423304" lon="-6.078873293291042">
        <ele>370.46162556708015</ele>
        <time>2024-09-07T17:01:08Z</time>
      </trkpt>
      <trkpt lat="43.186989027411855" lon="-6.078863881171997">
        <ele>370.21691047192365</ele>
        <time>2024-09-07T17:01:09Z</time>
      </trkpt>
      <trkpt lat="43.18703872340041" lon="-6.078854469052953">
        <ele>369.9721953767671</ele>
        <time>2024-09-07T17:01:10Z</time>
      </trkpt>
    </trkseg>
    <trkseg>
      <trkpt lat="43.187388" lon="-6.078805">
        <ele>369.0</ele>
        <time>2024-09-07T17:01:17Z</time>
      </trkpt>
      <trkpt lat="43.1874288" lon="-6.078806">
        <ele>369.0</ele>
        <time>2024-09-07T17:01:18Z</time>
      </trkpt>
      <trkpt lat="43.1874696" lon="-6.078807">
        <ele>369.0</ele>
        <time>2024-09-07T17:01:19Z</time>
      </trkpt>
      <trkpt lat="43.1875104" lon="-6.0788079999999995">
        <ele>369.0</ele>
        <time>2024-09-07T17:01:20Z</time>
      </trkpt>
      <trkpt lat="43.1875512" lon="-6.078809">
        <ele>369.0</ele>
        <time>2024-09-07T17:01:21Z</time>
      </trkpt>
    </trkseg>
    <trkseg>
      <trkpt lat="43.187667714285716" lon="-6.078812571428571">
        <ele>368.7142857142857</ele>
        <time>2024-09-07T17:01:24Z</time>
      </trkpt>
      <trkpt lat="43.18770557142857" lon="-6.078813857142857">
        <ele>368.57142857142856</ele>
        <time>2024-09-07T17:01:25Z</time>
      </trkpt>
      <trkpt lat="43.18774342857143" lon="-6.078815142857143">
        <ele>368.42857142857144</ele>
        <time>2024-09-07T17:01:26Z</time>
      </trkpt>
      <trkpt lat="43.18778128571429" lon="-6.078816428571429">
        <ele>368.2857142857143</ele>
        <time>2024-09-07T17:01:27Z</time>
      </trkpt>
    </trkseg>
    <trkseg>
      <trkpt lat="43.188515" lon="-6.078469">
        <ele>367.0</ele>
        <time>2024-09-07T17:01:44Z</time>
      </trkpt>
      <trkpt lat="43.188533750000005" lon="-6.078411">
        <ele>366.75</ele>
        <time>2024-09-07T17:01:45Z</time>
      </trkpt>
    </trkseg>
    <trkseg>
      <trkpt lat="43.189103" lon="-6.07718">
        <ele>363.0</ele>
        <time>2024-09-07T17:02:04Z</time>
      </trkpt>
      <trkpt lat="43.18915866666667" lon="-6.077184666666667">
        <ele>363.0</ele>
        <time>2024-09-07T17:02:05Z</time>
      </trkpt>
      <trkpt lat="43.18921433333333" lon="-6.077189333333334">
        <ele>363.0</ele>
        <time>2024-09-07T17:02:06Z</time>
      </trkpt>
    </trkseg>
    <trkseg>
      <trkpt lat="43.189909" lon="-6.077335">
        <ele>359.4</ele>
        <time>2024-09-07T17:02:17Z</time>
      </trkpt>
      <trkpt lat="43.18997566666667" lon="-6.077317">
        <ele>359.96666666666664</ele>
        <time>2024-09-07T17:02:18Z</time>
      </trkpt>
      <trkpt lat="43.19004233333333" lon="-6.077299">
        <ele>360.53333333333336</ele>
        <time>2024-09-07T17:02:19Z</time>
      </trkpt>
    </trkseg>
    <trkseg>
      <trkpt lat="43.191144" lon="-6.075947">
        <ele>356.9</ele>
        <time>2024-09-07T17:02:49Z</time>
      </trkpt>
      <trkpt lat="43.19115071428572" lon="-6.075886857142858">
        <ele>357.1714285714286</ele>
        <time>2024-09-07T17:02:50Z</time>
      </trkpt>
      <trkpt lat="43.19115742857143" lon="-6.075826714285714">
        <ele>357.4428571428571</ele>
        <time>2024-09-07T17:02:51Z</time>
      </trkpt>
      <trkpt lat="43.19116414285715" lon="-6.075766571428572">
        <ele>357.7142857142857</ele>
        <time>2024-09-07T17:02:52Z</time>
      </trkpt>
      <trkpt lat="43.19117085714286" lon="-6.075706428571428">
        <ele>357.98571428571427</ele>
        <time>2024-09-07T17:02:53Z</time>
      </trkpt>
      <trkpt lat="43.191177571428575" lon="-6.075646285714286">
        <ele>358.25714285714287</ele>
        <time>2024-09-07T17:02:54Z</time>
      </trkpt>
      <trkpt lat="43.191184285714286" lon="-6.0755861428571425">
        <ele>358.5285714285714</ele>
        <time>2024-09-07T17:02:55Z</time>
      </trkpt>
    </trkseg>
    <trkseg>
      <trkpt lat="43.192397" lon="-6.074602">
        <ele>352.0</ele>
        <time>2024-09-07T17:03:29Z</time>
      </trkpt>
      <trkpt lat="43.19246175" lon="-6.0746075">
        <ele>351.75</ele>
        <time>2024-09-07T17:03:30Z</time>
      </trkpt>
      <trkpt lat="43.1925265" lon="-6.074612999999999">
        <ele>351.5</ele>
        <time>2024-09-07T17:03:31Z</time>
      </trkpt>
      <trkpt lat="43.19259125" lon="-6.0746185">
        <ele>351.25</ele>
        <time>2024-09-07T17:03:32Z</time>
      </trkpt>
    </trkseg>
    <trkseg>
      <trkpt lat="43.195625" lon="-6.069373">
        <ele>339.0</ele>
        <time>2024-09-07T17:05:22Z</time>
      </trkpt>
      <trkpt lat="43.195631" lon="-6.069346666666666">
        <ele>338.6666666666667</ele>
        <time>2024-09-07T17:05:23Z</time>
      </trkpt>
      <trkpt lat="43.195637" lon="-6.069320333333334">
        <ele>338.3333333333333</ele>
        <time>2024-09-07T17:05:24Z</time>
      </trkpt>
    </trkseg>
    <trkseg>
      <trkpt lat="43.19633961872327" lon="-6.067609318029464">
        <ele>330.99725011880787</ele>
        <time>2024-09-07T17:06:14Z</time>
      </trkpt>
      <trkpt lat="43.19637787527853" lon="-6.06756715080411">
        <ele>330.82722098431566</ele>
        <time>2024-09-07T17:06:15Z</time>
      </trkpt>
      <trkpt lat="43.19641613183379" lon="-6.067524983578757">
        <ele>330.65719184982345</ele>
        <time>2024-09-07T17:06:16Z</time>
      </trkpt>
    </trkseg>
    <trkseg>
      <trkpt lat="43.19987840840319" lon="-6.067624743032114">
        <ele>323.0</ele>
        <time>2024-09-07T17:07:33Z</time>
      </trkpt>
      <trkpt lat="43.19992680086647" lon="-6.0676159829039875">
        <ele>322.6982903987482</ele>
        <time>2024-09-07T17:07:34Z</time>
      </trkpt>
      <trkpt lat="43.19997524545312" lon="-6.067607771957098">
        <ele>321.877195709835</ele>
        <time>2024-09-07T17:07:35Z</time>
      </trkpt>
      <trkpt lat="43.200023690039764" lon="-6.067599561010209">
        <ele>321.05610102092174</ele>
        <time>2024-09-07T17:07:36Z</time>
      </trkpt>
      <trkpt lat="43.20007213462641" lon="-6.06759135006332">
        <ele>320.23500633200854</ele>
        <time>2024-09-07T17:07:37Z</time>
      </trkpt>
    </trkseg>
    <trkseg>
      <trkpt lat="43.202006136573914" lon="-6.060702398558738">
        <ele>305.07358074003935</ele>
        <time>2024-09-07T17:09:30Z</time>
      </trkpt>
      <trkpt lat="43.20205413695942" lon="-6.060656826121198">
        <ele>305.0</ele>
        <time>2024-09-07T17:09:31Z</time>
      </trkpt>
      <trkpt lat="43.20210299676614" lon="-6.06061293510838">
        <ele>305.0</ele>
        <time>2024-09-07T17:09:32Z</time>
      </trkpt>
      <trkpt lat="43.202152505504095" lon="-6.060570606917602">
        <ele>304.9158804947535</ele>
        <time>2024-09-07T17:09:33Z</time>
      </trkpt>
      <trkpt lat="43.20220494532476" lon="-6.060535337657686">
        <ele>304.45181128532784</ele>
        <time>2024-09-07T17:09:34Z</time>
      </trkpt>
    </trkseg>
    <trkseg>
      <trkpt lat="43.204984" lon="-6.056284333333333">
        <ele>296.03333333333336</ele>
        <time>2024-09-07T17:11:26Z</time>
      </trkpt>
      <trkpt lat="43.20505" lon="-6.056231">
        <ele>296.0</ele>
        <time>2024-09-07T17:11:27Z</time>
      </trkpt>
      <trkpt lat="43.20509666666667" lon="-6.056223666666667">
        <ele>296.1</ele>
        <time>2024-09-07T17:11:28Z</time>
      </trkpt>
      <trkpt lat="43.20514333333333" lon="-6.056216333333333">
        <ele>296.2</ele>
        <time>2024-09-07T17:11:29Z</time>
      </trkpt>
    </trkseg>
    <trkseg>
      <trkpt lat="43.21000166666666" lon="-6.058196333333333">
        <ele>283.1333333333333</ele>
        <time>2024-09-07T17:13:09Z</time>
      </trkpt>
      <trkpt lat="43.210022333333335" lon="-6.058099666666667">
        <ele>283.8666666666667</ele>
        <time>2024-09-07T17:13:10Z</time>
      </trkpt>
    </trkseg>
    <trkseg>
      <trkpt lat="43.211257800000006" lon="-6.0556846">
        <ele>277.68</ele>
        <time>2024-09-07T17:13:55Z</time>
      </trkpt>
      <trkpt lat="43.2112932" lon="-6.0556963999999995">
        <ele>278.12</ele>
        <time>2024-09-07T17:13:56Z</time>
      </trkpt>
      <trkpt lat="43.2113286" lon="-6.0557082">
        <ele>278.56</ele>
        <time>2024-09-07T17:13:57Z</time>
      </trkpt>
    </trkseg>
    <trkseg>
      <trkpt lat="43.21296275" lon="-6.0551872499999995">
        <ele>274.75</ele>
        <time>2024-09-07T17:14:39Z</time>
      </trkpt>
      <trkpt lat="43.2129695" lon="-6.0551195">
        <ele>274.5</ele>
        <time>2024-09-07T17:14:40Z</time>
      </trkpt>
      <trkpt lat="43.21297625" lon="-6.0550517500000005">
        <ele>274.25</ele>
        <time>2024-09-07T17:14:41Z</time>
      </trkpt>
    </trkseg>
    <trkseg>
      <trkpt lat="43.212574" lon="-6.05343">
        <ele>274.2</ele>
        <time>2024-09-07T17:15:05Z</time>
      </trkpt>
      <trkpt lat="43.212559" lon="-6.05339">
        <ele>274.3</ele>
        <time>2024-09-07T17:15:06Z</time>
      </trkpt>
      <trkpt lat="43.212522" lon="-6.053306">
        <ele>274.2</ele>
        <time>2024-09-07T17:15:07Z</time>
      </trkpt>
      <trkpt lat="43.212497" lon="-6.053264">
        <ele>274.1</ele>
        <time>2024-09-07T17:15:08Z</time>
      </trkpt>
      <trkpt lat="43.212469" lon="-6.053197">
        <ele>274.5</ele>
        <time>2024-09-07T17:15:09Z</time>
      </trkpt>
    </trkseg>
    <trkseg>
      <trkpt lat="43.212237099396596" lon="-6.0525189745345775">
        <ele>274.68472717915915</ele>
        <time>2024-09-07T17:15:19Z</time>
      </trkpt>
      <trkpt lat="43.212257732931064" lon="-6.052434316356385">
        <ele>273.9564847861061</ele>
        <time>2024-09-07T17:15:20Z</time>
      </trkpt>
      <trkpt lat="43.21227836646553" lon="-6.052349658178192">
        <ele>273.22824239305305</ele>
        <time>2024-09-07T17:15:21Z</time>
      </trkpt>
    </trkseg>
    <trkseg>
      <trkpt lat="43.21355659905127" lon="-6.051283083609202">
        <ele>271.0</ele>
        <time>2024-09-07T17:15:45Z</time>
      </trkpt>
      <trkpt lat="43.21360907894542" lon="-6.051241944738208">
        <ele>270.2480263645615</ele>
        <time>2024-09-07T17:15:46Z</time>
      </trkpt>
    </trkseg>
    <trkseg>
      <trkpt lat="43.214197" lon="-6.049998">
        <ele>268.9</ele>
        <time>2024-09-07T17:16:04Z</time>
      </trkpt>
      <trkpt lat="43.214222" lon="-6.0499276">
        <ele>268.65999999999997</ele>
        <time>2024-09-07T17:16:05Z</time>
      </trkpt>
      <trkpt lat="43.214247" lon="-6.0498572">
        <ele>268.41999999999996</ele>
        <time>2024-09-07T17:16:06Z</time>
      </trkpt>
      <trkpt lat="43.214272" lon="-6.049786800000001">
        <ele>268.18</ele>
        <time>2024-09-07T17:16:07Z</time>
      </trkpt>
      <trkpt lat="43.214297" lon="-6.0497164">
        <ele>267.94</ele>
        <time>2024-09-07T17:16:08Z</time>
      </trkpt>
    </trkseg>
    <trkseg>
      <trkpt lat="43.214417740174696" lon="-6.045869993975579">
        <ele>265.09903768407594</ele>
        <time>2024-09-07T17:17:03Z</time>
      </trkpt>
      <trkpt lat="43.21440707783194" lon="-6.045808191877743">
        <ele>265.0595475257145</ele>
        <time>2024-09-07T17:17:04Z</time>
      </trkpt>
    </trkseg>
    <trkseg>
      <trkpt lat="43.217319" lon="-6.040888833333334">
        <ele>253.16666666666666</ele>
        <time>2024-09-07T17:19:01Z</time>
      </trkpt>
      <trkpt lat="43.217326" lon="-6.040821666666667">
        <ele>253.23333333333332</ele>
        <time>2024-09-07T17:19:02Z</time>
      </trkpt>
      <trkpt lat="43.217332999999996" lon="-6.0407545">
        <ele>253.3</ele>
        <time>2024-09-07T17:19:03Z</time>
      </trkpt>
      <trkpt lat="43.21734" lon="-6.0406873333333335">
        <ele>253.36666666666667</ele>
        <time>2024-09-07T17:19:04Z</time>
      </trkpt>
      <trkpt lat="43.217347000000004" lon="-6.040620166666667">
        <ele>253.43333333333334</ele>
        <time>2024-09-07T17:19:05Z</time>
      </trkpt>
    </trkseg>
    <trkseg>
      <trkpt lat="43.217565" lon="-6.039528">
        <ele>251.4</ele>
        <time>2024-09-07T17:19:24Z</time>
      </trkpt>
      <trkpt lat="43.217604800000004" lon="-6.039483">
        <ele>251.64000000000001</ele>
        <time>2024-09-07T17:19:25Z</time>
      </trkpt>
      <trkpt lat="43.2176446" lon="-6.039438">
        <ele>251.88</ele>
        <time>2024-09-07T17:19:26Z</time>
      </trkpt>
      <trkpt lat="43.2176844" lon="-6.0393930000000005">
        <ele>252.12</ele>
        <time>2024-09-07T17:19:27Z</time>
      </trkpt>
      <trkpt lat="43.2177242" lon="-6.039348">
        <ele>252.35999999999999</ele>
        <time>2024-09-07T17:19:28Z</time>
      </trkpt>
    </trkseg>
    <trkseg>
      <trkpt lat="43.22367233333333" lon="-6.0392383333333335">
        <ele>244.66666666666666</ele>
        <time>2024-09-07T17:21:54Z</time>
      </trkpt>
      <trkpt lat="43.22370466666667" lon="-6.039180666666667">
        <ele>244.33333333333334</ele>
        <time>2024-09-07T17:21:55Z</time>
      </trkpt>
    </trkseg>
    <trkseg>
      <trkpt lat="43.224926" lon="-6.038653">
        <ele>243.0</ele>
        <time>2024-09-07T17:22:27Z</time>
      </trkpt>
      <trkpt lat="43.224975" lon="-6.038636">
        <ele>243.2</ele>
        <time>2024-09-07T17:22:28Z</time>
      </trkpt>
      <trkpt lat="43.225004" lon="-6.038636">
        <ele>243.5</ele>
        <time>2024-09-07T17:22:29Z</time>
      </trkpt>
    </trkseg>
    <trkseg>
      <trkpt lat="43.225073" lon="-6.038576">
        <ele>244.0</ele>
        <time>2024-09-07T17:22:34Z</time>
      </trkpt>
      <trkpt lat="43.225085" lon="-6.038562">
        <ele>243.5</ele>
        <time>2024-09-07T17:22:35Z</time>
      </trkpt>
    </trkseg>
    <trkseg>
      <trkpt lat="43.225113" lon="-6.038543">
        <ele>243.1</ele>
        <time>2024-09-07T17:22:37Z</time>
      </trkpt>
      <trkpt lat="43.2251205" lon="-6.0385375">
        <ele>243.3</ele>
        <time>2024-09-07T17:22:38Z</time>
      </trkpt>
    </trkseg>
    <trkseg>
      <trkpt lat="43.228633" lon="-6.037094">
        <ele>240.7</ele>
        <time>2024-09-07T17:25:35Z</time>
      </trkpt>
      <trkpt lat="43.228653428571434" lon="-6.037068571428571">
        <ele>241.17142857142855</ele>
        <time>2024-09-07T17:25:36Z</time>
      </trkpt>
      <trkpt lat="43.22867385714286" lon="-6.037043142857143">
        <ele>241.64285714285714</ele>
        <time>2024-09-07T17:25:37Z</time>
      </trkpt>
      <trkpt lat="43.22869428571429" lon="-6.037017714285714">
        <ele>242.1142857142857</ele>
        <time>2024-09-07T17:25:38Z</time>
      </trkpt>
      <trkpt lat="43.228714714285715" lon="-6.036992285714286">
        <ele>242.5857142857143</ele>
        <time>2024-09-07T17:25:39Z</time>
      </trkpt>
      <trkpt lat="43.22873514285715" lon="-6.036966857142857">
        <ele>243.05714285714285</ele>
        <time>2024-09-07T17:25:40Z</time>
      </trkpt>
    </trkseg>
    <trkseg>
      <trkpt lat="43.235551696347" lon="-6.0308157352520775">
        <ele>226.00834255806205</ele>
        <time>2024-09-07T17:28:27Z</time>
      </trkpt>
      <trkpt lat="43.23560184660676" lon="-6.030798169077714">
        <ele>225.83845997667294</ele>
        <time>2024-09-07T17:28:28Z</time>
      </trkpt>
      <trkpt lat="43.23565212793077" lon="-6.030781177457877">
        <ele>225.6650761007839</ele>
        <time>2024-09-07T17:28:29Z</time>
      </trkpt>
      <trkpt lat="43.23570240925478" lon="-6.03076418583804">
        <ele>225.49169222489485</ele>
        <time>2024-09-07T17:28:30Z</time>
      </trkpt>
      <trkpt lat="43.235752690578785" lon="-6.030747194218202">
        <ele>225.3183083490058</ele>
        <time>2024-09-07T17:28:31Z</time>
      </trkpt>
      <trkpt lat="43.23580297190279" lon="-6.030730202598366">
        <ele>225.14492447311673</ele>
        <time>2024-09-07T17:28:32Z</time>
      </trkpt>
    </trkseg>
    <trkseg>
      <trkpt lat="43.23668087953629" lon="-6.030663113030176">
        <ele>223.01027547061264</ele>
        <time>2024-09-07T17:28:49Z</time>
      </trkpt>
      <trkpt lat="43.23673252059835" lon="-6.0306579737828665">
        <ele>222.86292135091765</ele>
        <time>2024-09-07T17:28:50Z</time>
      </trkpt>
      <trkpt lat="43.23678415030152" lon="-6.030652512948878">
        <ele>222.7139895148678</ele>
        <time>2024-09-07T17:28:51Z</time>
      </trkpt>
      <trkpt lat="43.236835780004675" lon="-6.03064705211489">
        <ele>222.5650576788179</ele>
        <time>2024-09-07T17:28:52Z</time>
      </trkpt>
      <trkpt lat="43.23688740970784" lon="-6.030641591280902">
        <ele>222.41612584276803</ele>
        <time>2024-09-07T17:28:53Z</time>
      </trkpt>
      <trkpt lat="43.236939039411006" lon="-6.030636130446913">
        <ele>222.26719400671814</ele>
        <time>2024-09-07T17:28:54Z</time>
      </trkpt>
    </trkseg>
    <trkseg>
      <trkpt lat="43.24121" lon="-6.027472">
        <ele>214.0</ele>
        <time>2024-09-07T17:30:42Z</time>
      </trkpt>
      <trkpt lat="43.24125474478524" lon="-6.027437801123742">
        <ele>213.77401623618016</ele>
        <time>2024-09-07T17:30:43Z</time>
      </trkpt>
      <trkpt lat="43.24129948957047" lon="-6.027403602247484">
        <ele>213.5480324723603</ele>
        <time>2024-09-07T17:30:44Z</time>
      </trkpt>
      <trkpt lat="43.24134423435571" lon="-6.0273694033712255">
        <ele>213.32204870854045</ele>
        <time>2024-09-07T17:30:45Z</time>
      </trkpt>
      <trkpt lat="43.24138897914094" lon="-6.0273352044949675">
        <ele>213.0960649447206</ele>
        <time>2024-09-07T17:30:46Z</time>
      </trkpt>
    </trkseg>
    <trkseg>
      <trkpt lat="43.24515870459542" lon="-6.024257442326997">
        <ele>205.72713696663172</ele>
        <time>2024-09-07T17:32:14Z</time>
      </trkpt>
      <trkpt lat="43.24520976092234" lon="-6.024262934441846">
        <ele>205.78816046495024</ele>
        <time>2024-09-07T17:32:15Z</time>
      </trkpt>
      <trkpt lat="43.24526081724927" lon="-6.024268426556694">
        <ele>205.84918396326873</ele>
        <time>2024-09-07T17:32:16Z</time>
      </trkpt>
      <trkpt lat="43.2453118735762" lon="-6.024273918671543">
        <ele>205.91020746158722</ele>
        <time>2024-09-07T17:32:17Z</time>
      </trkpt>
    </trkseg>
    <trkseg>
      <trkpt lat="43.246122130586244" lon="-6.024405213962796">
        <ele>204.63144148816548</ele>
        <time>2024-09-07T17:32:33Z</time>
      </trkpt>
      <trkpt lat="43.24617328833672" lon="-6.0244079957815675">
        <ele>204.466947895494</ele>
        <time>2024-09-07T17:32:34Z</time>
      </trkpt>
      <trkpt lat="43.24622302659565" lon="-6.02439459366333">
        <ele>204.0</ele>
        <time>2024-09-07T17:32:35Z</time>
      </trkpt>
      <trkpt lat="43.246272520054745" lon="-6.0243803963288">
        <ele>204.0076365295235</ele>
        <time>2024-09-07T17:32:36Z</time>
      </trkpt>
    </trkseg>
    <trkseg>
      <trkpt lat="43.24758703372139" lon="-6.023800618469589">
        <ele>202.96119555265383</ele>
        <time>2024-09-07T17:33:03Z</time>
      </trkpt>
      <trkpt lat="43.24763676987248" lon="-6.023783856562314">
        <ele>202.76884579704793</ele>
        <time>2024-09-07T17:33:04Z</time>
      </trkpt>
    </trkseg>
    <trkseg>
      <trkpt lat="43.249483999086564" lon="-6.021921352306599">
        <ele>196.73614409631705</ele>
        <time>2024-09-07T17:34:03Z</time>
      </trkpt>
      <trkpt lat="43.24947577404579" lon="-6.021842072052499">
        <ele>197.03315945749458</ele>
        <time>2024-09-07T17:34:04Z</time>
      </trkpt>
      <trkpt lat="43.24946754900502" lon="-6.021762791798401">
        <ele>197.3301748186721</ele>
        <time>2024-09-07T17:34:05Z</time>
      </trkpt>
      <trkpt lat="43.24945932396425" lon="-6.0216835115443015">
        <ele>197.62719017984966</ele>
        <time>2024-09-07T17:34:06Z</time>
      </trkpt>
      <trkpt lat="43.24945109892348" lon="-6.021604231290203">
        <ele>197.9242055410272</ele>
        <time>2024-09-07T17:34:07Z</time>
      </trkpt>
    </trkseg>
    <trkseg>
      <trkpt lat="43.249502" lon="-6.011656">
        <ele>196.5</ele>
        <time>2024-09-07T17:36:51Z</time>
      </trkpt>
      <trkpt lat="43.249541" lon="-6.011635">
        <ele>197.1</ele>
        <time>2024-09-07T17:36:52Z</time>
      </trkpt>
    </trkseg>
    <trkseg>
      <trkpt lat="43.252978" lon="-6.008117">
        <ele>198.0</ele>
        <time>2024-09-07T17:38:42Z</time>
      </trkpt>
      <trkpt lat="43.2530198" lon="-6.008096200000001">
        <ele>197.58</ele>
        <time>2024-09-07T17:38:43Z</time>
      </trkpt>
      <trkpt lat="43.253061599999995" lon="-6.0080754">
        <ele>197.16</ele>
        <time>2024-09-07T17:38:44Z</time>
      </trkpt>
      <trkpt lat="43.2531034" lon="-6.0080546">
        <ele>196.74</ele>
        <time>2024-09-07T17:38:45Z</time>
      </trkpt>
      <trkpt lat="43.2531452" lon="-6.0080338">
        <ele>196.32</ele>
        <time>2024-09-07T17:38:46Z</time>
      </trkpt>
    </trkseg>
    <trkseg>
      <trkpt lat="43.255881" lon="-6.005857">
        <ele>197.0</ele>
        <time>2024-09-07T17:39:50Z</time>
      </trkpt>
      <trkpt lat="43.255909" lon="-6.005800799999999">
        <ele>197.2</ele>
        <time>2024-09-07T17:39:51Z</time>
      </trkpt>
      <trkpt lat="43.255937" lon="-6.0057446">
        <ele>197.4</ele>
        <time>2024-09-07T17:39:52Z</time>
      </trkpt>
      <trkpt lat="43.255964999999996" lon="-6.0056883999999995">
        <ele>197.6</ele>
        <time>2024-09-07T17:39:53Z</time>
      </trkpt>
      <trkpt lat="43.255993" lon="-6.0056322">
        <ele>197.8</ele>
        <time>2024-09-07T17:39:54Z</time>
      </trkpt>
    </trkseg>
    <trkseg>
      <trkpt lat="43.25633040752536" lon="-6.005604763903574">
        <ele>197.97048794678233</ele>
        <time>2024-09-07T17:40:01Z</time>
      </trkpt>
      <trkpt lat="43.25639130564402" lon="-6.00560282292768">
        <ele>197.72786596008675</ele>
        <time>2024-09-07T17:40:02Z</time>
      </trkpt>
      <trkpt lat="43.25645220376268" lon="-6.005600881951787">
        <ele>197.48524397339116</ele>
        <time>2024-09-07T17:40:03Z</time>
      </trkpt>
      <trkpt lat="43.25651310188134" lon="-6.005598940975894">
        <ele>197.24262198669558</ele>
        <time>2024-09-07T17:40:04Z</time>
      </trkpt>
    </trkseg>
    <trkseg>
      <trkpt lat="43.25813" lon="-6.005053">
        <ele>194.6</ele>
        <time>2024-09-07T17:40:37Z</time>
      </trkpt>
      <trkpt lat="43.258191" lon="-6.005021">
        <ele>194.9</ele>
        <time>2024-09-07T17:40:38Z</time>
      </trkpt>
    </trkseg>
    <trkseg>
      <trkpt lat="43.26723470020091" lon="-6.002248385796894">
        <ele>180.8167212312878</ele>
        <time>2024-09-07T17:43:34Z</time>
      </trkpt>
      <trkpt lat="43.26729174216506" lon="-6.002257307581772">
        <ele>180.7170931983075</ele>
        <time>2024-09-07T17:43:35Z</time>
      </trkpt>
      <trkpt lat="43.26734916157823" lon="-6.002261762536242">
        <ele>180.75009286105094</ele>
        <time>2024-09-07T17:43:36Z</time>
      </trkpt>
      <trkpt lat="43.267406580991405" lon="-6.002266217490712">
        <ele>180.7830925237944</ele>
        <time>2024-09-07T17:43:37Z</time>
      </trkpt>
      <trkpt lat="43.26746400040457" lon="-6.002270672445182">
        <ele>180.81609218653784</ele>
        <time>2024-09-07T17:43:38Z</time>
      </trkpt>
      <trkpt lat="43.26752141981775" lon="-6.002275127399653">
        <ele>180.8490918492813</ele>
        <time>2024-09-07T17:43:39Z</time>
      </trkpt>
    </trkseg>
    <trkseg>
      <trkpt lat="43.27388944260447" lon="-6.001504945718232">
        <ele>171.0</ele>
        <time>2024-09-07T17:46:07Z</time>
      </trkpt>
      <trkpt lat="43.273948" lon="-6.001482">
        <ele>170.5</ele>
        <time>2024-09-07T17:46:08Z</time>
      </trkpt>
      <trkpt lat="43.273992" lon="-6.001429">
        <ele>171.0</ele>
        <time>2024-09-07T17:46:09Z</time>
      </trkpt>
    </trkseg>
    <trkseg>
      <trkpt lat="43.273916" lon="-6.001163">
        <ele>172.0</ele>
        <time>2024-09-07T17:46:25Z</time>
      </trkpt>
      <trkpt lat="43.273901" lon="-6.00112425">
        <ele>171.0</ele>
        <time>2024-09-07T17:46:26Z</time>
      </trkpt>
      <trkpt lat="43.273886000000005" lon="-6.0010855">
        <ele>170.0</ele>
        <time>2024-09-07T17:46:27Z</time>
      </trkpt>
      <trkpt lat="43.273871" lon="-6.0010467499999995">
        <ele>169.0</ele>
        <time>2024-09-07T17:46:28Z</time>
      </trkpt>
      <trkpt lat="43.273856" lon="-6.001008">
        <ele>168.0</ele>
        <time>2024-09-07T17:46:29Z</time>
      </trkpt>
    </trkseg>
    <trkseg>
      <trkpt lat="43.278445" lon="-5.990522">
        <ele>163.5</ele>
        <time>2024-09-07T17:52:14Z</time>
      </trkpt>
      <trkpt lat="43.27850825" lon="-5.990519">
        <ele>162.725</ele>
        <time>2024-09-07T17:52:15Z</time>
      </trkpt>
      <trkpt lat="43.2785715" lon="-5.9905159999999995">
        <ele>161.95</ele>
        <time>2024-09-07T17:52:16Z</time>
      </trkpt>
      <trkpt lat="43.278634749999995" lon="-5.990513">
        <ele>161.175</ele>
        <time>2024-09-07T17:52:17Z</time>
      </trkpt>
    </trkseg>
    <trkseg>
      <trkpt lat="43.28045761466278" lon="-5.99102655701447">
        <ele>159.0</ele>
        <time>2024-09-07T17:52:53Z</time>
      </trkpt>
      <trkpt lat="43.28050380204097" lon="-5.990992556095465">
        <ele>159.24211869055762</ele>
        <time>2024-09-07T17:52:54Z</time>
      </trkpt>
      <trkpt lat="43.28054856004006" lon="-5.990953098385738">
        <ele>159.5365792109106</ele>
        <time>2024-09-07T17:52:55Z</time>
      </trkpt>
      <trkpt lat="43.28059331803915" lon="-5.990913640676011">
        <ele>159.83103973126356</ele>
        <time>2024-09-07T17:52:56Z</time>
      </trkpt>
    </trkseg>
    <trkseg>
      <trkpt lat="43.28120136247768" lon="-5.990097265670662">
        <ele>159.0</ele>
        <time>2024-09-07T17:53:12Z</time>
      </trkpt>
      <trkpt lat="43.28123780206474" lon="-5.990044054725551">
        <ele>159.0</ele>
        <time>2024-09-07T17:53:13Z</time>
      </trkpt>
      <trkpt lat="43.281274241651786" lon="-5.989990843780441">
        <ele>159.0</ele>
        <time>2024-09-07T17:53:14Z</time>
      </trkpt>
      <trkpt lat="43.28131068123884" lon="-5.989937632835331">
        <ele>159.0</ele>
        <time>2024-09-07T17:53:15Z</time>
      </trkpt>
      <trkpt lat="43.28134712082589" lon="-5.9898844218902205">
        <ele>159.0</ele>
        <time>2024-09-07T17:53:16Z</time>
      </trkpt>
      <trkpt lat="43.28138356041295" lon="-5.989831210945111">
        <ele>159.0</ele>
        <time>2024-09-07T17:53:17Z</time>
      </trkpt>
    </trkseg>
    <trkseg>
      <trkpt lat="43.28702538518876" lon="-5.9841856305240295">
        <ele>151.21270868556255</ele>
        <time>2024-09-07T17:55:45Z</time>
      </trkpt>
      <trkpt lat="43.287061692594385" lon="-5.984205315262015">
        <ele>151.95635434278128</ele>
        <time>2024-09-07T17:55:46Z</time>
      </trkpt>
    </trkseg>
    <trkseg>
      <trkpt lat="43.287465" lon="-5.984472">
        <ele>153.0</ele>
        <time>2024-09-07T17:56:18Z</time>
      </trkpt>
      <trkpt lat="43.28750914285714" lon="-5.984517142857143">
        <ele>152.9</ele>
        <time>2024-09-07T17:56:19Z</time>
      </trkpt>
      <trkpt lat="43.28755328571428" lon="-5.9845622857142855">
        <ele>152.8</ele>
        <time>2024-09-07T17:56:20Z</time>
      </trkpt>
      <trkpt lat="43.287597428571424" lon="-5.984607428571429">
        <ele>152.70000000000002</ele>
        <time>2024-09-07T17:56:21Z</time>
      </trkpt>
      <trkpt lat="43.28764157142857" lon="-5.984652571428572">
        <ele>152.6</ele>
        <time>2024-09-07T17:56:22Z</time>
      </trkpt>
      <trkpt lat="43.287685714285715" lon="-5.984697714285715">
        <ele>152.5</ele>
        <time>2024-09-07T17:56:23Z</time>
      </trkpt>
      <trkpt lat="43.28772985714286" lon="-5.984742857142857">
        <ele>152.4</ele>
        <time>2024-09-07T17:56:24Z</time>
      </trkpt>
    </trkseg>
    <trkseg>
      <trkpt lat="43.288366" lon="-5.985392">
        <ele>151.6</ele>
        <time>2024-09-07T17:56:38Z</time>
      </trkpt>
      <trkpt lat="43.288413" lon="-5.985397">
        <ele>152.6</ele>
        <time>2024-09-07T17:56:39Z</time>
      </trkpt>
    </trkseg>
    <trkseg>
      <trkpt lat="43.29018569435212" lon="-5.985132013002668">
        <ele>152.7</ele>
        <time>2024-09-07T17:57:08Z</time>
      </trkpt>
      <trkpt lat="43.29023556758774" lon="-5.985079876223431">
        <ele>151.50711188007836</ele>
        <time>2024-09-07T17:57:09Z</time>
      </trkpt>
    </trkseg>
    <trkseg>
      <trkpt lat="43.291706" lon="-5.984091">
        <ele>151.0</ele>
        <time>2024-09-07T17:57:34Z</time>
      </trkpt>
      <trkpt lat="43.29176566666666" lon="-5.984028666666667">
        <ele>150.73333333333335</ele>
        <time>2024-09-07T17:57:35Z</time>
      </trkpt>
      <trkpt lat="43.291825333333335" lon="-5.983966333333334">
        <ele>150.46666666666667</ele>
        <time>2024-09-07T17:57:36Z</time>
      </trkpt>
      <trkpt lat="43.291885" lon="-5.983904000000001">
        <ele>150.2</ele>
        <time>2024-09-07T17:57:37Z</time>
      </trkpt>
      <trkpt lat="43.291944666666666" lon="-5.983841666666667">
        <ele>149.93333333333334</ele>
        <time>2024-09-07T17:57:38Z</time>
      </trkpt>
      <trkpt lat="43.29200433333334" lon="-5.983779333333334">
        <ele>149.66666666666669</ele>
        <time>2024-09-07T17:57:39Z</time>
      </trkpt>
    </trkseg>
    <trkseg>
      <trkpt lat="43.292446" lon="-5.983365">
        <ele>150.2</ele>
        <time>2024-09-07T17:57:47Z</time>
      </trkpt>
      <trkpt lat="43.292521" lon="-5.983319">
        <ele>149.53333333333333</ele>
        <time>2024-09-07T17:57:48Z</time>
      </trkpt>
      <trkpt lat="43.292595999999996" lon="-5.9832730000000005">
        <ele>148.86666666666665</ele>
        <time>2024-09-07T17:57:49Z</time>
      </trkpt>
    </trkseg>
    <trkseg>
      <trkpt lat="43.29423010635756" lon="-5.98331393227447">
        <ele>143.2717603858505</ele>
        <time>2024-09-07T17:58:44Z</time>
      </trkpt>
      <trkpt lat="43.294206403348504" lon="-5.983288505410212">
        <ele>143.48724228634055</ele>
        <time>2024-09-07T17:58:45Z</time>
      </trkpt>
      <trkpt lat="43.29418270033945" lon="-5.983263078545955">
        <ele>143.70272418683055</ele>
        <time>2024-09-07T17:58:46Z</time>
      </trkpt>
      <trkpt lat="43.2941589973304" lon="-5.983237651681697">
        <ele>143.91820608732058</ele>
        <time>2024-09-07T17:58:47Z</time>
      </trkpt>
    </trkseg>
  </trk>
</gpx>