<?xml version="1.0" encoding="UTF-8"?>
<gpx xmlns="http://www.topografix.com/GPX/1/1" xmlns:xsi="http://www.w3.org/2001/XMLSchema-instance" xsi:schemaLocation="http://www.topografix.com/GPX/1/1 http://www.topografix.com/GPX/1/1/gpx.xsd" version="1.1" creator="gpx.py -- https://github.com/tkrajina/gpxpy">
  <wpt lat="43.174292533940246" lon="-6.094285851025281">
    <ele>422.47640091930543</ele>
    <time>2024-09-07T16:52:54Z</time>
    <name>ANOM:DZ_HAMPEL</name>
    <desc>Tramo #1 (140-141), dur=2s
Causas: DZ_HAMPEL
vh_max=19.49 km/h | grade_ext=14.9% | vz_ext=48.5 m/min
max|dx|=3.19 m/s, max|dy|=4.37 m/s, max|dz|=0.81 m/s</desc>
  </wpt>
  <wpt lat="43.1747128091113" lon="-6.0897121366694895">
    <ele>413.0</ele>
    <time>2024-09-07T16:55:41Z</time>
    <name>ANOM:DZ_HAMPEL</name>
    <desc>Tramo #2 (307-312), dur=6s
Causas: DZ_HAMPEL
vh_max=26.81 km/h | grade_ext=-15.0% | vz_ext=-67.1 m/min
max|dx|=7.39 m/s, max|dy|=1.33 m/s, max|dz|=1.12 m/s</desc>
  </wpt>
  <wpt lat="43.17503286263526" lon="-6.088657228622034">
    <ele>411.0</ele>
    <time>2024-09-07T16:55:57Z</time>
    <name>ANOM:DZ_HAMPEL</name>
    <desc>Tramo #3 (323-324), dur=2s
Causas: DZ_HAMPEL
vh_max=20.86 km/h | grade_ext=-12.3% | vz_ext=-37.7 m/min
max|dx|=4.59 m/s, max|dy|=3.53 m/s, max|dz|=0.63 m/s</desc>
  </wpt>
  <wpt lat="43.1751276691754" lon="-6.088501626145279">
    <ele>410.2037385472148</ele>
    <time>2024-09-07T16:56:00Z</time>
    <name>ANOM:DZ_HAMPEL</name>
    <desc>Tramo #4 (326-327), dur=2s
Causas: DZ_HAMPEL
vh_max=18.96 km/h | grade_ext=8.8% | vz_ext=27.7 m/min
max|dx|=3.98 m/s, max|dy|=3.69 m/s, max|dz|=0.46 m/s</desc>
  </wpt>
  <wpt lat="43.175382873890406" lon="-6.088017933548222">
    <ele>409.3637341928867</ele>
    <time>2024-09-07T16:56:09Z</time>
    <name>ANOM:DZ_HAMPEL</name>
    <desc>Tramo #5 (335-338), dur=4s
Causas: DZ_HAMPEL
vh_max=22.06 km/h | grade_ext=-2.5% | vz_ext=-8.9 m/min
max|dx|=4.59 m/s, max|dy|=4.68 m/s, max|dz|=0.15 m/s</desc>
  </wpt>
  <wpt lat="43.175676565813724" lon="-6.087714543388846">
    <ele>408.27460686698606</ele>
    <time>2024-09-07T16:56:16Z</time>
    <name>ANOM:DZ_HAMPEL</name>
    <desc>Tramo #6 (342-343), dur=2s
Causas: DZ_HAMPEL
vh_max=21.18 km/h | grade_ext=-3.5% | vz_ext=-12.5 m/min
max|dx|=2.44 m/s, max|dy|=5.46 m/s, max|dz|=0.21 m/s</desc>
  </wpt>
  <wpt lat="43.17795163433829" lon="-6.083403206708304">
    <ele>397.0903998423721</ele>
    <time>2024-09-07T16:57:43Z</time>
    <name>ANOM:DZ_HAMPEL</name>
    <desc>Tramo #7 (429-432), dur=4s
Causas: DZ_HAMPEL
vh_max=20.18 km/h | grade_ext=-9.0% | vz_ext=-30.3 m/min
max|dx|=0.36 m/s, max|dy|=5.60 m/s, max|dz|=0.50 m/s</desc>
  </wpt>
  <wpt lat="43.17901291199303" lon="-6.082554300754327">
    <ele>393.00962064066107</ele>
    <time>2024-09-07T16:58:10Z</time>
    <name>ANOM:DZ_HAMPEL</name>
    <desc>Tramo #8 (456-459), dur=4s
Causas: DZ_HAMPEL
vh_max=15.45 km/h | grade_ext=0.5% | vz_ext=1.3 m/min
max|dx|=2.26 m/s, max|dy|=3.65 m/s, max|dz|=0.02 m/s</desc>
  </wpt>
  <wpt lat="43.17938" lon="-6.082406">
    <ele>391.9</ele>
    <time>2024-09-07T16:58:20Z</time>
    <name>ANOM:DZ_HAMPEL</name>
    <desc>Tramo #9 (466-469), dur=4s
Causas: DZ_HAMPEL
vh_max=18.01 km/h | grade_ext=3.2% | vz_ext=9.7 m/min
max|dx|=0.71 m/s, max|dy|=4.95 m/s, max|dz|=0.16 m/s</desc>
  </wpt>
  <wpt lat="43.18614421095092" lon="-6.07955446934167">
    <ele>373.0</ele>
    <time>2024-09-07T17:00:41Z</time>
    <name>ANOM:DZ_HAMPEL</name>
    <desc>Tramo #10 (607-609), dur=3s
Causas: DZ_HAMPEL
vh_max=18.21 km/h | grade_ext=0.0% | vz_ext=0.0 m/min
max|dx|=2.28 m/s, max|dy|=4.51 m/s, max|dz|=0.00 m/s</desc>
  </wpt>
  <wpt lat="43.18851870300838" lon="-6.078457545360762">
    <ele>366.9506265550094</ele>
    <time>2024-09-07T17:01:44Z</time>
    <name>ANOM:DZ_HAMPEL</name>
    <desc>Tramo #11 (670-672), dur=3s
Causas: DZ_HAMPEL
vh_max=20.07 km/h | grade_ext=-4.9% | vz_ext=-16.3 m/min
max|dx|=5.10 m/s, max|dy|=2.26 m/s, max|dz|=0.27 m/s</desc>
  </wpt>
  <wpt lat="43.1897472571275" lon="-6.0773055922050006">
    <ele>360.968415733296</ele>
    <time>2024-09-07T17:02:14Z</time>
    <name>ANOM:DZ_HAMPEL</name>
    <desc>Tramo #12 (700-701), dur=2s
Causas: DZ_HAMPEL
vh_max=26.35 km/h | grade_ext=-8.6% | vz_ext=-38.0 m/min
max|dx|=0.96 m/s, max|dy|=7.25 m/s, max|dz|=0.63 m/s</desc>
  </wpt>
  <wpt lat="43.18993965466374" lon="-6.07732672324079">
    <ele>359.6605646417732</ele>
    <time>2024-09-07T17:02:17Z</time>
    <name>ANOM:DZ_HAMPEL</name>
    <desc>Tramo #13 (703-705), dur=3s
Causas: DZ_HAMPEL
vh_max=24.01 km/h | grade_ext=7.5% | vz_ext=30.0 m/min
max|dx|=1.50 m/s, max|dy|=6.54 m/s, max|dz|=0.50 m/s</desc>
  </wpt>
  <wpt lat="43.194017209367885" lon="-6.071344608006601">
    <ele>344.4197990293266</ele>
    <time>2024-09-07T17:04:38Z</time>
    <name>ANOM:DZ_HAMPEL</name>
    <desc>Tramo #14 (844-845), dur=2s
Causas: DZ_HAMPEL
vh_max=26.69 km/h | grade_ext=-18.0% | vz_ext=-80.1 m/min
max|dx|=7.23 m/s, max|dy|=2.17 m/s, max|dz|=1.33 m/s</desc>
  </wpt>
  <wpt lat="43.195622293309754" lon="-6.069385180106105">
    <ele>339.0</ele>
    <time>2024-09-07T17:05:22Z</time>
    <name>ANOM:DZ_HAMPEL</name>
    <desc>Tramo #15 (888-890), dur=3s
Causas: DZ_HAMPEL
vh_max=10.08 km/h | grade_ext=-14.9% | vz_ext=-22.1 m/min
max|dx|=2.67 m/s, max|dy|=0.83 m/s, max|dz|=0.37 m/s</desc>
  </wpt>
  <wpt lat="43.19745979560346" lon="-6.067507971158883">
    <ele>330.40256646276896</ele>
    <time>2024-09-07T17:06:41Z</time>
    <name>ANOM:DZ_HAMPEL</name>
    <desc>Tramo #16 (967-968), dur=2s
Causas: DZ_HAMPEL
vh_max=23.17 km/h | grade_ext=-28.2% | vz_ext=-109.1 m/min
max|dx|=3.60 m/s, max|dy|=5.35 m/s, max|dz|=1.82 m/s</desc>
  </wpt>
  <wpt lat="43.199876227129295" lon="-6.067625152527771">
    <ele>323.0</ele>
    <time>2024-09-07T17:07:34Z</time>
    <name>ANOM:DZ_HAMPEL</name>
    <desc>Tramo #17 (1020-1024), dur=5s
Causas: DZ_HAMPEL
vh_max=20.73 km/h | grade_ext=-15.1% | vz_ext=-45.9 m/min
max|dx|=1.23 m/s, max|dy|=5.63 m/s, max|dz|=0.77 m/s</desc>
  </wpt>
  <wpt lat="43.20201385063996" lon="-6.060658655096688">
    <ele>305.01264341621913</ele>
    <time>2024-09-07T17:09:33Z</time>
    <name>ANOM:DZ_HAMPEL</name>
    <desc>Tramo #18 (1139-1142), dur=4s
Causas: DZ_HAMPEL
vh_max=27.72 km/h | grade_ext=-7.1% | vz_ext=-33.0 m/min
max|dx|=3.70 m/s, max|dy|=7.12 m/s, max|dz|=0.55 m/s</desc>
  </wpt>
  <wpt lat="43.20505" lon="-6.056231">
    <ele>296.0</ele>
    <time>2024-09-07T17:11:27Z</time>
    <name>ANOM:DZ_HAMPEL</name>
    <desc>Tramo #19 (1253-1255), dur=3s
Causas: DZ_HAMPEL
vh_max=18.79 km/h | grade_ext=1.9% | vz_ext=6.0 m/min
max|dx|=0.59 m/s, max|dy|=5.19 m/s, max|dz|=0.10 m/s</desc>
  </wpt>
  <wpt lat="43.210103375238745" lon="-6.057462497862664">
    <ele>287.09167651963014</ele>
    <time>2024-09-07T17:13:18Z</time>
    <name>ANOM:DZ_HAMPEL</name>
    <desc>Tramo #20 (1364-1365), dur=2s
Causas: DZ_HAMPEL
vh_max=27.29 km/h | grade_ext=-18.5% | vz_ext=-84.0 m/min
max|dx|=7.48 m/s, max|dy|=1.23 m/s, max|dz|=1.40 m/s</desc>
  </wpt>
  <wpt lat="43.212879300647494" lon="-6.055439190497732">
    <ele>275.1053995720999</ele>
    <time>2024-09-07T17:14:34Z</time>
    <name>ANOM:DZ_HAMPEL</name>
    <desc>Tramo #21 (1440-1443), dur=4s
Causas: DZ_HAMPEL
vh_max=18.03 km/h | grade_ext=-2.4% | vz_ext=-6.9 m/min
max|dx|=4.52 m/s, max|dy|=2.52 m/s, max|dz|=0.12 m/s</desc>
  </wpt>
  <wpt lat="43.21297054922129" lon="-6.055108968927084">
    <ele>274.46113995233856</ele>
    <time>2024-09-07T17:14:40Z</time>
    <name>ANOM:DZ_HAMPEL</name>
    <desc>Tramo #22 (1446-1448), dur=3s
Causas: DZ_HAMPEL
vh_max=18.77 km/h | grade_ext=-4.5% | vz_ext=-12.7 m/min
max|dx|=5.20 m/s, max|dy|=0.64 m/s, max|dz|=0.21 m/s</desc>
  </wpt>
  <wpt lat="43.21248743354518" lon="-6.0532412796698045">
    <ele>274.2195806852426</ele>
    <time>2024-09-07T17:15:08Z</time>
    <name>ANOM:DZ_HAMPEL</name>
    <desc>Tramo #23 (1474-1475), dur=2s
Causas: DZ_HAMPEL
vh_max=25.47 km/h | grade_ext=-6.0% | vz_ext=-25.6 m/min
max|dx|=5.46 m/s, max|dy|=4.50 m/s, max|dz|=0.43 m/s</desc>
  </wpt>
  <wpt lat="43.2122457271818" lon="-6.052483575239369">
    <ele>274.38021711284824</ele>
    <time>2024-09-07T17:15:19Z</time>
    <name>ANOM:DZ_HAMPEL</name>
    <desc>Tramo #24 (1485-1487), dur=3s
Causas: DZ_HAMPEL
vh_max=22.43 km/h | grade_ext=-10.1% | vz_ext=-37.6 m/min
max|dx|=5.91 m/s, max|dy|=1.97 m/s, max|dz|=0.63 m/s</desc>
  </wpt>
  <wpt lat="43.21354654248461" lon="-6.05129209984139">
    <ele>271.0</ele>
    <time>2024-09-07T17:15:44Z</time>
    <name>ANOM:DZ_HAMPEL</name>
    <desc>Tramo #25 (1510-1511), dur=2s
Causas: DZ_HAMPEL
vh_max=23.23 km/h | grade_ext=-10.7% | vz_ext=-39.4 m/min
max|dx|=3.68 m/s, max|dy|=5.52 m/s, max|dz|=0.66 m/s</desc>
  </wpt>
  <wpt lat="43.214194375547955" lon="-6.050004734170908">
    <ele>268.8985579933818</ele>
    <time>2024-09-07T17:16:04Z</time>
    <name>ANOM:DZ_HAMPEL</name>
    <desc>Tramo #26 (1530-1534), dur=5s
Causas: DZ_HAMPEL
vh_max=22.20 km/h | grade_ext=-3.8% | vz_ext=-14.0 m/min
max|dx|=5.53 m/s, max|dy|=2.72 m/s, max|dz|=0.23 m/s</desc>
  </wpt>
  <wpt lat="43.21452780509927" lon="-6.046551260907342">
    <ele>264.3958356933968</ele>
    <time>2024-09-07T17:16:52Z</time>
    <name>ANOM:DZ_HAMPEL</name>
    <desc>Tramo #27 (1578-1579), dur=2s
Causas: DZ_HAMPEL
vh_max=19.20 km/h | grade_ext=21.3% | vz_ext=65.0 m/min
max|dx|=5.13 m/s, max|dy|=1.46 m/s, max|dz|=1.08 m/s</desc>
  </wpt>
  <wpt lat="43.214713" lon="-6.043687">
    <ele>262.0</ele>
    <time>2024-09-07T17:17:42Z</time>
    <name>ANOM:DZ_HAMPEL</name>
    <desc>Tramo #28 (1628-1629), dur=2s
Causas: DZ_HAMPEL
vh_max=25.53 km/h | grade_ext=-7.4% | vz_ext=-25.5 m/min
max|dx|=3.74 m/s, max|dy|=6.02 m/s, max|dz|=0.42 m/s</desc>
  </wpt>
  <wpt lat="43.21731954655792" lon="-6.040883588979978">
    <ele>253.17187198017183</ele>
    <time>2024-09-07T17:19:01Z</time>
    <name>ANOM:DZ_HAMPEL</name>
    <desc>Tramo #29 (1707-1711), dur=5s
Causas: DZ_HAMPEL
vh_max=20.69 km/h | grade_ext=1.2% | vz_ext=4.2 m/min
max|dx|=5.69 m/s, max|dy|=0.81 m/s, max|dz|=0.07 m/s</desc>
  </wpt>
  <wpt lat="43.2175684759565" lon="-6.039524069898436">
    <ele>251.4209605416765</ele>
    <time>2024-09-07T17:19:24Z</time>
    <name>ANOM:DZ_HAMPEL</name>
    <desc>Tramo #30 (1730-1734), dur=5s
Causas: DZ_HAMPEL
vh_max=19.96 km/h | grade_ext=4.2% | vz_ext=13.9 m/min
max|dx|=3.53 m/s, max|dy|=4.28 m/s, max|dz|=0.23 m/s</desc>
  </wpt>
  <wpt lat="43.224904509417314" lon="-6.038660163527561">
    <ele>243.0</ele>
    <time>2024-09-07T17:22:26Z</time>
    <name>ANOM:DZ_HAMPEL</name>
    <desc>Tramo #31 (1912-1914), dur=3s
Causas: DZ_HAMPEL
vh_max=13.14 km/h | grade_ext=23.4% | vz_ext=34.7 m/min
max|dx|=0.85 m/s, max|dy|=3.55 m/s, max|dz|=0.58 m/s</desc>
  </wpt>
  <wpt lat="43.225103259613626" lon="-6.038551928687514">
    <ele>243.01883011351683</ele>
    <time>2024-09-07T17:22:35Z</time>
    <name>ANOM:DZ_HAMPEL</name>
    <desc>Tramo #32 (1921-1922), dur=2s
Causas: DZ_HAMPEL
vh_max=6.41 km/h | grade_ext=21.1% | vz_ext=17.9 m/min
max|dx|=0.95 m/s, max|dy|=1.51 m/s, max|dz|=0.30 m/s</desc>
  </wpt>
  <wpt lat="43.2286293870246" lon="-6.037098466039042">
    <ele>240.7551982353584</ele>
    <time>2024-09-07T17:25:35Z</time>
    <name>ANOM:DZ_HAMPEL</name>
    <desc>Tramo #33 (2101-2106), dur=6s
Causas: DZ_HAMPEL
vh_max=12.20 km/h | grade_ext=15.4% | vz_ext=31.2 m/min
max|dx|=2.28 m/s, max|dy|=2.51 m/s, max|dz|=0.52 m/s</desc>
  </wpt>
  <wpt lat="43.23671296647827" lon="-6.0306600420071055">
    <ele>222.91932746651625</ele>
    <time>2024-09-07T17:29:00Z</time>
    <name>ANOM:DZ_HAMPEL</name>
    <desc>Tramo #34 (2306-2309), dur=4s
Causas: DZ_HAMPEL
vh_max=26.88 km/h | grade_ext=-2.6% | vz_ext=-11.6 m/min
max|dx|=0.57 m/s, max|dy|=7.45 m/s, max|dz|=0.19 m/s</desc>
  </wpt>
  <wpt lat="43.239726936808644" lon="-6.030344849226482">
    <ele>218.0502578390949</ele>
    <time>2024-09-07T17:29:53Z</time>
    <name>ANOM:DZ_HAMPEL</name>
    <desc>Tramo #35 (2359-2360), dur=2s
Causas: DZ_HAMPEL
vh_max=29.28 km/h | grade_ext=-5.4% | vz_ext=-26.2 m/min
max|dx|=2.83 m/s, max|dy|=7.62 m/s, max|dz|=0.44 m/s</desc>
  </wpt>
  <wpt lat="43.245174592546505" lon="-6.024259151389465">
    <ele>205.74612654960887</ele>
    <time>2024-09-07T17:32:18Z</time>
    <name>ANOM:DZ_HAMPEL</name>
    <desc>Tramo #36 (2504-2505), dur=2s
Causas: DZ_HAMPEL
vh_max=36.89 km/h | grade_ext=1.1% | vz_ext=6.6 m/min
max|dx|=0.80 m/s, max|dy|=10.21 m/s, max|dz|=0.11 m/s</desc>
  </wpt>
  <wpt lat="43.246111815576946" lon="-6.024404942515183">
    <ele>204.64229939268833</ele>
    <time>2024-09-07T17:32:30Z</time>
    <name>ANOM:DZ_HAMPEL</name>
    <desc>Tramo #37 (2516-2520), dur=5s
Causas: DZ_HAMPEL
vh_max=22.02 km/h | grade_ext=-8.6% | vz_ext=-22.8 m/min
max|dx|=1.45 m/s, max|dy|=6.11 m/s, max|dz|=0.38 m/s</desc>
  </wpt>
  <wpt lat="43.247577" lon="-6.023804">
    <ele>203.0</ele>
    <time>2024-09-07T17:33:01Z</time>
    <name>ANOM:DZ_HAMPEL</name>
    <desc>Tramo #38 (2547-2551), dur=5s
Causas: DZ_HAMPEL
vh_max=14.92 km/h | grade_ext=-3.4% | vz_ext=-8.4 m/min
max|dx|=0.99 m/s, max|dy|=4.03 m/s, max|dz|=0.14 m/s</desc>
  </wpt>
  <wpt lat="43.24947961590612" lon="-6.0218791033173265">
    <ele>196.8944256123235</ele>
    <time>2024-09-07T17:34:03Z</time>
    <name>ANOM:DZ_HAMPEL</name>
    <desc>Tramo #39 (2609-2611), dur=3s
Causas: DZ_HAMPEL
vh_max=25.36 km/h | grade_ext=4.6% | vz_ext=19.3 m/min
max|dx|=6.98 m/s, max|dy|=0.99 m/s, max|dz|=0.32 m/s</desc>
  </wpt>
  <wpt lat="43.24949662620944" lon="-6.011660512940613">
    <ele>196.53912954288114</ele>
    <time>2024-09-07T17:36:51Z</time>
    <name>ANOM:DZ_HAMPEL</name>
    <desc>Tramo #40 (2777-2778), dur=2s
Causas: DZ_HAMPEL
vh_max=17.79 km/h | grade_ext=12.9% | vz_ext=38.2 m/min
max|dx|=1.91 m/s, max|dy|=4.60 m/s, max|dz|=0.64 m/s</desc>
  </wpt>
  <wpt lat="43.25299059751588" lon="-6.008110731379656">
    <ele>197.87342208919407</ele>
    <time>2024-09-07T17:38:42Z</time>
    <name>ANOM:DZ_HAMPEL</name>
    <desc>Tramo #41 (2888-2892), dur=5s
Causas: DZ_HAMPEL
vh_max=16.21 km/h | grade_ext=-8.5% | vz_ext=-22.9 m/min
max|dx|=1.54 m/s, max|dy|=4.23 m/s, max|dz|=0.38 m/s</desc>
  </wpt>
  <wpt lat="43.255870191209276" lon="-6.005868030282341">
    <ele>197.0</ele>
    <time>2024-09-07T17:39:50Z</time>
    <name>ANOM:DZ_HAMPEL</name>
    <desc>Tramo #42 (2956-2960), dur=5s
Causas: DZ_HAMPEL
vh_max=23.58 km/h | grade_ext=3.6% | vz_ext=14.2 m/min
max|dx|=5.41 m/s, max|dy|=4.89 m/s, max|dz|=0.24 m/s</desc>
  </wpt>
  <wpt lat="43.25635510303068" lon="-6.005603976795835">
    <ele>197.87209947937163</ele>
    <time>2024-09-07T17:40:01Z</time>
    <name>ANOM:DZ_HAMPEL</name>
    <desc>Tramo #43 (2967-2969), dur=3s
Causas: DZ_HAMPEL
vh_max=23.90 km/h | grade_ext=-3.6% | vz_ext=-14.3 m/min
max|dx|=0.15 m/s, max|dy|=6.64 m/s, max|dz|=0.24 m/s</desc>
  </wpt>
  <wpt lat="43.27143436691158" lon="-6.00310573837402">
    <ele>176.97081772928988</ele>
    <time>2024-09-07T17:44:54Z</time>
    <name>ANOM:DZ_HAMPEL</name>
    <desc>Tramo #44 (3260-3262), dur=3s
Causas: DZ_HAMPEL
vh_max=15.49 km/h | grade_ext=1.9% | vz_ext=4.7 m/min
max|dx|=0.88 m/s, max|dy|=4.21 m/s, max|dz|=0.08 m/s</desc>
  </wpt>
  <wpt lat="43.27389116736607" lon="-6.0015029379879365">
    <ele>171.0</ele>
    <time>2024-09-07T17:46:07Z</time>
    <name>ANOM:DZ_HAMPEL</name>
    <desc>Tramo #45 (3333-3335), dur=3s
Causas: DZ_HAMPEL
vh_max=25.87 km/h | grade_ext=20.0% | vz_ext=42.9 m/min
max|dx|=4.35 m/s, max|dy|=5.72 m/s, max|dz|=0.72 m/s</desc>
  </wpt>
  <wpt lat="43.27391757072957" lon="-6.001166708667051">
    <ele>171.99563686229354</ele>
    <time>2024-09-07T17:46:24Z</time>
    <name>ANOM:DZ_HAMPEL,JERK</name>
    <desc>Tramo #46 (3350-3355), dur=6s
Causas: DZ_HAMPEL,JERK
vh_max=34.35 km/h | grade_ext=-28.1% | vz_ext=-60.4 m/min
max|dx|=9.18 m/s, max|dy|=2.61 m/s, max|dz|=1.01 m/s</desc>
  </wpt>
  <wpt lat="43.278467896994734" lon="-5.9905209139765345">
    <ele>163.21944393799464</ele>
    <time>2024-09-07T17:52:14Z</time>
    <name>ANOM:DZ_HAMPEL</name>
    <desc>Tramo #47 (3700-3703), dur=4s
Causas: DZ_HAMPEL
vh_max=22.40 km/h | grade_ext=-11.0% | vz_ext=-41.1 m/min
max|dx|=0.22 m/s, max|dy|=6.22 m/s, max|dz|=0.69 m/s</desc>
  </wpt>
  <wpt lat="43.280471508812504" lon="-5.991021025125818">
    <ele>159.02966324016006</ele>
    <time>2024-09-07T17:52:52Z</time>
    <name>ANOM:DZ_HAMPEL</name>
    <desc>Tramo #48 (3738-3740), dur=3s
Causas: DZ_HAMPEL
vh_max=24.69 km/h | grade_ext=5.0% | vz_ext=20.5 m/min
max|dx|=3.71 m/s, max|dy|=5.77 m/s, max|dz|=0.34 m/s</desc>
  </wpt>
  <wpt lat="43.283197391355344" lon="-5.988355961191177">
    <ele>153.79924677020225</ele>
    <time>2024-09-07T17:53:59Z</time>
    <name>ANOM:DZ_HAMPEL</name>
    <desc>Tramo #49 (3805-3806), dur=2s
Causas: DZ_HAMPEL
vh_max=23.81 km/h | grade_ext=2.8% | vz_ext=11.2 m/min
max|dx|=4.26 m/s, max|dy|=5.76 m/s, max|dz|=0.19 m/s</desc>
  </wpt>
  <wpt lat="43.287015" lon="-5.98418">
    <ele>151.0</ele>
    <time>2024-09-07T17:55:44Z</time>
    <name>ANOM:DZ_HAMPEL</name>
    <desc>Tramo #50 (3910-3911), dur=2s
Causas: DZ_HAMPEL
vh_max=21.81 km/h | grade_ext=17.1% | vz_ext=62.3 m/min
max|dx|=2.23 m/s, max|dy|=5.63 m/s, max|dz|=1.04 m/s</desc>
  </wpt>
  <wpt lat="43.288366" lon="-5.985392">
    <ele>151.6</ele>
    <time>2024-09-07T17:56:38Z</time>
    <name>ANOM:DZ_HAMPEL</name>
    <desc>Tramo #51 (3964-3965), dur=2s
Causas: DZ_HAMPEL
vh_max=26.62 km/h | grade_ext=19.2% | vz_ext=62.6 m/min
max|dx|=0.41 m/s, max|dy|=7.39 m/s, max|dz|=1.04 m/s</desc>
  </wpt>
  <wpt lat="43.291729018456294" lon="-5.984066952785879">
    <ele>150.89712421766433</ele>
    <time>2024-09-07T17:57:34Z</time>
    <name>ANOM:DZ_HAMPEL</name>
    <desc>Tramo #52 (4020-4024), dur=5s
Causas: DZ_HAMPEL
vh_max=27.72 km/h | grade_ext=-3.2% | vz_ext=-14.8 m/min
max|dx|=4.67 m/s, max|dy|=6.13 m/s, max|dz|=0.25 m/s</desc>
  </wpt>
  <wpt lat="43.294331" lon="-5.983304">
    <ele>143.0</ele>
    <time>2024-09-07T17:58:46Z</time>
    <name>ANOM:DZ_HAMPEL,JERK,VH,VT</name>
    <desc>Tramo #53 (4092-4094), dur=3s
Causas: DZ_HAMPEL,JERK,VH,VT
vh_max=58.00 km/h | grade_ext=6.2% | vz_ext=60.0 m/min
max|dx|=9.91 m/s, max|dy|=12.70 m/s, max|dz|=1.00 m/s</desc>
  </wpt>
  <trk>
    <name>13_pattern_aligned_resampled_anomalies</name>
    <trkseg>
      <trkpt lat="43.174292533940246" lon="-6.094285851025281">
        <ele>422.47640091930543</ele>
        <time>2024-09-07T16:52:54Z</time>
      </trkpt>
      <trkpt lat="43.174331411512824" lon="-6.0942583301204">
        <ele>423.15933065777455</ele>
        <time>2024-09-07T16:52:55Z</time>
      </trkpt>
    </trkseg>
    <trkseg>
      <trkpt lat="43.1747128091113" lon="-6.0897121366694895">
        <ele>413.0</ele>
        <time>2024-09-07T16:55:41Z</time>
      </trkpt>
      <trkpt lat="43.17471372112074" lon="-6.089655475840015">
        <ele>413.2176896588741</ele>
        <time>2024-09-07T16:55:42Z</time>
      </trkpt>
      <trkpt lat="43.174719619482524" lon="-6.089591478614604">
        <ele>413.6895586019939</ele>
        <time>2024-09-07T16:55:43Z</time>
      </trkpt>
      <trkpt lat="43.174725517844315" lon="-6.089527481389194">
        <ele>414.1614275451136</ele>
        <time>2024-09-07T16:55:44Z</time>
      </trkpt>
      <trkpt lat="43.174731601334216" lon="-6.089461573240551">
        <ele>414.52107488395507</ele>
        <time>2024-09-07T16:55:45Z</time>
      </trkpt>
      <trkpt lat="43.174740123282234" lon="-6.0893704949211855">
        <ele>413.40256920753876</ele>
        <time>2024-09-07T16:55:46Z</time>
      </trkpt>
    </trkseg>
    <trkseg>
      <trkpt lat="43.17503286263526" lon="-6.088657228622034">
        <ele>411.0</ele>
        <time>2024-09-07T16:55:57Z</time>
      </trkpt>
      <trkpt lat="43.175060117069776" lon="-6.088606277567421">
        <ele>410.3720732555444</ele>
        <time>2024-09-07T16:55:58Z</time>
      </trkpt>
    </trkseg>
    <trkseg>
      <trkpt lat="43.1751276691754" lon="-6.088501626145279">
        <ele>410.2037385472148</ele>
        <time>2024-09-07T16:56:00Z</time>
      </trkpt>
      <trkpt lat="43.1751608974244" lon="-6.088455475799451">
        <ele>410.665242005491</ele>
        <time>2024-09-07T16:56:01Z</time>
      </trkpt>
    </trkseg>
    <trkseg>
      <trkpt lat="43.175382873890406" lon="-6.088017933548222">
        <ele>409.3637341928867</ele>
        <time>2024-09-07T16:56:09Z</time>
      </trkpt>
      <trkpt lat="43.17541692984642" lon="-6.087961786763594">
        <ele>409.23407666162854</ele>
        <time>2024-09-07T16:56:10Z</time>
      </trkpt>
      <trkpt lat="43.175453439803896" lon="-6.08790516538887">
        <ele>409.141254735852</ele>
        <time>2024-09-07T16:56:11Z</time>
      </trkpt>
      <trkpt lat="43.17548994976137" lon="-6.087848544014146">
        <ele>409.0484328100755</ele>
        <time>2024-09-07T16:56:12Z</time>
      </trkpt>
    </trkseg>
    <trkseg>
      <trkpt lat="43.175676565813724" lon="-6.087714543388846">
        <ele>408.27460686698606</ele>
        <time>2024-09-07T16:56:16Z</time>
      </trkpt>
      <trkpt lat="43.17572474157894" lon="-6.087684511742999">
        <ele>408.0660537708277</ele>
        <time>2024-09-07T16:56:17Z</time>
      </trkpt>
    </trkseg>
    <trkseg>
      <trkpt lat="43.17795163433829" lon="-6.083403206708304">
        <ele>397.0903998423721</ele>
        <time>2024-09-07T16:57:43Z</time>
      </trkpt>
      <trkpt lat="43.17800195150743" lon="-6.083398810062457">
        <ele>396.58559976355815</ele>
        <time>2024-09-07T16:57:44Z</time>
      </trkpt>
      <trkpt lat="43.17805226867658" lon="-6.083394413416609">
        <ele>396.0807996847442</ele>
        <time>2024-09-07T16:57:45Z</time>
      </trkpt>
      <trkpt lat="43.17810258584573" lon="-6.083390016770761">
        <ele>395.5759996059303</ele>
        <time>2024-09-07T16:57:46Z</time>
      </trkpt>
    </trkseg>
    <trkseg>
      <trkpt lat="43.17901291199303" lon="-6.082554300754327">
        <ele>393.00962064066107</ele>
        <time>2024-09-07T16:58:10Z</time>
      </trkpt>
      <trkpt lat="43.17904569871876" lon="-6.082526379155638">
        <ele>393.03077336694076</ele>
        <time>2024-09-07T16:58:11Z</time>
      </trkpt>
      <trkpt lat="43.17907848544449" lon="-6.082498457556949">
        <ele>393.0519260932205</ele>
        <time>2024-09-07T16:58:12Z</time>
      </trkpt>
      <trkpt lat="43.179111272170225" lon="-6.08247053595826">
        <ele>393.0730788195002</ele>
        <time>2024-09-07T16:58:13Z</time>
      </trkpt>
    </trkseg>
    <trkseg>
      <trkpt lat="43.17938" lon="-6.082406">
        <ele>391.9</ele>
        <time>2024-09-07T16:58:20Z</time>
      </trkpt>
      <trkpt lat="43.179424538752755" lon="-6.082414769288107">
        <ele>392.0615395177584</ele>
        <time>2024-09-07T16:58:21Z</time>
      </trkpt>
      <trkpt lat="43.17946907750551" lon="-6.082423538576213">
        <ele>392.2230790355168</ele>
        <time>2024-09-07T16:58:22Z</time>
      </trkpt>
      <trkpt lat="43.17951361625826" lon="-6.0824323078643205">
        <ele>392.3846185532752</ele>
        <time>2024-09-07T16:58:23Z</time>
      </trkpt>
    </trkseg>
    <trkseg>
      <trkpt lat="43.18614421095092" lon="-6.07955446934167">
        <ele>373.0</ele>
        <time>2024-09-07T17:00:41Z</time>
      </trkpt>
      <trkpt lat="43.18618481387308" lon="-6.079526359626328">
        <ele>373.0</ele>
        <time>2024-09-07T17:00:42Z</time>
      </trkpt>
      <trkpt lat="43.186225416795246" lon="-6.079498249910986">
        <ele>373.0</ele>
        <time>2024-09-07T17:00:43Z</time>
      </trkpt>
    </trkseg>
    <trkseg>
      <trkpt lat="43.18851870300838" lon="-6.078457545360762">
        <ele>366.9506265550094</ele>
        <time>2024-09-07T17:01:44Z</time>
      </trkpt>
      <trkpt lat="43.18853902107553" lon="-6.078394694806377">
        <ele>366.6797189930041</ele>
        <time>2024-09-07T17:01:45Z</time>
      </trkpt>
      <trkpt lat="43.18855933914268" lon="-6.078331844251991">
        <ele>366.40881143099875</ele>
        <time>2024-09-07T17:01:46Z</time>
      </trkpt>
    </trkseg>
    <trkseg>
      <trkpt lat="43.1897472571275" lon="-6.0773055922050006">
        <ele>360.968415733296</ele>
        <time>2024-09-07T17:02:14Z</time>
      </trkpt>
      <trkpt lat="43.18981250015184" lon="-6.077317454573062">
        <ele>360.3357561033861</ele>
        <time>2024-09-07T17:02:15Z</time>
      </trkpt>
    </trkseg>
    <trkseg>
      <trkpt lat="43.18993965466374" lon="-6.07732672324079">
        <ele>359.6605646417732</ele>
        <time>2024-09-07T17:02:17Z</time>
      </trkpt>
      <trkpt lat="43.189998502164855" lon="-6.077310834415489">
        <ele>360.1607684012458</ele>
        <time>2024-09-07T17:02:18Z</time>
      </trkpt>
      <trkpt lat="43.19005734966596" lon="-6.077294945590189">
        <ele>360.6609721607184</ele>
        <time>2024-09-07T17:02:19Z</time>
      </trkpt>
    </trkseg>
    <trkseg>
      <trkpt lat="43.194017209367885" lon="-6.071344608006601">
        <ele>344.4197990293266</ele>
        <time>2024-09-07T17:04:38Z</time>
      </trkpt>
      <trkpt lat="43.19403198732432" lon="-6.071255463559705">
        <ele>343.08501586723486</ele>
        <time>2024-09-07T17:04:39Z</time>
      </trkpt>
    </trkseg>
    <trkseg>
      <trkpt lat="43.195622293309754" lon="-6.069385180106105">
        <ele>339.0</ele>
        <time>2024-09-07T17:05:22Z</time>
      </trkpt>
      <trkpt lat="43.19562973738098" lon="-6.069352208161226">
        <ele>338.7368121674214</ele>
        <time>2024-09-07T17:05:23Z</time>
      </trkpt>
      <trkpt lat="43.195636368690494" lon="-6.069323104080613">
        <ele>338.3684060837107</ele>
        <time>2024-09-07T17:05:24Z</time>
      </trkpt>
    </trkseg>
    <trkseg>
      <trkpt lat="43.19745979560346" lon="-6.067507971158883">
        <ele>330.40256646276896</ele>
        <time>2024-09-07T17:06:41Z</time>
      </trkpt>
      <trkpt lat="43.19750788603615" lon="-6.067533531033409">
        <ele>329.8224986307667</ele>
        <time>2024-09-07T17:06:42Z</time>
      </trkpt>
    </trkseg>
    <trkseg>
      <trkpt lat="43.199876227129295" lon="-6.067625152527771">
        <ele>323.0</ele>
        <time>2024-09-07T17:07:34Z</time>
      </trkpt>
      <trkpt lat="43.199920019455426" lon="-6.067617132295689">
        <ele>322.8132295690053</ele>
        <time>2024-09-07T17:07:35Z</time>
      </trkpt>
      <trkpt lat="43.199965192821615" lon="-6.0676094757929455">
        <ele>322.04757929457065</ele>
        <time>2024-09-07T17:07:36Z</time>
      </trkpt>
      <trkpt lat="43.20001036618781" lon="-6.067601819290201">
        <ele>321.2819290201361</ele>
        <time>2024-09-07T17:07:37Z</time>
      </trkpt>
      <trkpt lat="43.200055539554" lon="-6.067594162787457">
        <ele>320.5162787457015</ele>
        <time>2024-09-07T17:07:38Z</time>
      </trkpt>
    </trkseg>
    <trkseg>
      <trkpt lat="43.20201385063996" lon="-6.060658655096688">
        <ele>305.01264341621913</ele>
        <time>2024-09-07T17:09:33Z</time>
      </trkpt>
      <trkpt lat="43.202065726994014" lon="-6.0606130729037915">
        <ele>305.0</ele>
        <time>2024-09-07T17:09:34Z</time>
      </trkpt>
      <trkpt lat="43.20212512275599" lon="-6.060580310600742">
        <ele>305.0</ele>
        <time>2024-09-07T17:09:35Z</time>
      </trkpt>
      <trkpt lat="43.20218916332704" lon="-6.060545952098629">
        <ele>304.5914749819539</ele>
        <time>2024-09-07T17:09:36Z</time>
      </trkpt>
    </trkseg>
    <trkseg>
      <trkpt lat="43.20505" lon="-6.056231">
        <ele>296.0</ele>
        <time>2024-09-07T17:11:27Z</time>
      </trkpt>
      <trkpt lat="43.20509663725411" lon="-6.056223671288641">
        <ele>296.0999369730823</ele>
        <time>2024-09-07T17:11:28Z</time>
      </trkpt>
      <trkpt lat="43.20514327450821" lon="-6.056216342577281">
        <ele>296.19987394616464</ele>
        <time>2024-09-07T17:11:29Z</time>
      </trkpt>
    </trkseg>
    <trkseg>
      <trkpt lat="43.210103375238745" lon="-6.057462497862664">
        <ele>287.09167651963014</ele>
        <time>2024-09-07T17:13:18Z</time>
      </trkpt>
      <trkpt lat="43.21010963682601" lon="-6.057378213050964">
        <ele>286.00504288221316</ele>
        <time>2024-09-07T17:13:19Z</time>
      </trkpt>
    </trkseg>
    <trkseg>
      <trkpt lat="43.212879300647494" lon="-6.055439190497732">
        <ele>275.1053995720999</ele>
        <time>2024-09-07T17:14:34Z</time>
      </trkpt>
      <trkpt lat="43.212901923127504" lon="-6.055387280349638">
        <ele>275.0</ele>
        <time>2024-09-07T17:14:35Z</time>
      </trkpt>
      <trkpt lat="43.212923944096886" lon="-6.055333413670685">
        <ele>275.0</ele>
        <time>2024-09-07T17:14:36Z</time>
      </trkpt>
      <trkpt lat="43.21294596506627" lon="-6.055279546991732">
        <ele>275.0</ele>
        <time>2024-09-07T17:14:37Z</time>
      </trkpt>
    </trkseg>
    <trkseg>
      <trkpt lat="43.21297054922129" lon="-6.055108968927084">
        <ele>274.46113995233856</ele>
        <time>2024-09-07T17:14:40Z</time>
      </trkpt>
      <trkpt lat="43.21297626757823" lon="-6.055051573566662">
        <ele>274.24934895447257</ele>
        <time>2024-09-07T17:14:41Z</time>
      </trkpt>
      <trkpt lat="43.21298198593517" lon="-6.054994178206241">
        <ele>274.0375579566066</ele>
        <time>2024-09-07T17:14:42Z</time>
      </trkpt>
    </trkseg>
    <trkseg>
      <trkpt lat="43.21248743354518" lon="-6.0532412796698045">
        <ele>274.2195806852426</ele>
        <time>2024-09-07T17:15:08Z</time>
      </trkpt>
      <trkpt lat="43.21246397892745" lon="-6.053190457390321">
        <ele>274.3934924005769</ele>
        <time>2024-09-07T17:15:09Z</time>
      </trkpt>
    </trkseg>
    <trkseg>
      <trkpt lat="43.2122457271818" lon="-6.052483575239369">
        <ele>274.38021711284824</ele>
        <time>2024-09-07T17:15:19Z</time>
      </trkpt>
      <trkpt lat="43.21226348478787" lon="-6.0524107168262455">
        <ele>273.7534780752322</ele>
        <time>2024-09-07T17:15:20Z</time>
      </trkpt>
      <trkpt lat="43.212281242393935" lon="-6.052337858413123">
        <ele>273.12673903761606</ele>
        <time>2024-09-07T17:15:21Z</time>
      </trkpt>
    </trkseg>
    <trkseg>
      <trkpt lat="43.21354654248461" lon="-6.05129209984139">
        <ele>271.0</ele>
        <time>2024-09-07T17:15:44Z</time>
      </trkpt>
      <trkpt lat="43.21359620731905" lon="-6.051250954876668">
        <ele>270.5698170238646</ele>
        <time>2024-09-07T17:15:45Z</time>
      </trkpt>
    </trkseg>
    <trkseg>
      <trkpt lat="43.214194375547955" lon="-6.050004734170908">
        <ele>268.8985579933818</ele>
        <time>2024-09-07T17:16:04Z</time>
      </trkpt>
      <trkpt lat="43.21421883734619" lon="-6.049936506033138">
        <ele>268.69036147660404</ele>
        <time>2024-09-07T17:16:05Z</time>
      </trkpt>
      <trkpt lat="43.214243062143" lon="-6.049868289005315">
        <ele>268.457803427208</ele>
        <time>2024-09-07T17:16:06Z</time>
      </trkpt>
      <trkpt lat="43.214267286939815" lon="-6.049800071977492">
        <ele>268.22524537781186</ele>
        <time>2024-09-07T17:16:07Z</time>
      </trkpt>
      <trkpt lat="43.214291511736626" lon="-6.049731854949669">
        <ele>267.99268732841574</ele>
        <time>2024-09-07T17:16:08Z</time>
      </trkpt>
    </trkseg>
    <trkseg>
      <trkpt lat="43.21452780509927" lon="-6.046551260907342">
        <ele>264.3958356933968</ele>
        <time>2024-09-07T17:16:52Z</time>
      </trkpt>
      <trkpt lat="43.214525650981514" lon="-6.046488666714418">
        <ele>265.47921478742194</ele>
        <time>2024-09-07T17:16:53Z</time>
      </trkpt>
    </trkseg>
    <trkseg>
      <trkpt lat="43.214713" lon="-6.043687">
        <ele>262.0</ele>
        <time>2024-09-07T17:17:42Z</time>
      </trkpt>
      <trkpt lat="43.21476717489184" lon="-6.043640840742097">
        <ele>262.4159257902533</ele>
        <time>2024-09-07T17:17:43Z</time>
      </trkpt>
    </trkseg>
    <trkseg>
      <trkpt lat="43.21731954655792" lon="-6.040883588979978">
        <ele>253.17187198017183</ele>
        <time>2024-09-07T17:19:01Z</time>
      </trkpt>
      <trkpt lat="43.217326856804796" lon="-6.040813445420653">
        <ele>253.24149337900496</ele>
        <time>2024-09-07T17:19:02Z</time>
      </trkpt>
      <trkpt lat="43.217334167051675" lon="-6.040743301861328">
        <ele>253.3111147778381</ele>
        <time>2024-09-07T17:19:03Z</time>
      </trkpt>
      <trkpt lat="43.217341477298554" lon="-6.0406731583020035">
        <ele>253.38073617667126</ele>
        <time>2024-09-07T17:19:04Z</time>
      </trkpt>
      <trkpt lat="43.217348787545426" lon="-6.040603014742679">
        <ele>253.4503575755044</ele>
        <time>2024-09-07T17:19:05Z</time>
      </trkpt>
    </trkseg>
    <trkseg>
      <trkpt lat="43.2175684759565" lon="-6.039524069898436">
        <ele>251.4209605416765</ele>
        <time>2024-09-07T17:19:24Z</time>
      </trkpt>
      <trkpt lat="43.21760694510105" lon="-6.0394805746344895">
        <ele>251.6529352827202</ele>
        <time>2024-09-07T17:19:25Z</time>
      </trkpt>
      <trkpt lat="43.21764541424561" lon="-6.039437079370544">
        <ele>251.8849100237639</ele>
        <time>2024-09-07T17:19:26Z</time>
      </trkpt>
      <trkpt lat="43.217683883390166" lon="-6.039393584106599">
        <ele>252.11688476480757</ele>
        <time>2024-09-07T17:19:27Z</time>
      </trkpt>
      <trkpt lat="43.21772235253472" lon="-6.039350088842653">
        <ele>252.34885950585127</ele>
        <time>2024-09-07T17:19:28Z</time>
      </trkpt>
    </trkseg>
    <trkseg>
      <trkpt lat="43.224904509417314" lon="-6.038660163527561">
        <ele>243.0</ele>
        <time>2024-09-07T17:22:26Z</time>
      </trkpt>
      <trkpt lat="43.22493643341481" lon="-6.038649661307261">
        <ele>242.87479902229575</ele>
        <time>2024-09-07T17:22:27Z</time>
      </trkpt>
      <trkpt lat="43.2249664402027" lon="-6.038639209923988">
        <ele>243.02167088955895</ele>
        <time>2024-09-07T17:22:28Z</time>
      </trkpt>
    </trkseg>
    <trkseg>
      <trkpt lat="43.225103259613626" lon="-6.038551928687514">
        <ele>243.01883011351683</ele>
        <time>2024-09-07T17:22:35Z</time>
      </trkpt>
      <trkpt lat="43.22511680785778" lon="-6.0385402075709615">
        <ele>243.20154287411228</ele>
        <time>2024-09-07T17:22:36Z</time>
      </trkpt>
    </trkseg>
    <trkseg>
      <trkpt lat="43.2286293870246" lon="-6.037098466039042">
        <ele>240.7551982353584</ele>
        <time>2024-09-07T17:25:35Z</time>
      </trkpt>
      <trkpt lat="43.2286512757845" lon="-6.037071251121391">
        <ele>241.12174887308572</ele>
        <time>2024-09-07T17:25:36Z</time>
      </trkpt>
      <trkpt lat="43.228673841685215" lon="-6.037043162098124">
        <ele>241.64250042804198</ele>
        <time>2024-09-07T17:25:37Z</time>
      </trkpt>
      <trkpt lat="43.228696407585936" lon="-6.037015073074857">
        <ele>242.16325198299825</ele>
        <time>2024-09-07T17:25:38Z</time>
      </trkpt>
      <trkpt lat="43.22871897348665" lon="-6.036986984051589">
        <ele>242.6840035379545</ele>
        <time>2024-09-07T17:25:39Z</time>
      </trkpt>
      <trkpt lat="43.228741539387364" lon="-6.036958895028322">
        <ele>243.20475509291074</ele>
        <time>2024-09-07T17:25:40Z</time>
      </trkpt>
    </trkseg>
    <trkseg>
      <trkpt lat="43.23671296647827" lon="-6.0306600420071055">
        <ele>222.91932746651625</ele>
        <time>2024-09-07T17:29:00Z</time>
      </trkpt>
      <trkpt lat="43.23677992751597" lon="-6.030652959589657">
        <ele>222.72617062702574</ele>
        <time>2024-09-07T17:29:01Z</time>
      </trkpt>
      <trkpt lat="43.23684688855366" lon="-6.030645877172209">
        <ele>222.5330137875352</ele>
        <time>2024-09-07T17:29:02Z</time>
      </trkpt>
      <trkpt lat="43.236913849591346" lon="-6.030638794754762">
        <ele>222.33985694804466</ele>
        <time>2024-09-07T17:29:03Z</time>
      </trkpt>
    </trkseg>
    <trkseg>
      <trkpt lat="43.239726936808644" lon="-6.030344849226482">
        <ele>218.0502578390949</ele>
        <time>2024-09-07T17:29:53Z</time>
      </trkpt>
      <trkpt lat="43.2397914974393" lon="-6.030323345253859">
        <ele>217.72931567325062</ele>
        <time>2024-09-07T17:29:54Z</time>
      </trkpt>
    </trkseg>
    <trkseg>
      <trkpt lat="43.245174592546505" lon="-6.024259151389465">
        <ele>205.74612654960887</ele>
        <time>2024-09-07T17:32:18Z</time>
      </trkpt>
      <trkpt lat="43.24526645375337" lon="-6.024269032873869">
        <ele>205.8559208207634</ele>
        <time>2024-09-07T17:32:19Z</time>
      </trkpt>
    </trkseg>
    <trkseg>
      <trkpt lat="43.246111815576946" lon="-6.024404942515183">
        <ele>204.64229939268833</ele>
        <time>2024-09-07T17:32:30Z</time>
      </trkpt>
      <trkpt lat="43.24616679234436" lon="-6.0244073867822845">
        <ele>204.5075478477374</ele>
        <time>2024-09-07T17:32:31Z</time>
      </trkpt>
      <trkpt lat="43.2462064798928" lon="-6.0244015067024">
        <ele>204.127516450915</ele>
        <time>2024-09-07T17:32:32Z</time>
      </trkpt>
      <trkpt lat="43.2462541091211" lon="-6.024383589087891">
        <ele>204.0</ele>
        <time>2024-09-07T17:32:33Z</time>
      </trkpt>
      <trkpt lat="43.24629188585303" lon="-6.024368072638978">
        <ele>204.06632076676763</ele>
        <time>2024-09-07T17:32:34Z</time>
      </trkpt>
    </trkseg>
    <trkseg>
      <trkpt lat="43.247577" lon="-6.023804">
        <ele>203.0</ele>
        <time>2024-09-07T17:33:01Z</time>
      </trkpt>
      <trkpt lat="43.247613199999996" lon="-6.0237918">
        <ele>202.86</ele>
        <time>2024-09-07T17:33:02Z</time>
      </trkpt>
      <trkpt lat="43.2476494" lon="-6.0237796">
        <ele>202.72</ele>
        <time>2024-09-07T17:33:03Z</time>
      </trkpt>
      <trkpt lat="43.2476856" lon="-6.0237674">
        <ele>202.58</ele>
        <time>2024-09-07T17:33:04Z</time>
      </trkpt>
      <trkpt lat="43.2477218" lon="-6.0237552">
        <ele>202.44</ele>
        <time>2024-09-07T17:33:05Z</time>
      </trkpt>
    </trkseg>
    <trkseg>
      <trkpt lat="43.24947961590612" lon="-6.0218791033173265">
        <ele>196.8944256123235</ele>
        <time>2024-09-07T17:34:03Z</time>
      </trkpt>
      <trkpt lat="43.24947069216617" lon="-6.021793088379481">
        <ele>197.21667177716031</ele>
        <time>2024-09-07T17:34:04Z</time>
      </trkpt>
      <trkpt lat="43.24946176842622" lon="-6.021707073441636">
        <ele>197.53891794199717</ele>
        <time>2024-09-07T17:34:05Z</time>
      </trkpt>
    </trkseg>
    <trkseg>
      <trkpt lat="43.24949662620944" lon="-6.011660512940613">
        <ele>196.53912954288114</ele>
        <time>2024-09-07T17:36:51Z</time>
      </trkpt>
      <trkpt lat="43.249537352524534" lon="-6.011636964025252">
        <ele>197.04388499280887</ele>
        <time>2024-09-07T17:36:52Z</time>
      </trkpt>
    </trkseg>
    <trkseg>
      <trkpt lat="43.25299059751588" lon="-6.008110731379656">
        <ele>197.87342208919407</ele>
        <time>2024-09-07T17:38:42Z</time>
      </trkpt>
      <trkpt lat="43.253028662801306" lon="-6.0080917898022195">
        <ele>197.4909479294215</ele>
        <time>2024-09-07T17:38:43Z</time>
      </trkpt>
      <trkpt lat="43.253066728086736" lon="-6.008072848224783">
        <ele>197.10847376964892</ele>
        <time>2024-09-07T17:38:44Z</time>
      </trkpt>
      <trkpt lat="43.25310479337216" lon="-6.008053906647347">
        <ele>196.72599960987637</ele>
        <time>2024-09-07T17:38:45Z</time>
      </trkpt>
      <trkpt lat="43.25314285865758" lon="-6.00803496506991">
        <ele>196.34352545010378</ele>
        <time>2024-09-07T17:38:46Z</time>
      </trkpt>
    </trkseg>
    <trkseg>
      <trkpt lat="43.255870191209276" lon="-6.005868030282341">
        <ele>197.0</ele>
        <time>2024-09-07T17:39:50Z</time>
      </trkpt>
      <trkpt lat="43.25590620215199" lon="-6.005806415680645">
        <ele>197.18001537136755</ele>
        <time>2024-09-07T17:39:51Z</time>
      </trkpt>
      <trkpt lat="43.255939422149766" lon="-6.005739738399399">
        <ele>197.41730106975513</ele>
        <time>2024-09-07T17:39:52Z</time>
      </trkpt>
      <trkpt lat="43.25597264214754" lon="-6.005673061118151">
        <ele>197.65458676814268</ele>
        <time>2024-09-07T17:39:53Z</time>
      </trkpt>
      <trkpt lat="43.256005862145315" lon="-6.005606383836905">
        <ele>197.89187246653026</ele>
        <time>2024-09-07T17:39:54Z</time>
      </trkpt>
    </trkseg>
    <trkseg>
      <trkpt lat="43.25635510303068" lon="-6.005603976795835">
        <ele>197.87209947937163</ele>
        <time>2024-09-07T17:40:01Z</time>
      </trkpt>
      <trkpt lat="43.25641478684911" lon="-6.005602074522738">
        <ele>197.6343153421892</ele>
        <time>2024-09-07T17:40:02Z</time>
      </trkpt>
      <trkpt lat="43.25647447066754" lon="-6.00560017224964">
        <ele>197.3965312050068</ele>
        <time>2024-09-07T17:40:03Z</time>
      </trkpt>
    </trkseg>
    <trkseg>
      <trkpt lat="43.27143436691158" lon="-6.00310573837402">
        <ele>176.97081772928988</ele>
        <time>2024-09-07T17:44:54Z</time>
      </trkpt>
      <trkpt lat="43.27147224628761" lon="-6.003116640948611">
        <ele>177.0</ele>
        <time>2024-09-07T17:44:55Z</time>
      </trkpt>
      <trkpt lat="43.27150891958322" lon="-6.003124653263869">
        <ele>177.0</ele>
        <time>2024-09-07T17:44:56Z</time>
      </trkpt>
    </trkseg>
    <trkseg>
      <trkpt lat="43.27389116736607" lon="-6.0015029379879365">
        <ele>171.0</ele>
        <time>2024-09-07T17:46:07Z</time>
      </trkpt>
      <trkpt lat="43.27394019925916" lon="-6.001483063737387">
        <ele>170.5886447822925</ele>
        <time>2024-09-07T17:46:08Z</time>
      </trkpt>
      <trkpt lat="43.27399163852205" lon="-6.001429435416623">
        <ele>170.9958922960132</ele>
        <time>2024-09-07T17:46:09Z</time>
      </trkpt>
    </trkseg>
    <trkseg>
      <trkpt lat="43.27391757072957" lon="-6.001166708667051">
        <ele>171.99563686229354</ele>
        <time>2024-09-07T17:46:24Z</time>
      </trkpt>
      <trkpt lat="43.27390617238563" lon="-6.001137611996216">
        <ele>171.3448257087995</ele>
        <time>2024-09-07T17:46:25Z</time>
      </trkpt>
      <trkpt lat="43.273893656336405" lon="-6.0011052788690495">
        <ele>170.5104224270914</ele>
        <time>2024-09-07T17:46:26Z</time>
      </trkpt>
      <trkpt lat="43.27388114028718" lon="-6.001072945741884">
        <ele>169.6760191453833</ele>
        <time>2024-09-07T17:46:27Z</time>
      </trkpt>
      <trkpt lat="43.273868624237956" lon="-6.001040612614717">
        <ele>168.8416158636752</ele>
        <time>2024-09-07T17:46:28Z</time>
      </trkpt>
      <trkpt lat="43.27385610818873" lon="-6.001008279487551">
        <ele>168.00721258196708</ele>
        <time>2024-09-07T17:46:29Z</time>
      </trkpt>
    </trkseg>
    <trkseg>
      <trkpt lat="43.278467896994734" lon="-5.9905209139765345">
        <ele>163.21944393799464</ele>
        <time>2024-09-07T17:52:14Z</time>
      </trkpt>
      <trkpt lat="43.27852380905413" lon="-5.990518262021148">
        <ele>162.53435546323806</ele>
        <time>2024-09-07T17:52:15Z</time>
      </trkpt>
      <trkpt lat="43.278579721113516" lon="-5.990515610065762">
        <ele>161.84926698848145</ele>
        <time>2024-09-07T17:52:16Z</time>
      </trkpt>
      <trkpt lat="43.27863563317291" lon="-5.990512958110376">
        <ele>161.16417851372486</ele>
        <time>2024-09-07T17:52:17Z</time>
      </trkpt>
    </trkseg>
    <trkseg>
      <trkpt lat="43.280471508812504" lon="-5.991021025125818">
        <ele>159.02966324016006</ele>
        <time>2024-09-07T17:52:52Z</time>
      </trkpt>
      <trkpt lat="43.28052339626998" lon="-5.99097528223568">
        <ele>159.37102809193775</ele>
        <time>2024-09-07T17:52:53Z</time>
      </trkpt>
      <trkpt lat="43.280575283727444" lon="-5.990929539345542">
        <ele>159.71239294371543</ele>
        <time>2024-09-07T17:52:54Z</time>
      </trkpt>
    </trkseg>
    <trkseg>
      <trkpt lat="43.283197391355344" lon="-5.988355961191177">
        <ele>153.79924677020225</ele>
        <time>2024-09-07T17:53:59Z</time>
      </trkpt>
      <trkpt lat="43.283249202791644" lon="-5.98831593358335">
        <ele>153.98629166658873</ele>
        <time>2024-09-07T17:54:00Z</time>
      </trkpt>
    </trkseg>
    <trkseg>
      <trkpt lat="43.287015" lon="-5.98418">
        <ele>151.0</ele>
        <time>2024-09-07T17:55:44Z</time>
      </trkpt>
      <trkpt lat="43.28706566177709" lon="-5.984207467228544">
        <ele>152.03765085612298</ele>
        <time>2024-09-07T17:55:45Z</time>
      </trkpt>
    </trkseg>
    <trkseg>
      <trkpt lat="43.288366" lon="-5.985392">
        <ele>151.6</ele>
        <time>2024-09-07T17:56:38Z</time>
      </trkpt>
      <trkpt lat="43.28841477158457" lon="-5.985397039368546">
        <ele>152.64330540057708</ele>
        <time>2024-09-07T17:56:39Z</time>
      </trkpt>
    </trkseg>
    <trkseg>
      <trkpt lat="43.291729018456294" lon="-5.984066952785879">
        <ele>150.89712421766433</ele>
        <time>2024-09-07T17:57:34Z</time>
      </trkpt>
      <trkpt lat="43.29178410682928" lon="-5.984009402362707">
        <ele>150.65091919874422</ele>
        <time>2024-09-07T17:57:35Z</time>
      </trkpt>
      <trkpt lat="43.291839195202265" lon="-5.983951851939534">
        <ele>150.40471417982414</ele>
        <time>2024-09-07T17:57:36Z</time>
      </trkpt>
      <trkpt lat="43.291894283575246" lon="-5.9838943015163615">
        <ele>150.15850916090406</ele>
        <time>2024-09-07T17:57:37Z</time>
      </trkpt>
      <trkpt lat="43.291949371948235" lon="-5.983836751093189">
        <ele>149.91230414198398</ele>
        <time>2024-09-07T17:57:38Z</time>
      </trkpt>
    </trkseg>
    <trkseg>
      <trkpt lat="43.294331" lon="-5.983304">
        <ele>143.0</ele>
        <time>2024-09-07T17:58:46Z</time>
      </trkpt>
      <trkpt lat="43.29426" lon="-5.983346">
        <ele>143.0</ele>
        <time>2024-09-07T17:58:47Z</time>
      </trkpt>
      <trkpt lat="43.29414575601785" lon="-5.98322383461011">
        <ele>144.0</ele>
        <time>2024-09-07T17:58:48Z</time>
      </trkpt>
    </trkseg>
  </trk>
</gpx>