<?xml version="1.0" encoding="UTF-8"?>
<gpx xmlns="http://www.topografix.com/GPX/1/1" xmlns:xsi="http://www.w3.org/2001/XMLSchema-instance" xsi:schemaLocation="http://www.topografix.com/GPX/1/1 http://www.topografix.com/GPX/1/1/gpx.xsd" version="1.1" creator="gpx.py -- https://github.com/tkrajina/gpxpy">
  <wpt lat="43.3255330603645" lon="-4.260954330263525">
    <ele>216.45852261720125</ele>
    <time>2024-09-08T08:53:37Z</time>
    <name>ANOM:DZ_HAMPEL</name>
    <desc>Tramo #1 (6-7), dur=2s
Causas: DZ_HAMPEL
vh_max=6.22 km/h | grade_ext=-13.3% | vz_ext=-13.8 m/min
max|dx|=1.32 m/s, max|dy|=1.12 m/s, max|dz|=0.23 m/s</desc>
  </wpt>
  <wpt lat="43.325423" lon="-4.261047">
    <ele>216.0</ele>
    <time>2024-09-08T08:53:48Z</time>
    <name>ANOM:DZ_HAMPEL</name>
    <desc>Tramo #2 (17-22), dur=6s
Causas: DZ_HAMPEL
vh_max=3.42 km/h | grade_ext=-17.5% | vz_ext=-10.0 m/min
max|dx|=0.34 m/s, max|dy|=0.89 m/s, max|dz|=0.17 m/s</desc>
  </wpt>
  <wpt lat="43.3251" lon="-4.261062">
    <ele>214.0</ele>
    <time>2024-09-08T08:54:22Z</time>
    <name>ANOM:DZ_HAMPEL</name>
    <desc>Tramo #3 (51-55), dur=5s
Causas: DZ_HAMPEL
vh_max=3.32 km/h | grade_ext=-21.7% | vz_ext=-12.0 m/min
max|dx|=0.13 m/s, max|dy|=0.91 m/s, max|dz|=0.20 m/s</desc>
  </wpt>
  <wpt lat="43.324434" lon="-4.261786">
    <ele>220.0</ele>
    <time>2024-09-08T08:56:51Z</time>
    <name>ANOM:DZ_HAMPEL</name>
    <desc>Tramo #4 (200-206), dur=7s
Causas: DZ_HAMPEL
vh_max=4.03 km/h | grade_ext=12.8% | vz_ext=8.6 m/min
max|dx|=0.39 m/s, max|dy|=1.05 m/s, max|dz|=0.14 m/s</desc>
  </wpt>
  <wpt lat="43.323608166666666" lon="-4.261827666666666">
    <ele>229.06666666666666</ele>
    <time>2024-09-08T08:58:12Z</time>
    <name>ANOM:DZ_HAMPEL</name>
    <desc>Tramo #5 (281-285), dur=5s
Causas: DZ_HAMPEL
vh_max=4.39 km/h | grade_ext=5.5% | vz_ext=4.0 m/min
max|dx|=0.19 m/s, max|dy|=1.20 m/s, max|dz|=0.07 m/s</desc>
  </wpt>
  <wpt lat="43.32344" lon="-4.261816">
    <ele>230.0</ele>
    <time>2024-09-08T08:58:28Z</time>
    <name>ANOM:DZ_HAMPEL</name>
    <desc>Tramo #6 (297-301), dur=5s
Causas: DZ_HAMPEL
vh_max=5.53 km/h | grade_ext=-13.0% | vz_ext=-12.0 m/min
max|dx|=0.06 m/s, max|dy|=1.53 m/s, max|dz|=0.20 m/s</desc>
  </wpt>
  <wpt lat="43.323225" lon="-4.26203">
    <ele>228.0</ele>
    <time>2024-09-08T08:58:52Z</time>
    <name>ANOM:DZ_HAMPEL</name>
    <desc>Tramo #7 (321-326), dur=6s
Causas: DZ_HAMPEL
vh_max=4.89 km/h | grade_ext=-2.5% | vz_ext=-2.0 m/min
max|dx|=1.17 m/s, max|dy|=0.69 m/s, max|dz|=0.03 m/s</desc>
  </wpt>
  <wpt lat="43.322762" lon="-4.262665">
    <ele>220.0</ele>
    <time>2024-09-08T08:59:49Z</time>
    <name>ANOM:DZ_HAMPEL</name>
    <desc>Tramo #8 (378-382), dur=5s
Causas: DZ_HAMPEL
vh_max=4.68 km/h | grade_ext=-11.0% | vz_ext=-8.6 m/min
max|dx|=0.81 m/s, max|dy|=1.02 m/s, max|dz|=0.14 m/s</desc>
  </wpt>
  <wpt lat="43.322714" lon="-4.266273">
    <ele>178.1</ele>
    <time>2024-09-08T09:04:32Z</time>
    <name>ANOM:DZ_HAMPEL</name>
    <desc>Tramo #9 (661-664), dur=4s
Causas: DZ_HAMPEL
vh_max=5.56 km/h | grade_ext=-1.6% | vz_ext=-1.5 m/min
max|dx|=0.36 m/s, max|dy|=1.50 m/s, max|dz|=0.03 m/s</desc>
  </wpt>
  <wpt lat="43.322532" lon="-4.266317">
    <ele>176.0</ele>
    <time>2024-09-08T09:04:46Z</time>
    <name>ANOM:DZ_HAMPEL</name>
    <desc>Tramo #10 (675-679), dur=5s
Causas: DZ_HAMPEL
vh_max=4.89 km/h | grade_ext=-12.3% | vz_ext=-10.0 m/min
max|dx|=0.13 m/s, max|dy|=1.35 m/s, max|dz|=0.17 m/s</desc>
  </wpt>
  <wpt lat="43.322327" lon="-4.267141">
    <ele>156.0</ele>
    <time>2024-09-08T09:06:26Z</time>
    <name>ANOM:DZ_HAMPEL</name>
    <desc>Tramo #11 (775-784), dur=10s
Causas: DZ_HAMPEL
vh_max=4.96 km/h | grade_ext=-14.5% | vz_ext=-12.0 m/min
max|dx|=0.53 m/s, max|dy|=1.31 m/s, max|dz|=0.20 m/s</desc>
  </wpt>
  <wpt lat="43.3221" lon="-4.266973">
    <ele>153.0</ele>
    <time>2024-09-08T09:06:52Z</time>
    <name>ANOM:DZ_HAMPEL</name>
    <desc>Tramo #12 (801-806), dur=6s
Causas: DZ_HAMPEL
vh_max=5.58 km/h | grade_ext=-22.6% | vz_ext=-21.0 m/min
max|dx|=0.73 m/s, max|dy|=1.39 m/s, max|dz|=0.35 m/s</desc>
  </wpt>
  <wpt lat="43.321771" lon="-4.266275">
    <ele>153.0</ele>
    <time>2024-09-08T09:08:22Z</time>
    <name>ANOM:DZ_HAMPEL</name>
    <desc>Tramo #13 (891-895), dur=5s
Causas: DZ_HAMPEL
vh_max=8.98 km/h | grade_ext=12.3% | vz_ext=18.3 m/min
max|dx|=2.45 m/s, max|dy|=0.92 m/s, max|dz|=0.31 m/s</desc>
  </wpt>
  <wpt lat="43.322078833333336" lon="-4.266945166666667">
    <ele>153.05</ele>
    <time>2024-09-08T09:11:26Z</time>
    <name>ANOM:DZ_HAMPEL</name>
    <desc>Tramo #14 (1075-1079), dur=5s
Causas: DZ_HAMPEL
vh_max=4.95 km/h | grade_ext=3.6% | vz_ext=3.0 m/min
max|dx|=0.66 m/s, max|dy|=1.20 m/s, max|dz|=0.05 m/s</desc>
  </wpt>
  <wpt lat="43.322218" lon="-4.267063">
    <ele>155.0</ele>
    <time>2024-09-08T09:11:40Z</time>
    <name>ANOM:DZ_HAMPEL</name>
    <desc>Tramo #15 (1089-1100), dur=12s
Causas: DZ_HAMPEL
vh_max=5.10 km/h | grade_ext=11.8% | vz_ext=10.0 m/min
max|dx|=0.65 m/s, max|dy|=1.37 m/s, max|dz|=0.17 m/s</desc>
  </wpt>
  <wpt lat="43.322457" lon="-4.267151">
    <ele>156.0</ele>
    <time>2024-09-08T09:12:00Z</time>
    <name>ANOM:DZ_HAMPEL</name>
    <desc>Tramo #16 (1109-1111), dur=3s
Causas: DZ_HAMPEL
vh_max=7.67 km/h | grade_ext=28.4% | vz_ext=18.0 m/min
max|dx|=1.98 m/s, max|dy|=0.78 m/s, max|dz|=0.30 m/s</desc>
  </wpt>
  <wpt lat="43.322147333333334" lon="-4.266229666666667">
    <ele>169.16666666666666</ele>
    <time>2024-09-08T09:13:19Z</time>
    <name>ANOM:DZ_HAMPEL</name>
    <desc>Tramo #17 (1188-1190), dur=3s
Causas: DZ_HAMPEL
vh_max=4.66 km/h | grade_ext=18.0% | vz_ext=14.0 m/min
max|dx|=0.51 m/s, max|dy|=1.26 m/s, max|dz|=0.23 m/s</desc>
  </wpt>
  <wpt lat="43.322826" lon="-4.266208">
    <ele>180.0</ele>
    <time>2024-09-08T09:14:28Z</time>
    <name>ANOM:DZ_HAMPEL</name>
    <desc>Tramo #18 (1257-1259), dur=3s
Causas: DZ_HAMPEL
vh_max=4.40 km/h | grade_ext=0.0% | vz_ext=0.0 m/min
max|dx|=0.70 m/s, max|dy|=1.00 m/s, max|dz|=0.00 m/s</desc>
  </wpt>
  <wpt lat="43.322859" lon="-4.265653">
    <ele>186.0</ele>
    <time>2024-09-08T09:15:13Z</time>
    <name>ANOM:DZ_HAMPEL</name>
    <desc>Tramo #19 (1302-1308), dur=7s
Causas: DZ_HAMPEL
vh_max=4.10 km/h | grade_ext=12.5% | vz_ext=8.6 m/min
max|dx|=0.83 m/s, max|dy|=0.78 m/s, max|dz|=0.14 m/s</desc>
  </wpt>
  <wpt lat="43.32268671428571" lon="-4.265367857142857">
    <ele>190.02857142857144</ele>
    <time>2024-09-08T09:15:39Z</time>
    <name>ANOM:DZ_HAMPEL</name>
    <desc>Tramo #20 (1328-1330), dur=3s
Causas: DZ_HAMPEL
vh_max=4.11 km/h | grade_ext=21.3% | vz_ext=14.6 m/min
max|dx|=1.03 m/s, max|dy|=0.49 m/s, max|dz|=0.24 m/s</desc>
  </wpt>
  <wpt lat="43.322669" lon="-4.265317">
    <ele>191.0</ele>
    <time>2024-09-08T09:15:43Z</time>
    <name>ANOM:DZ_HAMPEL</name>
    <desc>Tramo #21 (1332-1337), dur=6s
Causas: DZ_HAMPEL
vh_max=3.86 km/h | grade_ext=4.7% | vz_ext=3.0 m/min
max|dx|=0.98 m/s, max|dy|=0.43 m/s, max|dz|=0.05 m/s</desc>
  </wpt>
  <wpt lat="43.322314" lon="-4.264202">
    <ele>202.5</ele>
    <time>2024-09-08T09:17:17Z</time>
    <name>ANOM:DZ_HAMPEL</name>
    <desc>Tramo #22 (1426-1427), dur=2s
Causas: DZ_HAMPEL
vh_max=3.40 km/h | grade_ext=-5.3% | vz_ext=-3.0 m/min
max|dx|=0.93 m/s, max|dy|=0.17 m/s, max|dz|=0.05 m/s</desc>
  </wpt>
  <wpt lat="43.322296" lon="-4.263829">
    <ele>205.0</ele>
    <time>2024-09-08T09:17:45Z</time>
    <name>ANOM:DZ_HAMPEL</name>
    <desc>Tramo #23 (1454-1456), dur=3s
Causas: DZ_HAMPEL
vh_max=6.28 km/h | grade_ext=4.3% | vz_ext=3.4 m/min
max|dx|=1.70 m/s, max|dy|=0.69 m/s, max|dz|=0.06 m/s</desc>
  </wpt>
  <wpt lat="43.322071" lon="-4.263853">
    <ele>205.0</ele>
    <time>2024-09-08T09:18:07Z</time>
    <name>ANOM:DZ_HAMPEL</name>
    <desc>Tramo #24 (1476-1481), dur=6s
Causas: DZ_HAMPEL
vh_max=7.13 km/h | grade_ext=17.8% | vz_ext=-16.0 m/min
max|dx|=0.75 m/s, max|dy|=1.96 m/s, max|dz|=0.27 m/s</desc>
  </wpt>
  <wpt lat="43.321196" lon="-4.263191">
    <ele>197.0</ele>
    <time>2024-09-08T09:20:14Z</time>
    <name>ANOM:DZ_HAMPEL</name>
    <desc>Tramo #25 (1603-1604), dur=2s
Causas: DZ_HAMPEL
vh_max=4.61 km/h | grade_ext=-35.2% | vz_ext=-27.0 m/min
max|dx|=0.04 m/s, max|dy|=1.28 m/s, max|dz|=0.45 m/s</desc>
  </wpt>
  <wpt lat="43.3209295" lon="-4.26336025">
    <ele>193.14999999999998</ele>
    <time>2024-09-08T09:20:38Z</time>
    <name>ANOM:DZ_HAMPEL</name>
    <desc>Tramo #26 (1627-1629), dur=3s
Causas: DZ_HAMPEL
vh_max=3.86 km/h | grade_ext=-4.7% | vz_ext=-3.0 m/min
max|dx|=1.07 m/s, max|dy|=0.06 m/s, max|dz|=0.05 m/s</desc>
  </wpt>
  <wpt lat="43.321101" lon="-4.26389">
    <ele>188.0</ele>
    <time>2024-09-08T09:21:12Z</time>
    <name>ANOM:DZ_HAMPEL</name>
    <desc>Tramo #27 (1661-1663), dur=3s
Causas: DZ_HAMPEL
vh_max=4.55 km/h | grade_ext=-15.8% | vz_ext=-12.0 m/min
max|dx|=0.87 m/s, max|dy|=0.91 m/s, max|dz|=0.20 m/s</desc>
  </wpt>
  <wpt lat="43.320591" lon="-4.26394">
    <ele>174.7</ele>
    <time>2024-09-08T09:22:47Z</time>
    <name>ANOM:DZ_HAMPEL</name>
    <desc>Tramo #28 (1756-1757), dur=2s
Causas: DZ_HAMPEL
vh_max=4.05 km/h | grade_ext=-26.7% | vz_ext=-18.0 m/min
max|dx|=0.16 m/s, max|dy|=1.11 m/s, max|dz|=0.30 m/s</desc>
  </wpt>
  <wpt lat="43.319223" lon="-4.262067">
    <ele>154.9</ele>
    <time>2024-09-08T09:26:35Z</time>
    <name>ANOM:DZ_HAMPEL</name>
    <desc>Tramo #29 (1984-1990), dur=7s
Causas: DZ_HAMPEL
vh_max=5.03 km/h | grade_ext=-9.2% | vz_ext=-7.7 m/min
max|dx|=0.36 m/s, max|dy|=1.35 m/s, max|dz|=0.13 m/s</desc>
  </wpt>
  <wpt lat="43.318807" lon="-4.261783">
    <ele>151.4</ele>
    <time>2024-09-08T09:27:15Z</time>
    <name>ANOM:DZ_HAMPEL</name>
    <desc>Tramo #30 (2024-2029), dur=6s
Causas: DZ_HAMPEL
vh_max=4.90 km/h | grade_ext=-4.9% | vz_ext=-4.0 m/min
max|dx|=0.90 m/s, max|dy|=1.02 m/s, max|dz|=0.07 m/s</desc>
  </wpt>
  <wpt lat="43.31856" lon="-4.26083">
    <ele>145.0</ele>
    <time>2024-09-08T09:28:46Z</time>
    <name>ANOM:DZ_HAMPEL</name>
    <desc>Tramo #31 (2115-2118), dur=4s
Causas: DZ_HAMPEL
vh_max=3.83 km/h | grade_ext=23.5% | vz_ext=15.0 m/min
max|dx|=0.36 m/s, max|dy|=1.00 m/s, max|dz|=0.25 m/s</desc>
  </wpt>
  <wpt lat="43.31905812156341" lon="-4.26003485328554">
    <ele>155.20670694673368</ele>
    <time>2024-09-08T09:33:27Z</time>
    <name>ANOM:GRADE_UP</name>
    <desc>Tramo #32 (2396-2409), dur=14s
Causas: GRADE_UP
vh_max=1.09 km/h | grade_ext=37.3% | vz_ext=6.8 m/min
max|dx|=0.20 m/s, max|dy|=0.23 m/s, max|dz|=0.11 m/s</desc>
  </wpt>
  <wpt lat="43.319686" lon="-4.258795">
    <ele>170.5</ele>
    <time>2024-09-08T09:43:16Z</time>
    <name>ANOM:GRADE_UP</name>
    <desc>Tramo #33 (2985-3050), dur=66s
Causas: GRADE_UP
vh_max=1.35 km/h | grade_ext=37.8% | vz_ext=7.9 m/min
max|dx|=0.35 m/s, max|dy|=0.32 m/s, max|dz|=0.13 m/s</desc>
  </wpt>
  <wpt lat="43.319323" lon="-4.260136">
    <ele>163.2</ele>
    <time>2024-09-08T09:55:35Z</time>
    <name>ANOM:DZ_HAMPEL</name>
    <desc>Tramo #34 (3724-3726), dur=3s
Causas: DZ_HAMPEL
vh_max=4.51 km/h | grade_ext=0.0% | vz_ext=0.0 m/min
max|dx|=0.40 m/s, max|dy|=1.19 m/s, max|dz|=0.00 m/s</desc>
  </wpt>
  <wpt lat="43.318817" lon="-4.260609">
    <ele>148.0</ele>
    <time>2024-09-08T09:57:29Z</time>
    <name>ANOM:DZ_HAMPEL</name>
    <desc>Tramo #35 (3838-3843), dur=6s
Causas: DZ_HAMPEL
vh_max=3.37 km/h | grade_ext=0.0% | vz_ext=0.0 m/min
max|dx|=0.90 m/s, max|dy|=0.24 m/s, max|dz|=0.00 m/s</desc>
  </wpt>
  <wpt lat="43.319043148821414" lon="-4.260336225980434">
    <ele>153.98283479188407</ele>
    <time>2024-09-08T09:58:09Z</time>
    <name>ANOM:DZ_HAMPEL,GRADE_UP</name>
    <desc>Tramo #36 (3878-3883), dur=6s
Causas: DZ_HAMPEL,GRADE_UP
vh_max=2.79 km/h | grade_ext=35.1% | vz_ext=16.3 m/min
max|dx|=0.57 m/s, max|dy|=0.53 m/s, max|dz|=0.27 m/s</desc>
  </wpt>
  <wpt lat="43.319699" lon="-4.258789">
    <ele>170.9</ele>
    <time>2024-09-08T10:15:35Z</time>
    <name>ANOM:GRADE_UP</name>
    <desc>Tramo #37 (4924-4952), dur=29s
Causas: GRADE_UP
vh_max=1.53 km/h | grade_ext=38.8% | vz_ext=9.9 m/min
max|dx|=0.13 m/s, max|dy|=0.41 m/s, max|dz|=0.17 m/s</desc>
  </wpt>
  <wpt lat="43.320043" lon="-4.258879">
    <ele>183.4</ele>
    <time>2024-09-08T10:18:12Z</time>
    <name>ANOM:DZ_HAMPEL</name>
    <desc>Tramo #38 (5081-5084), dur=4s
Causas: DZ_HAMPEL
vh_max=9.96 km/h | grade_ext=15.4% | vz_ext=25.5 m/min
max|dx|=2.33 m/s, max|dy|=1.50 m/s, max|dz|=0.43 m/s</desc>
  </wpt>
  <wpt lat="43.325329" lon="-4.260985">
    <ele>215.0</ele>
    <time>2024-09-08T10:35:57Z</time>
    <name>ANOM:DZ_HAMPEL</name>
    <desc>Tramo #39 (6146-6152), dur=7s
Causas: DZ_HAMPEL
vh_max=5.12 km/h | grade_ext=0.0% | vz_ext=0.0 m/min
max|dx|=0.27 m/s, max|dy|=1.40 m/s, max|dz|=0.00 m/s</desc>
  </wpt>
  <trk>
    <name>14_aligned_pattern_resampled_anomalies</name>
    <trkseg>
      <trkpt lat="43.3255330603645" lon="-4.260954330263525">
        <ele>216.45852261720125</ele>
        <time>2024-09-08T08:53:37Z</time>
      </trkpt>
      <trkpt lat="43.325523030182254" lon="-4.2609706651317625">
        <ele>216.22926130860063</ele>
        <time>2024-09-08T08:53:38Z</time>
      </trkpt>
    </trkseg>
    <trkseg>
      <trkpt lat="43.325423" lon="-4.261047">
        <ele>216.0</ele>
        <time>2024-09-08T08:53:48Z</time>
      </trkpt>
      <trkpt lat="43.325415" lon="-4.261051166666666">
        <ele>215.83333333333334</ele>
        <time>2024-09-08T08:53:49Z</time>
      </trkpt>
      <trkpt lat="43.325407" lon="-4.261055333333333">
        <ele>215.66666666666666</ele>
        <time>2024-09-08T08:53:50Z</time>
      </trkpt>
      <trkpt lat="43.325399000000004" lon="-4.2610595">
        <ele>215.5</ele>
        <time>2024-09-08T08:53:51Z</time>
      </trkpt>
      <trkpt lat="43.325391" lon="-4.261063666666667">
        <ele>215.33333333333334</ele>
        <time>2024-09-08T08:53:52Z</time>
      </trkpt>
      <trkpt lat="43.325383" lon="-4.261067833333334">
        <ele>215.16666666666666</ele>
        <time>2024-09-08T08:53:53Z</time>
      </trkpt>
    </trkseg>
    <trkseg>
      <trkpt lat="43.3251" lon="-4.261062">
        <ele>214.0</ele>
        <time>2024-09-08T08:54:22Z</time>
      </trkpt>
      <trkpt lat="43.3250918" lon="-4.2610604">
        <ele>213.8</ele>
        <time>2024-09-08T08:54:23Z</time>
      </trkpt>
      <trkpt lat="43.3250836" lon="-4.2610588">
        <ele>213.6</ele>
        <time>2024-09-08T08:54:24Z</time>
      </trkpt>
      <trkpt lat="43.3250754" lon="-4.2610572">
        <ele>213.4</ele>
        <time>2024-09-08T08:54:25Z</time>
      </trkpt>
      <trkpt lat="43.3250672" lon="-4.2610556">
        <ele>213.2</ele>
        <time>2024-09-08T08:54:26Z</time>
      </trkpt>
    </trkseg>
    <trkseg>
      <trkpt lat="43.324434" lon="-4.261786">
        <ele>220.0</ele>
        <time>2024-09-08T08:56:51Z</time>
      </trkpt>
      <trkpt lat="43.324424571428565" lon="-4.261790857142857">
        <ele>220.14285714285714</ele>
        <time>2024-09-08T08:56:52Z</time>
      </trkpt>
      <trkpt lat="43.32441514285714" lon="-4.261795714285714">
        <ele>220.28571428571428</ele>
        <time>2024-09-08T08:56:53Z</time>
      </trkpt>
      <trkpt lat="43.32440571428571" lon="-4.261800571428571">
        <ele>220.42857142857142</ele>
        <time>2024-09-08T08:56:54Z</time>
      </trkpt>
      <trkpt lat="43.324396285714286" lon="-4.261805428571429">
        <ele>220.57142857142858</ele>
        <time>2024-09-08T08:56:55Z</time>
      </trkpt>
      <trkpt lat="43.324386857142855" lon="-4.261810285714286">
        <ele>220.71428571428572</ele>
        <time>2024-09-08T08:56:56Z</time>
      </trkpt>
      <trkpt lat="43.32437742857143" lon="-4.261815142857143">
        <ele>220.85714285714286</ele>
        <time>2024-09-08T08:56:57Z</time>
      </trkpt>
    </trkseg>
    <trkseg>
      <trkpt lat="43.323608166666666" lon="-4.261827666666666">
        <ele>229.06666666666666</ele>
        <time>2024-09-08T08:58:12Z</time>
      </trkpt>
      <trkpt lat="43.32359733333333" lon="-4.261825333333333">
        <ele>229.13333333333333</ele>
        <time>2024-09-08T08:58:13Z</time>
      </trkpt>
      <trkpt lat="43.323586500000005" lon="-4.261823">
        <ele>229.2</ele>
        <time>2024-09-08T08:58:14Z</time>
      </trkpt>
      <trkpt lat="43.32357566666667" lon="-4.261820666666666">
        <ele>229.26666666666668</ele>
        <time>2024-09-08T08:58:15Z</time>
      </trkpt>
      <trkpt lat="43.323564833333336" lon="-4.261818333333333">
        <ele>229.33333333333334</ele>
        <time>2024-09-08T08:58:16Z</time>
      </trkpt>
    </trkseg>
    <trkseg>
      <trkpt lat="43.32344" lon="-4.261816">
        <ele>230.0</ele>
        <time>2024-09-08T08:58:28Z</time>
      </trkpt>
      <trkpt lat="43.3234262" lon="-4.2618168">
        <ele>229.8</ele>
        <time>2024-09-08T08:58:29Z</time>
      </trkpt>
      <trkpt lat="43.3234124" lon="-4.2618176">
        <ele>229.6</ele>
        <time>2024-09-08T08:58:30Z</time>
      </trkpt>
      <trkpt lat="43.3233986" lon="-4.2618184">
        <ele>229.4</ele>
        <time>2024-09-08T08:58:31Z</time>
      </trkpt>
      <trkpt lat="43.3233848" lon="-4.2618192">
        <ele>229.2</ele>
        <time>2024-09-08T08:58:32Z</time>
      </trkpt>
    </trkseg>
    <trkseg>
      <trkpt lat="43.323225" lon="-4.26203">
        <ele>228.0</ele>
        <time>2024-09-08T08:58:52Z</time>
      </trkpt>
      <trkpt lat="43.323218833333335" lon="-4.2620445">
        <ele>227.96666666666667</ele>
        <time>2024-09-08T08:58:53Z</time>
      </trkpt>
      <trkpt lat="43.32321266666667" lon="-4.262059">
        <ele>227.93333333333334</ele>
        <time>2024-09-08T08:58:54Z</time>
      </trkpt>
      <trkpt lat="43.3232065" lon="-4.2620735">
        <ele>227.9</ele>
        <time>2024-09-08T08:58:55Z</time>
      </trkpt>
      <trkpt lat="43.32320033333333" lon="-4.262088">
        <ele>227.86666666666667</ele>
        <time>2024-09-08T08:58:56Z</time>
      </trkpt>
      <trkpt lat="43.32319416666667" lon="-4.2621025">
        <ele>227.83333333333334</ele>
        <time>2024-09-08T08:58:57Z</time>
      </trkpt>
    </trkseg>
    <trkseg>
      <trkpt lat="43.322762" lon="-4.262665">
        <ele>220.0</ele>
        <time>2024-09-08T08:59:49Z</time>
      </trkpt>
      <trkpt lat="43.32275285714285" lon="-4.262675">
        <ele>219.85714285714286</ele>
        <time>2024-09-08T08:59:50Z</time>
      </trkpt>
      <trkpt lat="43.322743714285714" lon="-4.262685">
        <ele>219.71428571428572</ele>
        <time>2024-09-08T08:59:51Z</time>
      </trkpt>
      <trkpt lat="43.32273457142857" lon="-4.262695">
        <ele>219.57142857142858</ele>
        <time>2024-09-08T08:59:52Z</time>
      </trkpt>
      <trkpt lat="43.32272542857143" lon="-4.262705">
        <ele>219.42857142857142</ele>
        <time>2024-09-08T08:59:53Z</time>
      </trkpt>
    </trkseg>
    <trkseg>
      <trkpt lat="43.322714" lon="-4.266273">
        <ele>178.1</ele>
        <time>2024-09-08T09:04:32Z</time>
      </trkpt>
      <trkpt lat="43.322700499999996" lon="-4.2662775">
        <ele>178.075</ele>
        <time>2024-09-08T09:04:33Z</time>
      </trkpt>
      <trkpt lat="43.322687" lon="-4.266282">
        <ele>178.05</ele>
        <time>2024-09-08T09:04:34Z</time>
      </trkpt>
      <trkpt lat="43.3226735" lon="-4.2662865">
        <ele>178.025</ele>
        <time>2024-09-08T09:04:35Z</time>
      </trkpt>
    </trkseg>
    <trkseg>
      <trkpt lat="43.322532" lon="-4.266317">
        <ele>176.0</ele>
        <time>2024-09-08T09:04:46Z</time>
      </trkpt>
      <trkpt lat="43.32251983333334" lon="-4.266318666666667">
        <ele>175.83333333333334</ele>
        <time>2024-09-08T09:04:47Z</time>
      </trkpt>
      <trkpt lat="43.32250766666667" lon="-4.266320333333334">
        <ele>175.66666666666666</ele>
        <time>2024-09-08T09:04:48Z</time>
      </trkpt>
      <trkpt lat="43.3224955" lon="-4.266322000000001">
        <ele>175.5</ele>
        <time>2024-09-08T09:04:49Z</time>
      </trkpt>
      <trkpt lat="43.32248333333334" lon="-4.266323666666667">
        <ele>175.33333333333334</ele>
        <time>2024-09-08T09:04:50Z</time>
      </trkpt>
    </trkseg>
    <trkseg>
      <trkpt lat="43.322327" lon="-4.267141">
        <ele>156.0</ele>
        <time>2024-09-08T09:06:26Z</time>
      </trkpt>
      <trkpt lat="43.3223152" lon="-4.2671358">
        <ele>155.8</ele>
        <time>2024-09-08T09:06:27Z</time>
      </trkpt>
      <trkpt lat="43.3223034" lon="-4.2671306">
        <ele>155.6</ele>
        <time>2024-09-08T09:06:28Z</time>
      </trkpt>
      <trkpt lat="43.3222916" lon="-4.2671254">
        <ele>155.4</ele>
        <time>2024-09-08T09:06:29Z</time>
      </trkpt>
      <trkpt lat="43.322279800000004" lon="-4.2671202">
        <ele>155.2</ele>
        <time>2024-09-08T09:06:30Z</time>
      </trkpt>
      <trkpt lat="43.322268" lon="-4.267115">
        <ele>155.0</ele>
        <time>2024-09-08T09:06:31Z</time>
      </trkpt>
      <trkpt lat="43.3222578" lon="-4.267108400000001">
        <ele>155.0</ele>
        <time>2024-09-08T09:06:32Z</time>
      </trkpt>
      <trkpt lat="43.322247600000004" lon="-4.267101800000001">
        <ele>155.0</ele>
        <time>2024-09-08T09:06:33Z</time>
      </trkpt>
      <trkpt lat="43.3222374" lon="-4.2670952">
        <ele>155.0</ele>
        <time>2024-09-08T09:06:34Z</time>
      </trkpt>
      <trkpt lat="43.3222272" lon="-4.2670886">
        <ele>155.0</ele>
        <time>2024-09-08T09:06:35Z</time>
      </trkpt>
    </trkseg>
    <trkseg>
      <trkpt lat="43.3221" lon="-4.266973">
        <ele>153.0</ele>
        <time>2024-09-08T09:06:52Z</time>
      </trkpt>
      <trkpt lat="43.322092" lon="-4.266964">
        <ele>153.0</ele>
        <time>2024-09-08T09:06:53Z</time>
      </trkpt>
      <trkpt lat="43.322084000000004" lon="-4.266955">
        <ele>153.0</ele>
        <time>2024-09-08T09:06:54Z</time>
      </trkpt>
      <trkpt lat="43.322076" lon="-4.266946000000001">
        <ele>153.0</ele>
        <time>2024-09-08T09:06:55Z</time>
      </trkpt>
      <trkpt lat="43.322068" lon="-4.266937">
        <ele>153.0</ele>
        <time>2024-09-08T09:06:56Z</time>
      </trkpt>
      <trkpt lat="43.322055500000005" lon="-4.2669455">
        <ele>152.65</ele>
        <time>2024-09-08T09:06:57Z</time>
      </trkpt>
    </trkseg>
    <trkseg>
      <trkpt lat="43.321771" lon="-4.266275">
        <ele>153.0</ele>
        <time>2024-09-08T09:08:22Z</time>
      </trkpt>
      <trkpt lat="43.321766582417474" lon="-4.266244756550425">
        <ele>153.3058326361482</ele>
        <time>2024-09-08T09:08:23Z</time>
      </trkpt>
      <trkpt lat="43.32176216483496" lon="-4.266214513100851">
        <ele>153.6116652722964</ele>
        <time>2024-09-08T09:08:24Z</time>
      </trkpt>
      <trkpt lat="43.321757527206216" lon="-4.2661843591274415">
        <ele>153.88331316041987</ele>
        <time>2024-09-08T09:08:25Z</time>
      </trkpt>
      <trkpt lat="43.32174926360311" lon="-4.26615567956372">
        <ele>153.59165658020996</ele>
        <time>2024-09-08T09:08:26Z</time>
      </trkpt>
    </trkseg>
    <trkseg>
      <trkpt lat="43.322078833333336" lon="-4.266945166666667">
        <ele>153.05</ele>
        <time>2024-09-08T09:11:26Z</time>
      </trkpt>
      <trkpt lat="43.32208966666667" lon="-4.266953333333333">
        <ele>153.1</ele>
        <time>2024-09-08T09:11:27Z</time>
      </trkpt>
      <trkpt lat="43.322100500000005" lon="-4.266961500000001">
        <ele>153.15</ele>
        <time>2024-09-08T09:11:28Z</time>
      </trkpt>
      <trkpt lat="43.32211133333333" lon="-4.266969666666667">
        <ele>153.20000000000002</ele>
        <time>2024-09-08T09:11:29Z</time>
      </trkpt>
      <trkpt lat="43.32212216666667" lon="-4.266977833333334">
        <ele>153.25</ele>
        <time>2024-09-08T09:11:30Z</time>
      </trkpt>
    </trkseg>
    <trkseg>
      <trkpt lat="43.322218" lon="-4.267063">
        <ele>155.0</ele>
        <time>2024-09-08T09:11:40Z</time>
      </trkpt>
      <trkpt lat="43.32222933333333" lon="-4.2670710000000005">
        <ele>155.0</ele>
        <time>2024-09-08T09:11:41Z</time>
      </trkpt>
      <trkpt lat="43.322240666666666" lon="-4.267079">
        <ele>155.0</ele>
        <time>2024-09-08T09:11:42Z</time>
      </trkpt>
      <trkpt lat="43.322252" lon="-4.267087">
        <ele>155.0</ele>
        <time>2024-09-08T09:11:43Z</time>
      </trkpt>
      <trkpt lat="43.32226333333333" lon="-4.267095">
        <ele>155.0</ele>
        <time>2024-09-08T09:11:44Z</time>
      </trkpt>
      <trkpt lat="43.322274666666665" lon="-4.267103">
        <ele>155.0</ele>
        <time>2024-09-08T09:11:45Z</time>
      </trkpt>
      <trkpt lat="43.322286" lon="-4.267111">
        <ele>155.0</ele>
        <time>2024-09-08T09:11:46Z</time>
      </trkpt>
      <trkpt lat="43.322298333333336" lon="-4.267115166666667">
        <ele>155.16666666666666</ele>
        <time>2024-09-08T09:11:47Z</time>
      </trkpt>
      <trkpt lat="43.32231066666667" lon="-4.2671193333333335">
        <ele>155.33333333333334</ele>
        <time>2024-09-08T09:11:48Z</time>
      </trkpt>
      <trkpt lat="43.322323" lon="-4.2671235">
        <ele>155.5</ele>
        <time>2024-09-08T09:11:49Z</time>
      </trkpt>
      <trkpt lat="43.322335333333335" lon="-4.267127666666666">
        <ele>155.66666666666666</ele>
        <time>2024-09-08T09:11:50Z</time>
      </trkpt>
      <trkpt lat="43.32234766666667" lon="-4.267131833333333">
        <ele>155.83333333333334</ele>
        <time>2024-09-08T09:11:51Z</time>
      </trkpt>
    </trkseg>
    <trkseg>
      <trkpt lat="43.322457" lon="-4.267151">
        <ele>156.0</ele>
        <time>2024-09-08T09:12:00Z</time>
      </trkpt>
      <trkpt lat="43.322464" lon="-4.2671265">
        <ele>156.2</ele>
        <time>2024-09-08T09:12:01Z</time>
      </trkpt>
      <trkpt lat="43.322471" lon="-4.267102">
        <ele>156.4</ele>
        <time>2024-09-08T09:12:02Z</time>
      </trkpt>
    </trkseg>
    <trkseg>
      <trkpt lat="43.322147333333334" lon="-4.266229666666667">
        <ele>169.16666666666666</ele>
        <time>2024-09-08T09:13:19Z</time>
      </trkpt>
      <trkpt lat="43.32215566666667" lon="-4.2662233333333335">
        <ele>169.33333333333334</ele>
        <time>2024-09-08T09:13:20Z</time>
      </trkpt>
      <trkpt lat="43.322164" lon="-4.266217">
        <ele>169.5</ele>
        <time>2024-09-08T09:13:21Z</time>
      </trkpt>
    </trkseg>
    <trkseg>
      <trkpt lat="43.322826" lon="-4.266208">
        <ele>180.0</ele>
        <time>2024-09-08T09:14:28Z</time>
      </trkpt>
      <trkpt lat="43.322835" lon="-4.266199333333333">
        <ele>180.0</ele>
        <time>2024-09-08T09:14:29Z</time>
      </trkpt>
      <trkpt lat="43.322844" lon="-4.266190666666667">
        <ele>180.0</ele>
        <time>2024-09-08T09:14:30Z</time>
      </trkpt>
    </trkseg>
    <trkseg>
      <trkpt lat="43.322859" lon="-4.265653">
        <ele>186.0</ele>
        <time>2024-09-08T09:15:13Z</time>
      </trkpt>
      <trkpt lat="43.322852" lon="-4.265642714285715">
        <ele>186.14285714285714</ele>
        <time>2024-09-08T09:15:14Z</time>
      </trkpt>
      <trkpt lat="43.322845" lon="-4.265632428571429">
        <ele>186.28571428571428</ele>
        <time>2024-09-08T09:15:15Z</time>
      </trkpt>
      <trkpt lat="43.322838" lon="-4.2656221428571435">
        <ele>186.42857142857142</ele>
        <time>2024-09-08T09:15:16Z</time>
      </trkpt>
      <trkpt lat="43.322831" lon="-4.265611857142857">
        <ele>186.57142857142858</ele>
        <time>2024-09-08T09:15:17Z</time>
      </trkpt>
      <trkpt lat="43.322824" lon="-4.265601571428571">
        <ele>186.71428571428572</ele>
        <time>2024-09-08T09:15:18Z</time>
      </trkpt>
      <trkpt lat="43.322817" lon="-4.265591285714286">
        <ele>186.85714285714286</ele>
        <time>2024-09-08T09:15:19Z</time>
      </trkpt>
    </trkseg>
    <trkseg>
      <trkpt lat="43.32268671428571" lon="-4.265367857142857">
        <ele>190.02857142857144</ele>
        <time>2024-09-08T09:15:39Z</time>
      </trkpt>
      <trkpt lat="43.322682285714286" lon="-4.265355142857143">
        <ele>190.27142857142857</ele>
        <time>2024-09-08T09:15:40Z</time>
      </trkpt>
      <trkpt lat="43.32267785714286" lon="-4.2653424285714285">
        <ele>190.5142857142857</ele>
        <time>2024-09-08T09:15:41Z</time>
      </trkpt>
    </trkseg>
    <trkseg>
      <trkpt lat="43.322669" lon="-4.265317">
        <ele>191.0</ele>
        <time>2024-09-08T09:15:43Z</time>
      </trkpt>
      <trkpt lat="43.32266516666667" lon="-4.265304833333333">
        <ele>191.05</ele>
        <time>2024-09-08T09:15:44Z</time>
      </trkpt>
      <trkpt lat="43.32266133333333" lon="-4.265292666666666">
        <ele>191.1</ele>
        <time>2024-09-08T09:15:45Z</time>
      </trkpt>
      <trkpt lat="43.3226575" lon="-4.265280499999999">
        <ele>191.15</ele>
        <time>2024-09-08T09:15:46Z</time>
      </trkpt>
      <trkpt lat="43.32265366666667" lon="-4.265268333333333">
        <ele>191.20000000000002</ele>
        <time>2024-09-08T09:15:47Z</time>
      </trkpt>
      <trkpt lat="43.32264983333333" lon="-4.265256166666667">
        <ele>191.25</ele>
        <time>2024-09-08T09:15:48Z</time>
      </trkpt>
    </trkseg>
    <trkseg>
      <trkpt lat="43.322314" lon="-4.264202">
        <ele>202.5</ele>
        <time>2024-09-08T09:17:17Z</time>
      </trkpt>
      <trkpt lat="43.322312499999995" lon="-4.2641905">
        <ele>202.45</ele>
        <time>2024-09-08T09:17:18Z</time>
      </trkpt>
    </trkseg>
    <trkseg>
      <trkpt lat="43.322296" lon="-4.263829">
        <ele>205.0</ele>
        <time>2024-09-08T09:17:45Z</time>
      </trkpt>
      <trkpt lat="43.32229238072199" lon="-4.263808008187531">
        <ele>205.0</ele>
        <time>2024-09-08T09:17:46Z</time>
      </trkpt>
      <trkpt lat="43.32228876144398" lon="-4.263787016375062">
        <ele>205.0</ele>
        <time>2024-09-08T09:17:47Z</time>
      </trkpt>
    </trkseg>
    <trkseg>
      <trkpt lat="43.322071" lon="-4.263853">
        <ele>205.0</ele>
        <time>2024-09-08T09:18:07Z</time>
      </trkpt>
      <trkpt lat="43.322053333333336" lon="-4.26385">
        <ele>204.73333333333332</ele>
        <time>2024-09-08T09:18:08Z</time>
      </trkpt>
      <trkpt lat="43.322035666666665" lon="-4.263847">
        <ele>204.46666666666667</ele>
        <time>2024-09-08T09:18:09Z</time>
      </trkpt>
      <trkpt lat="43.322018" lon="-4.263844">
        <ele>204.2</ele>
        <time>2024-09-08T09:18:10Z</time>
      </trkpt>
      <trkpt lat="43.322006333333334" lon="-4.263834666666667">
        <ele>204.46666666666667</ele>
        <time>2024-09-08T09:18:11Z</time>
      </trkpt>
      <trkpt lat="43.32199466666667" lon="-4.263825333333333">
        <ele>204.73333333333332</ele>
        <time>2024-09-08T09:18:12Z</time>
      </trkpt>
    </trkseg>
    <trkseg>
      <trkpt lat="43.321196" lon="-4.263191">
        <ele>197.0</ele>
        <time>2024-09-08T09:20:14Z</time>
      </trkpt>
      <trkpt lat="43.3211845" lon="-4.2631915">
        <ele>196.55</ele>
        <time>2024-09-08T09:20:15Z</time>
      </trkpt>
    </trkseg>
    <trkseg>
      <trkpt lat="43.3209295" lon="-4.26336025">
        <ele>193.14999999999998</ele>
        <time>2024-09-08T09:20:38Z</time>
      </trkpt>
      <trkpt lat="43.320929" lon="-4.2633735">
        <ele>193.1</ele>
        <time>2024-09-08T09:20:39Z</time>
      </trkpt>
      <trkpt lat="43.3209285" lon="-4.2633867500000004">
        <ele>193.05</ele>
        <time>2024-09-08T09:20:40Z</time>
      </trkpt>
    </trkseg>
    <trkseg>
      <trkpt lat="43.321101" lon="-4.26389">
        <ele>188.0</ele>
        <time>2024-09-08T09:21:12Z</time>
      </trkpt>
      <trkpt lat="43.3211092" lon="-4.2639008">
        <ele>187.8</ele>
        <time>2024-09-08T09:21:13Z</time>
      </trkpt>
      <trkpt lat="43.3211174" lon="-4.2639116">
        <ele>187.6</ele>
        <time>2024-09-08T09:21:14Z</time>
      </trkpt>
    </trkseg>
    <trkseg>
      <trkpt lat="43.320591" lon="-4.26394">
        <ele>174.7</ele>
        <time>2024-09-08T09:22:47Z</time>
      </trkpt>
      <trkpt lat="43.320581000000004" lon="-4.263938">
        <ele>174.39999999999998</ele>
        <time>2024-09-08T09:22:48Z</time>
      </trkpt>
    </trkseg>
    <trkseg>
      <trkpt lat="43.319223" lon="-4.262067">
        <ele>154.9</ele>
        <time>2024-09-08T09:26:35Z</time>
      </trkpt>
      <trkpt lat="43.319210857142856" lon="-4.262062571428571">
        <ele>154.77142857142857</ele>
        <time>2024-09-08T09:26:36Z</time>
      </trkpt>
      <trkpt lat="43.31919871428572" lon="-4.262058142857143">
        <ele>154.64285714285714</ele>
        <time>2024-09-08T09:26:37Z</time>
      </trkpt>
      <trkpt lat="43.319186571428574" lon="-4.262053714285714">
        <ele>154.5142857142857</ele>
        <time>2024-09-08T09:26:38Z</time>
      </trkpt>
      <trkpt lat="43.31917442857143" lon="-4.262049285714286">
        <ele>154.3857142857143</ele>
        <time>2024-09-08T09:26:39Z</time>
      </trkpt>
      <trkpt lat="43.319162285714285" lon="-4.2620448571428575">
        <ele>154.25714285714287</ele>
        <time>2024-09-08T09:26:40Z</time>
      </trkpt>
      <trkpt lat="43.31915014285715" lon="-4.262040428571429">
        <ele>154.12857142857143</ele>
        <time>2024-09-08T09:26:41Z</time>
      </trkpt>
    </trkseg>
    <trkseg>
      <trkpt lat="43.318807" lon="-4.261783">
        <ele>151.4</ele>
        <time>2024-09-08T09:27:15Z</time>
      </trkpt>
      <trkpt lat="43.318797833333335" lon="-4.261771833333333">
        <ele>151.33333333333334</ele>
        <time>2024-09-08T09:27:16Z</time>
      </trkpt>
      <trkpt lat="43.31878866666667" lon="-4.2617606666666665">
        <ele>151.26666666666668</ele>
        <time>2024-09-08T09:27:17Z</time>
      </trkpt>
      <trkpt lat="43.318779500000005" lon="-4.2617495000000005">
        <ele>151.2</ele>
        <time>2024-09-08T09:27:18Z</time>
      </trkpt>
      <trkpt lat="43.31877033333333" lon="-4.261738333333334">
        <ele>151.13333333333333</ele>
        <time>2024-09-08T09:27:19Z</time>
      </trkpt>
      <trkpt lat="43.31876116666667" lon="-4.261727166666667">
        <ele>151.06666666666666</ele>
        <time>2024-09-08T09:27:20Z</time>
      </trkpt>
    </trkseg>
    <trkseg>
      <trkpt lat="43.31856" lon="-4.26083">
        <ele>145.0</ele>
        <time>2024-09-08T09:28:46Z</time>
      </trkpt>
      <trkpt lat="43.318569" lon="-4.2608255">
        <ele>145.25</ele>
        <time>2024-09-08T09:28:47Z</time>
      </trkpt>
      <trkpt lat="43.318578" lon="-4.260821">
        <ele>145.5</ele>
        <time>2024-09-08T09:28:48Z</time>
      </trkpt>
      <trkpt lat="43.318587" lon="-4.2608165">
        <ele>145.75</ele>
        <time>2024-09-08T09:28:49Z</time>
      </trkpt>
    </trkseg>
    <trkseg>
      <trkpt lat="43.31905812156341" lon="-4.26003485328554">
        <ele>155.20670694673368</ele>
        <time>2024-09-08T09:33:27Z</time>
      </trkpt>
      <trkpt lat="43.319060168912664" lon="-4.260032382346781">
        <ele>155.31966414717982</ele>
        <time>2024-09-08T09:33:28Z</time>
      </trkpt>
      <trkpt lat="43.319062216261926" lon="-4.2600299114080205">
        <ele>155.432621347626</ele>
        <time>2024-09-08T09:33:29Z</time>
      </trkpt>
      <trkpt lat="43.31906426361118" lon="-4.260027440469261">
        <ele>155.54557854807214</ele>
        <time>2024-09-08T09:33:30Z</time>
      </trkpt>
      <trkpt lat="43.319066310960444" lon="-4.260024969530502">
        <ele>155.6585357485183</ele>
        <time>2024-09-08T09:33:31Z</time>
      </trkpt>
      <trkpt lat="43.3190683583097" lon="-4.260022498591741">
        <ele>155.77149294896446</ele>
        <time>2024-09-08T09:33:32Z</time>
      </trkpt>
      <trkpt lat="43.319070405658955" lon="-4.260020027652982">
        <ele>155.8844501494106</ele>
        <time>2024-09-08T09:33:33Z</time>
      </trkpt>
      <trkpt lat="43.31907245300822" lon="-4.260017556714222">
        <ele>155.99740734985676</ele>
        <time>2024-09-08T09:33:34Z</time>
      </trkpt>
      <trkpt lat="43.31907450035747" lon="-4.260015085775462">
        <ele>156.1103645503029</ele>
        <time>2024-09-08T09:33:35Z</time>
      </trkpt>
      <trkpt lat="43.319076547706736" lon="-4.260012614836702">
        <ele>156.22332175074908</ele>
        <time>2024-09-08T09:33:36Z</time>
      </trkpt>
      <trkpt lat="43.31907859505599" lon="-4.260010143897943">
        <ele>156.33627895119523</ele>
        <time>2024-09-08T09:33:37Z</time>
      </trkpt>
      <trkpt lat="43.319080642405254" lon="-4.2600076729591825">
        <ele>156.44923615164137</ele>
        <time>2024-09-08T09:33:38Z</time>
      </trkpt>
      <trkpt lat="43.31908268975451" lon="-4.260005202020423">
        <ele>156.56219335208752</ele>
        <time>2024-09-08T09:33:39Z</time>
      </trkpt>
      <trkpt lat="43.319084737103765" lon="-4.260002731081663">
        <ele>156.6751505525337</ele>
        <time>2024-09-08T09:33:40Z</time>
      </trkpt>
    </trkseg>
    <trkseg>
      <trkpt lat="43.319686" lon="-4.258795">
        <ele>170.5</ele>
        <time>2024-09-08T09:43:16Z</time>
      </trkpt>
      <trkpt lat="43.31968884090909" lon="-4.258796204545455">
        <ele>170.625</ele>
        <time>2024-09-08T09:43:17Z</time>
      </trkpt>
      <trkpt lat="43.31969168181818" lon="-4.258797409090909">
        <ele>170.75</ele>
        <time>2024-09-08T09:43:18Z</time>
      </trkpt>
      <trkpt lat="43.31969452272727" lon="-4.258798613636364">
        <ele>170.875</ele>
        <time>2024-09-08T09:43:19Z</time>
      </trkpt>
      <trkpt lat="43.31969736363636" lon="-4.258799818181818">
        <ele>171.0</ele>
        <time>2024-09-08T09:43:20Z</time>
      </trkpt>
      <trkpt lat="43.319700204545455" lon="-4.258801022727273">
        <ele>171.125</ele>
        <time>2024-09-08T09:43:21Z</time>
      </trkpt>
      <trkpt lat="43.319703045454546" lon="-4.258802227272727">
        <ele>171.25</ele>
        <time>2024-09-08T09:43:22Z</time>
      </trkpt>
      <trkpt lat="43.319705886363636" lon="-4.2588034318181816">
        <ele>171.375</ele>
        <time>2024-09-08T09:43:23Z</time>
      </trkpt>
      <trkpt lat="43.319708727272726" lon="-4.258804636363637">
        <ele>171.5</ele>
        <time>2024-09-08T09:43:24Z</time>
      </trkpt>
      <trkpt lat="43.319711568181816" lon="-4.258805840909091">
        <ele>171.625</ele>
        <time>2024-09-08T09:43:25Z</time>
      </trkpt>
      <trkpt lat="43.319714409090906" lon="-4.258807045454546">
        <ele>171.75</ele>
        <time>2024-09-08T09:43:26Z</time>
      </trkpt>
      <trkpt lat="43.31971725" lon="-4.25880825">
        <ele>171.875</ele>
        <time>2024-09-08T09:43:27Z</time>
      </trkpt>
      <trkpt lat="43.31972009090909" lon="-4.258809454545455">
        <ele>172.0</ele>
        <time>2024-09-08T09:43:28Z</time>
      </trkpt>
      <trkpt lat="43.31972293181818" lon="-4.258810659090909">
        <ele>172.125</ele>
        <time>2024-09-08T09:43:29Z</time>
      </trkpt>
      <trkpt lat="43.319725772727274" lon="-4.258811863636364">
        <ele>172.25</ele>
        <time>2024-09-08T09:43:30Z</time>
      </trkpt>
      <trkpt lat="43.319728613636364" lon="-4.258813068181818">
        <ele>172.375</ele>
        <time>2024-09-08T09:43:31Z</time>
      </trkpt>
      <trkpt lat="43.319731454545455" lon="-4.258814272727273">
        <ele>172.5</ele>
        <time>2024-09-08T09:43:32Z</time>
      </trkpt>
      <trkpt lat="43.319734295454545" lon="-4.258815477272727">
        <ele>172.625</ele>
        <time>2024-09-08T09:43:33Z</time>
      </trkpt>
      <trkpt lat="43.319737136363635" lon="-4.258816681818182">
        <ele>172.75</ele>
        <time>2024-09-08T09:43:34Z</time>
      </trkpt>
      <trkpt lat="43.319739977272725" lon="-4.258817886363636">
        <ele>172.875</ele>
        <time>2024-09-08T09:43:35Z</time>
      </trkpt>
      <trkpt lat="43.319742818181815" lon="-4.258819090909091">
        <ele>173.0</ele>
        <time>2024-09-08T09:43:36Z</time>
      </trkpt>
      <trkpt lat="43.319745659090906" lon="-4.258820295454545">
        <ele>173.125</ele>
        <time>2024-09-08T09:43:37Z</time>
      </trkpt>
      <trkpt lat="43.3197485" lon="-4.2588215">
        <ele>173.25</ele>
        <time>2024-09-08T09:43:38Z</time>
      </trkpt>
      <trkpt lat="43.31975134090909" lon="-4.258822704545455">
        <ele>173.375</ele>
        <time>2024-09-08T09:43:39Z</time>
      </trkpt>
      <trkpt lat="43.31975418181818" lon="-4.25882390909091">
        <ele>173.5</ele>
        <time>2024-09-08T09:43:40Z</time>
      </trkpt>
      <trkpt lat="43.31975702272727" lon="-4.258825113636364">
        <ele>173.625</ele>
        <time>2024-09-08T09:43:41Z</time>
      </trkpt>
      <trkpt lat="43.319759863636364" lon="-4.258826318181819">
        <ele>173.75</ele>
        <time>2024-09-08T09:43:42Z</time>
      </trkpt>
      <trkpt lat="43.319762704545454" lon="-4.258827522727273">
        <ele>173.875</ele>
        <time>2024-09-08T09:43:43Z</time>
      </trkpt>
      <trkpt lat="43.319765545454544" lon="-4.258828727272728">
        <ele>174.0</ele>
        <time>2024-09-08T09:43:44Z</time>
      </trkpt>
      <trkpt lat="43.319768386363634" lon="-4.258829931818182">
        <ele>174.125</ele>
        <time>2024-09-08T09:43:45Z</time>
      </trkpt>
      <trkpt lat="43.319771227272724" lon="-4.258831136363637">
        <ele>174.25</ele>
        <time>2024-09-08T09:43:46Z</time>
      </trkpt>
      <trkpt lat="43.31977406818182" lon="-4.258832340909091">
        <ele>174.375</ele>
        <time>2024-09-08T09:43:47Z</time>
      </trkpt>
      <trkpt lat="43.31977690909091" lon="-4.258833545454546">
        <ele>174.5</ele>
        <time>2024-09-08T09:43:48Z</time>
      </trkpt>
      <trkpt lat="43.31977975" lon="-4.25883475">
        <ele>174.625</ele>
        <time>2024-09-08T09:43:49Z</time>
      </trkpt>
      <trkpt lat="43.31978259090909" lon="-4.258835954545455">
        <ele>174.75</ele>
        <time>2024-09-08T09:43:50Z</time>
      </trkpt>
      <trkpt lat="43.31978543181818" lon="-4.258837159090909">
        <ele>174.875</ele>
        <time>2024-09-08T09:43:51Z</time>
      </trkpt>
      <trkpt lat="43.31978827272727" lon="-4.258838363636364">
        <ele>175.0</ele>
        <time>2024-09-08T09:43:52Z</time>
      </trkpt>
      <trkpt lat="43.31979111363636" lon="-4.258839568181819">
        <ele>175.125</ele>
        <time>2024-09-08T09:43:53Z</time>
      </trkpt>
      <trkpt lat="43.31979395454545" lon="-4.2588407727272735">
        <ele>175.25</ele>
        <time>2024-09-08T09:43:54Z</time>
      </trkpt>
      <trkpt lat="43.31979679545454" lon="-4.258841977272728">
        <ele>175.375</ele>
        <time>2024-09-08T09:43:55Z</time>
      </trkpt>
      <trkpt lat="43.31979963636364" lon="-4.258843181818182">
        <ele>175.5</ele>
        <time>2024-09-08T09:43:56Z</time>
      </trkpt>
      <trkpt lat="43.31980247727273" lon="-4.258844386363637">
        <ele>175.625</ele>
        <time>2024-09-08T09:43:57Z</time>
      </trkpt>
      <trkpt lat="43.31980531818182" lon="-4.258845590909091">
        <ele>175.75</ele>
        <time>2024-09-08T09:43:58Z</time>
      </trkpt>
      <trkpt lat="43.31980815909091" lon="-4.258846795454546">
        <ele>175.875</ele>
        <time>2024-09-08T09:43:59Z</time>
      </trkpt>
      <trkpt lat="43.319811" lon="-4.258848">
        <ele>176.0</ele>
        <time>2024-09-08T09:44:00Z</time>
      </trkpt>
      <trkpt lat="43.31981231818182" lon="-4.258852272727273">
        <ele>176.13181818181818</ele>
        <time>2024-09-08T09:44:01Z</time>
      </trkpt>
      <trkpt lat="43.31981363636364" lon="-4.258856545454546">
        <ele>176.26363636363635</ele>
        <time>2024-09-08T09:44:02Z</time>
      </trkpt>
      <trkpt lat="43.31981495454546" lon="-4.258860818181819">
        <ele>176.39545454545456</ele>
        <time>2024-09-08T09:44:03Z</time>
      </trkpt>
      <trkpt lat="43.31981627272727" lon="-4.258865090909091">
        <ele>176.52727272727273</ele>
        <time>2024-09-08T09:44:04Z</time>
      </trkpt>
      <trkpt lat="43.31981759090909" lon="-4.258869363636364">
        <ele>176.6590909090909</ele>
        <time>2024-09-08T09:44:05Z</time>
      </trkpt>
      <trkpt lat="43.31981890909091" lon="-4.258873636363637">
        <ele>176.79090909090908</ele>
        <time>2024-09-08T09:44:06Z</time>
      </trkpt>
      <trkpt lat="43.31982022727273" lon="-4.258877909090909">
        <ele>176.9227272727273</ele>
        <time>2024-09-08T09:44:07Z</time>
      </trkpt>
      <trkpt lat="43.319821545454545" lon="-4.258882181818183">
        <ele>177.05454545454546</ele>
        <time>2024-09-08T09:44:08Z</time>
      </trkpt>
      <trkpt lat="43.31982286363636" lon="-4.258886454545455">
        <ele>177.18636363636364</ele>
        <time>2024-09-08T09:44:09Z</time>
      </trkpt>
      <trkpt lat="43.319824181818184" lon="-4.258890727272727">
        <ele>177.3181818181818</ele>
        <time>2024-09-08T09:44:10Z</time>
      </trkpt>
      <trkpt lat="43.3198255" lon="-4.258895000000001">
        <ele>177.45</ele>
        <time>2024-09-08T09:44:11Z</time>
      </trkpt>
      <trkpt lat="43.31982681818182" lon="-4.258899272727273">
        <ele>177.5818181818182</ele>
        <time>2024-09-08T09:44:12Z</time>
      </trkpt>
      <trkpt lat="43.31982813636364" lon="-4.258903545454546">
        <ele>177.71363636363637</ele>
        <time>2024-09-08T09:44:13Z</time>
      </trkpt>
      <trkpt lat="43.319829454545456" lon="-4.258907818181818">
        <ele>177.84545454545454</ele>
        <time>2024-09-08T09:44:14Z</time>
      </trkpt>
      <trkpt lat="43.31983077272727" lon="-4.258912090909091">
        <ele>177.97727272727272</ele>
        <time>2024-09-08T09:44:15Z</time>
      </trkpt>
      <trkpt lat="43.31983209090909" lon="-4.258916363636364">
        <ele>178.10909090909092</ele>
        <time>2024-09-08T09:44:16Z</time>
      </trkpt>
      <trkpt lat="43.31983340909091" lon="-4.258920636363636">
        <ele>178.2409090909091</ele>
        <time>2024-09-08T09:44:17Z</time>
      </trkpt>
      <trkpt lat="43.31983472727273" lon="-4.25892490909091">
        <ele>178.37272727272727</ele>
        <time>2024-09-08T09:44:18Z</time>
      </trkpt>
      <trkpt lat="43.319836045454544" lon="-4.258929181818182">
        <ele>178.50454545454545</ele>
        <time>2024-09-08T09:44:19Z</time>
      </trkpt>
      <trkpt lat="43.31983736363636" lon="-4.2589334545454545">
        <ele>178.63636363636365</ele>
        <time>2024-09-08T09:44:20Z</time>
      </trkpt>
      <trkpt lat="43.31983868181818" lon="-4.258937727272728">
        <ele>178.76818181818183</ele>
        <time>2024-09-08T09:44:21Z</time>
      </trkpt>
    </trkseg>
    <trkseg>
      <trkpt lat="43.319323" lon="-4.260136">
        <ele>163.2</ele>
        <time>2024-09-08T09:55:35Z</time>
      </trkpt>
      <trkpt lat="43.31931233333333" lon="-4.260131">
        <ele>163.2</ele>
        <time>2024-09-08T09:55:36Z</time>
      </trkpt>
      <trkpt lat="43.31930166666667" lon="-4.260126">
        <ele>163.2</ele>
        <time>2024-09-08T09:55:37Z</time>
      </trkpt>
    </trkseg>
    <trkseg>
      <trkpt lat="43.318817" lon="-4.260609">
        <ele>148.0</ele>
        <time>2024-09-08T09:57:29Z</time>
      </trkpt>
      <trkpt lat="43.31881916666667" lon="-4.260597833333333">
        <ele>148.0</ele>
        <time>2024-09-08T09:57:30Z</time>
      </trkpt>
      <trkpt lat="43.31882133333333" lon="-4.260586666666667">
        <ele>148.0</ele>
        <time>2024-09-08T09:57:31Z</time>
      </trkpt>
      <trkpt lat="43.3188235" lon="-4.2605755">
        <ele>148.0</ele>
        <time>2024-09-08T09:57:32Z</time>
      </trkpt>
      <trkpt lat="43.31882566666667" lon="-4.260564333333333">
        <ele>148.0</ele>
        <time>2024-09-08T09:57:33Z</time>
      </trkpt>
      <trkpt lat="43.31882783333333" lon="-4.260553166666667">
        <ele>148.0</ele>
        <time>2024-09-08T09:57:34Z</time>
      </trkpt>
    </trkseg>
    <trkseg>
      <trkpt lat="43.319043148821414" lon="-4.260336225980434">
        <ele>153.98283479188407</ele>
        <time>2024-09-08T09:58:09Z</time>
      </trkpt>
      <trkpt lat="43.319047831167296" lon="-4.260329126939908">
        <ele>154.25471293972325</ele>
        <time>2024-09-08T09:58:10Z</time>
      </trkpt>
      <trkpt lat="43.31905251351318" lon="-4.260322027899381">
        <ele>154.52659108756245</ele>
        <time>2024-09-08T09:58:11Z</time>
      </trkpt>
      <trkpt lat="43.31905719585905" lon="-4.260314928858854">
        <ele>154.79846923540163</ele>
        <time>2024-09-08T09:58:12Z</time>
      </trkpt>
      <trkpt lat="43.319061878204934" lon="-4.260307829818327">
        <ele>155.0703473832408</ele>
        <time>2024-09-08T09:58:13Z</time>
      </trkpt>
      <trkpt lat="43.319066560550816" lon="-4.2603007307778">
        <ele>155.34222553107998</ele>
        <time>2024-09-08T09:58:14Z</time>
      </trkpt>
    </trkseg>
    <trkseg>
      <trkpt lat="43.319699" lon="-4.258789">
        <ele>170.9</ele>
        <time>2024-09-08T10:15:35Z</time>
      </trkpt>
      <trkpt lat="43.319702655172414" lon="-4.258790586206897">
        <ele>171.06551724137933</ele>
        <time>2024-09-08T10:15:36Z</time>
      </trkpt>
      <trkpt lat="43.31970631034483" lon="-4.258792172413793">
        <ele>171.23103448275862</ele>
        <time>2024-09-08T10:15:37Z</time>
      </trkpt>
      <trkpt lat="43.31970996551724" lon="-4.25879375862069">
        <ele>171.39655172413794</ele>
        <time>2024-09-08T10:15:38Z</time>
      </trkpt>
      <trkpt lat="43.319713620689654" lon="-4.258795344827586">
        <ele>171.56206896551726</ele>
        <time>2024-09-08T10:15:39Z</time>
      </trkpt>
      <trkpt lat="43.31971727586207" lon="-4.258796931034483">
        <ele>171.72758620689655</ele>
        <time>2024-09-08T10:15:40Z</time>
      </trkpt>
      <trkpt lat="43.31972093103448" lon="-4.258798517241379">
        <ele>171.89310344827587</ele>
        <time>2024-09-08T10:15:41Z</time>
      </trkpt>
      <trkpt lat="43.319724586206895" lon="-4.258800103448276">
        <ele>172.05862068965519</ele>
        <time>2024-09-08T10:15:42Z</time>
      </trkpt>
      <trkpt lat="43.31972824137931" lon="-4.258801689655173">
        <ele>172.22413793103448</ele>
        <time>2024-09-08T10:15:43Z</time>
      </trkpt>
      <trkpt lat="43.31973189655172" lon="-4.2588032758620695">
        <ele>172.3896551724138</ele>
        <time>2024-09-08T10:15:44Z</time>
      </trkpt>
      <trkpt lat="43.319735551724136" lon="-4.258804862068966">
        <ele>172.55517241379312</ele>
        <time>2024-09-08T10:15:45Z</time>
      </trkpt>
      <trkpt lat="43.31973920689655" lon="-4.2588064482758625">
        <ele>172.7206896551724</ele>
        <time>2024-09-08T10:15:46Z</time>
      </trkpt>
      <trkpt lat="43.31974286206896" lon="-4.258808034482759">
        <ele>172.88620689655173</ele>
        <time>2024-09-08T10:15:47Z</time>
      </trkpt>
      <trkpt lat="43.31974651724138" lon="-4.2588096206896555">
        <ele>173.05172413793105</ele>
        <time>2024-09-08T10:15:48Z</time>
      </trkpt>
      <trkpt lat="43.31975017241379" lon="-4.258811206896552">
        <ele>173.21724137931034</ele>
        <time>2024-09-08T10:15:49Z</time>
      </trkpt>
      <trkpt lat="43.31975382758621" lon="-4.2588127931034485">
        <ele>173.38275862068966</ele>
        <time>2024-09-08T10:15:50Z</time>
      </trkpt>
      <trkpt lat="43.319757482758625" lon="-4.258814379310345">
        <ele>173.54827586206895</ele>
        <time>2024-09-08T10:15:51Z</time>
      </trkpt>
      <trkpt lat="43.31976113793104" lon="-4.2588159655172415">
        <ele>173.71379310344827</ele>
        <time>2024-09-08T10:15:52Z</time>
      </trkpt>
      <trkpt lat="43.31976479310345" lon="-4.258817551724138">
        <ele>173.8793103448276</ele>
        <time>2024-09-08T10:15:53Z</time>
      </trkpt>
      <trkpt lat="43.319768448275866" lon="-4.2588191379310345">
        <ele>174.04482758620688</ele>
        <time>2024-09-08T10:15:54Z</time>
      </trkpt>
      <trkpt lat="43.31977210344828" lon="-4.258820724137931">
        <ele>174.2103448275862</ele>
        <time>2024-09-08T10:15:55Z</time>
      </trkpt>
      <trkpt lat="43.31977575862069" lon="-4.2588223103448275">
        <ele>174.37586206896552</ele>
        <time>2024-09-08T10:15:56Z</time>
      </trkpt>
      <trkpt lat="43.31977941379311" lon="-4.258823896551725">
        <ele>174.5413793103448</ele>
        <time>2024-09-08T10:15:57Z</time>
      </trkpt>
      <trkpt lat="43.31978306896552" lon="-4.258825482758621">
        <ele>174.70689655172413</ele>
        <time>2024-09-08T10:15:58Z</time>
      </trkpt>
      <trkpt lat="43.319786724137934" lon="-4.258827068965518">
        <ele>174.87241379310345</ele>
        <time>2024-09-08T10:15:59Z</time>
      </trkpt>
      <trkpt lat="43.31979037931035" lon="-4.258828655172414">
        <ele>175.03793103448274</ele>
        <time>2024-09-08T10:16:00Z</time>
      </trkpt>
      <trkpt lat="43.31979403448276" lon="-4.258830241379311">
        <ele>175.20344827586206</ele>
        <time>2024-09-08T10:16:01Z</time>
      </trkpt>
      <trkpt lat="43.319797689655175" lon="-4.258831827586207">
        <ele>175.36896551724138</ele>
        <time>2024-09-08T10:16:02Z</time>
      </trkpt>
      <trkpt lat="43.31980134482759" lon="-4.258833413793104">
        <ele>175.53448275862067</ele>
        <time>2024-09-08T10:16:03Z</time>
      </trkpt>
    </trkseg>
    <trkseg>
      <trkpt lat="43.320043" lon="-4.258879">
        <ele>183.4</ele>
        <time>2024-09-08T10:18:12Z</time>
      </trkpt>
      <trkpt lat="43.3200565" lon="-4.25885025">
        <ele>183.825</ele>
        <time>2024-09-08T10:18:13Z</time>
      </trkpt>
      <trkpt lat="43.32007" lon="-4.2588215">
        <ele>184.25</ele>
        <time>2024-09-08T10:18:14Z</time>
      </trkpt>
      <trkpt lat="43.320083499999996" lon="-4.2587927500000005">
        <ele>184.675</ele>
        <time>2024-09-08T10:18:15Z</time>
      </trkpt>
    </trkseg>
    <trkseg>
      <trkpt lat="43.325329" lon="-4.260985">
        <ele>215.0</ele>
        <time>2024-09-08T10:35:57Z</time>
      </trkpt>
      <trkpt lat="43.325341571428574" lon="-4.260981714285714">
        <ele>215.0</ele>
        <time>2024-09-08T10:35:58Z</time>
      </trkpt>
      <trkpt lat="43.325354142857144" lon="-4.260978428571429">
        <ele>215.0</ele>
        <time>2024-09-08T10:35:59Z</time>
      </trkpt>
      <trkpt lat="43.325366714285714" lon="-4.260975142857143">
        <ele>215.0</ele>
        <time>2024-09-08T10:36:00Z</time>
      </trkpt>
      <trkpt lat="43.32537928571429" lon="-4.260971857142857">
        <ele>215.0</ele>
        <time>2024-09-08T10:36:01Z</time>
      </trkpt>
      <trkpt lat="43.32539185714286" lon="-4.260968571428571">
        <ele>215.0</ele>
        <time>2024-09-08T10:36:02Z</time>
      </trkpt>
      <trkpt lat="43.32540442857143" lon="-4.260965285714286">
        <ele>215.0</ele>
        <time>2024-09-08T10:36:03Z</time>
      </trkpt>
    </trkseg>
  </trk>
</gpx>