<?xml version="1.0" encoding="UTF-8"?>
<gpx xmlns="http://www.topografix.com/GPX/1/1" xmlns:xsi="http://www.w3.org/2001/XMLSchema-instance" xsi:schemaLocation="http://www.topografix.com/GPX/1/1 http://www.topografix.com/GPX/1/1/gpx.xsd" version="1.1" creator="gpx.py -- https://github.com/tkrajina/gpxpy">
  <wpt lat="43.32542330145885" lon="-4.261046837212224">
    <ele>216.0</ele>
    <time>2024-09-08T08:58:47Z</time>
    <name>ANOM:DZ_HAMPEL</name>
    <desc>Tramo #1 (409-412), dur=4s
Causas: DZ_HAMPEL
vh_max=7.33 km/h | grade_ext=-17.5% | vz_ext=-21.4 m/min
max|dx|=0.72 m/s, max|dy|=1.90 m/s, max|dz|=0.36 m/s</desc>
  </wpt>
  <wpt lat="43.3252828781027" lon="-4.261092825919555">
    <ele>215.0</ele>
    <time>2024-09-08T08:58:56Z</time>
    <name>ANOM:DZ_HAMPEL</name>
    <desc>Tramo #2 (418-421), dur=4s
Causas: DZ_HAMPEL
vh_max=7.75 km/h | grade_ext=-14.0% | vz_ext=-17.8 m/min
max|dx|=0.21 m/s, max|dy|=2.14 m/s, max|dz|=0.30 m/s</desc>
  </wpt>
  <wpt lat="43.32511882489054" lon="-4.261065861516007">
    <ele>214.0</ele>
    <time>2024-09-08T08:59:04Z</time>
    <name>ANOM:DZ_HAMPEL</name>
    <desc>Tramo #3 (426-428), dur=3s
Causas: DZ_HAMPEL
vh_max=11.18 km/h | grade_ext=-21.7% | vz_ext=-40.5 m/min
max|dx|=0.44 m/s, max|dy|=3.08 m/s, max|dz|=0.67 m/s</desc>
  </wpt>
  <wpt lat="43.32492446116717" lon="-4.260999155604039">
    <ele>213.0</ele>
    <time>2024-09-08T08:59:13Z</time>
    <name>ANOM:DZ_HAMPEL</name>
    <desc>Tramo #4 (435-439), dur=5s
Causas: DZ_HAMPEL
vh_max=11.84 km/h | grade_ext=-12.4% | vz_ext=-15.9 m/min
max|dx|=1.74 m/s, max|dy|=2.79 m/s, max|dz|=0.27 m/s</desc>
  </wpt>
  <wpt lat="43.324517693012496" lon="-4.261722762062">
    <ele>219.0</ele>
    <time>2024-09-08T09:00:16Z</time>
    <name>ANOM:DZ_HAMPEL</name>
    <desc>Tramo #5 (498-499), dur=2s
Causas: DZ_HAMPEL
vh_max=7.54 km/h | grade_ext=4.3% | vz_ext=5.4 m/min
max|dx|=1.46 m/s, max|dy|=1.64 m/s, max|dz|=0.09 m/s</desc>
  </wpt>
  <wpt lat="43.32244473159764" lon="-4.263112574506708">
    <ele>213.48114900511592</ele>
    <time>2024-09-08T09:02:06Z</time>
    <name>ANOM:DZ_HAMPEL</name>
    <desc>Tramo #6 (608-610), dur=3s
Causas: DZ_HAMPEL
vh_max=10.33 km/h | grade_ext=-18.1% | vz_ext=-31.1 m/min
max|dx|=2.39 m/s, max|dy|=1.59 m/s, max|dz|=0.52 m/s</desc>
  </wpt>
  <wpt lat="43.32240899540971" lon="-4.264471129075111">
    <ele>199.2760367223165</ele>
    <time>2024-09-08T09:06:13Z</time>
    <name>ANOM:DZ_HAMPEL</name>
    <desc>Tramo #7 (855-858), dur=4s
Causas: DZ_HAMPEL
vh_max=10.09 km/h | grade_ext=-5.9% | vz_ext=-10.0 m/min
max|dx|=2.45 m/s, max|dy|=1.40 m/s, max|dz|=0.17 m/s</desc>
  </wpt>
  <wpt lat="43.322953256312665" lon="-4.265865908955007">
    <ele>183.08286151228938</ele>
    <time>2024-09-08T09:06:59Z</time>
    <name>ANOM:DZ_HAMPEL</name>
    <desc>Tramo #8 (901-902), dur=2s
Causas: DZ_HAMPEL
vh_max=12.37 km/h | grade_ext=-1.0% | vz_ext=-2.0 m/min
max|dx|=3.36 m/s, max|dy|=0.72 m/s, max|dz|=0.03 m/s</desc>
  </wpt>
  <wpt lat="43.32270006178081" lon="-4.266277646073063">
    <ele>178.07418848298</ele>
    <time>2024-09-08T09:07:16Z</time>
    <name>ANOM:DZ_HAMPEL</name>
    <desc>Tramo #9 (918-919), dur=2s
Causas: DZ_HAMPEL
vh_max=10.22 km/h | grade_ext=-6.7% | vz_ext=-11.4 m/min
max|dx|=0.69 m/s, max|dy|=2.75 m/s, max|dz|=0.19 m/s</desc>
  </wpt>
  <wpt lat="43.32217621947021" lon="-4.266479603543064">
    <ele>165.9566532207452</ele>
    <time>2024-09-08T09:07:45Z</time>
    <name>ANOM:DZ_HAMPEL,JERK,VH,VT</name>
    <desc>Tramo #10 (947-948), dur=2s
Causas: DZ_HAMPEL,JERK,VH,VT
vh_max=133.76 km/h | grade_ext=-37.5% | vz_ext=-836.1 m/min
max|dx|=23.97 m/s, max|dy|=28.39 m/s, max|dz|=13.93 m/s</desc>
  </wpt>
  <wpt lat="43.32207998219339" lon="-4.2669460327304005">
    <ele>153.05530243102325</ele>
    <time>2024-09-08T09:11:25Z</time>
    <name>ANOM:DZ_HAMPEL</name>
    <desc>Tramo #11 (1167-1171), dur=5s
Causas: DZ_HAMPEL
vh_max=4.85 km/h | grade_ext=3.7% | vz_ext=3.0 m/min
max|dx|=0.65 m/s, max|dy|=1.18 m/s, max|dz|=0.05 m/s</desc>
  </wpt>
  <wpt lat="43.322286" lon="-4.267111">
    <ele>155.0</ele>
    <time>2024-09-08T09:11:46Z</time>
    <name>ANOM:DZ_HAMPEL</name>
    <desc>Tramo #12 (1188-1194), dur=7s
Causas: DZ_HAMPEL
vh_max=4.69 km/h | grade_ext=11.8% | vz_ext=9.0 m/min
max|dx|=0.32 m/s, max|dy|=1.26 m/s, max|dz|=0.15 m/s</desc>
  </wpt>
  <wpt lat="43.32240382793649" lon="-4.266997983386211">
    <ele>158.3258518523863</ele>
    <time>2024-09-08T09:12:13Z</time>
    <name>ANOM:DZ_HAMPEL</name>
    <desc>Tramo #13 (1215-1216), dur=2s
Causas: DZ_HAMPEL
vh_max=3.67 km/h | grade_ext=16.0% | vz_ext=9.8 m/min
max|dx|=0.81 m/s, max|dy|=0.62 m/s, max|dz|=0.16 m/s</desc>
  </wpt>
  <wpt lat="43.32282372904861" lon="-4.266209496763417">
    <ele>179.9483874683823</ele>
    <time>2024-09-08T09:14:28Z</time>
    <name>ANOM:DZ_HAMPEL</name>
    <desc>Tramo #14 (1350-1352), dur=3s
Causas: DZ_HAMPEL
vh_max=4.93 km/h | grade_ext=3.9% | vz_ext=3.1 m/min
max|dx|=0.79 m/s, max|dy|=1.12 m/s, max|dz|=0.05 m/s</desc>
  </wpt>
  <wpt lat="43.32285383837368" lon="-4.26564541556949">
    <ele>186.10533931263805</ele>
    <time>2024-09-08T09:15:13Z</time>
    <name>ANOM:DZ_HAMPEL</name>
    <desc>Tramo #15 (1395-1398), dur=4s
Causas: DZ_HAMPEL
vh_max=4.88 km/h | grade_ext=12.5% | vz_ext=10.2 m/min
max|dx|=0.99 m/s, max|dy|=0.93 m/s, max|dz|=0.17 m/s</desc>
  </wpt>
  <wpt lat="43.32231691214775" lon="-4.264005962033574">
    <ele>204.59707159168028</ele>
    <time>2024-09-08T09:17:29Z</time>
    <name>ANOM:DZ_HAMPEL</name>
    <desc>Tramo #16 (1531-1534), dur=4s
Causas: DZ_HAMPEL
vh_max=5.73 km/h | grade_ext=-34.3% | vz_ext=-32.8 m/min
max|dx|=1.59 m/s, max|dy|=0.26 m/s, max|dz|=0.55 m/s</desc>
  </wpt>
  <wpt lat="43.32230403320434" lon="-4.263870626604285">
    <ele>204.26970869677123</ele>
    <time>2024-09-08T09:17:40Z</time>
    <name>ANOM:DZ_HAMPEL</name>
    <desc>Tramo #17 (1542-1544), dur=3s
Causas: DZ_HAMPEL
vh_max=3.93 km/h | grade_ext=21.0% | vz_ext=13.7 m/min
max|dx|=1.05 m/s, max|dy|=0.28 m/s, max|dz|=0.23 m/s</desc>
  </wpt>
  <wpt lat="43.32207641685108" lon="-4.2638516959432575">
    <ele>205.0</ele>
    <time>2024-09-08T09:18:06Z</time>
    <name>ANOM:DZ_HAMPEL</name>
    <desc>Tramo #18 (1568-1574), dur=7s
Causas: DZ_HAMPEL
vh_max=8.80 km/h | grade_ext=17.8% | vz_ext=26.0 m/min
max|dx|=1.47 m/s, max|dy|=2.11 m/s, max|dz|=0.43 m/s</desc>
  </wpt>
  <wpt lat="43.32185498199647" lon="-4.263391831190056">
    <ele>203.63324760221755</ele>
    <time>2024-09-08T09:19:14Z</time>
    <name>ANOM:DZ_HAMPEL</name>
    <desc>Tramo #19 (1636-1637), dur=2s
Causas: DZ_HAMPEL
vh_max=4.81 km/h | grade_ext=-24.9% | vz_ext=-20.0 m/min
max|dx|=0.11 m/s, max|dy|=1.33 m/s, max|dz|=0.33 m/s</desc>
  </wpt>
  <wpt lat="43.32109425504878" lon="-4.263883728378691">
    <ele>188.05916623876402</ele>
    <time>2024-09-08T09:21:07Z</time>
    <name>ANOM:DZ_HAMPEL</name>
    <desc>Tramo #20 (1749-1750), dur=2s
Causas: DZ_HAMPEL
vh_max=6.20 km/h | grade_ext=-15.8% | vz_ext=-16.4 m/min
max|dx|=1.19 m/s, max|dy|=1.24 m/s, max|dz|=0.27 m/s</desc>
  </wpt>
  <wpt lat="43.321152" lon="-4.264424">
    <ele>183.0</ele>
    <time>2024-09-08T09:21:45Z</time>
    <name>ANOM:DZ_HAMPEL</name>
    <desc>Tramo #21 (1787-1790), dur=4s
Causas: DZ_HAMPEL
vh_max=5.15 km/h | grade_ext=1.5% | vz_ext=1.3 m/min
max|dx|=1.36 m/s, max|dy|=0.45 m/s, max|dz|=0.02 m/s</desc>
  </wpt>
  <wpt lat="43.31829954293198" lon="-4.260995262546925">
    <ele>146.0454094996686</ele>
    <time>2024-09-08T09:28:16Z</time>
    <name>ANOM:DZ_HAMPEL</name>
    <desc>Tramo #22 (2178-2179), dur=2s
Causas: DZ_HAMPEL
vh_max=12.47 km/h | grade_ext=-8.1% | vz_ext=-16.7 m/min
max|dx|=2.67 m/s, max|dy|=2.21 m/s, max|dz|=0.28 m/s</desc>
  </wpt>
  <wpt lat="43.318555511877875" lon="-4.260832376064652">
    <ele>145.0</ele>
    <time>2024-09-08T09:28:44Z</time>
    <name>ANOM:DZ_HAMPEL</name>
    <desc>Tramo #23 (2206-2211), dur=6s
Causas: DZ_HAMPEL
vh_max=3.45 km/h | grade_ext=23.5% | vz_ext=13.5 m/min
max|dx|=0.33 m/s, max|dy|=0.90 m/s, max|dz|=0.22 m/s</desc>
  </wpt>
  <wpt lat="43.318725988693274" lon="-4.26065801628168">
    <ele>147.1999095462204</ele>
    <time>2024-09-08T09:35:28Z</time>
    <name>ANOM:DZ_HAMPEL,JERK</name>
    <desc>Tramo #24 (2610-2611), dur=2s
Causas: DZ_HAMPEL,JERK
vh_max=35.38 km/h | grade_ext=7.6% | vz_ext=30.4 m/min
max|dx|=8.27 m/s, max|dy|=5.31 m/s, max|dz|=0.51 m/s</desc>
  </wpt>
  <wpt lat="43.318870968149746" lon="-4.260498022394709">
    <ele>148.09995023397892</ele>
    <time>2024-09-08T09:39:44Z</time>
    <name>ANOM:DZ_HAMPEL,JERK</name>
    <desc>Tramo #25 (2866-2867), dur=2s
Causas: DZ_HAMPEL,JERK
vh_max=22.12 km/h | grade_ext=23.1% | vz_ext=85.1 m/min
max|dx|=3.59 m/s, max|dy|=4.99 m/s, max|dz|=1.42 m/s</desc>
  </wpt>
  <trk>
    <name>14_pattern_aligned_resampled_anomalies</name>
    <trkseg>
      <trkpt lat="43.32542330145885" lon="-4.261046837212224">
        <ele>216.0</ele>
        <time>2024-09-08T08:58:47Z</time>
      </trkpt>
      <trkpt lat="43.325418672749485" lon="-4.261049253776308">
        <ele>215.9098489476404</ele>
        <time>2024-09-08T08:58:48Z</time>
      </trkpt>
      <trkpt lat="43.325401555122504" lon="-4.261058169207029">
        <ele>215.55323171882014</ele>
        <time>2024-09-08T08:58:49Z</time>
      </trkpt>
      <trkpt lat="43.32538443749552" lon="-4.26106708463775">
        <ele>215.19661448999992</ele>
        <time>2024-09-08T08:58:50Z</time>
      </trkpt>
    </trkseg>
    <trkseg>
      <trkpt lat="43.3252828781027" lon="-4.261092825919555">
        <ele>215.0</ele>
        <time>2024-09-08T08:58:56Z</time>
      </trkpt>
      <trkpt lat="43.32526507235245" lon="-4.261091884044056">
        <ele>214.86050550704886</ele>
        <time>2024-09-08T08:58:57Z</time>
      </trkpt>
      <trkpt lat="43.32524607792346" lon="-4.261089509740432">
        <ele>214.56371755402802</ele>
        <time>2024-09-08T08:58:58Z</time>
      </trkpt>
      <trkpt lat="43.32522708349446" lon="-4.261087135436807">
        <ele>214.26692960100718</ele>
        <time>2024-09-08T08:58:59Z</time>
      </trkpt>
    </trkseg>
    <trkseg>
      <trkpt lat="43.32511882489054" lon="-4.261065861516007">
        <ele>214.0</ele>
        <time>2024-09-08T08:59:04Z</time>
      </trkpt>
      <trkpt lat="43.32509517356507" lon="-4.261061058256598">
        <ele>213.88228207485633</ele>
        <time>2024-09-08T08:59:05Z</time>
      </trkpt>
      <trkpt lat="43.32506751744798" lon="-4.261055661941068">
        <ele>213.2077426335234</ele>
        <time>2024-09-08T08:59:06Z</time>
      </trkpt>
    </trkseg>
    <trkseg>
      <trkpt lat="43.32492446116717" lon="-4.260999155604039">
        <ele>213.0</ele>
        <time>2024-09-08T08:59:13Z</time>
      </trkpt>
      <trkpt lat="43.32489938395793" lon="-4.260977607973226">
        <ele>212.99066602919888</ele>
        <time>2024-09-08T08:59:14Z</time>
      </trkpt>
      <trkpt lat="43.324881882762675" lon="-4.260966470848975">
        <ele>212.7254964041673</ele>
        <time>2024-09-08T08:59:15Z</time>
      </trkpt>
      <trkpt lat="43.32486438156742" lon="-4.2609553337247235">
        <ele>212.4603267791357</ele>
        <time>2024-09-08T08:59:16Z</time>
      </trkpt>
      <trkpt lat="43.32484688037217" lon="-4.260944196600472">
        <ele>212.19515715410412</ele>
        <time>2024-09-08T08:59:17Z</time>
      </trkpt>
    </trkseg>
    <trkseg>
      <trkpt lat="43.324517693012496" lon="-4.261722762062">
        <ele>219.0</ele>
        <time>2024-09-08T09:00:16Z</time>
      </trkpt>
      <trkpt lat="43.3245051930125" lon="-4.261740762062">
        <ele>219.0</ele>
        <time>2024-09-08T09:00:17Z</time>
      </trkpt>
    </trkseg>
    <trkseg>
      <trkpt lat="43.32244473159764" lon="-4.263112574506708">
        <ele>213.48114900511592</ele>
        <time>2024-09-08T09:02:06Z</time>
      </trkpt>
      <trkpt lat="43.322430464493586" lon="-4.263142146322381">
        <ele>212.96234522137618</ele>
        <time>2024-09-08T09:02:07Z</time>
      </trkpt>
      <trkpt lat="43.322416197389536" lon="-4.263171718138055">
        <ele>212.4435414376364</ele>
        <time>2024-09-08T09:02:08Z</time>
      </trkpt>
    </trkseg>
    <trkseg>
      <trkpt lat="43.32240899540971" lon="-4.264471129075111">
        <ele>199.2760367223165</ele>
        <time>2024-09-08T09:06:13Z</time>
      </trkpt>
      <trkpt lat="43.32242159917017" lon="-4.264501126025001">
        <ele>199.17520663865272</ele>
        <time>2024-09-08T09:06:14Z</time>
      </trkpt>
      <trkpt lat="43.32243420293063" lon="-4.264531122974891">
        <ele>199.07437655498896</ele>
        <time>2024-09-08T09:06:15Z</time>
      </trkpt>
      <trkpt lat="43.32244680669108" lon="-4.264561119924781">
        <ele>198.9735464713252</ele>
        <time>2024-09-08T09:06:16Z</time>
      </trkpt>
    </trkseg>
    <trkseg>
      <trkpt lat="43.322953256312665" lon="-4.265865908955007">
        <ele>183.08286151228938</ele>
        <time>2024-09-08T09:06:59Z</time>
      </trkpt>
      <trkpt lat="43.32295972342248" lon="-4.265907434607478">
        <ele>183.04882409223052</ele>
        <time>2024-09-08T09:07:00Z</time>
      </trkpt>
    </trkseg>
    <trkseg>
      <trkpt lat="43.32270006178081" lon="-4.266277646073063">
        <ele>178.07418848298</ele>
        <time>2024-09-08T09:07:16Z</time>
      </trkpt>
      <trkpt lat="43.32267559700442" lon="-4.266285800998525">
        <ele>178.028883341526</ele>
        <time>2024-09-08T09:07:17Z</time>
      </trkpt>
    </trkseg>
    <trkseg>
      <trkpt lat="43.32217621947021" lon="-4.266479603543064">
        <ele>165.9566532207452</ele>
        <time>2024-09-08T09:07:45Z</time>
      </trkpt>
      <trkpt lat="43.32192092534742" lon="-4.266775947009705">
        <ele>152.02198153011872</ele>
        <time>2024-09-08T09:07:46Z</time>
      </trkpt>
    </trkseg>
    <trkseg>
      <trkpt lat="43.32207998219339" lon="-4.2669460327304005">
        <ele>153.05530243102325</ele>
        <time>2024-09-08T09:11:25Z</time>
      </trkpt>
      <trkpt lat="43.32209059701704" lon="-4.2669540346743835">
        <ele>153.1042939247935</ele>
        <time>2024-09-08T09:11:26Z</time>
      </trkpt>
      <trkpt lat="43.32210121184069" lon="-4.266962036618366">
        <ele>153.15328541856374</ele>
        <time>2024-09-08T09:11:27Z</time>
      </trkpt>
      <trkpt lat="43.32211182666434" lon="-4.266970038562348">
        <ele>153.20227691233399</ele>
        <time>2024-09-08T09:11:28Z</time>
      </trkpt>
      <trkpt lat="43.32212244148799" lon="-4.266978040506331">
        <ele>153.25126840610423</ele>
        <time>2024-09-08T09:11:29Z</time>
      </trkpt>
    </trkseg>
    <trkseg>
      <trkpt lat="43.322286" lon="-4.267111">
        <ele>155.0</ele>
        <time>2024-09-08T09:11:46Z</time>
      </trkpt>
      <trkpt lat="43.322297132999324" lon="-4.26711476114842">
        <ele>155.15044593680128</ele>
        <time>2024-09-08T09:11:47Z</time>
      </trkpt>
      <trkpt lat="43.32230826599864" lon="-4.2671185222968395">
        <ele>155.30089187360255</ele>
        <time>2024-09-08T09:11:48Z</time>
      </trkpt>
      <trkpt lat="43.32231939899797" lon="-4.26712228344526">
        <ele>155.45133781040383</ele>
        <time>2024-09-08T09:11:49Z</time>
      </trkpt>
      <trkpt lat="43.322330531997295" lon="-4.26712604459368">
        <ele>155.6017837472051</ele>
        <time>2024-09-08T09:11:50Z</time>
      </trkpt>
      <trkpt lat="43.32234166499662" lon="-4.2671298057421">
        <ele>155.75222968400635</ele>
        <time>2024-09-08T09:11:51Z</time>
      </trkpt>
      <trkpt lat="43.32235279799594" lon="-4.26713356689052">
        <ele>155.90267562080763</ele>
        <time>2024-09-08T09:11:52Z</time>
      </trkpt>
    </trkseg>
    <trkseg>
      <trkpt lat="43.32240382793649" lon="-4.266997983386211">
        <ele>158.3258518523863</ele>
        <time>2024-09-08T09:12:13Z</time>
      </trkpt>
      <trkpt lat="43.322398241904736" lon="-4.266987975079316">
        <ele>158.48877777857948</ele>
        <time>2024-09-08T09:12:14Z</time>
      </trkpt>
    </trkseg>
    <trkseg>
      <trkpt lat="43.32282372904861" lon="-4.266209496763417">
        <ele>179.9483874683823</ele>
        <time>2024-09-08T09:14:28Z</time>
      </trkpt>
      <trkpt lat="43.3228337735196" lon="-4.266200514388532">
        <ele>180.0</ele>
        <time>2024-09-08T09:14:29Z</time>
      </trkpt>
      <trkpt lat="43.3228438610344" lon="-4.266190800485396">
        <ele>180.0</ele>
        <time>2024-09-08T09:14:30Z</time>
      </trkpt>
    </trkseg>
    <trkseg>
      <trkpt lat="43.32285383837368" lon="-4.26564541556949">
        <ele>186.10533931263805</ele>
        <time>2024-09-08T09:15:13Z</time>
      </trkpt>
      <trkpt lat="43.32284551774629" lon="-4.2656331893414805">
        <ele>186.27514803499895</ele>
        <time>2024-09-08T09:15:14Z</time>
      </trkpt>
      <trkpt lat="43.322837197118886" lon="-4.26562096311347">
        <ele>186.44495675735982</ele>
        <time>2024-09-08T09:15:15Z</time>
      </trkpt>
      <trkpt lat="43.32282887649149" lon="-4.2656087368854605">
        <ele>186.6147654797207</ele>
        <time>2024-09-08T09:15:16Z</time>
      </trkpt>
    </trkseg>
    <trkseg>
      <trkpt lat="43.32231691214775" lon="-4.264005962033574">
        <ele>204.59707159168028</ele>
        <time>2024-09-08T09:17:29Z</time>
      </trkpt>
      <trkpt lat="43.32231761030355" lon="-4.263986301197011">
        <ele>204.05072680380744</ele>
        <time>2024-09-08T09:17:30Z</time>
      </trkpt>
      <trkpt lat="43.32231699543974" lon="-4.263967465798057">
        <ele>203.63302931606125</ele>
        <time>2024-09-08T09:17:31Z</time>
      </trkpt>
      <trkpt lat="43.322314684692806" lon="-4.263950135196026">
        <ele>203.47897952023501</ele>
        <time>2024-09-08T09:17:32Z</time>
      </trkpt>
    </trkseg>
    <trkseg>
      <trkpt lat="43.32230403320434" lon="-4.263870626604285">
        <ele>204.26970869677123</ele>
        <time>2024-09-08T09:17:40Z</time>
      </trkpt>
      <trkpt lat="43.32230151654577" lon="-4.263857585737181">
        <ele>204.49849583893385</ele>
        <time>2024-09-08T09:17:41Z</time>
      </trkpt>
      <trkpt lat="43.32229899988721" lon="-4.263844544870078">
        <ele>204.72728298109647</ele>
        <time>2024-09-08T09:17:42Z</time>
      </trkpt>
    </trkseg>
    <trkseg>
      <trkpt lat="43.32207641685108" lon="-4.2638516959432575">
        <ele>205.0</ele>
        <time>2024-09-08T09:18:06Z</time>
      </trkpt>
      <trkpt lat="43.32206387560601" lon="-4.263851790197248">
        <ele>204.8924619775829</ele>
        <time>2024-09-08T09:18:07Z</time>
      </trkpt>
      <trkpt lat="43.32205086809847" lon="-4.263849581375212">
        <ele>204.69612224111992</ele>
        <time>2024-09-08T09:18:08Z</time>
      </trkpt>
      <trkpt lat="43.32203786059093" lon="-4.263847372553177">
        <ele>204.49978250465693</ele>
        <time>2024-09-08T09:18:09Z</time>
      </trkpt>
      <trkpt lat="43.32202485308339" lon="-4.263845163731142">
        <ele>204.30344276819395</ele>
        <time>2024-09-08T09:18:10Z</time>
      </trkpt>
      <trkpt lat="43.32200901413588" lon="-4.263836811308704">
        <ele>204.40539117987475</ele>
        <time>2024-09-08T09:18:11Z</time>
      </trkpt>
      <trkpt lat="43.321990022319184" lon="-4.2638216178553465">
        <ele>204.8394898472461</ele>
        <time>2024-09-08T09:18:12Z</time>
      </trkpt>
    </trkseg>
    <trkseg>
      <trkpt lat="43.32185498199647" lon="-4.263391831190056">
        <ele>203.63324760221755</ele>
        <time>2024-09-08T09:19:14Z</time>
      </trkpt>
      <trkpt lat="43.32184351197731" lon="-4.263390501330813">
        <ele>203.47533270310035</ele>
        <time>2024-09-08T09:19:15Z</time>
      </trkpt>
    </trkseg>
    <trkseg>
      <trkpt lat="43.32109425504878" lon="-4.263883728378691">
        <ele>188.05916623876402</ele>
        <time>2024-09-08T09:21:07Z</time>
      </trkpt>
      <trkpt lat="43.32110467723753" lon="-4.263894843190891">
        <ele>187.9103112798028</ele>
        <time>2024-09-08T09:21:08Z</time>
      </trkpt>
    </trkseg>
    <trkseg>
      <trkpt lat="43.321152" lon="-4.264424">
        <ele>183.0</ele>
        <time>2024-09-08T09:21:45Z</time>
      </trkpt>
      <trkpt lat="43.321147963021275" lon="-4.264407214667406">
        <ele>183.02124725644802</ele>
        <time>2024-09-08T09:21:46Z</time>
      </trkpt>
      <trkpt lat="43.32114392604255" lon="-4.264390429334812">
        <ele>183.042494512896</ele>
        <time>2024-09-08T09:21:47Z</time>
      </trkpt>
      <trkpt lat="43.32113988906383" lon="-4.264373644002218">
        <ele>183.06374176934403</ele>
        <time>2024-09-08T09:21:48Z</time>
      </trkpt>
    </trkseg>
    <trkseg>
      <trkpt lat="43.31829954293198" lon="-4.260995262546925">
        <ele>146.0454094996686</ele>
        <time>2024-09-08T09:28:16Z</time>
      </trkpt>
      <trkpt lat="43.3182995539723" lon="-4.260980402849858">
        <ele>145.9616904154906</ele>
        <time>2024-09-08T09:28:17Z</time>
      </trkpt>
    </trkseg>
    <trkseg>
      <trkpt lat="43.318555511877875" lon="-4.260832376064652">
        <ele>145.0</ele>
        <time>2024-09-08T09:28:44Z</time>
      </trkpt>
      <trkpt lat="43.318563172623364" lon="-4.2608284136883166">
        <ele>145.08812842685472</ele>
        <time>2024-09-08T09:28:45Z</time>
      </trkpt>
      <trkpt lat="43.31857127253852" lon="-4.26082436373074">
        <ele>145.31312607000442</ele>
        <time>2024-09-08T09:28:46Z</time>
      </trkpt>
      <trkpt lat="43.31857937245367" lon="-4.260820313773163">
        <ele>145.5381237131541</ele>
        <time>2024-09-08T09:28:47Z</time>
      </trkpt>
      <trkpt lat="43.318587472368826" lon="-4.260816263815586">
        <ele>145.7631213563038</ele>
        <time>2024-09-08T09:28:48Z</time>
      </trkpt>
      <trkpt lat="43.31859557228398" lon="-4.260812213858009">
        <ele>145.9881189994535</ele>
        <time>2024-09-08T09:28:49Z</time>
      </trkpt>
    </trkseg>
    <trkseg>
      <trkpt lat="43.318725988693274" lon="-4.26065801628168">
        <ele>147.1999095462204</ele>
        <time>2024-09-08T09:35:28Z</time>
      </trkpt>
      <trkpt lat="43.318773699348036" lon="-4.260555732602222">
        <ele>147.70617071797625</ele>
        <time>2024-09-08T09:35:29Z</time>
      </trkpt>
    </trkseg>
    <trkseg>
      <trkpt lat="43.318870968149746" lon="-4.260498022394709">
        <ele>148.09995023397892</ele>
        <time>2024-09-08T09:39:44Z</time>
      </trkpt>
      <trkpt lat="43.318915825491175" lon="-4.260453675699894">
        <ele>149.5176890966788</ele>
        <time>2024-09-08T09:39:45Z</time>
      </trkpt>
    </trkseg>
  </trk>
</gpx>