<?xml version="1.0" encoding="UTF-8"?>
<gpx xmlns="http://www.topografix.com/GPX/1/1" xmlns:xsi="http://www.w3.org/2001/XMLSchema-instance" xsi:schemaLocation="http://www.topografix.com/GPX/1/1 http://www.topografix.com/GPX/1/1/gpx.xsd" version="1.1" creator="gpx.py -- https://github.com/tkrajina/gpxpy">
  <wpt lat="43.20077345373067" lon="-3.5845200644278887">
    <ele>687.0289925500009</ele>
    <time>2024-09-09T08:03:04Z</time>
    <name>ANOM:DZ_HAMPEL</name>
    <desc>Tramo #1 (19-22), dur=4s
Causas: DZ_HAMPEL
vh_max=5.24 km/h | grade_ext=16.9% | vz_ext=14.7 m/min
max|dx|=0.04 m/s, max|dy|=1.45 m/s, max|dz|=0.25 m/s</desc>
  </wpt>
  <wpt lat="43.19945792331156" lon="-3.587110545347107">
    <ele>713.1895922831703</ele>
    <time>2024-09-09T08:09:04Z</time>
    <name>ANOM:GRADE_UP</name>
    <desc>Tramo #2 (379-384), dur=6s
Causas: GRADE_UP
vh_max=1.69 km/h | grade_ext=47.4% | vz_ext=13.1 m/min
max|dx|=0.45 m/s, max|dy|=0.15 m/s, max|dz|=0.22 m/s</desc>
  </wpt>
  <wpt lat="43.199496758137315" lon="-3.5872463732477793">
    <ele>716.097790448323</ele>
    <time>2024-09-09T08:11:18Z</time>
    <name>ANOM:GRADE_UP</name>
    <desc>Tramo #3 (513-517), dur=5s
Causas: GRADE_UP
vh_max=2.88 km/h | grade_ext=35.8% | vz_ext=17.2 m/min
max|dx|=0.75 m/s, max|dy|=0.28 m/s, max|dz|=0.29 m/s</desc>
  </wpt>
  <wpt lat="43.199541636830766" lon="-3.587346927123022">
    <ele>717.9379799980603</ele>
    <time>2024-09-09T08:11:33Z</time>
    <name>ANOM:GRADE_UP</name>
    <desc>Tramo #4 (528-531), dur=4s
Causas: GRADE_UP
vh_max=2.47 km/h | grade_ext=42.3% | vz_ext=17.4 m/min
max|dx|=0.67 m/s, max|dy|=0.15 m/s, max|dz|=0.29 m/s</desc>
  </wpt>
  <wpt lat="43.199550202158" lon="-3.5873864043159966">
    <ele>719.2921294798991</ele>
    <time>2024-09-09T08:11:38Z</time>
    <name>ANOM:GRADE_UP</name>
    <desc>Tramo #5 (533-538), dur=6s
Causas: GRADE_UP
vh_max=2.03 km/h | grade_ext=85.0% | vz_ext=28.8 m/min
max|dx|=0.52 m/s, max|dy|=0.21 m/s, max|dz|=0.48 m/s</desc>
  </wpt>
  <wpt lat="43.199585319405664" lon="-3.5874908962213414">
    <ele>722.9319405662017</ele>
    <time>2024-09-09T08:11:54Z</time>
    <name>ANOM:DZ_HAMPEL,GRADE_UP</name>
    <desc>Tramo #6 (549-551), dur=3s
Causas: DZ_HAMPEL,GRADE_UP
vh_max=3.66 km/h | grade_ext=72.2% | vz_ext=28.7 m/min
max|dx|=1.01 m/s, max|dy|=0.41 m/s, max|dz|=0.48 m/s</desc>
  </wpt>
  <wpt lat="43.19962201145976" lon="-3.587590204108837">
    <ele>725.4479351582542</ele>
    <time>2024-09-09T08:12:06Z</time>
    <name>ANOM:GRADE_UP</name>
    <desc>Tramo #7 (561-564), dur=4s
Causas: GRADE_UP
vh_max=3.16 km/h | grade_ext=35.7% | vz_ext=18.5 m/min
max|dx|=0.83 m/s, max|dy|=0.34 m/s, max|dz|=0.31 m/s</desc>
  </wpt>
  <wpt lat="43.19965689093281" lon="-3.587718608641235">
    <ele>728.7910179955597</ele>
    <time>2024-09-09T08:12:21Z</time>
    <name>ANOM:DZ_HAMPEL</name>
    <desc>Tramo #8 (576-577), dur=2s
Causas: DZ_HAMPEL
vh_max=11.33 km/h | grade_ext=30.0% | vz_ext=45.8 m/min
max|dx|=3.15 m/s, max|dy|=0.75 m/s, max|dz|=0.76 m/s</desc>
  </wpt>
  <wpt lat="43.199621" lon="-3.587857">
    <ele>731.6</ele>
    <time>2024-09-09T08:12:38Z</time>
    <name>ANOM:GRADE_UP</name>
    <desc>Tramo #9 (593-596), dur=4s
Causas: GRADE_UP
vh_max=2.54 km/h | grade_ext=40.1% | vz_ext=17.0 m/min
max|dx|=0.65 m/s, max|dy|=0.27 m/s, max|dz|=0.28 m/s</desc>
  </wpt>
  <wpt lat="43.19962658338492" lon="-3.5879222709236083">
    <ele>733.0895846229787</ele>
    <time>2024-09-09T08:12:48Z</time>
    <name>ANOM:GRADE_UP</name>
    <desc>Tramo #10 (603-605), dur=3s
Causas: GRADE_UP
vh_max=2.57 km/h | grade_ext=44.5% | vz_ext=19.1 m/min
max|dx|=0.67 m/s, max|dy|=0.25 m/s, max|dz|=0.32 m/s</desc>
  </wpt>
  <wpt lat="43.199622777336195" lon="-3.588110747514218">
    <ele>738.0238568367416</ele>
    <time>2024-09-09T08:13:12Z</time>
    <name>ANOM:GRADE_UP</name>
    <desc>Tramo #11 (627-633), dur=7s
Causas: GRADE_UP
vh_max=2.07 km/h | grade_ext=36.4% | vz_ext=12.6 m/min
max|dx|=0.53 m/s, max|dy|=0.22 m/s, max|dz|=0.21 m/s</desc>
  </wpt>
  <wpt lat="43.199596871807735" lon="-3.5882008480797256">
    <ele>740.5262316531469</ele>
    <time>2024-09-09T08:13:25Z</time>
    <name>ANOM:DZ_HAMPEL,GRADE_UP</name>
    <desc>Tramo #12 (640-645), dur=6s
Causas: DZ_HAMPEL,GRADE_UP
vh_max=2.55 km/h | grade_ext=41.1% | vz_ext=17.5 m/min
max|dx|=0.64 m/s, max|dy|=0.30 m/s, max|dz|=0.29 m/s</desc>
  </wpt>
  <wpt lat="43.19964381778156" lon="-3.5883848760871095">
    <ele>745.0673467167501</ele>
    <time>2024-09-09T08:13:55Z</time>
    <name>ANOM:GRADE_UP</name>
    <desc>Tramo #13 (670-675), dur=6s
Causas: GRADE_UP
vh_max=2.28 km/h | grade_ext=38.0% | vz_ext=14.4 m/min
max|dx|=0.58 m/s, max|dy|=0.32 m/s, max|dz|=0.24 m/s</desc>
  </wpt>
  <wpt lat="43.199570041263094" lon="-3.5888426989523494">
    <ele>754.9339790469833</ele>
    <time>2024-09-09T08:14:53Z</time>
    <name>ANOM:DZ_HAMPEL,GRADE_UP</name>
    <desc>Tramo #14 (728-731), dur=4s
Causas: DZ_HAMPEL,GRADE_UP
vh_max=3.49 km/h | grade_ext=38.9% | vz_ext=22.6 m/min
max|dx|=0.97 m/s, max|dy|=0.28 m/s, max|dz|=0.38 m/s</desc>
  </wpt>
  <wpt lat="43.19960650022012" lon="-3.58899608951716">
    <ele>758.7412023668803</ele>
    <time>2024-09-09T08:15:14Z</time>
    <name>ANOM:GRADE_UP</name>
    <desc>Tramo #15 (749-761), dur=13s
Causas: GRADE_UP
vh_max=2.90 km/h | grade_ext=38.0% | vz_ext=18.4 m/min
max|dx|=0.61 m/s, max|dy|=0.53 m/s, max|dz|=0.31 m/s</desc>
  </wpt>
  <wpt lat="43.199375" lon="-3.589257">
    <ele>768.4</ele>
    <time>2024-09-09T08:16:04Z</time>
    <name>ANOM:GRADE_UP</name>
    <desc>Tramo #16 (799-815), dur=17s
Causas: GRADE_UP
vh_max=1.87 km/h | grade_ext=39.5% | vz_ext=12.4 m/min
max|dx|=0.41 m/s, max|dy|=0.33 m/s, max|dz|=0.21 m/s</desc>
  </wpt>
  <wpt lat="43.19945235077445" lon="-3.589484457555677">
    <ele>774.7620929337064</ele>
    <time>2024-09-09T08:16:45Z</time>
    <name>ANOM:DZ_HAMPEL,GRADE_UP</name>
    <desc>Tramo #17 (840-842), dur=3s
Causas: DZ_HAMPEL,GRADE_UP
vh_max=3.41 km/h | grade_ext=41.4% | vz_ext=23.6 m/min
max|dx|=0.88 m/s, max|dy|=0.36 m/s, max|dz|=0.39 m/s</desc>
  </wpt>
  <wpt lat="43.1995718472549" lon="-3.5897482195686274">
    <ele>781.3186156862624</ele>
    <time>2024-09-09T08:17:17Z</time>
    <name>ANOM:GRADE_UP</name>
    <desc>Tramo #18 (872-877), dur=6s
Causas: GRADE_UP
vh_max=2.60 km/h | grade_ext=42.8% | vz_ext=18.5 m/min
max|dx|=0.68 m/s, max|dy|=0.25 m/s, max|dz|=0.31 m/s</desc>
  </wpt>
  <wpt lat="43.199674512255726" lon="-3.589905073285882">
    <ele>786.1707353436436</ele>
    <time>2024-09-09T08:17:41Z</time>
    <name>ANOM:GRADE_UP</name>
    <desc>Tramo #19 (896-897), dur=2s
Causas: GRADE_UP
vh_max=3.23 km/h | grade_ext=35.8% | vz_ext=19.3 m/min
max|dx|=0.68 m/s, max|dy|=0.58 m/s, max|dz|=0.32 m/s</desc>
  </wpt>
  <wpt lat="43.19991759925092" lon="-3.590370906707456">
    <ele>795.4626489592706</ele>
    <time>2024-09-09T08:18:44Z</time>
    <name>ANOM:GRADE_UP</name>
    <desc>Tramo #20 (959-976), dur=18s
Causas: GRADE_UP
vh_max=2.37 km/h | grade_ext=37.2% | vz_ext=14.7 m/min
max|dx|=0.61 m/s, max|dy|=0.26 m/s, max|dz|=0.25 m/s</desc>
  </wpt>
  <wpt lat="43.20080610994111" lon="-3.592040047264959">
    <ele>825.9660929947441</ele>
    <time>2024-09-09T08:22:03Z</time>
    <name>ANOM:DZ_HAMPEL</name>
    <desc>Tramo #21 (1158-1161), dur=4s
Causas: DZ_HAMPEL
vh_max=3.74 km/h | grade_ext=18.0% | vz_ext=11.2 m/min
max|dx|=1.02 m/s, max|dy|=0.24 m/s, max|dz|=0.19 m/s</desc>
  </wpt>
  <wpt lat="43.20120618372971" lon="-3.594014176890896">
    <ele>853.9808921100897</ele>
    <time>2024-09-09T08:25:45Z</time>
    <name>ANOM:GRADE_UP</name>
    <desc>Tramo #22 (1380-1388), dur=9s
Causas: GRADE_UP
vh_max=2.19 km/h | grade_ext=44.1% | vz_ext=15.8 m/min
max|dx|=0.55 m/s, max|dy|=0.27 m/s, max|dz|=0.26 m/s</desc>
  </wpt>
  <wpt lat="43.20106377288387" lon="-3.594452136110667">
    <ele>865.9227204465726</ele>
    <time>2024-09-09T08:26:47Z</time>
    <name>ANOM:DZ_HAMPEL,GRADE_UP</name>
    <desc>Tramo #23 (1442-1444), dur=3s
Causas: DZ_HAMPEL,GRADE_UP
vh_max=3.68 km/h | grade_ext=45.6% | vz_ext=28.0 m/min
max|dx|=1.01 m/s, max|dy|=0.28 m/s, max|dz|=0.47 m/s</desc>
  </wpt>
  <wpt lat="43.201181892310046" lon="-3.5948788778294394">
    <ele>875.430226355143</ele>
    <time>2024-09-09T08:27:36Z</time>
    <name>ANOM:DZ_HAMPEL,GRADE_UP</name>
    <desc>Tramo #24 (1491-1492), dur=2s
Causas: DZ_HAMPEL,GRADE_UP
vh_max=3.85 km/h | grade_ext=38.9% | vz_ext=25.0 m/min
max|dx|=0.72 m/s, max|dy|=0.98 m/s, max|dz|=0.42 m/s</desc>
  </wpt>
  <wpt lat="43.20126879564977" lon="-3.5949410383156697">
    <ele>878.6948912440627</ele>
    <time>2024-09-09T08:27:50Z</time>
    <name>ANOM:DZ_HAMPEL,GRADE_UP</name>
    <desc>Tramo #25 (1505-1508), dur=4s
Causas: DZ_HAMPEL,GRADE_UP
vh_max=2.83 km/h | grade_ext=36.5% | vz_ext=17.2 m/min
max|dx|=0.06 m/s, max|dy|=0.78 m/s, max|dz|=0.29 m/s</desc>
  </wpt>
  <wpt lat="43.201404543212014" lon="-3.5948541720663685">
    <ele>881.8351081379898</ele>
    <time>2024-09-09T08:28:11Z</time>
    <name>ANOM:GRADE_UP</name>
    <desc>Tramo #26 (1526-1533), dur=8s
Causas: GRADE_UP
vh_max=2.97 km/h | grade_ext=48.1% | vz_ext=22.5 m/min
max|dx|=0.38 m/s, max|dy|=0.76 m/s, max|dz|=0.37 m/s</desc>
  </wpt>
  <wpt lat="43.2016698050476" lon="-3.5950658337614736">
    <ele>890.673280941803</ele>
    <time>2024-09-09T08:29:07Z</time>
    <name>ANOM:DZ_HAMPEL,GRADE_UP</name>
    <desc>Tramo #27 (1582-1586), dur=5s
Causas: DZ_HAMPEL,GRADE_UP
vh_max=3.20 km/h | grade_ext=43.4% | vz_ext=23.1 m/min
max|dx|=0.83 m/s, max|dy|=0.31 m/s, max|dz|=0.39 m/s</desc>
  </wpt>
  <wpt lat="43.201829156770245" lon="-3.5969609843923247">
    <ele>896.9407533293835</ele>
    <time>2024-09-09T08:31:14Z</time>
    <name>ANOM:DZ_HAMPEL</name>
    <desc>Tramo #28 (1709-1711), dur=3s
Causas: DZ_HAMPEL
vh_max=6.69 km/h | grade_ext=20.9% | vz_ext=23.3 m/min
max|dx|=1.12 m/s, max|dy|=1.49 m/s, max|dz|=0.39 m/s</desc>
  </wpt>
  <wpt lat="43.2023108819381" lon="-3.5982666750685666">
    <ele>912.6236123808629</ele>
    <time>2024-09-09T08:33:19Z</time>
    <name>ANOM:DZ_HAMPEL</name>
    <desc>Tramo #29 (1834-1835), dur=2s
Causas: DZ_HAMPEL
vh_max=4.25 km/h | grade_ext=22.7% | vz_ext=16.1 m/min
max|dx|=1.17 m/s, max|dy|=0.15 m/s, max|dz|=0.27 m/s</desc>
  </wpt>
  <wpt lat="43.20246479918065" lon="-3.598863049313443">
    <ele>921.3625066395382</ele>
    <time>2024-09-09T08:34:18Z</time>
    <name>ANOM:GRADE_UP</name>
    <desc>Tramo #30 (1893-1903), dur=11s
Causas: GRADE_UP
vh_max=2.34 km/h | grade_ext=35.7% | vz_ext=13.9 m/min
max|dx|=0.58 m/s, max|dy|=0.29 m/s, max|dz|=0.23 m/s</desc>
  </wpt>
  <wpt lat="43.202347" lon="-3.599706">
    <ele>940.8</ele>
    <time>2024-09-09T08:36:01Z</time>
    <name>ANOM:DZ_HAMPEL</name>
    <desc>Tramo #31 (1996-1999), dur=4s
Causas: DZ_HAMPEL
vh_max=2.56 km/h | grade_ext=27.7% | vz_ext=11.8 m/min
max|dx|=0.71 m/s, max|dy|=0.05 m/s, max|dz|=0.20 m/s</desc>
  </wpt>
  <wpt lat="43.20234325522989" lon="-3.5997498921794757">
    <ele>941.7536852341466</ele>
    <time>2024-09-09T08:36:06Z</time>
    <name>ANOM:DZ_HAMPEL</name>
    <desc>Tramo #32 (2001-2002), dur=2s
Causas: DZ_HAMPEL
vh_max=3.09 km/h | grade_ext=14.5% | vz_ext=7.5 m/min
max|dx|=0.73 m/s, max|dy|=0.45 m/s, max|dz|=0.12 m/s</desc>
  </wpt>
  <wpt lat="43.20228018839105" lon="-3.5999351692123693">
    <ele>946.1352681579185</ele>
    <time>2024-09-09T08:36:32Z</time>
    <name>ANOM:DZ_HAMPEL</name>
    <desc>Tramo #33 (2027-2032), dur=6s
Causas: DZ_HAMPEL
vh_max=3.03 km/h | grade_ext=33.9% | vz_ext=15.7 m/min
max|dx|=0.83 m/s, max|dy|=0.44 m/s, max|dz|=0.26 m/s</desc>
  </wpt>
  <wpt lat="43.202225962263974" lon="-3.60020661235009">
    <ele>950.6403087522573</ele>
    <time>2024-09-09T08:37:00Z</time>
    <name>ANOM:DZ_HAMPEL</name>
    <desc>Tramo #34 (2055-2057), dur=3s
Causas: DZ_HAMPEL
vh_max=4.32 km/h | grade_ext=17.8% | vz_ext=12.8 m/min
max|dx|=0.71 m/s, max|dy|=0.98 m/s, max|dz|=0.21 m/s</desc>
  </wpt>
  <wpt lat="43.20207253980568" lon="-3.600483723732778">
    <ele>954.616421254882</ele>
    <time>2024-09-09T08:37:30Z</time>
    <name>ANOM:DZ_HAMPEL</name>
    <desc>Tramo #35 (2085-2088), dur=4s
Causas: DZ_HAMPEL
vh_max=4.62 km/h | grade_ext=-12.9% | vz_ext=-9.9 m/min
max|dx|=1.23 m/s, max|dy|=0.49 m/s, max|dz|=0.17 m/s</desc>
  </wpt>
  <wpt lat="43.20136677168293" lon="-3.604068368425126">
    <ele>946.0</ele>
    <time>2024-09-09T08:42:21Z</time>
    <name>ANOM:DZ_HAMPEL</name>
    <desc>Tramo #36 (2376-2382), dur=7s
Causas: DZ_HAMPEL
vh_max=4.90 km/h | grade_ext=10.3% | vz_ext=8.4 m/min
max|dx|=1.35 m/s, max|dy|=0.21 m/s, max|dz|=0.14 m/s</desc>
  </wpt>
  <trk>
    <name>15a_pattern_aligned_resampled_anomalies</name>
    <trkseg>
      <trkpt lat="43.20077345373067" lon="-3.5845200644278887">
        <ele>687.0289925500009</ele>
        <time>2024-09-09T08:03:04Z</time>
      </trkpt>
      <trkpt lat="43.20076037590891" lon="-3.5845206093371287">
        <ele>687.2742017079635</ele>
        <time>2024-09-09T08:03:05Z</time>
      </trkpt>
      <trkpt lat="43.20074729808715" lon="-3.5845211542463686">
        <ele>687.5194108659261</ele>
        <time>2024-09-09T08:03:06Z</time>
      </trkpt>
      <trkpt lat="43.200734220265396" lon="-3.5845216991556086">
        <ele>687.7646200238888</ele>
        <time>2024-09-09T08:03:07Z</time>
      </trkpt>
    </trkseg>
    <trkseg>
      <trkpt lat="43.19945792331156" lon="-3.587110545347107">
        <ele>713.1895922831703</ele>
        <time>2024-09-09T08:09:04Z</time>
      </trkpt>
      <trkpt lat="43.19945925907644" lon="-3.5871160363057717">
        <ele>713.4045999219738</ele>
        <time>2024-09-09T08:09:05Z</time>
      </trkpt>
      <trkpt lat="43.19946060726115" lon="-3.5871214290446174">
        <ele>713.623679937579</ele>
        <time>2024-09-09T08:09:06Z</time>
      </trkpt>
      <trkpt lat="43.19946195544587" lon="-3.587126821783463">
        <ele>713.8427599531843</ele>
        <time>2024-09-09T08:09:07Z</time>
      </trkpt>
      <trkpt lat="43.19946330363058" lon="-3.587132214522309">
        <ele>714.0618399687895</ele>
        <time>2024-09-09T08:09:08Z</time>
      </trkpt>
      <trkpt lat="43.19946465181529" lon="-3.5871376072611545">
        <ele>714.2809199843948</ele>
        <time>2024-09-09T08:09:09Z</time>
      </trkpt>
    </trkseg>
    <trkseg>
      <trkpt lat="43.199496758137315" lon="-3.5872463732477793">
        <ele>716.097790448323</ele>
        <time>2024-09-09T08:11:18Z</time>
      </trkpt>
      <trkpt lat="43.19949930476731" lon="-3.5872556047814887">
        <ele>716.3842863220663</ele>
        <time>2024-09-09T08:11:19Z</time>
      </trkpt>
      <trkpt lat="43.199501851397294" lon="-3.587264836315198">
        <ele>716.6707821958095</ele>
        <time>2024-09-09T08:11:20Z</time>
      </trkpt>
      <trkpt lat="43.19950439802729" lon="-3.5872740678489077">
        <ele>716.9572780695527</ele>
        <time>2024-09-09T08:11:21Z</time>
      </trkpt>
      <trkpt lat="43.19950694465727" lon="-3.5872832993826176">
        <ele>717.2437739432958</ele>
        <time>2024-09-09T08:11:22Z</time>
      </trkpt>
    </trkseg>
    <trkseg>
      <trkpt lat="43.199541636830766" lon="-3.587346927123022">
        <ele>717.9379799980603</ele>
        <time>2024-09-09T08:11:33Z</time>
      </trkpt>
      <trkpt lat="43.199542977623075" lon="-3.5873551953422664">
        <ele>718.2284849985452</ele>
        <time>2024-09-09T08:11:34Z</time>
      </trkpt>
      <trkpt lat="43.199544318415384" lon="-3.587363463561511">
        <ele>718.5189899990302</ele>
        <time>2024-09-09T08:11:35Z</time>
      </trkpt>
      <trkpt lat="43.19954565920769" lon="-3.5873717317807556">
        <ele>718.8094949995151</ele>
        <time>2024-09-09T08:11:36Z</time>
      </trkpt>
    </trkseg>
    <trkseg>
      <trkpt lat="43.199550202158" lon="-3.5873864043159966">
        <ele>719.2921294798991</ele>
        <time>2024-09-09T08:11:38Z</time>
      </trkpt>
      <trkpt lat="43.19955117688383" lon="-3.5873928351779">
        <ele>719.6103519087147</ele>
        <time>2024-09-09T08:11:39Z</time>
      </trkpt>
      <trkpt lat="43.19954929999287" lon="-3.5873993000245665">
        <ele>720.0900018226697</ele>
        <time>2024-09-09T08:11:40Z</time>
      </trkpt>
      <trkpt lat="43.1995474231019" lon="-3.587405764871233">
        <ele>720.5696517366247</ele>
        <time>2024-09-09T08:11:41Z</time>
      </trkpt>
      <trkpt lat="43.19954554621093" lon="-3.587412229717899">
        <ele>721.0493016505797</ele>
        <time>2024-09-09T08:11:42Z</time>
      </trkpt>
      <trkpt lat="43.199543669319965" lon="-3.5874186945645654">
        <ele>721.5289515645346</ele>
        <time>2024-09-09T08:11:43Z</time>
      </trkpt>
    </trkseg>
    <trkseg>
      <trkpt lat="43.199585319405664" lon="-3.5874908962213414">
        <ele>722.9319405662017</ele>
        <time>2024-09-09T08:11:54Z</time>
      </trkpt>
      <trkpt lat="43.19958665713287" lon="-3.5875033020579314">
        <ele>723.3726543448522</ele>
        <time>2024-09-09T08:11:55Z</time>
      </trkpt>
      <trkpt lat="43.19958293977131" lon="-3.587509674677758">
        <ele>723.8506008318393</ele>
        <time>2024-09-09T08:11:56Z</time>
      </trkpt>
    </trkseg>
    <trkseg>
      <trkpt lat="43.19962201145976" lon="-3.587590204108837">
        <ele>725.4479351582542</ele>
        <time>2024-09-09T08:12:06Z</time>
      </trkpt>
      <trkpt lat="43.1996250384361" lon="-3.5876001921805303">
        <ele>725.7557654159083</ele>
        <time>2024-09-09T08:12:07Z</time>
      </trkpt>
      <trkpt lat="43.19962709437882" lon="-3.5876104718941066">
        <ele>726.0641568231985</ele>
        <time>2024-09-09T08:12:08Z</time>
      </trkpt>
      <trkpt lat="43.199629150321535" lon="-3.587620751607683">
        <ele>726.3725482304886</ele>
        <time>2024-09-09T08:12:09Z</time>
      </trkpt>
    </trkseg>
    <trkseg>
      <trkpt lat="43.19965689093281" lon="-3.587718608641235">
        <ele>728.7910179955597</ele>
        <time>2024-09-09T08:12:21Z</time>
      </trkpt>
      <trkpt lat="43.1996568934352" lon="-3.5877574299789203">
        <ele>729.5551422548659</ele>
        <time>2024-09-09T08:12:22Z</time>
      </trkpt>
    </trkseg>
    <trkseg>
      <trkpt lat="43.199621" lon="-3.587857">
        <ele>731.6</ele>
        <time>2024-09-09T08:12:38Z</time>
      </trkpt>
      <trkpt lat="43.19962339508963" lon="-3.5878650562105765">
        <ele>731.8830560472747</ele>
        <time>2024-09-09T08:12:39Z</time>
      </trkpt>
      <trkpt lat="43.19962579017926" lon="-3.5878731124211525">
        <ele>732.1661120945495</ele>
        <time>2024-09-09T08:12:40Z</time>
      </trkpt>
      <trkpt lat="43.19962818526889" lon="-3.587881168631729">
        <ele>732.4491681418241</ele>
        <time>2024-09-09T08:12:41Z</time>
      </trkpt>
    </trkseg>
    <trkseg>
      <trkpt lat="43.19962658338492" lon="-3.5879222709236083">
        <ele>733.0895846229787</ele>
        <time>2024-09-09T08:12:48Z</time>
      </trkpt>
      <trkpt lat="43.19962870989574" lon="-3.5879293510413133">
        <ele>733.3442708197402</ele>
        <time>2024-09-09T08:12:49Z</time>
      </trkpt>
      <trkpt lat="43.1996309378484" lon="-3.5879376262940426">
        <ele>733.662549770871</ele>
        <time>2024-09-09T08:12:50Z</time>
      </trkpt>
    </trkseg>
    <trkseg>
      <trkpt lat="43.199622777336195" lon="-3.588110747514218">
        <ele>738.0238568367416</ele>
        <time>2024-09-09T08:13:12Z</time>
      </trkpt>
      <trkpt lat="43.1996208192841" lon="-3.5881173209748076">
        <ele>738.2336481321652</ele>
        <time>2024-09-09T08:13:13Z</time>
      </trkpt>
      <trkpt lat="43.19961886123201" lon="-3.5881238944353977">
        <ele>738.4434394275886</ele>
        <time>2024-09-09T08:13:14Z</time>
      </trkpt>
      <trkpt lat="43.19961690317992" lon="-3.5881304678959878">
        <ele>738.6532307230121</ele>
        <time>2024-09-09T08:13:15Z</time>
      </trkpt>
      <trkpt lat="43.19961494512783" lon="-3.5881370413565774">
        <ele>738.8630220184356</ele>
        <time>2024-09-09T08:13:16Z</time>
      </trkpt>
      <trkpt lat="43.19961298707574" lon="-3.5881436148171675">
        <ele>739.0728133138591</ele>
        <time>2024-09-09T08:13:17Z</time>
      </trkpt>
      <trkpt lat="43.19961102902365" lon="-3.5881501882777576">
        <ele>739.2826046092825</ele>
        <time>2024-09-09T08:13:18Z</time>
      </trkpt>
    </trkseg>
    <trkseg>
      <trkpt lat="43.199596871807735" lon="-3.5882008480797256">
        <ele>740.5262316531469</ele>
        <time>2024-09-09T08:13:25Z</time>
      </trkpt>
      <trkpt lat="43.199597547126636" lon="-3.588208522370167">
        <ele>740.7666136377225</ele>
        <time>2024-09-09T08:13:26Z</time>
      </trkpt>
      <trkpt lat="43.19960025516491" lon="-3.588216438174341">
        <ele>741.0582485283375</ele>
        <time>2024-09-09T08:13:27Z</time>
      </trkpt>
      <trkpt lat="43.199602963203176" lon="-3.588224353978515">
        <ele>741.3498834189525</ele>
        <time>2024-09-09T08:13:28Z</time>
      </trkpt>
      <trkpt lat="43.19960567124145" lon="-3.5882322697826883">
        <ele>741.6415183095676</ele>
        <time>2024-09-09T08:13:29Z</time>
      </trkpt>
      <trkpt lat="43.19960837927972" lon="-3.588240185586862">
        <ele>741.9331532001826</ele>
        <time>2024-09-09T08:13:30Z</time>
      </trkpt>
    </trkseg>
    <trkseg>
      <trkpt lat="43.19964381778156" lon="-3.5883848760871095">
        <ele>745.0673467167501</ele>
        <time>2024-09-09T08:13:55Z</time>
      </trkpt>
      <trkpt lat="43.199646734929416" lon="-3.588391568367478">
        <ele>745.3075824222966</ele>
        <time>2024-09-09T08:13:56Z</time>
      </trkpt>
      <trkpt lat="43.19964965207727" lon="-3.588398260647847">
        <ele>745.5478181278431</ele>
        <time>2024-09-09T08:13:57Z</time>
      </trkpt>
      <trkpt lat="43.19965256922512" lon="-3.5884049529282156">
        <ele>745.7880538333897</ele>
        <time>2024-09-09T08:13:58Z</time>
      </trkpt>
      <trkpt lat="43.199655486372976" lon="-3.5884116452085846">
        <ele>746.0282895389362</ele>
        <time>2024-09-09T08:13:59Z</time>
      </trkpt>
      <trkpt lat="43.19965840352083" lon="-3.5884183374889536">
        <ele>746.2685252444827</ele>
        <time>2024-09-09T08:14:00Z</time>
      </trkpt>
    </trkseg>
    <trkseg>
      <trkpt lat="43.199570041263094" lon="-3.5888426989523494">
        <ele>754.9339790469833</ele>
        <time>2024-09-09T08:14:53Z</time>
      </trkpt>
      <trkpt lat="43.19957036672277" lon="-3.5888529677325085">
        <ele>755.2200336581562</ele>
        <time>2024-09-09T08:14:54Z</time>
      </trkpt>
      <trkpt lat="43.19957099385442" lon="-3.588864883234043">
        <ele>755.5963126539805</ele>
        <time>2024-09-09T08:14:55Z</time>
      </trkpt>
      <trkpt lat="43.199571620986084" lon="-3.588876798735577">
        <ele>755.9725916498047</ele>
        <time>2024-09-09T08:14:56Z</time>
      </trkpt>
    </trkseg>
    <trkseg>
      <trkpt lat="43.19960650022012" lon="-3.58899608951716">
        <ele>758.7412023668803</ele>
        <time>2024-09-09T08:15:14Z</time>
      </trkpt>
      <trkpt lat="43.19960426340252" lon="-3.5890033255895686">
        <ele>758.9765546762733</ele>
        <time>2024-09-09T08:15:15Z</time>
      </trkpt>
      <trkpt lat="43.19959951195277" lon="-3.5890108359456216">
        <ele>759.2830998212918</ele>
        <time>2024-09-09T08:15:16Z</time>
      </trkpt>
      <trkpt lat="43.199594760503025" lon="-3.5890183463016747">
        <ele>759.5896449663103</ele>
        <time>2024-09-09T08:15:17Z</time>
      </trkpt>
      <trkpt lat="43.199590009053274" lon="-3.5890258566577273">
        <ele>759.8961901113287</ele>
        <time>2024-09-09T08:15:18Z</time>
      </trkpt>
      <trkpt lat="43.19958525760353" lon="-3.5890333670137804">
        <ele>760.2027352563472</ele>
        <time>2024-09-09T08:15:19Z</time>
      </trkpt>
      <trkpt lat="43.19958050615378" lon="-3.5890408773698335">
        <ele>760.5092804013657</ele>
        <time>2024-09-09T08:15:20Z</time>
      </trkpt>
      <trkpt lat="43.19957575470403" lon="-3.5890483877258865">
        <ele>760.8158255463841</ele>
        <time>2024-09-09T08:15:21Z</time>
      </trkpt>
      <trkpt lat="43.199571003254285" lon="-3.5890558980819396">
        <ele>761.1223706914026</ele>
        <time>2024-09-09T08:15:22Z</time>
      </trkpt>
      <trkpt lat="43.199566251804534" lon="-3.589063408437992">
        <ele>761.4289158364211</ele>
        <time>2024-09-09T08:15:23Z</time>
      </trkpt>
      <trkpt lat="43.19956150035479" lon="-3.5890709187940453">
        <ele>761.7354609814395</ele>
        <time>2024-09-09T08:15:24Z</time>
      </trkpt>
      <trkpt lat="43.19955674890504" lon="-3.5890784291500983">
        <ele>762.042006126458</ele>
        <time>2024-09-09T08:15:25Z</time>
      </trkpt>
      <trkpt lat="43.199551997455295" lon="-3.5890859395061514">
        <ele>762.3485512714764</ele>
        <time>2024-09-09T08:15:26Z</time>
      </trkpt>
    </trkseg>
    <trkseg>
      <trkpt lat="43.199375" lon="-3.589257">
        <ele>768.4</ele>
        <time>2024-09-09T08:16:04Z</time>
      </trkpt>
      <trkpt lat="43.199372058823535" lon="-3.5892619999999997">
        <ele>768.6058823529412</ele>
        <time>2024-09-09T08:16:05Z</time>
      </trkpt>
      <trkpt lat="43.19936911764706" lon="-3.589267">
        <ele>768.8117647058823</ele>
        <time>2024-09-09T08:16:06Z</time>
      </trkpt>
      <trkpt lat="43.19936617647059" lon="-3.589272">
        <ele>769.0176470588235</ele>
        <time>2024-09-09T08:16:07Z</time>
      </trkpt>
      <trkpt lat="43.19936323529412" lon="-3.589277">
        <ele>769.2235294117647</ele>
        <time>2024-09-09T08:16:08Z</time>
      </trkpt>
      <trkpt lat="43.19936029411765" lon="-3.589282">
        <ele>769.4294117647058</ele>
        <time>2024-09-09T08:16:09Z</time>
      </trkpt>
      <trkpt lat="43.19935735294118" lon="-3.5892869999999997">
        <ele>769.635294117647</ele>
        <time>2024-09-09T08:16:10Z</time>
      </trkpt>
      <trkpt lat="43.19935441176471" lon="-3.589292">
        <ele>769.8411764705883</ele>
        <time>2024-09-09T08:16:11Z</time>
      </trkpt>
      <trkpt lat="43.19935147058824" lon="-3.5892969999999997">
        <ele>770.0470588235294</ele>
        <time>2024-09-09T08:16:12Z</time>
      </trkpt>
      <trkpt lat="43.199348529411765" lon="-3.589302">
        <ele>770.2529411764706</ele>
        <time>2024-09-09T08:16:13Z</time>
      </trkpt>
      <trkpt lat="43.199345588235296" lon="-3.589307">
        <ele>770.4588235294117</ele>
        <time>2024-09-09T08:16:14Z</time>
      </trkpt>
      <trkpt lat="43.19934264705883" lon="-3.589312">
        <ele>770.6647058823529</ele>
        <time>2024-09-09T08:16:15Z</time>
      </trkpt>
      <trkpt lat="43.19933970588235" lon="-3.589317">
        <ele>770.8705882352941</ele>
        <time>2024-09-09T08:16:16Z</time>
      </trkpt>
      <trkpt lat="43.19933676470588" lon="-3.5893219999999997">
        <ele>771.0764705882352</ele>
        <time>2024-09-09T08:16:17Z</time>
      </trkpt>
      <trkpt lat="43.199333823529415" lon="-3.589327">
        <ele>771.2823529411764</ele>
        <time>2024-09-09T08:16:18Z</time>
      </trkpt>
      <trkpt lat="43.199330882352946" lon="-3.5893319999999997">
        <ele>771.4882352941177</ele>
        <time>2024-09-09T08:16:19Z</time>
      </trkpt>
      <trkpt lat="43.19932794117647" lon="-3.589337">
        <ele>771.6941176470588</ele>
        <time>2024-09-09T08:16:20Z</time>
      </trkpt>
    </trkseg>
    <trkseg>
      <trkpt lat="43.19945235077445" lon="-3.589484457555677">
        <ele>774.7620929337064</ele>
        <time>2024-09-09T08:16:45Z</time>
      </trkpt>
      <trkpt lat="43.199455625117224" lon="-3.589495262886831">
        <ele>775.1550140665765</ele>
        <time>2024-09-09T08:16:46Z</time>
      </trkpt>
      <trkpt lat="43.19945889946" lon="-3.589506068217985">
        <ele>775.5479351994468</ele>
        <time>2024-09-09T08:16:47Z</time>
      </trkpt>
    </trkseg>
    <trkseg>
      <trkpt lat="43.1995718472549" lon="-3.5897482195686274">
        <ele>781.3186156862624</ele>
        <time>2024-09-09T08:17:17Z</time>
      </trkpt>
      <trkpt lat="43.19957405079016" lon="-3.58975659300263">
        <ele>781.6271106231994</ele>
        <time>2024-09-09T08:17:18Z</time>
      </trkpt>
      <trkpt lat="43.19957625432543" lon="-3.5897649664366322">
        <ele>781.9356055601364</ele>
        <time>2024-09-09T08:17:19Z</time>
      </trkpt>
      <trkpt lat="43.19957845786069" lon="-3.589773339870635">
        <ele>782.2441004970735</ele>
        <time>2024-09-09T08:17:20Z</time>
      </trkpt>
      <trkpt lat="43.199580661395956" lon="-3.5897817133046375">
        <ele>782.5525954340105</ele>
        <time>2024-09-09T08:17:21Z</time>
      </trkpt>
      <trkpt lat="43.199582864931216" lon="-3.58979008673864">
        <ele>782.8610903709475</ele>
        <time>2024-09-09T08:17:22Z</time>
      </trkpt>
    </trkseg>
    <trkseg>
      <trkpt lat="43.199674512255726" lon="-3.589905073285882">
        <ele>786.1707353436436</ele>
        <time>2024-09-09T08:17:41Z</time>
      </trkpt>
      <trkpt lat="43.19967958113042" lon="-3.589913400287603">
        <ele>786.4819157182134</ele>
        <time>2024-09-09T08:17:42Z</time>
      </trkpt>
    </trkseg>
    <trkseg>
      <trkpt lat="43.19991759925092" lon="-3.590370906707456">
        <ele>795.4626489592706</ele>
        <time>2024-09-09T08:18:44Z</time>
      </trkpt>
      <trkpt lat="43.199919945307606" lon="-3.5903783714332937">
        <ele>795.7079185225175</ele>
        <time>2024-09-09T08:18:45Z</time>
      </trkpt>
      <trkpt lat="43.199922291364295" lon="-3.590385836159132">
        <ele>795.9531880857644</ele>
        <time>2024-09-09T08:18:46Z</time>
      </trkpt>
      <trkpt lat="43.19992463742099" lon="-3.59039330088497">
        <ele>796.1984576490113</ele>
        <time>2024-09-09T08:18:47Z</time>
      </trkpt>
      <trkpt lat="43.19992698347768" lon="-3.590400765610808">
        <ele>796.4437272122582</ele>
        <time>2024-09-09T08:18:48Z</time>
      </trkpt>
      <trkpt lat="43.19992932953438" lon="-3.590408230336646">
        <ele>796.6889967755051</ele>
        <time>2024-09-09T08:18:49Z</time>
      </trkpt>
      <trkpt lat="43.19993167559107" lon="-3.5904156950624837">
        <ele>796.9342663387519</ele>
        <time>2024-09-09T08:18:50Z</time>
      </trkpt>
      <trkpt lat="43.199934021647756" lon="-3.5904231597883216">
        <ele>797.1795359019987</ele>
        <time>2024-09-09T08:18:51Z</time>
      </trkpt>
      <trkpt lat="43.19993636770445" lon="-3.5904306245141595">
        <ele>797.4248054652456</ele>
        <time>2024-09-09T08:18:52Z</time>
      </trkpt>
      <trkpt lat="43.19993871376114" lon="-3.5904380892399974">
        <ele>797.6700750284925</ele>
        <time>2024-09-09T08:18:53Z</time>
      </trkpt>
      <trkpt lat="43.19994105981783" lon="-3.5904455539658353">
        <ele>797.9153445917394</ele>
        <time>2024-09-09T08:18:54Z</time>
      </trkpt>
      <trkpt lat="43.19994340587453" lon="-3.5904530186916737">
        <ele>798.1606141549863</ele>
        <time>2024-09-09T08:18:55Z</time>
      </trkpt>
      <trkpt lat="43.19994575193122" lon="-3.5904604834175116">
        <ele>798.4058837182332</ele>
        <time>2024-09-09T08:18:56Z</time>
      </trkpt>
      <trkpt lat="43.199948097987914" lon="-3.5904679481433495">
        <ele>798.6511532814801</ele>
        <time>2024-09-09T08:18:57Z</time>
      </trkpt>
      <trkpt lat="43.1999504440446" lon="-3.5904754128691874">
        <ele>798.896422844727</ele>
        <time>2024-09-09T08:18:58Z</time>
      </trkpt>
      <trkpt lat="43.19995279010129" lon="-3.5904828775950253">
        <ele>799.1416924079739</ele>
        <time>2024-09-09T08:18:59Z</time>
      </trkpt>
      <trkpt lat="43.19995513615799" lon="-3.590490342320863">
        <ele>799.3869619712208</ele>
        <time>2024-09-09T08:19:00Z</time>
      </trkpt>
      <trkpt lat="43.19995748221468" lon="-3.590497807046701">
        <ele>799.6322315344677</ele>
        <time>2024-09-09T08:19:01Z</time>
      </trkpt>
    </trkseg>
    <trkseg>
      <trkpt lat="43.20080610994111" lon="-3.592040047264959">
        <ele>825.9660929947441</ele>
        <time>2024-09-09T08:22:03Z</time>
      </trkpt>
      <trkpt lat="43.200808234339505" lon="-3.5920525220476227">
        <ele>826.1410673721931</ele>
        <time>2024-09-09T08:22:04Z</time>
      </trkpt>
      <trkpt lat="43.200809871255615" lon="-3.592065149686156">
        <ele>826.3281434986135</ele>
        <time>2024-09-09T08:22:05Z</time>
      </trkpt>
      <trkpt lat="43.20081150817172" lon="-3.5920777773246897">
        <ele>826.515219625034</ele>
        <time>2024-09-09T08:22:06Z</time>
      </trkpt>
    </trkseg>
    <trkseg>
      <trkpt lat="43.20120618372971" lon="-3.594014176890896">
        <ele>853.9808921100897</ele>
        <time>2024-09-09T08:25:45Z</time>
      </trkpt>
      <trkpt lat="43.20120382499834" lon="-3.594020931822708">
        <ele>854.2372729083137</ele>
        <time>2024-09-09T08:25:46Z</time>
      </trkpt>
      <trkpt lat="43.201201415101636" lon="-3.5940275042682557">
        <ele>854.5001707302272</ele>
        <time>2024-09-09T08:25:47Z</time>
      </trkpt>
      <trkpt lat="43.201199005204934" lon="-3.5940340767138035">
        <ele>854.7630685521407</ele>
        <time>2024-09-09T08:25:48Z</time>
      </trkpt>
      <trkpt lat="43.20119659530824" lon="-3.5940406491593517">
        <ele>855.0259663740541</ele>
        <time>2024-09-09T08:25:49Z</time>
      </trkpt>
      <trkpt lat="43.20119418541154" lon="-3.5940472216048995">
        <ele>855.2888641959676</ele>
        <time>2024-09-09T08:25:50Z</time>
      </trkpt>
      <trkpt lat="43.201191775514836" lon="-3.5940537940504473">
        <ele>855.551762017881</ele>
        <time>2024-09-09T08:25:51Z</time>
      </trkpt>
      <trkpt lat="43.201189365618134" lon="-3.594060366495995">
        <ele>855.8146598397944</ele>
        <time>2024-09-09T08:25:52Z</time>
      </trkpt>
      <trkpt lat="43.20118695572143" lon="-3.594066938941543">
        <ele>856.0775576617078</ele>
        <time>2024-09-09T08:25:53Z</time>
      </trkpt>
    </trkseg>
    <trkseg>
      <trkpt lat="43.20106377288387" lon="-3.594452136110667">
        <ele>865.9227204465726</ele>
        <time>2024-09-09T08:26:47Z</time>
      </trkpt>
      <trkpt lat="43.20106126031292" lon="-3.5944609174966677">
        <ele>866.2219061250403</ele>
        <time>2024-09-09T08:26:48Z</time>
      </trkpt>
      <trkpt lat="43.2010597068119" lon="-3.5944733455048414">
        <ele>866.687956431546</ele>
        <time>2024-09-09T08:26:49Z</time>
      </trkpt>
    </trkseg>
    <trkseg>
      <trkpt lat="43.201181892310046" lon="-3.5948788778294394">
        <ele>875.430226355143</ele>
        <time>2024-09-09T08:27:36Z</time>
      </trkpt>
      <trkpt lat="43.201190741628025" lon="-3.594884083310603">
        <ele>875.8466648482186</ele>
        <time>2024-09-09T08:27:37Z</time>
      </trkpt>
    </trkseg>
    <trkseg>
      <trkpt lat="43.20126879564977" lon="-3.5949410383156697">
        <ele>878.6948912440627</ele>
        <time>2024-09-09T08:27:50Z</time>
      </trkpt>
      <trkpt lat="43.20127582709431" lon="-3.5949417585660335">
        <ele>878.9781408790394</ele>
        <time>2024-09-09T08:27:51Z</time>
      </trkpt>
      <trkpt lat="43.20128286236943" lon="-3.59494254026327">
        <ele>879.2647631991532</ele>
        <time>2024-09-09T08:27:52Z</time>
      </trkpt>
      <trkpt lat="43.201289897644564" lon="-3.594943321960507">
        <ele>879.5513855192671</ele>
        <time>2024-09-09T08:27:53Z</time>
      </trkpt>
    </trkseg>
    <trkseg>
      <trkpt lat="43.201404543212014" lon="-3.5948541720663685">
        <ele>881.8351081379898</ele>
        <time>2024-09-09T08:28:11Z</time>
      </trkpt>
      <trkpt lat="43.20141110840675" lon="-3.594849453332647">
        <ele>882.1838841087205</ele>
        <time>2024-09-09T08:28:12Z</time>
      </trkpt>
      <trkpt lat="43.2014176736015" lon="-3.594844734598925">
        <ele>882.5326600794511</ele>
        <time>2024-09-09T08:28:13Z</time>
      </trkpt>
      <trkpt lat="43.201424238796235" lon="-3.5948400158652034">
        <ele>882.8814360501818</ele>
        <time>2024-09-09T08:28:14Z</time>
      </trkpt>
      <trkpt lat="43.20143080399098" lon="-3.594835297131482">
        <ele>883.2302120209126</ele>
        <time>2024-09-09T08:28:15Z</time>
      </trkpt>
      <trkpt lat="43.20143752215809" lon="-3.5948339605885695">
        <ele>883.5921177139298</ele>
        <time>2024-09-09T08:28:16Z</time>
      </trkpt>
      <trkpt lat="43.201444385434755" lon="-3.5948358323912966">
        <ele>883.9664782593233</ele>
        <time>2024-09-09T08:28:17Z</time>
      </trkpt>
      <trkpt lat="43.20145124871142" lon="-3.5948377041940236">
        <ele>884.3408388047167</ele>
        <time>2024-09-09T08:28:18Z</time>
      </trkpt>
    </trkseg>
    <trkseg>
      <trkpt lat="43.2016698050476" lon="-3.5950658337614736">
        <ele>890.673280941803</ele>
        <time>2024-09-09T08:29:07Z</time>
      </trkpt>
      <trkpt lat="43.20166883004177" lon="-3.595075319845771">
        <ele>890.9619942164051</ele>
        <time>2024-09-09T08:29:08Z</time>
      </trkpt>
      <trkpt lat="43.20166604720315" lon="-3.595085594942212">
        <ele>891.347310332958</ele>
        <time>2024-09-09T08:29:09Z</time>
      </trkpt>
      <trkpt lat="43.20166326436453" lon="-3.5950958700386537">
        <ele>891.732626449511</ele>
        <time>2024-09-09T08:29:10Z</time>
      </trkpt>
      <trkpt lat="43.20166048152591" lon="-3.595106145135095">
        <ele>892.117942566064</ele>
        <time>2024-09-09T08:29:11Z</time>
      </trkpt>
    </trkseg>
    <trkseg>
      <trkpt lat="43.201829156770245" lon="-3.5969609843923247">
        <ele>896.9407533293835</ele>
        <time>2024-09-09T08:31:14Z</time>
      </trkpt>
      <trkpt lat="43.201839970175136" lon="-3.5969742595356267">
        <ele>897.2604244395046</ele>
        <time>2024-09-09T08:31:15Z</time>
      </trkpt>
      <trkpt lat="43.20185332735606" lon="-3.596988047593359">
        <ele>897.6482135632262</ele>
        <time>2024-09-09T08:31:16Z</time>
      </trkpt>
    </trkseg>
    <trkseg>
      <trkpt lat="43.2023108819381" lon="-3.5982666750685666">
        <ele>912.6236123808629</ele>
        <time>2024-09-09T08:33:19Z</time>
      </trkpt>
      <trkpt lat="43.20230954418375" lon="-3.5982811228154805">
        <ele>912.8911632496407</ele>
        <time>2024-09-09T08:33:20Z</time>
      </trkpt>
    </trkseg>
    <trkseg>
      <trkpt lat="43.20246479918065" lon="-3.598863049313443">
        <ele>921.3625066395382</ele>
        <time>2024-09-09T08:34:18Z</time>
      </trkpt>
      <trkpt lat="43.202467363986685" lon="-3.598870247317461">
        <ele>921.594166538978</ele>
        <time>2024-09-09T08:34:19Z</time>
      </trkpt>
      <trkpt lat="43.20246992879271" lon="-3.598877445321479">
        <ele>921.8258264384177</ele>
        <time>2024-09-09T08:34:20Z</time>
      </trkpt>
      <trkpt lat="43.20247249359874" lon="-3.5988846433254977">
        <ele>922.0574863378574</ele>
        <time>2024-09-09T08:34:21Z</time>
      </trkpt>
      <trkpt lat="43.20247505840477" lon="-3.598891841329516">
        <ele>922.2891462372972</ele>
        <time>2024-09-09T08:34:22Z</time>
      </trkpt>
      <trkpt lat="43.202477623210804" lon="-3.5988990393335345">
        <ele>922.520806136737</ele>
        <time>2024-09-09T08:34:23Z</time>
      </trkpt>
      <trkpt lat="43.20248018801683" lon="-3.5989062373375527">
        <ele>922.7524660361767</ele>
        <time>2024-09-09T08:34:24Z</time>
      </trkpt>
      <trkpt lat="43.20248275282286" lon="-3.598913435341571">
        <ele>922.9841259356165</ele>
        <time>2024-09-09T08:34:25Z</time>
      </trkpt>
      <trkpt lat="43.20248531762889" lon="-3.5989206333455894">
        <ele>923.2157858350562</ele>
        <time>2024-09-09T08:34:26Z</time>
      </trkpt>
      <trkpt lat="43.202487882434916" lon="-3.5989278313496076">
        <ele>923.4474457344959</ele>
        <time>2024-09-09T08:34:27Z</time>
      </trkpt>
      <trkpt lat="43.20249044724095" lon="-3.5989350293536257">
        <ele>923.6791056339357</ele>
        <time>2024-09-09T08:34:28Z</time>
      </trkpt>
    </trkseg>
    <trkseg>
      <trkpt lat="43.202347" lon="-3.599706">
        <ele>940.8</ele>
        <time>2024-09-09T08:36:01Z</time>
      </trkpt>
      <trkpt lat="43.2023465621723" lon="-3.599714756554007">
        <ele>940.9970224651582</ele>
        <time>2024-09-09T08:36:02Z</time>
      </trkpt>
      <trkpt lat="43.2023461243446" lon="-3.599723513108014">
        <ele>941.1940449303164</ele>
        <time>2024-09-09T08:36:03Z</time>
      </trkpt>
      <trkpt lat="43.2023456865169" lon="-3.599732269662021">
        <ele>941.3910673954747</ele>
        <time>2024-09-09T08:36:04Z</time>
      </trkpt>
    </trkseg>
    <trkseg>
      <trkpt lat="43.20234325522989" lon="-3.5997498921794757">
        <ele>941.7536852341466</ele>
        <time>2024-09-09T08:36:06Z</time>
      </trkpt>
      <trkpt lat="43.20233921634475" lon="-3.5997589020001803">
        <ele>941.8779586231751</ele>
        <time>2024-09-09T08:36:07Z</time>
      </trkpt>
    </trkseg>
    <trkseg>
      <trkpt lat="43.20228018839105" lon="-3.5999351692123693">
        <ele>946.1352681579185</ele>
        <time>2024-09-09T08:36:32Z</time>
      </trkpt>
      <trkpt lat="43.202279027442124" lon="-3.59994542426124">
        <ele>946.3287596460344</ele>
        <time>2024-09-09T08:36:33Z</time>
      </trkpt>
      <trkpt lat="43.2022778664932" lon="-3.59995567931011">
        <ele>946.5222511341503</ele>
        <time>2024-09-09T08:36:34Z</time>
      </trkpt>
      <trkpt lat="43.202276705544264" lon="-3.59996593435898">
        <ele>946.7157426222662</ele>
        <time>2024-09-09T08:36:35Z</time>
      </trkpt>
      <trkpt lat="43.20227554459534" lon="-3.59997618940785">
        <ele>946.9092341103823</ele>
        <time>2024-09-09T08:36:36Z</time>
      </trkpt>
      <trkpt lat="43.202277080749624" lon="-3.599985161499244">
        <ele>947.1387166414637</ele>
        <time>2024-09-09T08:36:37Z</time>
      </trkpt>
    </trkseg>
    <trkseg>
      <trkpt lat="43.202225962263974" lon="-3.60020661235009">
        <ele>950.6403087522573</ele>
        <time>2024-09-09T08:37:00Z</time>
      </trkpt>
      <trkpt lat="43.20221714168733" lon="-3.60021516563653">
        <ele>950.8541409132558</ele>
        <time>2024-09-09T08:37:01Z</time>
      </trkpt>
      <trkpt lat="43.20220832111069" lon="-3.60022371892297">
        <ele>951.0679730742543</ele>
        <time>2024-09-09T08:37:02Z</time>
      </trkpt>
    </trkseg>
    <trkseg>
      <trkpt lat="43.20207253980568" lon="-3.600483723732778">
        <ele>954.616421254882</ele>
        <time>2024-09-09T08:37:30Z</time>
      </trkpt>
      <trkpt lat="43.20206815415651" lon="-3.600494890880075">
        <ele>954.6577078252706</ele>
        <time>2024-09-09T08:37:31Z</time>
      </trkpt>
      <trkpt lat="43.20206485281428" lon="-3.600510077054318">
        <ele>954.4926407139351</ele>
        <time>2024-09-09T08:37:32Z</time>
      </trkpt>
      <trkpt lat="43.20206155147205" lon="-3.600525263228561">
        <ele>954.3275736025996</ele>
        <time>2024-09-09T08:37:33Z</time>
      </trkpt>
    </trkseg>
    <trkseg>
      <trkpt lat="43.20136677168293" lon="-3.604068368425126">
        <ele>946.0</ele>
        <time>2024-09-09T08:42:21Z</time>
      </trkpt>
      <trkpt lat="43.20136786946378" lon="-3.6040846290781157">
        <ele>946.0978146757401</ele>
        <time>2024-09-09T08:42:22Z</time>
      </trkpt>
      <trkpt lat="43.20136911770337" lon="-3.6041013242826603">
        <ele>946.2382416298514</ele>
        <time>2024-09-09T08:42:23Z</time>
      </trkpt>
      <trkpt lat="43.201370365942964" lon="-3.6041180194872044">
        <ele>946.3786685839626</ele>
        <time>2024-09-09T08:42:24Z</time>
      </trkpt>
      <trkpt lat="43.201371614182555" lon="-3.6041347146917486">
        <ele>946.519095538074</ele>
        <time>2024-09-09T08:42:25Z</time>
      </trkpt>
      <trkpt lat="43.201372862422154" lon="-3.6041514098962932">
        <ele>946.6595224921853</ele>
        <time>2024-09-09T08:42:26Z</time>
      </trkpt>
      <trkpt lat="43.201374110661746" lon="-3.6041681051008374">
        <ele>946.7999494462965</ele>
        <time>2024-09-09T08:42:27Z</time>
      </trkpt>
    </trkseg>
  </trk>
</gpx>