<?xml version="1.0" encoding="UTF-8"?>
<gpx xmlns="http://www.topografix.com/GPX/1/1" xmlns:xsi="http://www.w3.org/2001/XMLSchema-instance" xsi:schemaLocation="http://www.topografix.com/GPX/1/1 http://www.topografix.com/GPX/1/1/gpx.xsd" version="1.1" creator="gpx.py -- https://github.com/tkrajina/gpxpy">
  <wpt lat="43.200867025584685" lon="-3.584393936038288">
    <ele>686.0996801914412</ele>
    <time>2024-09-09T08:01:33Z</time>
    <name>ANOM:DZ_HAMPEL</name>
    <desc>Tramo #1 (71-72), dur=2s
Causas: DZ_HAMPEL
vh_max=4.98 km/h | grade_ext=31.3% | vz_ext=26.0 m/min
max|dx|=1.11 m/s, max|dy|=0.83 m/s, max|dz|=0.43 m/s</desc>
  </wpt>
  <wpt lat="43.20077391445709" lon="-3.5845200452309545">
    <ele>687.0203539295777</ele>
    <time>2024-09-09T08:03:01Z</time>
    <name>ANOM:DZ_HAMPEL</name>
    <desc>Tramo #2 (159-163), dur=5s
Causas: DZ_HAMPEL
vh_max=3.98 km/h | grade_ext=16.9% | vz_ext=11.0 m/min
max|dx|=0.03 m/s, max|dy|=1.11 m/s, max|dz|=0.18 m/s</desc>
  </wpt>
  <wpt lat="43.19959992274553" lon="-3.586908652360716">
    <ele>707.0815450894377</ele>
    <time>2024-09-09T08:08:27Z</time>
    <name>ANOM:DZ_HAMPEL</name>
    <desc>Tramo #3 (485-489), dur=5s
Causas: DZ_HAMPEL
vh_max=3.46 km/h | grade_ext=17.9% | vz_ext=10.3 m/min
max|dx|=0.11 m/s, max|dy|=0.95 m/s, max|dz|=0.17 m/s</desc>
  </wpt>
  <wpt lat="43.1994576859283" lon="-3.58710913800349">
    <ele>713.1573759834998</ele>
    <time>2024-09-09T08:09:03Z</time>
    <name>ANOM:GRADE_UP</name>
    <desc>Tramo #4 (521-525), dur=5s
Causas: GRADE_UP
vh_max=2.41 km/h | grade_ext=47.4% | vz_ext=18.2 m/min
max|dx|=0.64 m/s, max|dy|=0.21 m/s, max|dz|=0.30 m/s</desc>
  </wpt>
  <wpt lat="43.199495454147645" lon="-3.5872416462852215">
    <ele>715.9510916103198</ele>
    <time>2024-09-09T08:11:18Z</time>
    <name>ANOM:GRADE_UP</name>
    <desc>Tramo #5 (656-662), dur=7s
Causas: GRADE_UP
vh_max=2.51 km/h | grade_ext=35.8% | vz_ext=15.0 m/min
max|dx|=0.65 m/s, max|dy|=0.25 m/s, max|dz|=0.25 m/s</desc>
  </wpt>
  <wpt lat="43.1995360628102" lon="-3.587340805693421">
    <ele>717.9097153289503</ele>
    <time>2024-09-09T08:11:31Z</time>
    <name>ANOM:DZ_HAMPEL,GRADE_UP</name>
    <desc>Tramo #6 (669-677), dur=9s
Causas: DZ_HAMPEL,GRADE_UP
vh_max=2.08 km/h | grade_ext=42.3% | vz_ext=10.3 m/min
max|dx|=0.40 m/s, max|dy|=0.55 m/s, max|dz|=0.17 m/s</desc>
  </wpt>
  <wpt lat="43.199552" lon="-3.58739">
    <ele>719.4</ele>
    <time>2024-09-09T08:11:42Z</time>
    <name>ANOM:GRADE_UP</name>
    <desc>Tramo #7 (680-684), dur=5s
Causas: GRADE_UP
vh_max=3.80 km/h | grade_ext=85.0% | vz_ext=31.6 m/min
max|dx|=0.87 m/s, max|dy|=0.60 m/s, max|dz|=0.53 m/s</desc>
  </wpt>
  <wpt lat="43.199585483043535" lon="-3.587520069414805">
    <ele>724.1344849502683</ele>
    <time>2024-09-09T08:12:00Z</time>
    <name>ANOM:DZ_HAMPEL</name>
    <desc>Tramo #8 (698-700), dur=3s
Causas: DZ_HAMPEL
vh_max=4.37 km/h | grade_ext=4.5% | vz_ext=3.3 m/min
max|dx|=0.92 m/s, max|dy|=0.80 m/s, max|dz|=0.06 m/s</desc>
  </wpt>
  <wpt lat="43.199624" lon="-3.587595">
    <ele>725.6</ele>
    <time>2024-09-09T08:12:09Z</time>
    <name>ANOM:DZ_HAMPEL,GRADE_UP</name>
    <desc>Tramo #9 (707-710), dur=4s
Causas: DZ_HAMPEL,GRADE_UP
vh_max=2.58 km/h | grade_ext=35.7% | vz_ext=15.3 m/min
max|dx|=0.69 m/s, max|dy|=0.19 m/s, max|dz|=0.26 m/s</desc>
  </wpt>
  <wpt lat="43.19962198398713" lon="-3.587860309774882">
    <ele>731.716289387743</ele>
    <time>2024-09-09T08:12:42Z</time>
    <name>ANOM:DZ_HAMPEL,GRADE_UP</name>
    <desc>Tramo #10 (740-752), dur=13s
Causas: DZ_HAMPEL,GRADE_UP
vh_max=3.55 km/h | grade_ext=44.5% | vz_ext=14.3 m/min
max|dx|=0.93 m/s, max|dy|=0.33 m/s, max|dz|=0.24 m/s</desc>
  </wpt>
  <wpt lat="43.199632829341056" lon="-3.588036643713251">
    <ele>736.1302395365557</ele>
    <time>2024-09-09T08:13:06Z</time>
    <name>ANOM:DZ_HAMPEL</name>
    <desc>Tramo #11 (764-767), dur=4s
Causas: DZ_HAMPEL
vh_max=2.03 km/h | grade_ext=29.2% | vz_ext=9.9 m/min
max|dx|=0.54 m/s, max|dy|=0.24 m/s, max|dz|=0.17 m/s</desc>
  </wpt>
  <wpt lat="43.199623" lon="-3.58811">
    <ele>738.0</ele>
    <time>2024-09-09T08:13:16Z</time>
    <name>ANOM:GRADE_UP</name>
    <desc>Tramo #12 (774-781), dur=8s
Causas: GRADE_UP
vh_max=1.78 km/h | grade_ext=36.4% | vz_ext=10.8 m/min
max|dx|=0.46 m/s, max|dy|=0.19 m/s, max|dz|=0.18 m/s</desc>
  </wpt>
  <wpt lat="43.199597555022294" lon="-3.5881983779963145">
    <ele>740.4684211903311</ele>
    <time>2024-09-09T08:13:28Z</time>
    <name>ANOM:GRADE_UP</name>
    <desc>Tramo #13 (786-789), dur=4s
Causas: GRADE_UP
vh_max=3.50 km/h | grade_ext=41.1% | vz_ext=24.0 m/min
max|dx|=0.90 m/s, max|dy|=0.41 m/s, max|dz|=0.40 m/s</desc>
  </wpt>
  <wpt lat="43.199643" lon="-3.588383">
    <ele>745.0</ele>
    <time>2024-09-09T08:13:57Z</time>
    <name>ANOM:GRADE_UP</name>
    <desc>Tramo #14 (815-822), dur=8s
Causas: GRADE_UP
vh_max=1.64 km/h | grade_ext=38.0% | vz_ext=10.4 m/min
max|dx|=0.39 m/s, max|dy|=0.23 m/s, max|dz|=0.17 m/s</desc>
  </wpt>
  <wpt lat="43.19957003786037" lon="-3.588842971170448">
    <ele>754.9394234089622</ele>
    <time>2024-09-09T08:14:55Z</time>
    <name>ANOM:DZ_HAMPEL,GRADE_UP</name>
    <desc>Tramo #15 (873-876), dur=4s
Causas: DZ_HAMPEL,GRADE_UP
vh_max=5.84 km/h | grade_ext=38.9% | vz_ext=34.3 m/min
max|dx|=1.47 m/s, max|dy|=1.36 m/s, max|dz|=0.57 m/s</desc>
  </wpt>
  <wpt lat="43.199606644080355" lon="-3.588996927291494">
    <ele>758.7581271008964</ele>
    <time>2024-09-09T08:15:18Z</time>
    <name>ANOM:GRADE_UP</name>
    <desc>Tramo #16 (896-910), dur=15s
Causas: GRADE_UP
vh_max=2.46 km/h | grade_ext=38.0% | vz_ext=15.6 m/min
max|dx|=0.52 m/s, max|dy|=0.45 m/s, max|dz|=0.26 m/s</desc>
  </wpt>
  <wpt lat="43.199373419708635" lon="-3.589259686495328">
    <ele>768.5106203958608</ele>
    <time>2024-09-09T08:16:08Z</time>
    <name>ANOM:GRADE_UP</name>
    <desc>Tramo #17 (946-958), dur=13s
Causas: GRADE_UP
vh_max=2.48 km/h | grade_ext=40.6% | vz_ext=16.3 m/min
max|dx|=0.59 m/s, max|dy|=0.43 m/s, max|dz|=0.27 m/s</desc>
  </wpt>
  <wpt lat="43.1994519378504" lon="-3.589483094906296">
    <ele>774.7125420471369</ele>
    <time>2024-09-09T08:16:46Z</time>
    <name>ANOM:GRADE_UP</name>
    <desc>Tramo #18 (984-987), dur=4s
Causas: GRADE_UP
vh_max=2.40 km/h | grade_ext=41.4% | vz_ext=16.5 m/min
max|dx|=0.62 m/s, max|dy|=0.26 m/s, max|dz|=0.28 m/s</desc>
  </wpt>
  <wpt lat="43.199571" lon="-3.589745">
    <ele>781.2</ele>
    <time>2024-09-09T08:17:19Z</time>
    <name>ANOM:DZ_HAMPEL,GRADE_UP</name>
    <desc>Tramo #19 (1017-1023), dur=7s
Causas: DZ_HAMPEL,GRADE_UP
vh_max=2.82 km/h | grade_ext=42.8% | vz_ext=19.5 m/min
max|dx|=0.72 m/s, max|dy|=0.54 m/s, max|dz|=0.33 m/s</desc>
  </wpt>
  <wpt lat="43.199917892698494" lon="-3.590371840404308">
    <ele>795.4933275701248</ele>
    <time>2024-09-09T08:18:46Z</time>
    <name>ANOM:GRADE_UP</name>
    <desc>Tramo #20 (1104-1121), dur=18s
Causas: GRADE_UP
vh_max=2.35 km/h | grade_ext=37.2% | vz_ext=14.6 m/min
max|dx|=0.60 m/s, max|dy|=0.26 m/s, max|dz|=0.24 m/s</desc>
  </wpt>
  <wpt lat="43.200807" lon="-3.592043">
    <ele>826.0</ele>
    <time>2024-09-09T08:22:03Z</time>
    <name>ANOM:DZ_HAMPEL</name>
    <desc>Tramo #21 (1301-1304), dur=4s
Causas: DZ_HAMPEL
vh_max=3.45 km/h | grade_ext=18.0% | vz_ext=10.4 m/min
max|dx|=0.94 m/s, max|dy|=0.17 m/s, max|dz|=0.17 m/s</desc>
  </wpt>
  <wpt lat="43.20081461838138" lon="-3.5921011740743136">
    <ele>826.8309190689896</ele>
    <time>2024-09-09T08:22:08Z</time>
    <name>ANOM:DZ_HAMPEL</name>
    <desc>Tramo #22 (1306-1307), dur=2s
Causas: DZ_HAMPEL
vh_max=3.40 km/h | grade_ext=9.0% | vz_ext=5.1 m/min
max|dx|=0.93 m/s, max|dy|=0.19 m/s, max|dz|=0.08 m/s</desc>
  </wpt>
  <wpt lat="43.201059012857066" lon="-3.5930270392140433">
    <ele>835.0005785678513</ele>
    <time>2024-09-09T08:23:28Z</time>
    <name>ANOM:DZ_HAMPEL</name>
    <desc>Tramo #23 (1386-1390), dur=5s
Causas: DZ_HAMPEL
vh_max=4.23 km/h | grade_ext=16.6% | vz_ext=11.7 m/min
max|dx|=1.07 m/s, max|dy|=0.48 m/s, max|dz|=0.19 m/s</desc>
  </wpt>
  <wpt lat="43.20120606611467" lon="-3.594014703806276">
    <ele>853.9931240742635</ele>
    <time>2024-09-09T08:25:45Z</time>
    <name>ANOM:GRADE_UP</name>
    <desc>Tramo #24 (1523-1532), dur=10s
Causas: GRADE_UP
vh_max=2.12 km/h | grade_ext=44.1% | vz_ext=15.1 m/min
max|dx|=0.54 m/s, max|dy|=0.26 m/s, max|dz|=0.25 m/s</desc>
  </wpt>
  <wpt lat="43.201119663997474" lon="-3.5943781279633438">
    <ele>863.8991992415943</ele>
    <time>2024-09-09T08:26:33Z</time>
    <name>ANOM:DZ_HAMPEL</name>
    <desc>Tramo #25 (1571-1575), dur=5s
Causas: DZ_HAMPEL
vh_max=2.16 km/h | grade_ext=26.0% | vz_ext=8.0 m/min
max|dx|=0.48 m/s, max|dy|=0.53 m/s, max|dz|=0.13 m/s</desc>
  </wpt>
  <wpt lat="43.20117764572144" lon="-3.5948763798361365">
    <ele>875.2303868909235</ele>
    <time>2024-09-09T08:27:38Z</time>
    <name>ANOM:DZ_HAMPEL,GRADE_UP</name>
    <desc>Tramo #26 (1636-1638), dur=3s
Causas: DZ_HAMPEL,GRADE_UP
vh_max=2.37 km/h | grade_ext=38.9% | vz_ext=15.4 m/min
max|dx|=0.26 m/s, max|dy|=0.61 m/s, max|dz|=0.26 m/s</desc>
  </wpt>
  <wpt lat="43.201225008126684" lon="-3.5949325067722344">
    <ele>877.237669305857</ele>
    <time>2024-09-09T08:27:48Z</time>
    <name>ANOM:DZ_HAMPEL</name>
    <desc>Tramo #27 (1646-1647), dur=2s
Causas: DZ_HAMPEL
vh_max=4.81 km/h | grade_ext=34.8% | vz_ext=27.9 m/min
max|dx|=0.42 m/s, max|dy|=1.29 m/s, max|dz|=0.46 m/s</desc>
  </wpt>
  <wpt lat="43.201269" lon="-3.594941">
    <ele>878.7</ele>
    <time>2024-09-09T08:27:53Z</time>
    <name>ANOM:DZ_HAMPEL,GRADE_UP</name>
    <desc>Tramo #28 (1651-1653), dur=3s
Causas: DZ_HAMPEL,GRADE_UP
vh_max=4.25 km/h | grade_ext=36.5% | vz_ext=25.9 m/min
max|dx|=0.13 m/s, max|dy|=1.18 m/s, max|dz|=0.43 m/s</desc>
  </wpt>
  <wpt lat="43.20140380314463" lon="-3.5948547039897996">
    <ele>881.7957920582899</ele>
    <time>2024-09-09T08:28:14Z</time>
    <name>ANOM:GRADE_UP</name>
    <desc>Tramo #29 (1672-1679), dur=8s
Causas: GRADE_UP
vh_max=2.90 km/h | grade_ext=48.1% | vz_ext=20.4 m/min
max|dx|=0.37 m/s, max|dy|=0.71 m/s, max|dz|=0.34 m/s</desc>
  </wpt>
  <wpt lat="43.20166977985611" lon="-3.595065166186878">
    <ele>890.6569064705983</ele>
    <time>2024-09-09T08:29:07Z</time>
    <name>ANOM:GRADE_UP</name>
    <desc>Tramo #30 (1725-1731), dur=7s
Causas: GRADE_UP
vh_max=2.77 km/h | grade_ext=43.4% | vz_ext=17.5 m/min
max|dx|=0.77 m/s, max|dy|=0.26 m/s, max|dz|=0.29 m/s</desc>
  </wpt>
  <wpt lat="43.201828976212795" lon="-3.5969605910350175">
    <ele>896.9349496969788</ele>
    <time>2024-09-09T08:31:18Z</time>
    <name>ANOM:DZ_HAMPEL</name>
    <desc>Tramo #31 (1856-1857), dur=2s
Causas: DZ_HAMPEL
vh_max=7.47 km/h | grade_ext=20.9% | vz_ext=26.0 m/min
max|dx|=1.25 m/s, max|dy|=1.66 m/s, max|dz|=0.43 m/s</desc>
  </wpt>
  <wpt lat="43.202173788849834" lon="-3.5971830343628515">
    <ele>905.3583046665472</ele>
    <time>2024-09-09T08:32:04Z</time>
    <name>ANOM:DZ_HAMPEL</name>
    <desc>Tramo #32 (1902-1903), dur=2s
Causas: DZ_HAMPEL
vh_max=4.22 km/h | grade_ext=-4.9% | vz_ext=-3.5 m/min
max|dx|=0.75 m/s, max|dy|=0.90 m/s, max|dz|=0.06 m/s</desc>
  </wpt>
  <wpt lat="43.20221014656039" lon="-3.5972496723155865">
    <ele>905.5422399350933</ele>
    <time>2024-09-09T08:32:10Z</time>
    <name>ANOM:DZ_HAMPEL</name>
    <desc>Tramo #33 (1908-1909), dur=2s
Causas: DZ_HAMPEL
vh_max=4.38 km/h | grade_ext=18.0% | vz_ext=13.2 m/min
max|dx|=1.21 m/s, max|dy|=0.15 m/s, max|dz|=0.22 m/s</desc>
  </wpt>
  <wpt lat="43.2023128458625" lon="-3.598245464685026">
    <ele>912.2308275004797</ele>
    <time>2024-09-09T08:33:21Z</time>
    <name>ANOM:DZ_HAMPEL</name>
    <desc>Tramo #34 (1979-1981), dur=3s
Causas: DZ_HAMPEL
vh_max=4.42 km/h | grade_ext=22.7% | vz_ext=16.7 m/min
max|dx|=1.22 m/s, max|dy|=0.15 m/s, max|dz|=0.28 m/s</desc>
  </wpt>
  <wpt lat="43.202463657788456" lon="-3.598859846051469">
    <ele>921.2594131507266</ele>
    <time>2024-09-09T08:34:21Z</time>
    <name>ANOM:GRADE_UP</name>
    <desc>Tramo #35 (2039-2050), dur=12s
Causas: GRADE_UP
vh_max=2.23 km/h | grade_ext=35.7% | vz_ext=13.3 m/min
max|dx|=0.56 m/s, max|dy|=0.27 m/s, max|dz|=0.22 m/s</desc>
  </wpt>
  <wpt lat="43.202345" lon="-3.599746">
    <ele>941.7</ele>
    <time>2024-09-09T08:36:08Z</time>
    <name>ANOM:DZ_HAMPEL</name>
    <desc>Tramo #36 (2146-2150), dur=5s
Causas: DZ_HAMPEL
vh_max=1.99 km/h | grade_ext=14.5% | vz_ext=4.8 m/min
max|dx|=0.47 m/s, max|dy|=0.29 m/s, max|dz|=0.08 m/s</desc>
  </wpt>
  <wpt lat="43.202279847340094" lon="-3.599938181829175">
    <ele>946.1921099844405</ele>
    <time>2024-09-09T08:36:35Z</time>
    <name>ANOM:DZ_HAMPEL</name>
    <desc>Tramo #37 (2173-2175), dur=3s
Causas: DZ_HAMPEL
vh_max=6.70 km/h | grade_ext=31.6% | vz_ext=35.3 m/min
max|dx|=1.78 m/s, max|dy|=0.54 m/s, max|dz|=0.59 m/s</desc>
  </wpt>
  <wpt lat="43.202071427238465" lon="-3.6004860106764953">
    <ele>954.6426902029881</ele>
    <time>2024-09-09T08:37:32Z</time>
    <name>ANOM:DZ_HAMPEL</name>
    <desc>Tramo #38 (2230-2233), dur=4s
Causas: DZ_HAMPEL
vh_max=3.94 km/h | grade_ext=-12.9% | vz_ext=-8.4 m/min
max|dx|=1.05 m/s, max|dy|=0.44 m/s, max|dz|=0.14 m/s</desc>
  </wpt>
  <wpt lat="43.20203790519792" lon="-3.600564899576947">
    <ele>954.540238743258</ele>
    <time>2024-09-09T08:37:39Z</time>
    <name>ANOM:DZ_HAMPEL</name>
    <desc>Tramo #39 (2237-2239), dur=3s
Causas: DZ_HAMPEL
vh_max=5.81 km/h | grade_ext=-18.0% | vz_ext=-16.9 m/min
max|dx|=1.47 m/s, max|dy|=0.78 m/s, max|dz|=0.28 m/s</desc>
  </wpt>
  <wpt lat="43.20136743621272" lon="-3.6040788343452057">
    <ele>946.0490739316366</ele>
    <time>2024-09-09T08:42:29Z</time>
    <name>ANOM:DZ_HAMPEL</name>
    <desc>Tramo #40 (2527-2531), dur=5s
Causas: DZ_HAMPEL
vh_max=5.39 km/h | grade_ext=10.3% | vz_ext=9.3 m/min
max|dx|=1.49 m/s, max|dy|=0.15 m/s, max|dz|=0.15 m/s</desc>
  </wpt>
  <trk>
    <name>15b_pattern_aligned_resampled_anomalies</name>
    <trkseg>
      <trkpt lat="43.200867025584685" lon="-3.584393936038288">
        <ele>686.0996801914412</ele>
        <time>2024-09-09T08:01:33Z</time>
      </trkpt>
      <trkpt lat="43.200859579021404" lon="-3.58440760512742">
        <ele>686.5328904178999</ele>
        <time>2024-09-09T08:01:34Z</time>
      </trkpt>
    </trkseg>
    <trkseg>
      <trkpt lat="43.20077391445709" lon="-3.5845200452309545">
        <ele>687.0203539295777</ele>
        <time>2024-09-09T08:03:01Z</time>
      </trkpt>
      <trkpt lat="43.200764120939134" lon="-3.584520453294203">
        <ele>687.2039823912547</ele>
        <time>2024-09-09T08:03:02Z</time>
      </trkpt>
      <trkpt lat="43.20075432742118" lon="-3.584520861357451">
        <ele>687.3876108529317</ele>
        <time>2024-09-09T08:03:03Z</time>
      </trkpt>
      <trkpt lat="43.20074453390322" lon="-3.584521269420699">
        <ele>687.5712393146088</ele>
        <time>2024-09-09T08:03:04Z</time>
      </trkpt>
      <trkpt lat="43.200734740385265" lon="-3.5845216774839477">
        <ele>687.7548677762858</ele>
        <time>2024-09-09T08:03:05Z</time>
      </trkpt>
    </trkseg>
    <trkseg>
      <trkpt lat="43.19959992274553" lon="-3.586908652360716">
        <ele>707.0815450894377</ele>
        <time>2024-09-09T08:08:27Z</time>
      </trkpt>
      <trkpt lat="43.19959133601491" lon="-3.5869100262376143">
        <ele>707.2532797017589</ele>
        <time>2024-09-09T08:08:28Z</time>
      </trkpt>
      <trkpt lat="43.199582749284296" lon="-3.586911400114513">
        <ele>707.4250143140799</ele>
        <time>2024-09-09T08:08:29Z</time>
      </trkpt>
      <trkpt lat="43.19957416255368" lon="-3.5869127739914113">
        <ele>707.5967489264011</ele>
        <time>2024-09-09T08:08:30Z</time>
      </trkpt>
      <trkpt lat="43.199565575823065" lon="-3.5869141478683098">
        <ele>707.7684835387222</ele>
        <time>2024-09-09T08:08:31Z</time>
      </trkpt>
    </trkseg>
    <trkseg>
      <trkpt lat="43.1994576859283" lon="-3.58710913800349">
        <ele>713.1573759834998</ele>
        <time>2024-09-09T08:09:03Z</time>
      </trkpt>
      <trkpt lat="43.199459499629675" lon="-3.5871169985186957">
        <ele>713.4436898220036</ele>
        <time>2024-09-09T08:09:04Z</time>
      </trkpt>
      <trkpt lat="43.19946136232006" lon="-3.5871244492802217">
        <ele>713.7463770089989</ele>
        <time>2024-09-09T08:09:05Z</time>
      </trkpt>
      <trkpt lat="43.19946322501044" lon="-3.5871319000417476">
        <ele>714.0490641959941</ele>
        <time>2024-09-09T08:09:06Z</time>
      </trkpt>
      <trkpt lat="43.19946508770082" lon="-3.5871393508032736">
        <ele>714.3517513829894</ele>
        <time>2024-09-09T08:09:07Z</time>
      </trkpt>
    </trkseg>
    <trkseg>
      <trkpt lat="43.199495454147645" lon="-3.5872416462852215">
        <ele>715.9510916103198</ele>
        <time>2024-09-09T08:11:18Z</time>
      </trkpt>
      <trkpt lat="43.1994976749837" lon="-3.587249696815904">
        <ele>716.2009356659885</ele>
        <time>2024-09-09T08:11:19Z</time>
      </trkpt>
      <trkpt lat="43.19949989581975" lon="-3.5872577473465865">
        <ele>716.4507797216571</ele>
        <time>2024-09-09T08:11:20Z</time>
      </trkpt>
      <trkpt lat="43.1995021166558" lon="-3.5872657978772695">
        <ele>716.7006237773256</ele>
        <time>2024-09-09T08:11:21Z</time>
      </trkpt>
      <trkpt lat="43.19950433749185" lon="-3.587273848407952">
        <ele>716.9504678329943</ele>
        <time>2024-09-09T08:11:22Z</time>
      </trkpt>
      <trkpt lat="43.1995065583279" lon="-3.5872818989386346">
        <ele>717.2003118886629</ele>
        <time>2024-09-09T08:11:23Z</time>
      </trkpt>
      <trkpt lat="43.19950877916395" lon="-3.5872899494693176">
        <ele>717.4501559443314</ele>
        <time>2024-09-09T08:11:24Z</time>
      </trkpt>
    </trkseg>
    <trkseg>
      <trkpt lat="43.1995360628102" lon="-3.587340805693421">
        <ele>717.9097153289503</ele>
        <time>2024-09-09T08:11:31Z</time>
      </trkpt>
      <trkpt lat="43.199541" lon="-3.587343">
        <ele>717.8</ele>
        <time>2024-09-09T08:11:32Z</time>
      </trkpt>
      <trkpt lat="43.19954179330315" lon="-3.5873478920360697">
        <ele>717.9718823483836</ele>
        <time>2024-09-09T08:11:33Z</time>
      </trkpt>
      <trkpt lat="43.1995425866063" lon="-3.587352784072139">
        <ele>718.1437646967671</ele>
        <time>2024-09-09T08:11:34Z</time>
      </trkpt>
      <trkpt lat="43.19954337990944" lon="-3.5873576761082084">
        <ele>718.3156470451507</ele>
        <time>2024-09-09T08:11:35Z</time>
      </trkpt>
      <trkpt lat="43.19954417321259" lon="-3.5873625681442776">
        <ele>718.4875293935343</ele>
        <time>2024-09-09T08:11:36Z</time>
      </trkpt>
      <trkpt lat="43.19954496651574" lon="-3.587367460180347">
        <ele>718.6594117419179</ele>
        <time>2024-09-09T08:11:37Z</time>
      </trkpt>
      <trkpt lat="43.19954575981888" lon="-3.5873723522164163">
        <ele>718.8312940903014</ele>
        <time>2024-09-09T08:11:38Z</time>
      </trkpt>
      <trkpt lat="43.199546553122026" lon="-3.587377244252486">
        <ele>719.003176438685</ele>
        <time>2024-09-09T08:11:39Z</time>
      </trkpt>
    </trkseg>
    <trkseg>
      <trkpt lat="43.199552" lon="-3.58739">
        <ele>719.4</ele>
        <time>2024-09-09T08:11:42Z</time>
      </trkpt>
      <trkpt lat="43.19954999715507" lon="-3.587396898688092">
        <ele>719.9118381487659</ele>
        <time>2024-09-09T08:11:43Z</time>
      </trkpt>
      <trkpt lat="43.19954799431014" lon="-3.5874037973761843">
        <ele>720.423676297532</ele>
        <time>2024-09-09T08:11:44Z</time>
      </trkpt>
      <trkpt lat="43.19954599146521" lon="-3.587410696064276">
        <ele>720.9355144462979</ele>
        <time>2024-09-09T08:11:45Z</time>
      </trkpt>
      <trkpt lat="43.19954398862028" lon="-3.587417594752368">
        <ele>721.447352595064</ele>
        <time>2024-09-09T08:11:46Z</time>
      </trkpt>
    </trkseg>
    <trkseg>
      <trkpt lat="43.199585483043535" lon="-3.587520069414805">
        <ele>724.1344849502683</ele>
        <time>2024-09-09T08:12:00Z</time>
      </trkpt>
      <trkpt lat="43.19959265536236" lon="-3.58753137960987">
        <ele>724.1896566335122</ele>
        <time>2024-09-09T08:12:01Z</time>
      </trkpt>
      <trkpt lat="43.199599827681176" lon="-3.587542689804935">
        <ele>724.2448283167561</ele>
        <time>2024-09-09T08:12:02Z</time>
      </trkpt>
    </trkseg>
    <trkseg>
      <trkpt lat="43.199624" lon="-3.587595">
        <ele>725.6</ele>
        <time>2024-09-09T08:12:09Z</time>
      </trkpt>
      <trkpt lat="43.19962570214214" lon="-3.5876035107107294">
        <ele>725.8553213218836</ele>
        <time>2024-09-09T08:12:10Z</time>
      </trkpt>
      <trkpt lat="43.19962740428429" lon="-3.587612021421459">
        <ele>726.1106426437672</ele>
        <time>2024-09-09T08:12:11Z</time>
      </trkpt>
      <trkpt lat="43.199629106426435" lon="-3.5876205321321883">
        <ele>726.3659639656507</ele>
        <time>2024-09-09T08:12:12Z</time>
      </trkpt>
    </trkseg>
    <trkseg>
      <trkpt lat="43.19962198398713" lon="-3.587860309774882">
        <ele>731.716289387743</ele>
        <time>2024-09-09T08:12:42Z</time>
      </trkpt>
      <trkpt lat="43.1996239871897" lon="-3.5878670478199055">
        <ele>731.9530315101944</ele>
        <time>2024-09-09T08:12:43Z</time>
      </trkpt>
      <trkpt lat="43.19962599039228" lon="-3.587873785864929">
        <ele>732.1897736326458</ele>
        <time>2024-09-09T08:12:44Z</time>
      </trkpt>
      <trkpt lat="43.19962799359485" lon="-3.587880523909953">
        <ele>732.4265157550972</ele>
        <time>2024-09-09T08:12:45Z</time>
      </trkpt>
      <trkpt lat="43.19962999679743" lon="-3.587887261954976">
        <ele>732.6632578775486</ele>
        <time>2024-09-09T08:12:46Z</time>
      </trkpt>
      <trkpt lat="43.199632" lon="-3.587894">
        <ele>732.9</ele>
        <time>2024-09-09T08:12:47Z</time>
      </trkpt>
      <trkpt lat="43.19962945487853" lon="-3.5879002214080344">
        <ele>732.9282791274305</ele>
        <time>2024-09-09T08:12:48Z</time>
      </trkpt>
      <trkpt lat="43.199626909757065" lon="-3.5879064428160694">
        <ele>732.9565582548611</ele>
        <time>2024-09-09T08:12:49Z</time>
      </trkpt>
      <trkpt lat="43.199624364635596" lon="-3.587912664224104">
        <ele>732.9848373822916</ele>
        <time>2024-09-09T08:12:50Z</time>
      </trkpt>
      <trkpt lat="43.19962731096009" lon="-3.5879241549946106">
        <ele>733.1444228696364</ele>
        <time>2024-09-09T08:12:51Z</time>
      </trkpt>
      <trkpt lat="43.199628983220066" lon="-3.587930366245958">
        <ele>733.3833171522273</ele>
        <time>2024-09-09T08:12:52Z</time>
      </trkpt>
      <trkpt lat="43.19963065548004" lon="-3.587936577497305">
        <ele>733.6222114348182</ele>
        <time>2024-09-09T08:12:53Z</time>
      </trkpt>
      <trkpt lat="43.19963232774003" lon="-3.5879427887486526">
        <ele>733.8611057174091</ele>
        <time>2024-09-09T08:12:54Z</time>
      </trkpt>
    </trkseg>
    <trkseg>
      <trkpt lat="43.199632829341056" lon="-3.588036643713251">
        <ele>736.1302395365557</ele>
        <time>2024-09-09T08:13:06Z</time>
      </trkpt>
      <trkpt lat="43.19963065868211" lon="-3.5880422874265014">
        <ele>736.2604790731112</ele>
        <time>2024-09-09T08:13:07Z</time>
      </trkpt>
      <trkpt lat="43.19962848802317" lon="-3.5880479311397524">
        <ele>736.3907186096669</ele>
        <time>2024-09-09T08:13:08Z</time>
      </trkpt>
      <trkpt lat="43.19962631736423" lon="-3.588053574853003">
        <ele>736.5209581462226</ele>
        <time>2024-09-09T08:13:09Z</time>
      </trkpt>
    </trkseg>
    <trkseg>
      <trkpt lat="43.199623" lon="-3.58811">
        <ele>738.0</ele>
        <time>2024-09-09T08:13:16Z</time>
      </trkpt>
      <trkpt lat="43.1996213197608" lon="-3.5881156408030246">
        <ele>738.1800256284484</ele>
        <time>2024-09-09T08:13:17Z</time>
      </trkpt>
      <trkpt lat="43.19961963952161" lon="-3.5881212816060493">
        <ele>738.3600512568969</ele>
        <time>2024-09-09T08:13:18Z</time>
      </trkpt>
      <trkpt lat="43.199617959282406" lon="-3.588126922409074">
        <ele>738.5400768853453</ele>
        <time>2024-09-09T08:13:19Z</time>
      </trkpt>
      <trkpt lat="43.199616279043205" lon="-3.5881325632120986">
        <ele>738.7201025137939</ele>
        <time>2024-09-09T08:13:20Z</time>
      </trkpt>
      <trkpt lat="43.19961459880401" lon="-3.5881382040151233">
        <ele>738.9001281422424</ele>
        <time>2024-09-09T08:13:21Z</time>
      </trkpt>
      <trkpt lat="43.19961291856481" lon="-3.588143844818148">
        <ele>739.0801537706908</ele>
        <time>2024-09-09T08:13:22Z</time>
      </trkpt>
      <trkpt lat="43.19961123832561" lon="-3.588149485621173">
        <ele>739.2601793991392</ele>
        <time>2024-09-09T08:13:23Z</time>
      </trkpt>
    </trkseg>
    <trkseg>
      <trkpt lat="43.199597555022294" lon="-3.5881983779963145">
        <ele>740.4684211903311</ele>
        <time>2024-09-09T08:13:28Z</time>
      </trkpt>
      <trkpt lat="43.19959786239662" lon="-3.5882094439285925">
        <ele>740.8005657902515</ele>
        <time>2024-09-09T08:13:29Z</time>
      </trkpt>
      <trkpt lat="43.19960157493108" lon="-3.5882202959523952">
        <ele>741.200377193501</ele>
        <time>2024-09-09T08:13:30Z</time>
      </trkpt>
      <trkpt lat="43.199605287465545" lon="-3.5882311479761975">
        <ele>741.6001885967505</ele>
        <time>2024-09-09T08:13:31Z</time>
      </trkpt>
    </trkseg>
    <trkseg>
      <trkpt lat="43.199643" lon="-3.588383">
        <ele>745.0</ele>
        <time>2024-09-09T08:13:57Z</time>
      </trkpt>
      <trkpt lat="43.19964510442999" lon="-3.5883878278099677">
        <ele>745.173305998851</ele>
        <time>2024-09-09T08:13:58Z</time>
      </trkpt>
      <trkpt lat="43.19964720885997" lon="-3.588392655619936">
        <ele>745.346611997702</ele>
        <time>2024-09-09T08:13:59Z</time>
      </trkpt>
      <trkpt lat="43.19964931328996" lon="-3.5883974834299037">
        <ele>745.519917996553</ele>
        <time>2024-09-09T08:14:00Z</time>
      </trkpt>
      <trkpt lat="43.19965141771995" lon="-3.588402311239872">
        <ele>745.693223995404</ele>
        <time>2024-09-09T08:14:01Z</time>
      </trkpt>
      <trkpt lat="43.19965352214993" lon="-3.5884071390498398">
        <ele>745.8665299942548</ele>
        <time>2024-09-09T08:14:02Z</time>
      </trkpt>
      <trkpt lat="43.19965562657992" lon="-3.588411966859808">
        <ele>746.0398359931058</ele>
        <time>2024-09-09T08:14:03Z</time>
      </trkpt>
      <trkpt lat="43.19965773100991" lon="-3.588416794669776">
        <ele>746.2131419919568</ele>
        <time>2024-09-09T08:14:04Z</time>
      </trkpt>
    </trkseg>
    <trkseg>
      <trkpt lat="43.19957003786037" lon="-3.588842971170448">
        <ele>754.9394234089622</ele>
        <time>2024-09-09T08:14:55Z</time>
      </trkpt>
      <trkpt lat="43.19957054106618" lon="-3.5888562802573354">
        <ele>755.3246397053247</ele>
        <time>2024-09-09T08:14:56Z</time>
      </trkpt>
      <trkpt lat="43.199571495078494" lon="-3.588874406491291">
        <ele>755.8970470933868</ele>
        <time>2024-09-09T08:14:57Z</time>
      </trkpt>
      <trkpt lat="43.199577761254716" lon="-3.5888891211153036">
        <ele>756.3920418238722</ele>
        <time>2024-09-09T08:14:58Z</time>
      </trkpt>
    </trkseg>
    <trkseg>
      <trkpt lat="43.199606644080355" lon="-3.588996927291494">
        <ele>758.7581271008964</ele>
        <time>2024-09-09T08:15:18Z</time>
      </trkpt>
      <trkpt lat="43.19960460488044" lon="-3.5890027858341407">
        <ele>758.9545238424915</ele>
        <time>2024-09-09T08:15:19Z</time>
      </trkpt>
      <trkpt lat="43.19960057066194" lon="-3.5890091625020952">
        <ele>759.2147960038853</ele>
        <time>2024-09-09T08:15:20Z</time>
      </trkpt>
      <trkpt lat="43.19959653644344" lon="-3.5890155391700493">
        <ele>759.475068165279</ele>
        <time>2024-09-09T08:15:21Z</time>
      </trkpt>
      <trkpt lat="43.19959250222494" lon="-3.5890219158380035">
        <ele>759.7353403266727</ele>
        <time>2024-09-09T08:15:22Z</time>
      </trkpt>
      <trkpt lat="43.19958846800643" lon="-3.5890282925059576">
        <ele>759.9956124880665</ele>
        <time>2024-09-09T08:15:23Z</time>
      </trkpt>
      <trkpt lat="43.19958443378793" lon="-3.5890346691739117">
        <ele>760.2558846494602</ele>
        <time>2024-09-09T08:15:24Z</time>
      </trkpt>
      <trkpt lat="43.199580399569435" lon="-3.589041045841866">
        <ele>760.5161568108539</ele>
        <time>2024-09-09T08:15:25Z</time>
      </trkpt>
      <trkpt lat="43.19957636535093" lon="-3.58904742250982">
        <ele>760.7764289722477</ele>
        <time>2024-09-09T08:15:26Z</time>
      </trkpt>
      <trkpt lat="43.19957233113243" lon="-3.5890537991777745">
        <ele>761.0367011336414</ele>
        <time>2024-09-09T08:15:27Z</time>
      </trkpt>
      <trkpt lat="43.199568296913924" lon="-3.5890601758457286">
        <ele>761.2969732950351</ele>
        <time>2024-09-09T08:15:28Z</time>
      </trkpt>
      <trkpt lat="43.199564262695425" lon="-3.5890665525136827">
        <ele>761.5572454564289</ele>
        <time>2024-09-09T08:15:29Z</time>
      </trkpt>
      <trkpt lat="43.199560228476926" lon="-3.589072929181637">
        <ele>761.8175176178225</ele>
        <time>2024-09-09T08:15:30Z</time>
      </trkpt>
      <trkpt lat="43.19955619425842" lon="-3.589079305849591">
        <ele>762.0777897792162</ele>
        <time>2024-09-09T08:15:31Z</time>
      </trkpt>
      <trkpt lat="43.19955216003992" lon="-3.589085682517545">
        <ele>762.33806194061</ele>
        <time>2024-09-09T08:15:32Z</time>
      </trkpt>
    </trkseg>
    <trkseg>
      <trkpt lat="43.199373419708635" lon="-3.589259686495328">
        <ele>768.5106203958608</ele>
        <time>2024-09-09T08:16:08Z</time>
      </trkpt>
      <trkpt lat="43.1993695335392" lon="-3.5892662929833654">
        <ele>768.7826522562323</ele>
        <time>2024-09-09T08:16:09Z</time>
      </trkpt>
      <trkpt lat="43.19936564736977" lon="-3.589272899471403">
        <ele>769.0546841166038</ele>
        <time>2024-09-09T08:16:10Z</time>
      </trkpt>
      <trkpt lat="43.19936176120033" lon="-3.589279505959441">
        <ele>769.3267159769752</ele>
        <time>2024-09-09T08:16:11Z</time>
      </trkpt>
      <trkpt lat="43.1993578750309" lon="-3.5892861124474784">
        <ele>769.5987478373467</ele>
        <time>2024-09-09T08:16:12Z</time>
      </trkpt>
      <trkpt lat="43.19935398886146" lon="-3.589292718935516">
        <ele>769.8707796977181</ele>
        <time>2024-09-09T08:16:13Z</time>
      </trkpt>
      <trkpt lat="43.19935010269203" lon="-3.5892993254235535">
        <ele>770.1428115580896</ele>
        <time>2024-09-09T08:16:14Z</time>
      </trkpt>
      <trkpt lat="43.1993462165226" lon="-3.589305931911591">
        <ele>770.4148434184611</ele>
        <time>2024-09-09T08:16:15Z</time>
      </trkpt>
      <trkpt lat="43.19934233035316" lon="-3.5893125383996285">
        <ele>770.6868752788326</ele>
        <time>2024-09-09T08:16:16Z</time>
      </trkpt>
      <trkpt lat="43.19933844418373" lon="-3.589319144887666">
        <ele>770.9589071392041</ele>
        <time>2024-09-09T08:16:17Z</time>
      </trkpt>
      <trkpt lat="43.19933455801429" lon="-3.589325751375704">
        <ele>771.2309389995756</ele>
        <time>2024-09-09T08:16:18Z</time>
      </trkpt>
      <trkpt lat="43.19933067184486" lon="-3.5893323578637415">
        <ele>771.5029708599471</ele>
        <time>2024-09-09T08:16:19Z</time>
      </trkpt>
      <trkpt lat="43.199326785675424" lon="-3.589338964351779">
        <ele>771.7750027203185</ele>
        <time>2024-09-09T08:16:20Z</time>
      </trkpt>
    </trkseg>
    <trkseg>
      <trkpt lat="43.1994519378504" lon="-3.589483094906296">
        <ele>774.7125420471369</ele>
        <time>2024-09-09T08:16:46Z</time>
      </trkpt>
      <trkpt lat="43.19945423456687" lon="-3.5894906740706682">
        <ele>774.9881480242956</ele>
        <time>2024-09-09T08:16:47Z</time>
      </trkpt>
      <trkpt lat="43.199456531283346" lon="-3.58949825323504">
        <ele>775.2637540014542</ele>
        <time>2024-09-09T08:16:48Z</time>
      </trkpt>
      <trkpt lat="43.19945882799982" lon="-3.589505832399412">
        <ele>775.539359978613</ele>
        <time>2024-09-09T08:16:49Z</time>
      </trkpt>
    </trkseg>
    <trkseg>
      <trkpt lat="43.199571" lon="-3.589745">
        <ele>781.2</ele>
        <time>2024-09-09T08:17:19Z</time>
      </trkpt>
      <trkpt lat="43.19957332561601" lon="-3.589753837340835">
        <ele>781.5255862412836</ele>
        <time>2024-09-09T08:17:20Z</time>
      </trkpt>
      <trkpt lat="43.19957565123202" lon="-3.58976267468167">
        <ele>781.8511724825672</ele>
        <time>2024-09-09T08:17:21Z</time>
      </trkpt>
      <trkpt lat="43.199577976848026" lon="-3.5897715120225047">
        <ele>782.1767587238508</ele>
        <time>2024-09-09T08:17:22Z</time>
      </trkpt>
      <trkpt lat="43.199580302464035" lon="-3.5897803493633393">
        <ele>782.5023449651344</ele>
        <time>2024-09-09T08:17:23Z</time>
      </trkpt>
      <trkpt lat="43.199582628080044" lon="-3.5897891867041745">
        <ele>782.8279312064179</ele>
        <time>2024-09-09T08:17:24Z</time>
      </trkpt>
      <trkpt lat="43.19958495369605" lon="-3.589798024045009">
        <ele>783.1535174477015</ele>
        <time>2024-09-09T08:17:25Z</time>
      </trkpt>
    </trkseg>
    <trkseg>
      <trkpt lat="43.199917892698494" lon="-3.590371840404308">
        <ele>795.4933275701248</ele>
        <time>2024-09-09T08:18:46Z</time>
      </trkpt>
      <trkpt lat="43.199920219700566" lon="-3.5903792445018095">
        <ele>795.736605059463</ele>
        <time>2024-09-09T08:18:47Z</time>
      </trkpt>
      <trkpt lat="43.19992254670264" lon="-3.5903866485993112">
        <ele>795.9798825488014</ele>
        <time>2024-09-09T08:18:48Z</time>
      </trkpt>
      <trkpt lat="43.19992487370471" lon="-3.590394052696813">
        <ele>796.2231600381396</ele>
        <time>2024-09-09T08:18:49Z</time>
      </trkpt>
      <trkpt lat="43.19992720070678" lon="-3.5904014567943143">
        <ele>796.4664375274778</ele>
        <time>2024-09-09T08:18:50Z</time>
      </trkpt>
      <trkpt lat="43.19992952770885" lon="-3.590408860891816">
        <ele>796.7097150168161</ele>
        <time>2024-09-09T08:18:51Z</time>
      </trkpt>
      <trkpt lat="43.199931854710925" lon="-3.590416264989318">
        <ele>796.9529925061543</ele>
        <time>2024-09-09T08:18:52Z</time>
      </trkpt>
      <trkpt lat="43.199934181713" lon="-3.590423669086819">
        <ele>797.1962699954925</ele>
        <time>2024-09-09T08:18:53Z</time>
      </trkpt>
      <trkpt lat="43.19993650871507" lon="-3.590431073184321">
        <ele>797.4395474848307</ele>
        <time>2024-09-09T08:18:54Z</time>
      </trkpt>
      <trkpt lat="43.19993883571714" lon="-3.5904384772818223">
        <ele>797.682824974169</ele>
        <time>2024-09-09T08:18:55Z</time>
      </trkpt>
      <trkpt lat="43.19994116271922" lon="-3.590445881379324">
        <ele>797.9261024635072</ele>
        <time>2024-09-09T08:18:56Z</time>
      </trkpt>
      <trkpt lat="43.19994348972129" lon="-3.590453285476826">
        <ele>798.1693799528454</ele>
        <time>2024-09-09T08:18:57Z</time>
      </trkpt>
      <trkpt lat="43.199945816723364" lon="-3.590460689574327">
        <ele>798.4126574421837</ele>
        <time>2024-09-09T08:18:58Z</time>
      </trkpt>
      <trkpt lat="43.199948143725436" lon="-3.590468093671829">
        <ele>798.6559349315219</ele>
        <time>2024-09-09T08:18:59Z</time>
      </trkpt>
      <trkpt lat="43.19995047072751" lon="-3.5904754977693303">
        <ele>798.8992124208601</ele>
        <time>2024-09-09T08:19:00Z</time>
      </trkpt>
      <trkpt lat="43.19995279772958" lon="-3.590482901866832">
        <ele>799.1424899101984</ele>
        <time>2024-09-09T08:19:01Z</time>
      </trkpt>
      <trkpt lat="43.19995512473165" lon="-3.590490305964334">
        <ele>799.3857673995366</ele>
        <time>2024-09-09T08:19:02Z</time>
      </trkpt>
      <trkpt lat="43.199957451733724" lon="-3.590497710061835">
        <ele>799.6290448888748</ele>
        <time>2024-09-09T08:19:03Z</time>
      </trkpt>
    </trkseg>
    <trkseg>
      <trkpt lat="43.200807" lon="-3.592043">
        <ele>826.0</ele>
        <time>2024-09-09T08:22:03Z</time>
      </trkpt>
      <trkpt lat="43.20080851048633" lon="-3.59205465232316">
        <ele>826.172627009783</ele>
        <time>2024-09-09T08:22:04Z</time>
      </trkpt>
      <trkpt lat="43.20081002097267" lon="-3.5920663046463206">
        <ele>826.3452540195659</ele>
        <time>2024-09-09T08:22:05Z</time>
      </trkpt>
      <trkpt lat="43.20081153145901" lon="-3.5920779569694807">
        <ele>826.5178810293489</ele>
        <time>2024-09-09T08:22:06Z</time>
      </trkpt>
    </trkseg>
    <trkseg>
      <trkpt lat="43.20081461838138" lon="-3.5921011740743136">
        <ele>826.8309190689896</ele>
        <time>2024-09-09T08:22:08Z</time>
      </trkpt>
      <trkpt lat="43.20081630919069" lon="-3.592112587037157">
        <ele>826.9154595344949</ele>
        <time>2024-09-09T08:22:09Z</time>
      </trkpt>
    </trkseg>
    <trkseg>
      <trkpt lat="43.201059012857066" lon="-3.5930270392140433">
        <ele>835.0005785678513</ele>
        <time>2024-09-09T08:23:28Z</time>
      </trkpt>
      <trkpt lat="43.20106334329269" lon="-3.5930402470426914">
        <ele>835.1954481708565</ele>
        <time>2024-09-09T08:23:29Z</time>
      </trkpt>
      <trkpt lat="43.20106767372831" lon="-3.5930534548713395">
        <ele>835.3903177738616</ele>
        <time>2024-09-09T08:23:30Z</time>
      </trkpt>
      <trkpt lat="43.20107200416393" lon="-3.5930666626999876">
        <ele>835.5851873768668</ele>
        <time>2024-09-09T08:23:31Z</time>
      </trkpt>
      <trkpt lat="43.201076334599556" lon="-3.5930798705286358">
        <ele>835.7800569798719</ele>
        <time>2024-09-09T08:23:32Z</time>
      </trkpt>
    </trkseg>
    <trkseg>
      <trkpt lat="43.20120606611467" lon="-3.594014703806276">
        <ele>853.9931240742635</ele>
        <time>2024-09-09T08:25:45Z</time>
      </trkpt>
      <trkpt lat="43.201203786739256" lon="-3.5940210361656577">
        <ele>854.2414466262968</ele>
        <time>2024-09-09T08:25:46Z</time>
      </trkpt>
      <trkpt lat="43.2012014816459" lon="-3.5940273227838992">
        <ele>854.4929113559585</ele>
        <time>2024-09-09T08:25:47Z</time>
      </trkpt>
      <trkpt lat="43.20119917655255" lon="-3.594033609402141">
        <ele>854.7443760856204</ele>
        <time>2024-09-09T08:25:48Z</time>
      </trkpt>
      <trkpt lat="43.20119687145919" lon="-3.5940398960203823">
        <ele>854.9958408152821</ele>
        <time>2024-09-09T08:25:49Z</time>
      </trkpt>
      <trkpt lat="43.201194566365835" lon="-3.594046182638624">
        <ele>855.247305544944</ele>
        <time>2024-09-09T08:25:50Z</time>
      </trkpt>
      <trkpt lat="43.20119226127248" lon="-3.5940524692568654">
        <ele>855.4987702746057</ele>
        <time>2024-09-09T08:25:51Z</time>
      </trkpt>
      <trkpt lat="43.20118995617913" lon="-3.594058755875107">
        <ele>855.7502350042676</ele>
        <time>2024-09-09T08:25:52Z</time>
      </trkpt>
      <trkpt lat="43.20118765108577" lon="-3.5940650424933485">
        <ele>856.0016997339293</ele>
        <time>2024-09-09T08:25:53Z</time>
      </trkpt>
      <trkpt lat="43.201185345992414" lon="-3.59407132911159">
        <ele>856.2531644635911</ele>
        <time>2024-09-09T08:25:54Z</time>
      </trkpt>
    </trkseg>
    <trkseg>
      <trkpt lat="43.201119663997474" lon="-3.5943781279633438">
        <ele>863.8991992415943</ele>
        <time>2024-09-09T08:26:33Z</time>
      </trkpt>
      <trkpt lat="43.20111789664067" lon="-3.5943839963281055">
        <ele>864.0332109368418</ele>
        <time>2024-09-09T08:26:34Z</time>
      </trkpt>
      <trkpt lat="43.201113089170974" lon="-3.594386273550592">
        <ele>864.1091183530722</ele>
        <time>2024-09-09T08:26:35Z</time>
      </trkpt>
      <trkpt lat="43.20110828170128" lon="-3.594388550773079">
        <ele>864.1850257693027</ele>
        <time>2024-09-09T08:26:36Z</time>
      </trkpt>
      <trkpt lat="43.20110347423159" lon="-3.594390827995566">
        <ele>864.2609331855331</ele>
        <time>2024-09-09T08:26:37Z</time>
      </trkpt>
    </trkseg>
    <trkseg>
      <trkpt lat="43.20117764572144" lon="-3.5948763798361365">
        <ele>875.2303868909235</ele>
        <time>2024-09-09T08:27:38Z</time>
      </trkpt>
      <trkpt lat="43.20118309714762" lon="-3.5948795865574246">
        <ele>875.486924593949</ele>
        <time>2024-09-09T08:27:39Z</time>
      </trkpt>
      <trkpt lat="43.20118854857381" lon="-3.594882793278712">
        <ele>875.7434622969745</ele>
        <time>2024-09-09T08:27:40Z</time>
      </trkpt>
    </trkseg>
    <trkseg>
      <trkpt lat="43.201225008126684" lon="-3.5949325067722344">
        <ele>877.237669305857</ele>
        <time>2024-09-09T08:27:48Z</time>
      </trkpt>
      <trkpt lat="43.20123551462795" lon="-3.5949377052660623">
        <ele>877.6005851180455</ele>
        <time>2024-09-09T08:27:49Z</time>
      </trkpt>
    </trkseg>
    <trkseg>
      <trkpt lat="43.201269" lon="-3.594941">
        <ele>878.7</ele>
        <time>2024-09-09T08:27:53Z</time>
      </trkpt>
      <trkpt lat="43.20127958716827" lon="-3.5949421763520304">
        <ele>879.1313290778145</ele>
        <time>2024-09-09T08:27:54Z</time>
      </trkpt>
      <trkpt lat="43.20129017433655" lon="-3.594943352704061">
        <ele>879.562658155629</ele>
        <time>2024-09-09T08:27:55Z</time>
      </trkpt>
    </trkseg>
    <trkseg>
      <trkpt lat="43.20140380314463" lon="-3.5948547039897996">
        <ele>881.7957920582899</ele>
        <time>2024-09-09T08:28:14Z</time>
      </trkpt>
      <trkpt lat="43.20141021143183" lon="-3.5948500980333766">
        <ele>882.1362323156307</ele>
        <time>2024-09-09T08:28:15Z</time>
      </trkpt>
      <trkpt lat="43.20141661971902" lon="-3.594845492076954">
        <ele>882.4766725729713</ele>
        <time>2024-09-09T08:28:16Z</time>
      </trkpt>
      <trkpt lat="43.20142302800622" lon="-3.594840886120531">
        <ele>882.8171128303121</ele>
        <time>2024-09-09T08:28:17Z</time>
      </trkpt>
      <trkpt lat="43.20142943629342" lon="-3.5948362801641083">
        <ele>883.1575530876529</ele>
        <time>2024-09-09T08:28:18Z</time>
      </trkpt>
      <trkpt lat="43.201435765722835" lon="-3.5948334815607734">
        <ele>883.4963121546652</ele>
        <time>2024-09-09T08:28:19Z</time>
      </trkpt>
      <trkpt lat="43.20144190004896" lon="-3.594835154558808">
        <ele>883.8309117616224</ele>
        <time>2024-09-09T08:28:20Z</time>
      </trkpt>
      <trkpt lat="43.20144803437509" lon="-3.594836827556843">
        <ele>884.1655113685794</ele>
        <time>2024-09-09T08:28:21Z</time>
      </trkpt>
    </trkseg>
    <trkseg>
      <trkpt lat="43.20166977985611" lon="-3.595065166186878">
        <ele>890.6569064705983</ele>
        <time>2024-09-09T08:29:07Z</time>
      </trkpt>
      <trkpt lat="43.201669022978486" lon="-3.5950746074640407">
        <ele>890.9352799015275</ele>
        <time>2024-09-09T08:29:08Z</time>
      </trkpt>
      <trkpt lat="43.201666915261846" lon="-3.5950823898024127">
        <ele>891.2271175904842</ele>
        <time>2024-09-09T08:29:09Z</time>
      </trkpt>
      <trkpt lat="43.2016648075452" lon="-3.595090172140785">
        <ele>891.518955279441</ele>
        <time>2024-09-09T08:29:10Z</time>
      </trkpt>
      <trkpt lat="43.20166269982856" lon="-3.595097954479157">
        <ele>891.8107929683979</ele>
        <time>2024-09-09T08:29:11Z</time>
      </trkpt>
      <trkpt lat="43.201660592111914" lon="-3.5951057368175294">
        <ele>892.1026306573547</ele>
        <time>2024-09-09T08:29:12Z</time>
      </trkpt>
      <trkpt lat="43.201658484395274" lon="-3.5951135191559014">
        <ele>892.3944683463114</ele>
        <time>2024-09-09T08:29:13Z</time>
      </trkpt>
    </trkseg>
    <trkseg>
      <trkpt lat="43.201828976212795" lon="-3.5969605910350175">
        <ele>896.9349496969788</ele>
        <time>2024-09-09T08:31:18Z</time>
      </trkpt>
      <trkpt lat="43.20184074479902" lon="-3.596975059147375">
        <ele>897.2829135199288</ele>
        <time>2024-09-09T08:31:19Z</time>
      </trkpt>
    </trkseg>
    <trkseg>
      <trkpt lat="43.202173788849834" lon="-3.5971830343628515">
        <ele>905.3583046665472</ele>
        <time>2024-09-09T08:32:04Z</time>
      </trkpt>
      <trkpt lat="43.20218104228054" lon="-3.597191905463485">
        <ele>905.3568408532187</ele>
        <time>2024-09-09T08:32:05Z</time>
      </trkpt>
    </trkseg>
    <trkseg>
      <trkpt lat="43.20221014656039" lon="-3.5972496723155865">
        <ele>905.5422399350933</ele>
        <time>2024-09-09T08:32:10Z</time>
      </trkpt>
      <trkpt lat="43.20220883088633" lon="-3.5972645832883083">
        <ele>905.7615189457065</ele>
        <time>2024-09-09T08:32:11Z</time>
      </trkpt>
    </trkseg>
    <trkseg>
      <trkpt lat="43.2023128458625" lon="-3.598245464685026">
        <ele>912.2308275004797</ele>
        <time>2024-09-09T08:33:21Z</time>
      </trkpt>
      <trkpt lat="43.20231145543255" lon="-3.5982604813284724">
        <ele>912.5089134902295</ele>
        <time>2024-09-09T08:33:22Z</time>
      </trkpt>
      <trkpt lat="43.2023100650026" lon="-3.598275497971919">
        <ele>912.7869994799792</ele>
        <time>2024-09-09T08:33:23Z</time>
      </trkpt>
    </trkseg>
    <trkseg>
      <trkpt lat="43.202463657788456" lon="-3.598859846051469">
        <ele>921.2594131507266</ele>
        <time>2024-09-09T08:34:21Z</time>
      </trkpt>
      <trkpt lat="43.20246610488171" lon="-3.5988667137002723">
        <ele>921.4804409283136</ele>
        <time>2024-09-09T08:34:22Z</time>
      </trkpt>
      <trkpt lat="43.20246855197496" lon="-3.598873581349076">
        <ele>921.7014687059005</ele>
        <time>2024-09-09T08:34:23Z</time>
      </trkpt>
      <trkpt lat="43.20247099906821" lon="-3.5988804489978796">
        <ele>921.9224964834875</ele>
        <time>2024-09-09T08:34:24Z</time>
      </trkpt>
      <trkpt lat="43.20247344616146" lon="-3.5988873166466835">
        <ele>922.1435242610746</ele>
        <time>2024-09-09T08:34:25Z</time>
      </trkpt>
      <trkpt lat="43.202475893254714" lon="-3.598894184295487">
        <ele>922.3645520386616</ele>
        <time>2024-09-09T08:34:26Z</time>
      </trkpt>
      <trkpt lat="43.202478340347966" lon="-3.5989010519442908">
        <ele>922.5855798162486</ele>
        <time>2024-09-09T08:34:27Z</time>
      </trkpt>
      <trkpt lat="43.20248078744122" lon="-3.598907919593094">
        <ele>922.8066075938356</ele>
        <time>2024-09-09T08:34:28Z</time>
      </trkpt>
      <trkpt lat="43.20248323453447" lon="-3.5989147872418976">
        <ele>923.0276353714225</ele>
        <time>2024-09-09T08:34:29Z</time>
      </trkpt>
      <trkpt lat="43.20248568162772" lon="-3.5989216548907015">
        <ele>923.2486631490096</ele>
        <time>2024-09-09T08:34:30Z</time>
      </trkpt>
      <trkpt lat="43.20248812872097" lon="-3.598928522539505">
        <ele>923.4696909265966</ele>
        <time>2024-09-09T08:34:31Z</time>
      </trkpt>
      <trkpt lat="43.202490575814224" lon="-3.5989353901883088">
        <ele>923.6907187041836</ele>
        <time>2024-09-09T08:34:32Z</time>
      </trkpt>
    </trkseg>
    <trkseg>
      <trkpt lat="43.202345" lon="-3.599746">
        <ele>941.7</ele>
        <time>2024-09-09T08:36:08Z</time>
      </trkpt>
      <trkpt lat="43.2023424" lon="-3.5997518">
        <ele>941.7800000000001</ele>
        <time>2024-09-09T08:36:09Z</time>
      </trkpt>
      <trkpt lat="43.2023398" lon="-3.5997576000000002">
        <ele>941.86</ele>
        <time>2024-09-09T08:36:10Z</time>
      </trkpt>
      <trkpt lat="43.2023372" lon="-3.5997634">
        <ele>941.94</ele>
        <time>2024-09-09T08:36:11Z</time>
      </trkpt>
      <trkpt lat="43.2023346" lon="-3.5997692000000003">
        <ele>942.02</ele>
        <time>2024-09-09T08:36:12Z</time>
      </trkpt>
    </trkseg>
    <trkseg>
      <trkpt lat="43.202279847340094" lon="-3.599938181829175">
        <ele>946.1921099844405</ele>
        <time>2024-09-09T08:36:35Z</time>
      </trkpt>
      <trkpt lat="43.202277986896895" lon="-3.5999546157440623">
        <ele>946.5021838502367</ele>
        <time>2024-09-09T08:36:36Z</time>
      </trkpt>
      <trkpt lat="43.202276126453704" lon="-3.59997104965895">
        <ele>946.8122577160331</ele>
        <time>2024-09-09T08:36:37Z</time>
      </trkpt>
    </trkseg>
    <trkseg>
      <trkpt lat="43.202071427238465" lon="-3.6004860106764953">
        <ele>954.6426902029881</ele>
        <time>2024-09-09T08:37:32Z</time>
      </trkpt>
      <trkpt lat="43.2020674414448" lon="-3.6004981693539535">
        <ele>954.6220722396336</ele>
        <time>2024-09-09T08:37:33Z</time>
      </trkpt>
      <trkpt lat="43.20206462762986" lon="-3.6005111129026357">
        <ele>954.4813814930891</ele>
        <time>2024-09-09T08:37:34Z</time>
      </trkpt>
      <trkpt lat="43.20206181381493" lon="-3.600524056451318">
        <ele>954.3406907465445</ele>
        <time>2024-09-09T08:37:35Z</time>
      </trkpt>
    </trkseg>
    <trkseg>
      <trkpt lat="43.20203790519792" lon="-3.600564899576947">
        <ele>954.540238743258</ele>
        <time>2024-09-09T08:37:39Z</time>
      </trkpt>
      <trkpt lat="43.202030873597224" lon="-3.6005741994359295">
        <ele>954.6536516576772</ele>
        <time>2024-09-09T08:37:40Z</time>
      </trkpt>
      <trkpt lat="43.202024718140024" lon="-3.6005922213932235">
        <ele>954.4265116687787</ele>
        <time>2024-09-09T08:37:41Z</time>
      </trkpt>
    </trkseg>
    <trkseg>
      <trkpt lat="43.20136743621272" lon="-3.6040788343452057">
        <ele>946.0490739316366</ele>
        <time>2024-09-09T08:42:29Z</time>
      </trkpt>
      <trkpt lat="43.20136880971741" lon="-3.6040972049703357">
        <ele>946.2035932084314</ele>
        <time>2024-09-09T08:42:30Z</time>
      </trkpt>
      <trkpt lat="43.20137018322209" lon="-3.6041155755954657">
        <ele>946.3581124852262</ele>
        <time>2024-09-09T08:42:31Z</time>
      </trkpt>
      <trkpt lat="43.20137155672677" lon="-3.6041339462205957">
        <ele>946.5126317620211</ele>
        <time>2024-09-09T08:42:32Z</time>
      </trkpt>
      <trkpt lat="43.20137293023146" lon="-3.6041523168457257">
        <ele>946.6671510388159</ele>
        <time>2024-09-09T08:42:33Z</time>
      </trkpt>
    </trkseg>
  </trk>
</gpx>