<?xml version="1.0" encoding="UTF-8"?>
<gpx xmlns="http://www.topografix.com/GPX/1/1" xmlns:xsi="http://www.w3.org/2001/XMLSchema-instance" xsi:schemaLocation="http://www.topografix.com/GPX/1/1 http://www.topografix.com/GPX/1/1/gpx.xsd" version="1.1" creator="gpx.py -- https://github.com/tkrajina/gpxpy">
  <wpt lat="43.20086742651811" lon="-3.5843929337047284">
    <ele>686.094668523642</ele>
    <time>2024-09-09T08:01:35Z</time>
    <name>ANOM:DZ_HAMPEL</name>
    <desc>Tramo #1 (6-7), dur=2s
Causas: DZ_HAMPEL
vh_max=3.21 km/h | grade_ext=31.4% | vz_ext=16.8 m/min
max|dx|=0.72 m/s, max|dy|=0.53 m/s, max|dz|=0.28 m/s</desc>
  </wpt>
  <wpt lat="43.200775276044816" lon="-3.5845197077172557">
    <ele>687.0</ele>
    <time>2024-09-09T08:03:01Z</time>
    <name>ANOM:DZ_HAMPEL</name>
    <desc>Tramo #2 (92-96), dur=5s
Causas: DZ_HAMPEL
vh_max=4.16 km/h | grade_ext=16.9% | vz_ext=11.7 m/min
max|dx|=0.04 m/s, max|dy|=1.16 m/s, max|dz|=0.19 m/s</desc>
  </wpt>
  <wpt lat="43.19945811162811" lon="-3.5871114465124445">
    <ele>713.2181395680437</ele>
    <time>2024-09-09T08:09:10Z</time>
    <name>ANOM:GRADE_UP</name>
    <desc>Tramo #3 (461-494), dur=34s
Causas: GRADE_UP
vh_max=0.29 km/h | grade_ext=47.4% | vz_ext=2.3 m/min
max|dx|=0.08 m/s, max|dy|=0.03 m/s, max|dz|=0.04 m/s</desc>
  </wpt>
  <wpt lat="43.19949633206673" lon="-3.5872448287418965">
    <ele>716.0498575071399</ele>
    <time>2024-09-09T08:11:23Z</time>
    <name>ANOM:GRADE_UP</name>
    <desc>Tramo #4 (594-602), dur=9s
Causas: GRADE_UP
vh_max=1.84 km/h | grade_ext=35.8% | vz_ext=11.0 m/min
max|dx|=0.48 m/s, max|dy|=0.18 m/s, max|dz|=0.18 m/s</desc>
  </wpt>
  <wpt lat="43.19954156866609" lon="-3.587346506774231">
    <ele>717.9232109865022</ele>
    <time>2024-09-09T08:11:40Z</time>
    <name>ANOM:GRADE_UP</name>
    <desc>Tramo #5 (611-619), dur=9s
Causas: GRADE_UP
vh_max=4.08 km/h | grade_ext=85.0% | vz_ext=36.4 m/min
max|dx|=1.03 m/s, max|dy|=0.47 m/s, max|dz|=0.61 m/s</desc>
  </wpt>
  <wpt lat="43.199587227206386" lon="-3.587498087162538">
    <ele>723.1227206387689</ele>
    <time>2024-09-09T08:11:59Z</time>
    <name>ANOM:DZ_HAMPEL,GRADE_UP</name>
    <desc>Tramo #6 (630-636), dur=7s
Causas: DZ_HAMPEL,GRADE_UP
vh_max=3.18 km/h | grade_ext=68.1% | vz_ext=36.1 m/min
max|dx|=0.80 m/s, max|dy|=0.53 m/s, max|dz|=0.60 m/s</desc>
  </wpt>
  <wpt lat="43.199623082343194" lon="-3.5875927868276976">
    <ele>725.5298262440675</ele>
    <time>2024-09-09T08:12:11Z</time>
    <name>ANOM:GRADE_UP</name>
    <desc>Tramo #7 (642-646), dur=5s
Causas: GRADE_UP
vh_max=2.57 km/h | grade_ext=35.7% | vz_ext=15.3 m/min
max|dx|=0.69 m/s, max|dy|=0.24 m/s, max|dz|=0.25 m/s</desc>
  </wpt>
  <wpt lat="43.19962228399504" lon="-3.587861318892397">
    <ele>731.7517448680056</ele>
    <time>2024-09-09T08:12:42Z</time>
    <name>ANOM:GRADE_UP</name>
    <desc>Tramo #8 (673-676), dur=4s
Causas: GRADE_UP
vh_max=2.35 km/h | grade_ext=40.1% | vz_ext=15.7 m/min
max|dx|=0.61 m/s, max|dy|=0.25 m/s, max|dz|=0.26 m/s</desc>
  </wpt>
  <wpt lat="43.19962759864463" lon="-3.5879252235372037">
    <ele>733.1855206616727</ele>
    <time>2024-09-09T08:12:51Z</time>
    <name>ANOM:GRADE_UP</name>
    <desc>Tramo #9 (682-684), dur=3s
Causas: GRADE_UP
vh_max=2.87 km/h | grade_ext=44.5% | vz_ext=21.3 m/min
max|dx|=0.75 m/s, max|dy|=0.28 m/s, max|dz|=0.35 m/s</desc>
  </wpt>
  <wpt lat="43.199623104794576" lon="-3.588107222943844">
    <ele>737.9266437996595</ele>
    <time>2024-09-09T08:13:13Z</time>
    <name>ANOM:GRADE_UP</name>
    <desc>Tramo #10 (704-710), dur=7s
Causas: GRADE_UP
vh_max=2.08 km/h | grade_ext=36.4% | vz_ext=12.6 m/min
max|dx|=0.55 m/s, max|dy|=0.22 m/s, max|dz|=0.21 m/s</desc>
  </wpt>
  <wpt lat="43.1995968015354" lon="-3.5882011021412406">
    <ele>740.5321777737155</ele>
    <time>2024-09-09T08:13:27Z</time>
    <name>ANOM:DZ_HAMPEL,GRADE_UP</name>
    <desc>Tramo #11 (718-724), dur=7s
Causas: DZ_HAMPEL,GRADE_UP
vh_max=2.04 km/h | grade_ext=41.1% | vz_ext=14.0 m/min
max|dx|=0.53 m/s, max|dy|=0.24 m/s, max|dz|=0.23 m/s</desc>
  </wpt>
  <wpt lat="43.19964411196211" lon="-3.5883855509718905">
    <ele>745.0915733499249</ele>
    <time>2024-09-09T08:14:00Z</time>
    <name>ANOM:GRADE_UP</name>
    <desc>Tramo #12 (751-754), dur=4s
Causas: GRADE_UP
vh_max=3.56 km/h | grade_ext=38.0% | vz_ext=22.5 m/min
max|dx|=0.85 m/s, max|dy|=0.51 m/s, max|dz|=0.38 m/s</desc>
  </wpt>
  <wpt lat="43.19957023982677" lon="-3.588850556708625">
    <ele>755.1438960618293</ele>
    <time>2024-09-09T08:14:55Z</time>
    <name>ANOM:DZ_HAMPEL,GRADE_UP</name>
    <desc>Tramo #13 (806-809), dur=4s
Causas: DZ_HAMPEL,GRADE_UP
vh_max=2.54 km/h | grade_ext=38.9% | vz_ext=16.5 m/min
max|dx|=0.70 m/s, max|dy|=0.13 m/s, max|dz|=0.27 m/s</desc>
  </wpt>
  <wpt lat="43.19960643041826" lon="-3.5889956830239673">
    <ele>758.7329903831795</ele>
    <time>2024-09-09T08:15:14Z</time>
    <name>ANOM:GRADE_UP</name>
    <desc>Tramo #14 (825-841), dur=17s
Causas: GRADE_UP
vh_max=2.24 km/h | grade_ext=38.0% | vz_ext=14.2 m/min
max|dx|=0.55 m/s, max|dy|=0.41 m/s, max|dz|=0.24 m/s</desc>
  </wpt>
  <wpt lat="43.19937340503301" lon="-3.589259711443889">
    <ele>768.5116476895374</ele>
    <time>2024-09-09T08:16:11Z</time>
    <name>ANOM:GRADE_UP</name>
    <desc>Tramo #15 (882-894), dur=13s
Causas: GRADE_UP
vh_max=2.50 km/h | grade_ext=39.5% | vz_ext=16.5 m/min
max|dx|=0.59 m/s, max|dy|=0.44 m/s, max|dz|=0.27 m/s</desc>
  </wpt>
  <wpt lat="43.19945310690577" lon="-3.589486952789044">
    <ele>774.8528286925065</ele>
    <time>2024-09-09T08:16:48Z</time>
    <name>ANOM:GRADE_UP</name>
    <desc>Tramo #16 (919-920), dur=2s
Causas: GRADE_UP
vh_max=3.66 km/h | grade_ext=41.4% | vz_ext=25.3 m/min
max|dx|=0.94 m/s, max|dy|=0.39 m/s, max|dz|=0.42 m/s</desc>
  </wpt>
  <wpt lat="43.19957155805574" lon="-3.5897471206117966">
    <ele>781.2781278030207</ele>
    <time>2024-09-09T08:17:19Z</time>
    <name>ANOM:DZ_HAMPEL,GRADE_UP</name>
    <desc>Tramo #17 (950-955), dur=6s
Causas: DZ_HAMPEL,GRADE_UP
vh_max=3.04 km/h | grade_ext=42.8% | vz_ext=21.7 m/min
max|dx|=0.80 m/s, max|dy|=0.45 m/s, max|dz|=0.36 m/s</desc>
  </wpt>
  <wpt lat="43.1996768253892" lon="-3.589908948705624">
    <ele>786.3123316428178</ele>
    <time>2024-09-09T08:17:42Z</time>
    <name>ANOM:GRADE_UP</name>
    <desc>Tramo #18 (973-974), dur=2s
Causas: GRADE_UP
vh_max=2.42 km/h | grade_ext=35.8% | vz_ext=14.5 m/min
max|dx|=0.51 m/s, max|dy|=0.44 m/s, max|dz|=0.24 m/s</desc>
  </wpt>
  <wpt lat="43.199916786304634" lon="-3.5903675991081703">
    <ele>795.3667584989571</ele>
    <time>2024-09-09T08:18:43Z</time>
    <name>ANOM:GRADE_UP</name>
    <desc>Tramo #19 (1034-1053), dur=20s
Causas: GRADE_UP
vh_max=2.22 km/h | grade_ext=37.2% | vz_ext=13.8 m/min
max|dx|=0.57 m/s, max|dy|=0.24 m/s, max|dz|=0.23 m/s</desc>
  </wpt>
  <wpt lat="43.20080732077725" lon="-3.5920454745673784">
    <ele>826.0366602574583</ele>
    <time>2024-09-09T08:22:02Z</time>
    <name>ANOM:DZ_HAMPEL</name>
    <desc>Tramo #20 (1233-1236), dur=4s
Causas: DZ_HAMPEL
vh_max=3.56 km/h | grade_ext=18.0% | vz_ext=10.7 m/min
max|dx|=0.97 m/s, max|dy|=0.17 m/s, max|dz|=0.18 m/s</desc>
  </wpt>
  <wpt lat="43.201239" lon="-3.593535">
    <ele>843.0</ele>
    <time>2024-09-09T08:24:49Z</time>
    <name>ANOM:DZ_HAMPEL</name>
    <desc>Tramo #21 (1400-1404), dur=5s
Causas: DZ_HAMPEL
vh_max=3.89 km/h | grade_ext=19.9% | vz_ext=12.9 m/min
max|dx|=0.73 m/s, max|dy|=0.80 m/s, max|dz|=0.22 m/s</desc>
  </wpt>
  <wpt lat="43.20120663151804" lon="-3.5940121707991817">
    <ele>853.9343221238554</ele>
    <time>2024-09-09T08:25:40Z</time>
    <name>ANOM:GRADE_UP</name>
    <desc>Tramo #22 (1451-1460), dur=10s
Causas: GRADE_UP
vh_max=2.17 km/h | grade_ext=44.1% | vz_ext=15.1 m/min
max|dx|=0.56 m/s, max|dy|=0.26 m/s, max|dz|=0.25 m/s</desc>
  </wpt>
  <wpt lat="43.201062803970856" lon="-3.5944537012778484">
    <ele>865.9649551165495</ele>
    <time>2024-09-09T08:26:45Z</time>
    <name>ANOM:DZ_HAMPEL,GRADE_UP</name>
    <desc>Tramo #23 (1516-1518), dur=3s
Causas: DZ_HAMPEL,GRADE_UP
vh_max=3.25 km/h | grade_ext=45.6% | vz_ext=24.7 m/min
max|dx|=0.89 m/s, max|dy|=0.21 m/s, max|dz|=0.41 m/s</desc>
  </wpt>
  <wpt lat="43.20117560650565" lon="-3.594875041972636">
    <ele>875.1651626413052</ele>
    <time>2024-09-09T08:27:37Z</time>
    <name>ANOM:GRADE_UP</name>
    <desc>Tramo #24 (1568-1570), dur=3s
Causas: GRADE_UP
vh_max=3.54 km/h | grade_ext=38.9% | vz_ext=23.0 m/min
max|dx|=0.66 m/s, max|dy|=0.90 m/s, max|dz|=0.38 m/s</desc>
  </wpt>
  <wpt lat="43.201269" lon="-3.594941">
    <ele>878.7</ele>
    <time>2024-09-09T08:27:49Z</time>
    <name>ANOM:GRADE_UP</name>
    <desc>Tramo #25 (1580-1582), dur=3s
Causas: GRADE_UP
vh_max=3.01 km/h | grade_ext=36.5% | vz_ext=18.3 m/min
max|dx|=0.07 m/s, max|dy|=0.83 m/s, max|dz|=0.31 m/s</desc>
  </wpt>
  <wpt lat="43.201402638255466" lon="-3.5948555412538874">
    <ele>881.7339073213766</ele>
    <time>2024-09-09T08:28:15Z</time>
    <name>ANOM:DZ_HAMPEL,GRADE_UP</name>
    <desc>Tramo #26 (1606-1612), dur=7s
Causas: DZ_HAMPEL,GRADE_UP
vh_max=3.45 km/h | grade_ext=48.5% | vz_ext=27.7 m/min
max|dx|=0.42 m/s, max|dy|=0.94 m/s, max|dz|=0.46 m/s</desc>
  </wpt>
  <wpt lat="43.20166967391014" lon="-3.595062358618659">
    <ele>890.5880415897527</ele>
    <time>2024-09-09T08:29:03Z</time>
    <name>ANOM:GRADE_UP</name>
    <desc>Tramo #27 (1654-1659), dur=6s
Causas: GRADE_UP
vh_max=3.82 km/h | grade_ext=43.4% | vz_ext=22.6 m/min
max|dx|=1.06 m/s, max|dy|=0.26 m/s, max|dz|=0.38 m/s</desc>
  </wpt>
  <wpt lat="43.202176373334666" lon="-3.5971865695253338">
    <ele>905.3901904666651</ele>
    <time>2024-09-09T08:32:02Z</time>
    <name>ANOM:DZ_HAMPEL</name>
    <desc>Tramo #28 (1833-1834), dur=2s
Causas: DZ_HAMPEL
vh_max=3.74 km/h | grade_ext=-4.9% | vz_ext=-3.1 m/min
max|dx|=0.67 m/s, max|dy|=0.80 m/s, max|dz|=0.05 m/s</desc>
  </wpt>
  <wpt lat="43.20246360767624" lon="-3.598859705413968">
    <ele>921.2548868863332</ele>
    <time>2024-09-09T08:34:19Z</time>
    <name>ANOM:GRADE_UP</name>
    <desc>Tramo #29 (1970-1980), dur=11s
Causas: GRADE_UP
vh_max=2.39 km/h | grade_ext=35.7% | vz_ext=14.2 m/min
max|dx|=0.60 m/s, max|dy|=0.29 m/s, max|dz|=0.24 m/s</desc>
  </wpt>
  <wpt lat="43.20234245286566" lon="-3.5997516820689213">
    <ele>941.7783733644287</ele>
    <time>2024-09-09T08:36:06Z</time>
    <name>ANOM:DZ_HAMPEL</name>
    <desc>Tramo #30 (2077-2078), dur=2s
Causas: DZ_HAMPEL
vh_max=3.22 km/h | grade_ext=14.5% | vz_ext=7.8 m/min
max|dx|=0.76 m/s, max|dy|=0.47 m/s, max|dz|=0.13 m/s</desc>
  </wpt>
  <wpt lat="43.202069" lon="-3.600491">
    <ele>954.7</ele>
    <time>2024-09-09T08:37:33Z</time>
    <name>ANOM:DZ_HAMPEL</name>
    <desc>Tramo #31 (2164-2166), dur=3s
Causas: DZ_HAMPEL
vh_max=4.16 km/h | grade_ext=-12.9% | vz_ext=-8.9 m/min
max|dx|=1.11 m/s, max|dy|=0.33 m/s, max|dz|=0.15 m/s</desc>
  </wpt>
  <trk>
    <name>15c_pattern_aligned_resampled_anomalies</name>
    <trkseg>
      <trkpt lat="43.20086742651811" lon="-3.5843929337047284">
        <ele>686.094668523642</ele>
        <time>2024-09-09T08:01:35Z</time>
      </trkpt>
      <trkpt lat="43.2008627281483" lon="-3.5844018317281194">
        <ele>686.3491913492562</ele>
        <time>2024-09-09T08:01:36Z</time>
      </trkpt>
    </trkseg>
    <trkseg>
      <trkpt lat="43.200775276044816" lon="-3.5845197077172557">
        <ele>687.0</ele>
        <time>2024-09-09T08:03:01Z</time>
      </trkpt>
      <trkpt lat="43.20076965201934" lon="-3.5845202228325275">
        <ele>687.1002746373708</ele>
        <time>2024-09-09T08:03:02Z</time>
      </trkpt>
      <trkpt lat="43.20075926056908" lon="-3.5845206558096216">
        <ele>687.2951143297666</ele>
        <time>2024-09-09T08:03:03Z</time>
      </trkpt>
      <trkpt lat="43.20074886911882" lon="-3.584521088786716">
        <ele>687.4899540221624</ele>
        <time>2024-09-09T08:03:04Z</time>
      </trkpt>
      <trkpt lat="43.20073847766856" lon="-3.5845215217638104">
        <ele>687.684793714558</ele>
        <time>2024-09-09T08:03:05Z</time>
      </trkpt>
    </trkseg>
    <trkseg>
      <trkpt lat="43.19945811162811" lon="-3.5871114465124445">
        <ele>713.2181395680437</ele>
        <time>2024-09-09T08:09:10Z</time>
      </trkpt>
      <trkpt lat="43.199458346244455" lon="-3.5871123849778264">
        <ele>713.256264724192</ele>
        <time>2024-09-09T08:09:11Z</time>
      </trkpt>
      <trkpt lat="43.1994585808608" lon="-3.5871133234432087">
        <ele>713.2943898803401</ele>
        <time>2024-09-09T08:09:12Z</time>
      </trkpt>
      <trkpt lat="43.19945881547715" lon="-3.5871142619085905">
        <ele>713.3325150364883</ele>
        <time>2024-09-09T08:09:13Z</time>
      </trkpt>
      <trkpt lat="43.199459050093495" lon="-3.587115200373973">
        <ele>713.3706401926365</ele>
        <time>2024-09-09T08:09:14Z</time>
      </trkpt>
      <trkpt lat="43.19945928470984" lon="-3.5871161388393547">
        <ele>713.4087653487846</ele>
        <time>2024-09-09T08:09:15Z</time>
      </trkpt>
      <trkpt lat="43.19945951932618" lon="-3.587117077304737">
        <ele>713.4468905049329</ele>
        <time>2024-09-09T08:09:16Z</time>
      </trkpt>
      <trkpt lat="43.19945975394253" lon="-3.5871180157701192">
        <ele>713.485015661081</ele>
        <time>2024-09-09T08:09:17Z</time>
      </trkpt>
      <trkpt lat="43.19945998855888" lon="-3.587118954235501">
        <ele>713.5231408172292</ele>
        <time>2024-09-09T08:09:18Z</time>
      </trkpt>
      <trkpt lat="43.19946022317522" lon="-3.5871198927008834">
        <ele>713.5612659733773</ele>
        <time>2024-09-09T08:09:19Z</time>
      </trkpt>
      <trkpt lat="43.19946045779157" lon="-3.5871208311662652">
        <ele>713.5993911295255</ele>
        <time>2024-09-09T08:09:20Z</time>
      </trkpt>
      <trkpt lat="43.19946069240791" lon="-3.5871217696316475">
        <ele>713.6375162856737</ele>
        <time>2024-09-09T08:09:21Z</time>
      </trkpt>
      <trkpt lat="43.199460927024255" lon="-3.58712270809703">
        <ele>713.6756414418219</ele>
        <time>2024-09-09T08:09:22Z</time>
      </trkpt>
      <trkpt lat="43.199461161640606" lon="-3.5871236465624117">
        <ele>713.7137665979701</ele>
        <time>2024-09-09T08:09:23Z</time>
      </trkpt>
      <trkpt lat="43.19946139625695" lon="-3.587124585027794">
        <ele>713.7518917541182</ele>
        <time>2024-09-09T08:09:24Z</time>
      </trkpt>
      <trkpt lat="43.199461630873294" lon="-3.587125523493176">
        <ele>713.7900169102664</ele>
        <time>2024-09-09T08:09:25Z</time>
      </trkpt>
      <trkpt lat="43.19946186548964" lon="-3.587126461958558">
        <ele>713.8281420664146</ele>
        <time>2024-09-09T08:09:26Z</time>
      </trkpt>
      <trkpt lat="43.19946210010598" lon="-3.5871274004239404">
        <ele>713.8662672225628</ele>
        <time>2024-09-09T08:09:27Z</time>
      </trkpt>
      <trkpt lat="43.199462334722334" lon="-3.5871283388893223">
        <ele>713.9043923787109</ele>
        <time>2024-09-09T08:09:28Z</time>
      </trkpt>
      <trkpt lat="43.19946256933868" lon="-3.5871292773547045">
        <ele>713.9425175348591</ele>
        <time>2024-09-09T08:09:29Z</time>
      </trkpt>
      <trkpt lat="43.19946280395502" lon="-3.5871302158200864">
        <ele>713.9806426910072</ele>
        <time>2024-09-09T08:09:30Z</time>
      </trkpt>
      <trkpt lat="43.199463038571366" lon="-3.5871311542854687">
        <ele>714.0187678471555</ele>
        <time>2024-09-09T08:09:31Z</time>
      </trkpt>
      <trkpt lat="43.19946327318771" lon="-3.5871320927508505">
        <ele>714.0568930033036</ele>
        <time>2024-09-09T08:09:32Z</time>
      </trkpt>
      <trkpt lat="43.19946350780406" lon="-3.587133031216233">
        <ele>714.0950181594518</ele>
        <time>2024-09-09T08:09:33Z</time>
      </trkpt>
      <trkpt lat="43.199463742420406" lon="-3.587133969681615">
        <ele>714.1331433156</ele>
        <time>2024-09-09T08:09:34Z</time>
      </trkpt>
      <trkpt lat="43.19946397703675" lon="-3.587134908146997">
        <ele>714.1712684717481</ele>
        <time>2024-09-09T08:09:35Z</time>
      </trkpt>
      <trkpt lat="43.199464211653094" lon="-3.5871358466123793">
        <ele>714.2093936278964</ele>
        <time>2024-09-09T08:09:36Z</time>
      </trkpt>
      <trkpt lat="43.19946444626944" lon="-3.587136785077761">
        <ele>714.2475187840445</ele>
        <time>2024-09-09T08:09:37Z</time>
      </trkpt>
      <trkpt lat="43.19946468088579" lon="-3.5871377235431434">
        <ele>714.2856439401927</ele>
        <time>2024-09-09T08:09:38Z</time>
      </trkpt>
      <trkpt lat="43.19946491550213" lon="-3.5871386620085257">
        <ele>714.3237690963408</ele>
        <time>2024-09-09T08:09:39Z</time>
      </trkpt>
      <trkpt lat="43.19946515011848" lon="-3.5871396004739076">
        <ele>714.361894252489</ele>
        <time>2024-09-09T08:09:40Z</time>
      </trkpt>
      <trkpt lat="43.19946538473482" lon="-3.58714053893929">
        <ele>714.4000194086371</ele>
        <time>2024-09-09T08:09:41Z</time>
      </trkpt>
      <trkpt lat="43.199465619351166" lon="-3.5871414774046717">
        <ele>714.4381445647854</ele>
        <time>2024-09-09T08:09:42Z</time>
      </trkpt>
      <trkpt lat="43.19946585396752" lon="-3.587142415870054">
        <ele>714.4762697209335</ele>
        <time>2024-09-09T08:09:43Z</time>
      </trkpt>
    </trkseg>
    <trkseg>
      <trkpt lat="43.19949633206673" lon="-3.5872448287418965">
        <ele>716.0498575071399</ele>
        <time>2024-09-09T08:11:23Z</time>
      </trkpt>
      <trkpt lat="43.199497961837096" lon="-3.5872507366594637">
        <ele>716.2332066730132</ele>
        <time>2024-09-09T08:11:24Z</time>
      </trkpt>
      <trkpt lat="43.199499591607456" lon="-3.587256644577031">
        <ele>716.4165558388866</ele>
        <time>2024-09-09T08:11:25Z</time>
      </trkpt>
      <trkpt lat="43.19950122137782" lon="-3.587262552494598">
        <ele>716.59990500476</ele>
        <time>2024-09-09T08:11:26Z</time>
      </trkpt>
      <trkpt lat="43.19950285114818" lon="-3.5872684604121647">
        <ele>716.7832541706333</ele>
        <time>2024-09-09T08:11:27Z</time>
      </trkpt>
      <trkpt lat="43.19950448091855" lon="-3.587274368329732">
        <ele>716.9666033365066</ele>
        <time>2024-09-09T08:11:28Z</time>
      </trkpt>
      <trkpt lat="43.19950611068891" lon="-3.587280276247299">
        <ele>717.14995250238</ele>
        <time>2024-09-09T08:11:29Z</time>
      </trkpt>
      <trkpt lat="43.199507740459275" lon="-3.587286184164866">
        <ele>717.3333016682534</ele>
        <time>2024-09-09T08:11:30Z</time>
      </trkpt>
      <trkpt lat="43.199509370229634" lon="-3.587292092082433">
        <ele>717.5166508341267</ele>
        <time>2024-09-09T08:11:31Z</time>
      </trkpt>
    </trkseg>
    <trkseg>
      <trkpt lat="43.19954156866609" lon="-3.587346506774231">
        <ele>717.9232109865022</ele>
        <time>2024-09-09T08:11:40Z</time>
      </trkpt>
      <trkpt lat="43.199542926499575" lon="-3.5873548800806736">
        <ele>718.2174082398767</ele>
        <time>2024-09-09T08:11:41Z</time>
      </trkpt>
      <trkpt lat="43.19954428433305" lon="-3.5873632533871156">
        <ele>718.5116054932511</ele>
        <time>2024-09-09T08:11:42Z</time>
      </trkpt>
      <trkpt lat="43.19954564216653" lon="-3.587371626693558">
        <ele>718.8058027466255</ele>
        <time>2024-09-09T08:11:43Z</time>
      </trkpt>
      <trkpt lat="43.199547" lon="-3.58738">
        <ele>719.1</ele>
        <time>2024-09-09T08:11:44Z</time>
      </trkpt>
      <trkpt lat="43.199551201235685" lon="-3.587392751299286">
        <ele>719.6041286566777</ele>
        <time>2024-09-09T08:11:45Z</time>
      </trkpt>
      <trkpt lat="43.19954883027646" lon="-3.587400917936623">
        <ele>720.2100404591021</ele>
        <time>2024-09-09T08:11:46Z</time>
      </trkpt>
      <trkpt lat="43.19954645931723" lon="-3.58740908457396">
        <ele>720.8159522615263</ele>
        <time>2024-09-09T08:11:47Z</time>
      </trkpt>
      <trkpt lat="43.19954408835801" lon="-3.5874172512112965">
        <ele>721.4218640639506</ele>
        <time>2024-09-09T08:11:48Z</time>
      </trkpt>
    </trkseg>
    <trkseg>
      <trkpt lat="43.199587227206386" lon="-3.587498087162538">
        <ele>723.1227206387689</ele>
        <time>2024-09-09T08:11:59Z</time>
      </trkpt>
      <trkpt lat="43.19958392709592" lon="-3.5875079821212763">
        <ele>723.7236590957327</ele>
        <time>2024-09-09T08:12:00Z</time>
      </trkpt>
      <trkpt lat="43.199583504874965" lon="-3.5875169499951296">
        <ele>724.1192682689247</ele>
        <time>2024-09-09T08:12:01Z</time>
      </trkpt>
      <trkpt lat="43.199588292461705" lon="-3.5875244996511504">
        <ele>724.1560958592714</ele>
        <time>2024-09-09T08:12:02Z</time>
      </trkpt>
      <trkpt lat="43.19959308004845" lon="-3.5875320493071716">
        <ele>724.1929234496183</ele>
        <time>2024-09-09T08:12:03Z</time>
      </trkpt>
      <trkpt lat="43.1995978676352" lon="-3.587539598963193">
        <ele>724.2297510399651</ele>
        <time>2024-09-09T08:12:04Z</time>
      </trkpt>
      <trkpt lat="43.19960265522194" lon="-3.5875471486192136">
        <ele>724.2665786303119</ele>
        <time>2024-09-09T08:12:05Z</time>
      </trkpt>
    </trkseg>
    <trkseg>
      <trkpt lat="43.199623082343194" lon="-3.5875927868276976">
        <ele>725.5298262440675</ele>
        <time>2024-09-09T08:12:11Z</time>
      </trkpt>
      <trkpt lat="43.19962520511239" lon="-3.5876010255619426">
        <ele>725.7807668582755</ele>
        <time>2024-09-09T08:12:12Z</time>
      </trkpt>
      <trkpt lat="43.19962690383429" lon="-3.587609519171457">
        <ele>726.0355751437065</ele>
        <time>2024-09-09T08:12:13Z</time>
      </trkpt>
      <trkpt lat="43.199628602556196" lon="-3.5876180127809714">
        <ele>726.2903834291377</ele>
        <time>2024-09-09T08:12:14Z</time>
      </trkpt>
      <trkpt lat="43.1996303012781" lon="-3.5876265063904857">
        <ele>726.5451917145688</ele>
        <time>2024-09-09T08:12:15Z</time>
      </trkpt>
    </trkseg>
    <trkseg>
      <trkpt lat="43.19962228399504" lon="-3.587861318892397">
        <ele>731.7517448680056</ele>
        <time>2024-09-09T08:12:42Z</time>
      </trkpt>
      <trkpt lat="43.19962450323585" lon="-3.587868783611512">
        <ele>732.0140187828473</ele>
        <time>2024-09-09T08:12:43Z</time>
      </trkpt>
      <trkpt lat="43.19962672247667" lon="-3.5878762483306263">
        <ele>732.276292697689</ele>
        <time>2024-09-09T08:12:44Z</time>
      </trkpt>
      <trkpt lat="43.19962894171749" lon="-3.587883713049741">
        <ele>732.5385666125306</ele>
        <time>2024-09-09T08:12:45Z</time>
      </trkpt>
    </trkseg>
    <trkseg>
      <trkpt lat="43.19962759864463" lon="-3.5879252235372037">
        <ele>733.1855206616727</ele>
        <time>2024-09-09T08:12:51Z</time>
      </trkpt>
      <trkpt lat="43.19963008048465" lon="-3.5879344418001424">
        <ele>733.5400692362457</ele>
        <time>2024-09-09T08:12:52Z</time>
      </trkpt>
      <trkpt lat="43.19963256232468" lon="-3.587943660063081">
        <ele>733.8946178108185</ele>
        <time>2024-09-09T08:12:53Z</time>
      </trkpt>
    </trkseg>
    <trkseg>
      <trkpt lat="43.199623104794576" lon="-3.588107222943844">
        <ele>737.9266437996595</ele>
        <time>2024-09-09T08:13:13Z</time>
      </trkpt>
      <trkpt lat="43.1996217955836" lon="-3.5881140433979035">
        <ele>738.1290446139512</ele>
        <time>2024-09-09T08:13:14Z</time>
      </trkpt>
      <trkpt lat="43.199619830594656" lon="-3.5881206401465207">
        <ele>738.339579144281</ele>
        <time>2024-09-09T08:13:15Z</time>
      </trkpt>
      <trkpt lat="43.1996178656057" lon="-3.588127236895138">
        <ele>738.5501136746108</ele>
        <time>2024-09-09T08:13:16Z</time>
      </trkpt>
      <trkpt lat="43.199615900616756" lon="-3.5881338336437545">
        <ele>738.7606482049405</ele>
        <time>2024-09-09T08:13:17Z</time>
      </trkpt>
      <trkpt lat="43.19961393562781" lon="-3.5881404303923716">
        <ele>738.9711827352702</ele>
        <time>2024-09-09T08:13:18Z</time>
      </trkpt>
      <trkpt lat="43.199611970638855" lon="-3.5881470271409888">
        <ele>739.1817172656</ele>
        <time>2024-09-09T08:13:19Z</time>
      </trkpt>
    </trkseg>
    <trkseg>
      <trkpt lat="43.1995968015354" lon="-3.5882011021412406">
        <ele>740.5321777737155</ele>
        <time>2024-09-09T08:13:27Z</time>
      </trkpt>
      <trkpt lat="43.199597243905814" lon="-3.5882076360323842">
        <ele>740.7339590878317</ele>
        <time>2024-09-09T08:13:28Z</time>
      </trkpt>
      <trkpt lat="43.19959941222438" lon="-3.5882139741943404">
        <ele>740.9674703178038</ele>
        <time>2024-09-09T08:13:29Z</time>
      </trkpt>
      <trkpt lat="43.19960158054295" lon="-3.588220312356297">
        <ele>741.2009815477759</ele>
        <time>2024-09-09T08:13:30Z</time>
      </trkpt>
      <trkpt lat="43.199603748861506" lon="-3.588226650518253">
        <ele>741.4344927777479</ele>
        <time>2024-09-09T08:13:31Z</time>
      </trkpt>
      <trkpt lat="43.19960591718007" lon="-3.58823298868021">
        <ele>741.6680040077199</ele>
        <time>2024-09-09T08:13:32Z</time>
      </trkpt>
      <trkpt lat="43.19960808549864" lon="-3.588239326842166">
        <ele>741.9015152376919</ele>
        <time>2024-09-09T08:13:33Z</time>
      </trkpt>
    </trkseg>
    <trkseg>
      <trkpt lat="43.19964411196211" lon="-3.5883855509718905">
        <ele>745.0915733499249</ele>
        <time>2024-09-09T08:14:00Z</time>
      </trkpt>
      <trkpt lat="43.19964867501858" lon="-3.588396019160274">
        <ele>745.4673544713793</ele>
        <time>2024-09-09T08:14:01Z</time>
      </trkpt>
      <trkpt lat="43.19965323807506" lon="-3.5884064873486574">
        <ele>745.8431355928336</ele>
        <time>2024-09-09T08:14:02Z</time>
      </trkpt>
      <trkpt lat="43.19965780113153" lon="-3.5884169555370407">
        <ele>746.218916714288</ele>
        <time>2024-09-09T08:14:03Z</time>
      </trkpt>
    </trkseg>
    <trkseg>
      <trkpt lat="43.19957023982677" lon="-3.588850556708625">
        <ele>755.1438960618293</ele>
        <time>2024-09-09T08:14:55Z</time>
      </trkpt>
      <trkpt lat="43.199570697333336" lon="-3.5888592493332987">
        <ele>755.418399998902</ele>
        <time>2024-09-09T08:14:56Z</time>
      </trkpt>
      <trkpt lat="43.199571154839894" lon="-3.5888679419579725">
        <ele>755.6929039359748</ele>
        <time>2024-09-09T08:14:57Z</time>
      </trkpt>
      <trkpt lat="43.19957161234646" lon="-3.588876634582647">
        <ele>755.9674078730475</ele>
        <time>2024-09-09T08:14:58Z</time>
      </trkpt>
    </trkseg>
    <trkseg>
      <trkpt lat="43.19960643041826" lon="-3.5889956830239673">
        <ele>758.7329903831795</ele>
        <time>2024-09-09T08:15:14Z</time>
      </trkpt>
      <trkpt lat="43.19960481030231" lon="-3.5890024611350606">
        <ele>758.9412708188037</ele>
        <time>2024-09-09T08:15:15Z</time>
      </trkpt>
      <trkpt lat="43.199601145254135" lon="-3.589008254275722">
        <ele>759.1777255396753</ele>
        <time>2024-09-09T08:15:16Z</time>
      </trkpt>
      <trkpt lat="43.19959748020596" lon="-3.5890140474163834">
        <ele>759.414180260547</ele>
        <time>2024-09-09T08:15:17Z</time>
      </trkpt>
      <trkpt lat="43.19959381515779" lon="-3.589019840557045">
        <ele>759.6506349814188</ele>
        <time>2024-09-09T08:15:18Z</time>
      </trkpt>
      <trkpt lat="43.199590150109614" lon="-3.589025633697706">
        <ele>759.8870897022905</ele>
        <time>2024-09-09T08:15:19Z</time>
      </trkpt>
      <trkpt lat="43.19958648506144" lon="-3.5890314268383676">
        <ele>760.1235444231621</ele>
        <time>2024-09-09T08:15:20Z</time>
      </trkpt>
      <trkpt lat="43.19958282001327" lon="-3.589037219979029">
        <ele>760.3599991440338</ele>
        <time>2024-09-09T08:15:21Z</time>
      </trkpt>
      <trkpt lat="43.19957915496509" lon="-3.58904301311969">
        <ele>760.5964538649056</ele>
        <time>2024-09-09T08:15:22Z</time>
      </trkpt>
      <trkpt lat="43.199575489916924" lon="-3.5890488062603514">
        <ele>760.8329085857773</ele>
        <time>2024-09-09T08:15:23Z</time>
      </trkpt>
      <trkpt lat="43.19957182486875" lon="-3.589054599401013">
        <ele>761.0693633066489</ele>
        <time>2024-09-09T08:15:24Z</time>
      </trkpt>
      <trkpt lat="43.19956815982057" lon="-3.589060392541674">
        <ele>761.3058180275207</ele>
        <time>2024-09-09T08:15:25Z</time>
      </trkpt>
      <trkpt lat="43.1995644947724" lon="-3.5890661856823356">
        <ele>761.5422727483924</ele>
        <time>2024-09-09T08:15:26Z</time>
      </trkpt>
      <trkpt lat="43.19956082972423" lon="-3.589071978822997">
        <ele>761.7787274692641</ele>
        <time>2024-09-09T08:15:27Z</time>
      </trkpt>
      <trkpt lat="43.19955716467605" lon="-3.5890777719636584">
        <ele>762.0151821901358</ele>
        <time>2024-09-09T08:15:28Z</time>
      </trkpt>
      <trkpt lat="43.19955349962788" lon="-3.58908356510432">
        <ele>762.2516369110075</ele>
        <time>2024-09-09T08:15:29Z</time>
      </trkpt>
      <trkpt lat="43.199549834579706" lon="-3.589089358244981">
        <ele>762.4880916318792</ele>
        <time>2024-09-09T08:15:30Z</time>
      </trkpt>
    </trkseg>
    <trkseg>
      <trkpt lat="43.19937340503301" lon="-3.589259711443889">
        <ele>768.5116476895374</ele>
        <time>2024-09-09T08:16:11Z</time>
      </trkpt>
      <trkpt lat="43.1993694821663" lon="-3.589266380317299">
        <ele>768.7862483593591</ele>
        <time>2024-09-09T08:16:12Z</time>
      </trkpt>
      <trkpt lat="43.199365559299586" lon="-3.5892730491907088">
        <ele>769.0608490291806</ele>
        <time>2024-09-09T08:16:13Z</time>
      </trkpt>
      <trkpt lat="43.199361636432876" lon="-3.5892797180641187">
        <ele>769.3354496990023</ele>
        <time>2024-09-09T08:16:14Z</time>
      </trkpt>
      <trkpt lat="43.199357713566165" lon="-3.5892863869375287">
        <ele>769.610050368824</ele>
        <time>2024-09-09T08:16:15Z</time>
      </trkpt>
      <trkpt lat="43.19935379069945" lon="-3.5892930558109386">
        <ele>769.8846510386456</ele>
        <time>2024-09-09T08:16:16Z</time>
      </trkpt>
      <trkpt lat="43.19934986783274" lon="-3.5892997246843485">
        <ele>770.1592517084673</ele>
        <time>2024-09-09T08:16:17Z</time>
      </trkpt>
      <trkpt lat="43.199345944966026" lon="-3.5893063935577585">
        <ele>770.433852378289</ele>
        <time>2024-09-09T08:16:18Z</time>
      </trkpt>
      <trkpt lat="43.199342022099316" lon="-3.5893130624311684">
        <ele>770.7084530481105</ele>
        <time>2024-09-09T08:16:19Z</time>
      </trkpt>
      <trkpt lat="43.199338099232605" lon="-3.5893197313045784">
        <ele>770.9830537179322</ele>
        <time>2024-09-09T08:16:20Z</time>
      </trkpt>
      <trkpt lat="43.199334176365895" lon="-3.5893264001779883">
        <ele>771.2576543877539</ele>
        <time>2024-09-09T08:16:21Z</time>
      </trkpt>
      <trkpt lat="43.19933025349918" lon="-3.5893330690513983">
        <ele>771.5322550575755</ele>
        <time>2024-09-09T08:16:22Z</time>
      </trkpt>
      <trkpt lat="43.199326330632466" lon="-3.589339737924808">
        <ele>771.8068557273972</ele>
        <time>2024-09-09T08:16:23Z</time>
      </trkpt>
    </trkseg>
    <trkseg>
      <trkpt lat="43.19945310690577" lon="-3.589486952789044">
        <ele>774.8528286925065</ele>
        <time>2024-09-09T08:16:48Z</time>
      </trkpt>
      <trkpt lat="43.19945661873731" lon="-3.589498541833113">
        <ele>775.2742484768308</ele>
        <time>2024-09-09T08:16:49Z</time>
      </trkpt>
    </trkseg>
    <trkseg>
      <trkpt lat="43.19957155805574" lon="-3.5897471206117966">
        <ele>781.2781278030207</ele>
        <time>2024-09-09T08:17:19Z</time>
      </trkpt>
      <trkpt lat="43.19957413999753" lon="-3.5897569319906206">
        <ele>781.6395996544329</ele>
        <time>2024-09-09T08:17:20Z</time>
      </trkpt>
      <trkpt lat="43.19957672193932" lon="-3.5897667433694447">
        <ele>782.0010715058453</ele>
        <time>2024-09-09T08:17:21Z</time>
      </trkpt>
      <trkpt lat="43.19957930388112" lon="-3.5897765547482687">
        <ele>782.3625433572576</ele>
        <time>2024-09-09T08:17:22Z</time>
      </trkpt>
      <trkpt lat="43.199581885822916" lon="-3.589786366127093">
        <ele>782.7240152086699</ele>
        <time>2024-09-09T08:17:23Z</time>
      </trkpt>
      <trkpt lat="43.19958446776471" lon="-3.589796177505917">
        <ele>783.0854870600823</ele>
        <time>2024-09-09T08:17:24Z</time>
      </trkpt>
    </trkseg>
    <trkseg>
      <trkpt lat="43.1996768253892" lon="-3.589908948705624">
        <ele>786.3123316428178</ele>
        <time>2024-09-09T08:17:42Z</time>
      </trkpt>
      <trkpt lat="43.19968074303781" lon="-3.5899152772149256">
        <ele>786.5534177114483</ele>
        <time>2024-09-09T08:17:43Z</time>
      </trkpt>
    </trkseg>
    <trkseg>
      <trkpt lat="43.199916786304634" lon="-3.5903675991081703">
        <ele>795.3667584989571</ele>
        <time>2024-09-09T08:18:43Z</time>
      </trkpt>
      <trkpt lat="43.199918769100115" lon="-3.590374628954914">
        <ele>795.5849513757463</ele>
        <time>2024-09-09T08:18:44Z</time>
      </trkpt>
      <trkpt lat="43.19992096728068" lon="-3.5903816231658054">
        <ele>795.8147611621861</ele>
        <time>2024-09-09T08:18:45Z</time>
      </trkpt>
      <trkpt lat="43.19992316546125" lon="-3.5903886173766972">
        <ele>796.0445709486258</ele>
        <time>2024-09-09T08:18:46Z</time>
      </trkpt>
      <trkpt lat="43.19992536364181" lon="-3.590395611587589">
        <ele>796.2743807350656</ele>
        <time>2024-09-09T08:18:47Z</time>
      </trkpt>
      <trkpt lat="43.19992756182238" lon="-3.5904026057984804">
        <ele>796.5041905215053</ele>
        <time>2024-09-09T08:18:48Z</time>
      </trkpt>
      <trkpt lat="43.199929760002945" lon="-3.590409600009372">
        <ele>796.734000307945</ele>
        <time>2024-09-09T08:18:49Z</time>
      </trkpt>
      <trkpt lat="43.19993195818351" lon="-3.590416594220264">
        <ele>796.9638100943848</ele>
        <time>2024-09-09T08:18:50Z</time>
      </trkpt>
      <trkpt lat="43.19993415636408" lon="-3.5904235884311553">
        <ele>797.1936198808246</ele>
        <time>2024-09-09T08:18:51Z</time>
      </trkpt>
      <trkpt lat="43.19993635454465" lon="-3.590430582642047">
        <ele>797.4234296672644</ele>
        <time>2024-09-09T08:18:52Z</time>
      </trkpt>
      <trkpt lat="43.19993855272521" lon="-3.590437576852939">
        <ele>797.6532394537041</ele>
        <time>2024-09-09T08:18:53Z</time>
      </trkpt>
      <trkpt lat="43.199940750905775" lon="-3.59044457106383">
        <ele>797.8830492401439</ele>
        <time>2024-09-09T08:18:54Z</time>
      </trkpt>
      <trkpt lat="43.19994294908634" lon="-3.590451565274722">
        <ele>798.1128590265837</ele>
        <time>2024-09-09T08:18:55Z</time>
      </trkpt>
      <trkpt lat="43.19994514726691" lon="-3.5904585594856138">
        <ele>798.3426688130235</ele>
        <time>2024-09-09T08:18:56Z</time>
      </trkpt>
      <trkpt lat="43.19994734544748" lon="-3.5904655536965056">
        <ele>798.5724785994632</ele>
        <time>2024-09-09T08:18:57Z</time>
      </trkpt>
      <trkpt lat="43.19994954362804" lon="-3.590472547907397">
        <ele>798.802288385903</ele>
        <time>2024-09-09T08:18:58Z</time>
      </trkpt>
      <trkpt lat="43.199951741808604" lon="-3.5904795421182887">
        <ele>799.0320981723428</ele>
        <time>2024-09-09T08:18:59Z</time>
      </trkpt>
      <trkpt lat="43.19995393998917" lon="-3.5904865363291805">
        <ele>799.2619079587826</ele>
        <time>2024-09-09T08:19:00Z</time>
      </trkpt>
      <trkpt lat="43.19995613816974" lon="-3.590493530540072">
        <ele>799.4917177452223</ele>
        <time>2024-09-09T08:19:01Z</time>
      </trkpt>
      <trkpt lat="43.199958336350306" lon="-3.5905005247509636">
        <ele>799.721527531662</ele>
        <time>2024-09-09T08:19:02Z</time>
      </trkpt>
    </trkseg>
    <trkseg>
      <trkpt lat="43.20080732077725" lon="-3.5920454745673784">
        <ele>826.0366602574583</ele>
        <time>2024-09-09T08:22:02Z</time>
      </trkpt>
      <trkpt lat="43.20080887569149" lon="-3.5920574696200855">
        <ele>826.2143647420086</ele>
        <time>2024-09-09T08:22:03Z</time>
      </trkpt>
      <trkpt lat="43.200810430605735" lon="-3.5920694646727926">
        <ele>826.392069226559</ele>
        <time>2024-09-09T08:22:04Z</time>
      </trkpt>
      <trkpt lat="43.20081198551997" lon="-3.5920814597254997">
        <ele>826.5697737111093</ele>
        <time>2024-09-09T08:22:05Z</time>
      </trkpt>
    </trkseg>
    <trkseg>
      <trkpt lat="43.201239" lon="-3.593535">
        <ele>843.0</ele>
        <time>2024-09-09T08:24:49Z</time>
      </trkpt>
      <trkpt lat="43.20124618828324" lon="-3.5935439853540525">
        <ele>843.2156484972625</ele>
        <time>2024-09-09T08:24:50Z</time>
      </trkpt>
      <trkpt lat="43.201253376566484" lon="-3.5935529707081053">
        <ele>843.4312969945249</ele>
        <time>2024-09-09T08:24:51Z</time>
      </trkpt>
      <trkpt lat="43.201260564849726" lon="-3.5935619560621577">
        <ele>843.6469454917873</ele>
        <time>2024-09-09T08:24:52Z</time>
      </trkpt>
      <trkpt lat="43.20126775313297" lon="-3.5935709414162105">
        <ele>843.8625939890497</ele>
        <time>2024-09-09T08:24:53Z</time>
      </trkpt>
    </trkseg>
    <trkseg>
      <trkpt lat="43.20120663151804" lon="-3.5940121707991817">
        <ele>853.9343221238554</ele>
        <time>2024-09-09T08:25:40Z</time>
      </trkpt>
      <trkpt lat="43.201204522774646" lon="-3.594019028796415">
        <ele>854.1611518565867</ele>
        <time>2024-09-09T08:25:41Z</time>
      </trkpt>
      <trkpt lat="43.20120222083606" lon="-3.594025306810746">
        <ele>854.412272429828</ele>
        <time>2024-09-09T08:25:42Z</time>
      </trkpt>
      <trkpt lat="43.20119991889747" lon="-3.594031584825077">
        <ele>854.6633930030694</ele>
        <time>2024-09-09T08:25:43Z</time>
      </trkpt>
      <trkpt lat="43.20119761695888" lon="-3.594037862839408">
        <ele>854.9145135763106</ele>
        <time>2024-09-09T08:25:44Z</time>
      </trkpt>
      <trkpt lat="43.20119531502029" lon="-3.594044140853739">
        <ele>855.1656341495519</ele>
        <time>2024-09-09T08:25:45Z</time>
      </trkpt>
      <trkpt lat="43.201193013081706" lon="-3.59405041886807">
        <ele>855.4167547227933</ele>
        <time>2024-09-09T08:25:46Z</time>
      </trkpt>
      <trkpt lat="43.20119071114312" lon="-3.594056696882401">
        <ele>855.6678752960345</ele>
        <time>2024-09-09T08:25:47Z</time>
      </trkpt>
      <trkpt lat="43.201188409204526" lon="-3.594062974896732">
        <ele>855.9189958692758</ele>
        <time>2024-09-09T08:25:48Z</time>
      </trkpt>
      <trkpt lat="43.20118610726594" lon="-3.594069252911063">
        <ele>856.1701164425172</ele>
        <time>2024-09-09T08:25:49Z</time>
      </trkpt>
    </trkseg>
    <trkseg>
      <trkpt lat="43.201062803970856" lon="-3.5944537012778484">
        <ele>865.9649551165495</ele>
        <time>2024-09-09T08:26:45Z</time>
      </trkpt>
      <trkpt lat="43.20106094541052" lon="-3.5944634367158845">
        <ele>866.3163768456704</ele>
        <time>2024-09-09T08:26:46Z</time>
      </trkpt>
      <trkpt lat="43.20105957307981" lon="-3.5944744153615042">
        <ele>866.7280760563973</ele>
        <time>2024-09-09T08:26:47Z</time>
      </trkpt>
    </trkseg>
    <trkseg>
      <trkpt lat="43.20117560650565" lon="-3.594875041972636">
        <ele>875.1651626413052</ele>
        <time>2024-09-09T08:27:37Z</time>
      </trkpt>
      <trkpt lat="43.20118303382714" lon="-3.594879549310084">
        <ele>875.4839448066857</ele>
        <time>2024-09-09T08:27:38Z</time>
      </trkpt>
      <trkpt lat="43.20119116512172" lon="-3.5948843324245416">
        <ele>875.8665939633269</ele>
        <time>2024-09-09T08:27:39Z</time>
      </trkpt>
    </trkseg>
    <trkseg>
      <trkpt lat="43.201269" lon="-3.594941">
        <ele>878.7</ele>
        <time>2024-09-09T08:27:49Z</time>
      </trkpt>
      <trkpt lat="43.20127649579611" lon="-3.594941832866234">
        <ele>879.0053842858686</ele>
        <time>2024-09-09T08:27:50Z</time>
      </trkpt>
      <trkpt lat="43.20128399159222" lon="-3.5949426657324683">
        <ele>879.3107685717371</ele>
        <time>2024-09-09T08:27:51Z</time>
      </trkpt>
    </trkseg>
    <trkseg>
      <trkpt lat="43.201402638255466" lon="-3.5948555412538874">
        <ele>881.7339073213766</ele>
        <time>2024-09-09T08:28:15Z</time>
      </trkpt>
      <trkpt lat="43.2014097652217" lon="-3.5948504187469057">
        <ele>882.1125274026284</ele>
        <time>2024-09-09T08:28:16Z</time>
      </trkpt>
      <trkpt lat="43.20141689218793" lon="-3.594845296239924">
        <ele>882.4911474838802</ele>
        <time>2024-09-09T08:28:17Z</time>
      </trkpt>
      <trkpt lat="43.20142401915417" lon="-3.5948401737329423">
        <ele>882.8697675651321</ele>
        <time>2024-09-09T08:28:18Z</time>
      </trkpt>
      <trkpt lat="43.2014311461204" lon="-3.5948350512259606">
        <ele>883.248387646384</ele>
        <time>2024-09-09T08:28:19Z</time>
      </trkpt>
      <trkpt lat="43.201439074097756" lon="-3.5948343838448418">
        <ele>883.6767689683586</ele>
        <time>2024-09-09T08:28:20Z</time>
      </trkpt>
      <trkpt lat="43.20144753704888" lon="-3.5948366919224206">
        <ele>884.1383844841793</ele>
        <time>2024-09-09T08:28:21Z</time>
      </trkpt>
    </trkseg>
    <trkseg>
      <trkpt lat="43.20166967391014" lon="-3.595062358618659">
        <ele>890.5880415897527</ele>
        <time>2024-09-09T08:29:03Z</time>
      </trkpt>
      <trkpt lat="43.20166880936386" lon="-3.595075396194974">
        <ele>890.9648573115343</ele>
        <time>2024-09-09T08:29:04Z</time>
      </trkpt>
      <trkpt lat="43.20166646160814" lon="-3.595084064831468">
        <ele>891.289931180056</ele>
        <time>2024-09-09T08:29:05Z</time>
      </trkpt>
      <trkpt lat="43.201664113852424" lon="-3.595092733467962">
        <ele>891.6150050485778</ele>
        <time>2024-09-09T08:29:06Z</time>
      </trkpt>
      <trkpt lat="43.201661766096706" lon="-3.595101402104456">
        <ele>891.9400789170995</ele>
        <time>2024-09-09T08:29:07Z</time>
      </trkpt>
      <trkpt lat="43.20165941834099" lon="-3.59511007074095">
        <ele>892.2651527856212</ele>
        <time>2024-09-09T08:29:08Z</time>
      </trkpt>
    </trkseg>
    <trkseg>
      <trkpt lat="43.202176373334666" lon="-3.5971865695253338">
        <ele>905.3901904666651</ele>
        <time>2024-09-09T08:32:02Z</time>
      </trkpt>
      <trkpt lat="43.2021835539818" lon="-3.597194775979197">
        <ele>905.338900130021</ele>
        <time>2024-09-09T08:32:03Z</time>
      </trkpt>
    </trkseg>
    <trkseg>
      <trkpt lat="43.20246360767624" lon="-3.598859705413968">
        <ele>921.2548868863332</ele>
        <time>2024-09-09T08:34:19Z</time>
      </trkpt>
      <trkpt lat="43.20246623473834" lon="-3.598867078136623">
        <ele>921.4921699143086</ele>
        <time>2024-09-09T08:34:20Z</time>
      </trkpt>
      <trkpt lat="43.20246886180043" lon="-3.598874450859278">
        <ele>921.7294529422842</ele>
        <time>2024-09-09T08:34:21Z</time>
      </trkpt>
      <trkpt lat="43.20247148886253" lon="-3.598881823581933">
        <ele>921.9667359702596</ele>
        <time>2024-09-09T08:34:22Z</time>
      </trkpt>
      <trkpt lat="43.20247411592462" lon="-3.598889196304588">
        <ele>922.2040189982351</ele>
        <time>2024-09-09T08:34:23Z</time>
      </trkpt>
      <trkpt lat="43.20247674298672" lon="-3.598896569027243">
        <ele>922.4413020262107</ele>
        <time>2024-09-09T08:34:24Z</time>
      </trkpt>
      <trkpt lat="43.20247937004881" lon="-3.598903941749898">
        <ele>922.6785850541861</ele>
        <time>2024-09-09T08:34:25Z</time>
      </trkpt>
      <trkpt lat="43.20248199711091" lon="-3.598911314472553">
        <ele>922.9158680821616</ele>
        <time>2024-09-09T08:34:26Z</time>
      </trkpt>
      <trkpt lat="43.202484624173" lon="-3.5989186871952077">
        <ele>923.1531511101372</ele>
        <time>2024-09-09T08:34:27Z</time>
      </trkpt>
      <trkpt lat="43.202487251235105" lon="-3.5989260599178627">
        <ele>923.3904341381126</ele>
        <time>2024-09-09T08:34:28Z</time>
      </trkpt>
      <trkpt lat="43.2024898782972" lon="-3.598933432640518">
        <ele>923.6277171660881</ele>
        <time>2024-09-09T08:34:29Z</time>
      </trkpt>
    </trkseg>
    <trkseg>
      <trkpt lat="43.20234245286566" lon="-3.5997516820689213">
        <ele>941.7783733644287</ele>
        <time>2024-09-09T08:36:06Z</time>
      </trkpt>
      <trkpt lat="43.20233824321331" lon="-3.5997610728318428">
        <ele>941.9079011288669</ele>
        <time>2024-09-09T08:36:07Z</time>
      </trkpt>
    </trkseg>
    <trkseg>
      <trkpt lat="43.202069" lon="-3.600491">
        <ele>954.7</ele>
        <time>2024-09-09T08:37:33Z</time>
      </trkpt>
      <trkpt lat="43.20206602682075" lon="-3.6005046766245377">
        <ele>954.5513410376336</ele>
        <time>2024-09-09T08:37:34Z</time>
      </trkpt>
      <trkpt lat="43.2020630536415" lon="-3.6005183532490754">
        <ele>954.4026820752673</ele>
        <time>2024-09-09T08:37:35Z</time>
      </trkpt>
    </trkseg>
  </trk>
</gpx>