<?xml version="1.0" encoding="UTF-8"?>
<gpx xmlns="http://www.topografix.com/GPX/1/1" xmlns:xsi="http://www.w3.org/2001/XMLSchema-instance" xsi:schemaLocation="http://www.topografix.com/GPX/1/1 http://www.topografix.com/GPX/1/1/gpx.xsd" version="1.1" creator="gpx.py -- https://github.com/tkrajina/gpxpy">
  <wpt lat="43.385451" lon="-5.820827">
    <ele>164.8</ele>
    <time>2024-09-23T16:39:49Z</time>
    <name>ANOM:DZ_HAMPEL</name>
    <desc>Tramo #1 (13-14), dur=2s
Causas: DZ_HAMPEL
vh_max=1.44 km/h | grade_ext=25.0% | vz_ext=6.0 m/min
max|dx|=0.36 m/s, max|dy|=0.17 m/s, max|dz|=0.10 m/s</desc>
  </wpt>
  <wpt lat="43.384904" lon="-5.821535">
    <ele>165.0</ele>
    <time>2024-09-23T16:40:24Z</time>
    <name>ANOM:DZ_HAMPEL</name>
    <desc>Tramo #2 (48-51), dur=4s
Causas: DZ_HAMPEL
vh_max=23.30 km/h | grade_ext=7.0% | vz_ext=27.0 m/min
max|dx|=1.01 m/s, max|dy|=6.39 m/s, max|dz|=0.45 m/s</desc>
  </wpt>
  <wpt lat="43.384569" lon="-5.821436">
    <ele>166.0</ele>
    <time>2024-09-23T16:40:31Z</time>
    <name>ANOM:DZ_HAMPEL</name>
    <desc>Tramo #3 (55-56), dur=2s
Causas: DZ_HAMPEL
vh_max=21.29 km/h | grade_ext=-8.5% | vz_ext=-30.0 m/min
max|dx|=2.42 m/s, max|dy|=5.39 m/s, max|dz|=0.50 m/s</desc>
  </wpt>
  <wpt lat="43.384107" lon="-5.821037">
    <ele>165.0</ele>
    <time>2024-09-23T16:40:41Z</time>
    <name>ANOM:DZ_HAMPEL,JERK</name>
    <desc>Tramo #4 (65-68), dur=4s
Causas: DZ_HAMPEL,JERK
vh_max=42.70 km/h | grade_ext=-13.1% | vz_ext=-48.0 m/min
max|dx|=8.32 m/s, max|dy|=8.45 m/s, max|dz|=0.80 m/s</desc>
  </wpt>
  <wpt lat="43.371381" lon="-5.837851">
    <ele>190.0</ele>
    <time>2024-09-23T16:48:43Z</time>
    <name>ANOM:VH</name>
    <desc>Tramo #5 (547-548), dur=2s
Causas: VH
vh_max=43.84 km/h | grade_ext=-8.2% | vz_ext=-60.0 m/min
max|dx|=0.28 m/s, max|dy|=12.18 m/s, max|dz|=1.00 m/s</desc>
  </wpt>
  <wpt lat="43.369766" lon="-5.847827">
    <ele>210.0</ele>
    <time>2024-09-23T16:52:22Z</time>
    <name>ANOM:DZ_HAMPEL</name>
    <desc>Tramo #6 (766-769), dur=4s
Causas: DZ_HAMPEL
vh_max=13.13 km/h | grade_ext=6.9% | vz_ext=15.0 m/min
max|dx|=2.22 m/s, max|dy|=2.89 m/s, max|dz|=0.25 m/s</desc>
  </wpt>
  <wpt lat="43.370331" lon="-5.849476">
    <ele>212.0</ele>
    <time>2024-09-23T16:53:00Z</time>
    <name>ANOM:DZ_HAMPEL</name>
    <desc>Tramo #7 (804-807), dur=4s
Causas: DZ_HAMPEL
vh_max=17.45 km/h | grade_ext=9.3% | vz_ext=27.0 m/min
max|dx|=0.53 m/s, max|dy|=4.84 m/s, max|dz|=0.45 m/s</desc>
  </wpt>
  <wpt lat="43.367784" lon="-5.852791">
    <ele>217.0</ele>
    <time>2024-09-23T16:54:15Z</time>
    <name>ANOM:DZ_HAMPEL</name>
    <desc>Tramo #8 (879-883), dur=5s
Causas: DZ_HAMPEL
vh_max=18.55 km/h | grade_ext=29.1% | vz_ext=90.0 m/min
max|dx|=3.88 m/s, max|dy|=3.39 m/s, max|dz|=1.50 m/s</desc>
  </wpt>
  <wpt lat="43.37595" lon="-5.864576">
    <ele>316.0</ele>
    <time>2024-09-23T17:03:26Z</time>
    <name>ANOM:DZ_HAMPEL</name>
    <desc>Tramo #9 (1430-1436), dur=7s
Causas: DZ_HAMPEL
vh_max=11.62 km/h | grade_ext=10.3% | vz_ext=20.0 m/min
max|dx|=2.67 m/s, max|dy|=2.08 m/s, max|dz|=0.33 m/s</desc>
  </wpt>
  <wpt lat="43.378727" lon="-5.863916">
    <ele>358.0</ele>
    <time>2024-09-23T17:07:35Z</time>
    <name>ANOM:DZ_HAMPEL</name>
    <desc>Tramo #10 (1679-1681), dur=3s
Causas: DZ_HAMPEL
vh_max=11.67 km/h | grade_ext=10.3% | vz_ext=20.0 m/min
max|dx|=3.23 m/s, max|dy|=0.26 m/s, max|dz|=0.33 m/s</desc>
  </wpt>
  <wpt lat="43.380372" lon="-5.867818">
    <ele>383.0</ele>
    <time>2024-09-23T17:09:58Z</time>
    <name>ANOM:DZ_HAMPEL</name>
    <desc>Tramo #11 (1822-1823), dur=2s
Causas: DZ_HAMPEL
vh_max=14.69 km/h | grade_ext=19.6% | vz_ext=48.0 m/min
max|dx|=3.56 m/s, max|dy|=2.00 m/s, max|dz|=0.80 m/s</desc>
  </wpt>
  <wpt lat="43.382565" lon="-5.853488">
    <ele>485.2</ele>
    <time>2024-09-23T17:19:44Z</time>
    <name>ANOM:DZ_HAMPEL</name>
    <desc>Tramo #12 (2408-2410), dur=3s
Causas: DZ_HAMPEL
vh_max=7.66 km/h | grade_ext=18.8% | vz_ext=24.0 m/min
max|dx|=2.02 m/s, max|dy|=0.78 m/s, max|dz|=0.40 m/s</desc>
  </wpt>
  <wpt lat="43.384249" lon="-5.85163">
    <ele>506.7</ele>
    <time>2024-09-23T17:21:51Z</time>
    <name>ANOM:DZ_HAMPEL</name>
    <desc>Tramo #13 (2535-2540), dur=6s
Causas: DZ_HAMPEL
vh_max=7.67 km/h | grade_ext=2.3% | vz_ext=3.0 m/min
max|dx|=1.14 m/s, max|dy|=1.80 m/s, max|dz|=0.05 m/s</desc>
  </wpt>
  <wpt lat="43.384381" lon="-5.851403">
    <ele>508.0</ele>
    <time>2024-09-23T17:22:03Z</time>
    <name>ANOM:DZ_HAMPEL</name>
    <desc>Tramo #14 (2547-2550), dur=4s
Causas: DZ_HAMPEL
vh_max=7.17 km/h | grade_ext=12.6% | vz_ext=15.0 m/min
max|dx|=1.92 m/s, max|dy|=0.53 m/s, max|dz|=0.25 m/s</desc>
  </wpt>
  <wpt lat="43.387505" lon="-5.851569">
    <ele>560.0</ele>
    <time>2024-09-23T17:26:55Z</time>
    <name>ANOM:DZ_HAMPEL</name>
    <desc>Tramo #15 (2839-2842), dur=4s
Causas: DZ_HAMPEL
vh_max=6.37 km/h | grade_ext=0.0% | vz_ext=0.0 m/min
max|dx|=0.51 m/s, max|dy|=1.70 m/s, max|dz|=0.00 m/s</desc>
  </wpt>
  <wpt lat="43.386855" lon="-5.854247">
    <ele>585.7</ele>
    <time>2024-09-23T17:29:41Z</time>
    <name>ANOM:DZ_HAMPEL</name>
    <desc>Tramo #16 (3005-3007), dur=3s
Causas: DZ_HAMPEL
vh_max=18.28 km/h | grade_ext=2.0% | vz_ext=6.0 m/min
max|dx|=1.48 m/s, max|dy|=4.86 m/s, max|dz|=0.10 m/s</desc>
  </wpt>
  <wpt lat="43.385107" lon="-5.854267">
    <ele>591.0</ele>
    <time>2024-09-23T17:30:33Z</time>
    <name>ANOM:DZ_HAMPEL</name>
    <desc>Tramo #17 (3057-3058), dur=2s
Causas: DZ_HAMPEL
vh_max=14.01 km/h | grade_ext=-12.8% | vz_ext=-30.0 m/min
max|dx|=1.13 m/s, max|dy|=3.73 m/s, max|dz|=0.50 m/s</desc>
  </wpt>
  <wpt lat="43.384861" lon="-5.854391">
    <ele>590.0</ele>
    <time>2024-09-23T17:30:40Z</time>
    <name>ANOM:DZ_HAMPEL</name>
    <desc>Tramo #18 (3064-3066), dur=3s
Causas: DZ_HAMPEL
vh_max=18.82 km/h | grade_ext=-6.7% | vz_ext=-21.0 m/min
max|dx|=2.51 m/s, max|dy|=4.84 m/s, max|dz|=0.35 m/s</desc>
  </wpt>
  <wpt lat="43.386524" lon="-5.854008">
    <ele>587.0</ele>
    <time>2024-09-23T17:31:51Z</time>
    <name>ANOM:DZ_HAMPEL</name>
    <desc>Tramo #19 (3135-3137), dur=3s
Causas: DZ_HAMPEL
vh_max=25.07 km/h | grade_ext=-4.8% | vz_ext=-20.0 m/min
max|dx|=3.26 m/s, max|dy|=6.15 m/s, max|dz|=0.33 m/s</desc>
  </wpt>
  <wpt lat="43.38806" lon="-5.85299">
    <ele>574.0</ele>
    <time>2024-09-23T17:32:24Z</time>
    <name>ANOM:DZ_HAMPEL,VH</name>
    <desc>Tramo #20 (3168-3172), dur=5s
Causas: DZ_HAMPEL,VH
vh_max=45.95 km/h | grade_ext=-16.0% | vz_ext=-120.0 m/min
max|dx|=12.73 m/s, max|dy|=1.11 m/s, max|dz|=2.00 m/s</desc>
  </wpt>
  <wpt lat="43.387455" lon="-5.851606">
    <ele>559.2</ele>
    <time>2024-09-23T17:32:41Z</time>
    <name>ANOM:JERK,VH,VT</name>
    <desc>Tramo #21 (3185-3186), dur=2s
Causas: JERK,VH,VT
vh_max=59.09 km/h | grade_ext=-11.6% | vz_ext=-114.0 m/min
max|dx|=6.38 m/s, max|dy|=15.12 m/s, max|dz|=1.90 m/s</desc>
  </wpt>
  <wpt lat="43.38718" lon="-5.849955">
    <ele>544.0</ele>
    <time>2024-09-23T17:32:55Z</time>
    <name>ANOM:JERK,VH</name>
    <desc>Tramo #22 (3199-3200), dur=2s
Causas: JERK,VH
vh_max=44.89 km/h | grade_ext=-11.2% | vz_ext=-84.0 m/min
max|dx|=12.44 m/s, max|dy|=0.78 m/s, max|dz|=1.40 m/s</desc>
  </wpt>
  <wpt lat="43.387166" lon="-5.849642">
    <ele>541.2</ele>
    <time>2024-09-23T17:32:58Z</time>
    <name>ANOM:DZ_HAMPEL</name>
    <desc>Tramo #23 (3202-3203), dur=2s
Causas: DZ_HAMPEL
vh_max=32.78 km/h | grade_ext=-12.1% | vz_ext=-66.0 m/min
max|dx|=6.22 m/s, max|dy|=8.45 m/s, max|dz|=1.10 m/s</desc>
  </wpt>
  <wpt lat="43.386673" lon="-5.849549">
    <ele>536.0</ele>
    <time>2024-09-23T17:33:04Z</time>
    <name>ANOM:DZ_HAMPEL,JERK,VH,VT</name>
    <desc>Tramo #24 (3208-3219), dur=12s
Causas: DZ_HAMPEL,JERK,VH,VT
vh_max=56.45 km/h | grade_ext=-13.0% | vz_ext=-66.0 m/min
max|dx|=2.67 m/s, max|dy|=15.68 m/s, max|dz|=1.10 m/s</desc>
  </wpt>
  <wpt lat="43.385057" lon="-5.850054">
    <ele>521.0</ele>
    <time>2024-09-23T17:33:20Z</time>
    <name>ANOM:DZ_HAMPEL</name>
    <desc>Tramo #25 (3224-3225), dur=2s
Causas: DZ_HAMPEL
vh_max=43.07 km/h | grade_ext=-9.2% | vz_ext=-66.0 m/min
max|dx|=11.31 m/s, max|dy|=4.89 m/s, max|dz|=1.10 m/s</desc>
  </wpt>
  <wpt lat="43.384665" lon="-5.850942">
    <ele>513.0</ele>
    <time>2024-09-23T17:33:28Z</time>
    <name>ANOM:DZ_HAMPEL</name>
    <desc>Tramo #26 (3232-3233), dur=2s
Causas: DZ_HAMPEL
vh_max=35.67 km/h | grade_ext=-7.3% | vz_ext=-42.0 m/min
max|dx|=4.36 m/s, max|dy|=8.90 m/s, max|dz|=0.70 m/s</desc>
  </wpt>
  <wpt lat="43.384019" lon="-5.85169">
    <ele>504.0</ele>
    <time>2024-09-23T17:33:38Z</time>
    <name>ANOM:DZ_HAMPEL,VH,VT</name>
    <desc>Tramo #27 (3242-3273), dur=32s
Causas: DZ_HAMPEL,VH,VT
vh_max=54.34 km/h | grade_ext=-9.6% | vz_ext=-87.0 m/min
max|dx|=14.18 m/s, max|dy|=12.79 m/s, max|dz|=1.45 m/s</desc>
  </wpt>
  <wpt lat="43.382292" lon="-5.855886">
    <ele>470.0</ele>
    <time>2024-09-23T17:34:12Z</time>
    <name>ANOM:DZ_HAMPEL</name>
    <desc>Tramo #28 (3276-3277), dur=2s
Causas: DZ_HAMPEL
vh_max=42.08 km/h | grade_ext=-6.2% | vz_ext=-42.0 m/min
max|dx|=10.67 m/s, max|dy|=6.12 m/s, max|dz|=0.70 m/s</desc>
  </wpt>
  <wpt lat="43.382041" lon="-5.856317">
    <ele>467.0</ele>
    <time>2024-09-23T17:34:16Z</time>
    <name>ANOM:DZ_HAMPEL,VH,VT</name>
    <desc>Tramo #29 (3280-3310), dur=31s
Causas: DZ_HAMPEL,VH,VT
vh_max=53.65 km/h | grade_ext=-14.7% | vz_ext=-120.0 m/min
max|dx|=14.47 m/s, max|dy|=10.79 m/s, max|dz|=2.00 m/s</desc>
  </wpt>
  <wpt lat="43.380707" lon="-5.861694">
    <ele>427.0</ele>
    <time>2024-09-23T17:34:52Z</time>
    <name>ANOM:DZ_HAMPEL,VH,VT</name>
    <desc>Tramo #30 (3316-3345), dur=30s
Causas: DZ_HAMPEL,VH,VT
vh_max=54.02 km/h | grade_ext=-12.2% | vz_ext=-99.0 m/min
max|dx|=14.71 m/s, max|dy|=7.56 m/s, max|dz|=1.65 m/s</desc>
  </wpt>
  <wpt lat="43.379239" lon="-5.866036">
    <ele>369.0</ele>
    <time>2024-09-23T17:35:57Z</time>
    <name>ANOM:VH</name>
    <desc>Tramo #31 (3381-3392), dur=12s
Causas: VH
vh_max=44.85 km/h | grade_ext=-8.2% | vz_ext=-60.0 m/min
max|dx|=12.19 m/s, max|dy|=8.56 m/s, max|dz|=1.00 m/s</desc>
  </wpt>
  <wpt lat="43.378477" lon="-5.863474">
    <ele>353.0</ele>
    <time>2024-09-23T17:36:25Z</time>
    <name>ANOM:JERK,VH,VT</name>
    <desc>Tramo #32 (3409-3410), dur=2s
Causas: JERK,VH,VT
vh_max=51.22 km/h | grade_ext=-8.2% | vz_ext=-60.0 m/min
max|dx|=14.14 m/s, max|dy|=1.96 m/s, max|dz|=1.00 m/s</desc>
  </wpt>
  <wpt lat="43.378323" lon="-5.86503">
    <ele>343.0</ele>
    <time>2024-09-23T17:36:38Z</time>
    <name>ANOM:DZ_HAMPEL</name>
    <desc>Tramo #33 (3422-3424), dur=3s
Causas: DZ_HAMPEL
vh_max=41.89 km/h | grade_ext=-7.9% | vz_ext=-54.0 m/min
max|dx|=7.60 m/s, max|dy|=9.67 m/s, max|dz|=0.90 m/s</desc>
  </wpt>
  <wpt lat="43.376062" lon="-5.864822">
    <ele>317.0</ele>
    <time>2024-09-23T17:37:23Z</time>
    <name>ANOM:DZ_HAMPEL,VH</name>
    <desc>Tramo #34 (3467-3471), dur=5s
Causas: DZ_HAMPEL,VH
vh_max=44.00 km/h | grade_ext=-11.9% | vz_ext=-60.0 m/min
max|dx|=7.35 m/s, max|dy|=11.79 m/s, max|dz|=1.00 m/s</desc>
  </wpt>
  <wpt lat="43.375633" lon="-5.864514">
    <ele>314.0</ele>
    <time>2024-09-23T17:37:29Z</time>
    <name>ANOM:DZ_HAMPEL</name>
    <desc>Tramo #35 (3473-3475), dur=3s
Causas: DZ_HAMPEL
vh_max=41.83 km/h | grade_ext=-8.8% | vz_ext=-60.0 m/min
max|dx|=1.13 m/s, max|dy|=11.56 m/s, max|dz|=1.00 m/s</desc>
  </wpt>
  <wpt lat="43.374802" lon="-5.864398">
    <ele>309.0</ele>
    <time>2024-09-23T17:37:38Z</time>
    <name>ANOM:VH,VT</name>
    <desc>Tramo #36 (3482-3485), dur=4s
Causas: VH,VT
vh_max=50.48 km/h | grade_ext=-8.2% | vz_ext=-60.0 m/min
max|dx|=12.44 m/s, max|dy|=11.79 m/s, max|dz|=1.00 m/s</desc>
  </wpt>
  <wpt lat="43.374199" lon="-5.863194">
    <ele>303.8</ele>
    <time>2024-09-23T17:37:48Z</time>
    <name>ANOM:VH</name>
    <desc>Tramo #37 (3492-3493), dur=2s
Causas: VH
vh_max=45.42 km/h | grade_ext=-7.1% | vz_ext=-54.0 m/min
max|dx|=11.35 m/s, max|dy|=5.50 m/s, max|dz|=0.90 m/s</desc>
  </wpt>
  <wpt lat="43.371962" lon="-5.859673">
    <ele>278.0</ele>
    <time>2024-09-23T17:42:17Z</time>
    <name>ANOM:DZ_HAMPEL</name>
    <desc>Tramo #38 (3761-3762), dur=2s
Causas: DZ_HAMPEL
vh_max=10.61 km/h | grade_ext=-11.3% | vz_ext=-20.0 m/min
max|dx|=1.59 m/s, max|dy|=2.48 m/s, max|dz|=0.33 m/s</desc>
  </wpt>
  <wpt lat="43.37667733333333" lon="-5.857268">
    <ele>259.6666666666667</ele>
    <time>2024-09-23T17:46:16Z</time>
    <name>ANOM:DZ_HAMPEL</name>
    <desc>Tramo #39 (4000-4002), dur=3s
Causas: DZ_HAMPEL
vh_max=27.59 km/h | grade_ext=-13.0% | vz_ext=-60.0 m/min
max|dx|=3.23 m/s, max|dy|=6.95 m/s, max|dz|=1.00 m/s</desc>
  </wpt>
  <wpt lat="43.377188" lon="-5.856206">
    <ele>256.5</ele>
    <time>2024-09-23T17:46:31Z</time>
    <name>ANOM:DZ_HAMPEL,JERK,VH</name>
    <desc>Tramo #40 (4015-4019), dur=5s
Causas: DZ_HAMPEL,JERK,VH
vh_max=46.69 km/h | grade_ext=-6.1% | vz_ext=24.0 m/min
max|dx|=11.72 m/s, max|dy|=5.56 m/s, max|dz|=0.40 m/s</desc>
  </wpt>
  <wpt lat="43.376483" lon="-5.854032">
    <ele>255.0</ele>
    <time>2024-09-23T17:47:01Z</time>
    <name>ANOM:GRADE_UP</name>
    <desc>Tramo #41 (4045-4051), dur=7s
Causas: GRADE_UP
vh_max=16.84 km/h | grade_ext=63.2% | vz_ext=177.4 m/min
max|dx|=3.13 m/s, max|dy|=3.48 m/s, max|dz|=2.96 m/s</desc>
  </wpt>
  <wpt lat="43.376109" lon="-5.8535544999999995">
    <ele>271.45</ele>
    <time>2024-09-23T17:47:14Z</time>
    <name>ANOM:DZ_HAMPEL</name>
    <desc>Tramo #42 (4058-4061), dur=4s
Causas: DZ_HAMPEL
vh_max=20.40 km/h | grade_ext=-7.4% | vz_ext=-15.0 m/min
max|dx|=5.41 m/s, max|dy|=1.67 m/s, max|dz|=0.25 m/s</desc>
  </wpt>
  <wpt lat="43.377071" lon="-5.849082">
    <ele>254.0</ele>
    <time>2024-09-23T17:48:25Z</time>
    <name>ANOM:DZ_HAMPEL</name>
    <desc>Tramo #43 (4129-4131), dur=3s
Causas: DZ_HAMPEL
vh_max=19.69 km/h | grade_ext=-6.1% | vz_ext=-20.0 m/min
max|dx|=4.44 m/s, max|dy|=3.19 m/s, max|dz|=0.33 m/s</desc>
  </wpt>
  <wpt lat="43.377006" lon="-5.848477">
    <ele>253.0</ele>
    <time>2024-09-23T17:48:37Z</time>
    <name>ANOM:DZ_HAMPEL</name>
    <desc>Tramo #44 (4141-4146), dur=6s
Causas: DZ_HAMPEL
vh_max=8.91 km/h | grade_ext=-13.5% | vz_ext=-20.0 m/min
max|dx|=2.45 m/s, max|dy|=0.33 m/s, max|dz|=0.33 m/s</desc>
  </wpt>
  <wpt lat="43.382128" lon="-5.840388">
    <ele>250.0</ele>
    <time>2024-09-23T17:53:23Z</time>
    <name>ANOM:VH</name>
    <desc>Tramo #45 (4427-4428), dur=2s
Causas: VH
vh_max=48.84 km/h | grade_ext=-7.4% | vz_ext=-60.0 m/min
max|dx|=11.72 m/s, max|dy|=6.84 m/s, max|dz|=1.00 m/s</desc>
  </wpt>
  <wpt lat="43.384011" lon="-5.836478">
    <ele>249.0</ele>
    <time>2024-09-23T17:54:41Z</time>
    <name>ANOM:DZ_HAMPEL,VH</name>
    <desc>Tramo #46 (4505-4508), dur=4s
Causas: DZ_HAMPEL,VH
vh_max=43.90 km/h | grade_ext=-12.0% | vz_ext=-80.0 m/min
max|dx|=9.29 m/s, max|dy|=7.89 m/s, max|dz|=1.33 m/s</desc>
  </wpt>
  <wpt lat="43.38458" lon="-5.834925666666667">
    <ele>237.6</ele>
    <time>2024-09-23T17:54:54Z</time>
    <name>ANOM:DZ_HAMPEL</name>
    <desc>Tramo #47 (4518-4519), dur=2s
Causas: DZ_HAMPEL
vh_max=38.28 km/h | grade_ext=-8.5% | vz_ext=-54.0 m/min
max|dx|=10.51 m/s, max|dy|=2.22 m/s, max|dz|=0.90 m/s</desc>
  </wpt>
  <wpt lat="43.384341360772524" lon="-5.833692644477845">
    <ele>228.0</ele>
    <time>2024-09-23T17:55:18Z</time>
    <name>ANOM:DZ_HAMPEL</name>
    <desc>Tramo #48 (4542-4543), dur=2s
Causas: DZ_HAMPEL
vh_max=2.00 km/h | grade_ext=-11.1% | vz_ext=-3.7 m/min
max|dx|=0.47 m/s, max|dy|=0.41 m/s, max|dz|=0.06 m/s</desc>
  </wpt>
  <wpt lat="43.3844515" lon="-5.833765">
    <ele>227.7</ele>
    <time>2024-09-23T17:55:27Z</time>
    <name>ANOM:DZ_HAMPEL</name>
    <desc>Tramo #49 (4551-4553), dur=3s
Causas: DZ_HAMPEL
vh_max=16.18 km/h | grade_ext=-8.1% | vz_ext=-18.0 m/min
max|dx|=2.34 m/s, max|dy|=3.84 m/s, max|dz|=0.30 m/s</desc>
  </wpt>
  <wpt lat="43.38494" lon="-5.834192">
    <ele>226.7</ele>
    <time>2024-09-23T17:55:41Z</time>
    <name>ANOM:DZ_HAMPEL</name>
    <desc>Tramo #50 (4565-4567), dur=3s
Causas: DZ_HAMPEL
vh_max=20.67 km/h | grade_ext=7.5% | vz_ext=26.0 m/min
max|dx|=3.23 m/s, max|dy|=4.74 m/s, max|dz|=0.43 m/s</desc>
  </wpt>
  <wpt lat="43.387152" lon="-5.832685">
    <ele>227.0</ele>
    <time>2024-09-23T17:56:31Z</time>
    <name>ANOM:DZ_HAMPEL</name>
    <desc>Tramo #51 (4615-4616), dur=2s
Causas: DZ_HAMPEL
vh_max=24.62 km/h | grade_ext=7.3% | vz_ext=30.0 m/min
max|dx|=0.00 m/s, max|dy|=6.84 m/s, max|dz|=0.50 m/s</desc>
  </wpt>
  <wpt lat="43.386489" lon="-5.828142">
    <ele>200.0</ele>
    <time>2024-09-23T17:58:35Z</time>
    <name>ANOM:DZ_HAMPEL,GRADE_DOWN</name>
    <desc>Tramo #52 (4739-4740), dur=2s
Causas: DZ_HAMPEL,GRADE_DOWN
vh_max=16.43 km/h | grade_ext=-65.7% | vz_ext=-180.0 m/min
max|dx|=4.20 m/s, max|dy|=1.78 m/s, max|dz|=3.00 m/s</desc>
  </wpt>
  <wpt lat="43.386118" lon="-5.827985">
    <ele>184.0</ele>
    <time>2024-09-23T17:59:37Z</time>
    <name>ANOM:DZ_HAMPEL</name>
    <desc>Tramo #53 (4801-4802), dur=2s
Causas: DZ_HAMPEL
vh_max=14.84 km/h | grade_ext=-24.3% | vz_ext=-60.0 m/min
max|dx|=4.12 m/s, max|dy|=0.00 m/s, max|dz|=1.00 m/s</desc>
  </wpt>
  <wpt lat="43.385001" lon="-5.826053">
    <ele>177.0</ele>
    <time>2024-09-23T18:00:32Z</time>
    <name>ANOM:DZ_HAMPEL</name>
    <desc>Tramo #54 (4856-4859), dur=4s
Causas: DZ_HAMPEL
vh_max=27.62 km/h | grade_ext=-3.3% | vz_ext=-15.0 m/min
max|dx|=7.17 m/s, max|dy|=2.72 m/s, max|dz|=0.25 m/s</desc>
  </wpt>
  <wpt lat="43.384279" lon="-5.824915">
    <ele>173.0</ele>
    <time>2024-09-23T18:00:56Z</time>
    <name>ANOM:DZ_HAMPEL</name>
    <desc>Tramo #55 (4880-4881), dur=2s
Causas: DZ_HAMPEL
vh_max=22.91 km/h | grade_ext=-8.1% | vz_ext=-30.0 m/min
max|dx|=6.14 m/s, max|dy|=1.67 m/s, max|dz|=0.50 m/s</desc>
  </wpt>
  <wpt lat="43.384364" lon="-5.822039">
    <ele>167.0</ele>
    <time>2024-09-23T18:01:47Z</time>
    <name>ANOM:DZ_HAMPEL</name>
    <desc>Tramo #56 (4931-4932), dur=2s
Causas: DZ_HAMPEL
vh_max=19.79 km/h | grade_ext=-14.2% | vz_ext=-42.0 m/min
max|dx|=4.44 m/s, max|dy|=4.45 m/s, max|dz|=0.70 m/s</desc>
  </wpt>
  <trk>
    <name>16_aligned_pattern_resampled_anomalies</name>
    <trkseg>
      <trkpt lat="43.385451" lon="-5.820827">
        <ele>164.8</ele>
        <time>2024-09-23T16:39:49Z</time>
      </trkpt>
      <trkpt lat="43.3854525" lon="-5.8208225">
        <ele>164.9</ele>
        <time>2024-09-23T16:39:50Z</time>
      </trkpt>
    </trkseg>
    <trkseg>
      <trkpt lat="43.384904" lon="-5.821535">
        <ele>165.0</ele>
        <time>2024-09-23T16:40:24Z</time>
      </trkpt>
      <trkpt lat="43.384846499999995" lon="-5.8215225">
        <ele>165.45</ele>
        <time>2024-09-23T16:40:25Z</time>
      </trkpt>
      <trkpt lat="43.384789" lon="-5.82151">
        <ele>165.9</ele>
        <time>2024-09-23T16:40:26Z</time>
      </trkpt>
      <trkpt lat="43.384754" lon="-5.821503">
        <ele>165.95</ele>
        <time>2024-09-23T16:40:27Z</time>
      </trkpt>
    </trkseg>
    <trkseg>
      <trkpt lat="43.384569" lon="-5.821436">
        <ele>166.0</ele>
        <time>2024-09-23T16:40:31Z</time>
      </trkpt>
      <trkpt lat="43.3845205" lon="-5.821406">
        <ele>165.5</ele>
        <time>2024-09-23T16:40:32Z</time>
      </trkpt>
    </trkseg>
    <trkseg>
      <trkpt lat="43.384107" lon="-5.821037">
        <ele>165.0</ele>
        <time>2024-09-23T16:40:41Z</time>
      </trkpt>
      <trkpt lat="43.384031" lon="-5.820934">
        <ele>165.0</ele>
        <time>2024-09-23T16:40:42Z</time>
      </trkpt>
      <trkpt lat="43.383996" lon="-5.820876">
        <ele>164.2</ele>
        <time>2024-09-23T16:40:43Z</time>
      </trkpt>
      <trkpt lat="43.3839765" lon="-5.820838999999999">
        <ele>164.1</ele>
        <time>2024-09-23T16:40:44Z</time>
      </trkpt>
    </trkseg>
    <trkseg>
      <trkpt lat="43.371381" lon="-5.837851">
        <ele>190.0</ele>
        <time>2024-09-23T16:48:43Z</time>
      </trkpt>
      <trkpt lat="43.3712715" lon="-5.8378545">
        <ele>189.0</ele>
        <time>2024-09-23T16:48:44Z</time>
      </trkpt>
    </trkseg>
    <trkseg>
      <trkpt lat="43.369766" lon="-5.847827">
        <ele>210.0</ele>
        <time>2024-09-23T16:52:22Z</time>
      </trkpt>
      <trkpt lat="43.369792" lon="-5.8478544999999995">
        <ele>210.25</ele>
        <time>2024-09-23T16:52:23Z</time>
      </trkpt>
      <trkpt lat="43.369817999999995" lon="-5.847882">
        <ele>210.5</ele>
        <time>2024-09-23T16:52:24Z</time>
      </trkpt>
      <trkpt lat="43.369844" lon="-5.8479095">
        <ele>210.75</ele>
        <time>2024-09-23T16:52:25Z</time>
      </trkpt>
    </trkseg>
    <trkseg>
      <trkpt lat="43.370331" lon="-5.849476">
        <ele>212.0</ele>
        <time>2024-09-23T16:53:00Z</time>
      </trkpt>
      <trkpt lat="43.3702945" lon="-5.849482500000001">
        <ele>212.05</ele>
        <time>2024-09-23T16:53:01Z</time>
      </trkpt>
      <trkpt lat="43.370258" lon="-5.849489">
        <ele>212.1</ele>
        <time>2024-09-23T16:53:02Z</time>
      </trkpt>
      <trkpt lat="43.3702145" lon="-5.849493000000001">
        <ele>212.55</ele>
        <time>2024-09-23T16:53:03Z</time>
      </trkpt>
    </trkseg>
    <trkseg>
      <trkpt lat="43.367784" lon="-5.852791">
        <ele>217.0</ele>
        <time>2024-09-23T16:54:15Z</time>
      </trkpt>
      <trkpt lat="43.3678145" lon="-5.8528389999999995">
        <ele>218.5</ele>
        <time>2024-09-23T16:54:16Z</time>
      </trkpt>
      <trkpt lat="43.367845" lon="-5.852887">
        <ele>220.0</ele>
        <time>2024-09-23T16:54:17Z</time>
      </trkpt>
      <trkpt lat="43.367865333333334" lon="-5.852919666666667">
        <ele>220.33333333333334</ele>
        <time>2024-09-23T16:54:18Z</time>
      </trkpt>
      <trkpt lat="43.367885666666666" lon="-5.8529523333333335">
        <ele>220.66666666666666</ele>
        <time>2024-09-23T16:54:19Z</time>
      </trkpt>
    </trkseg>
    <trkseg>
      <trkpt lat="43.37595" lon="-5.864576">
        <ele>316.0</ele>
        <time>2024-09-23T17:03:26Z</time>
      </trkpt>
      <trkpt lat="43.37596875" lon="-5.8645985">
        <ele>316.0</ele>
        <time>2024-09-23T17:03:27Z</time>
      </trkpt>
      <trkpt lat="43.3759875" lon="-5.864621">
        <ele>316.0</ele>
        <time>2024-09-23T17:03:28Z</time>
      </trkpt>
      <trkpt lat="43.37600625" lon="-5.8646435">
        <ele>316.0</ele>
        <time>2024-09-23T17:03:29Z</time>
      </trkpt>
      <trkpt lat="43.376025" lon="-5.864666">
        <ele>316.0</ele>
        <time>2024-09-23T17:03:30Z</time>
      </trkpt>
      <trkpt lat="43.37604133333333" lon="-5.864699">
        <ele>316.3333333333333</ele>
        <time>2024-09-23T17:03:31Z</time>
      </trkpt>
      <trkpt lat="43.37605766666667" lon="-5.864732">
        <ele>316.6666666666667</ele>
        <time>2024-09-23T17:03:32Z</time>
      </trkpt>
    </trkseg>
    <trkseg>
      <trkpt lat="43.378727" lon="-5.863916">
        <ele>358.0</ele>
        <time>2024-09-23T17:07:35Z</time>
      </trkpt>
      <trkpt lat="43.37872466666666" lon="-5.863956">
        <ele>358.3333333333333</ele>
        <time>2024-09-23T17:07:36Z</time>
      </trkpt>
      <trkpt lat="43.378722333333336" lon="-5.863995999999999">
        <ele>358.6666666666667</ele>
        <time>2024-09-23T17:07:37Z</time>
      </trkpt>
    </trkseg>
    <trkseg>
      <trkpt lat="43.380372" lon="-5.867818">
        <ele>383.0</ele>
        <time>2024-09-23T17:09:58Z</time>
      </trkpt>
      <trkpt lat="43.380389" lon="-5.867809">
        <ele>383.0</ele>
        <time>2024-09-23T17:09:59Z</time>
      </trkpt>
    </trkseg>
    <trkseg>
      <trkpt lat="43.382565" lon="-5.853488">
        <ele>485.2</ele>
        <time>2024-09-23T17:19:44Z</time>
      </trkpt>
      <trkpt lat="43.382571" lon="-5.853463">
        <ele>485.6</ele>
        <time>2024-09-23T17:19:45Z</time>
      </trkpt>
      <trkpt lat="43.382577" lon="-5.853438">
        <ele>486.0</ele>
        <time>2024-09-23T17:19:46Z</time>
      </trkpt>
    </trkseg>
    <trkseg>
      <trkpt lat="43.384249" lon="-5.85163">
        <ele>506.7</ele>
        <time>2024-09-23T17:21:51Z</time>
      </trkpt>
      <trkpt lat="43.384265166666665" lon="-5.851615833333334">
        <ele>506.75</ele>
        <time>2024-09-23T17:21:52Z</time>
      </trkpt>
      <trkpt lat="43.384281333333334" lon="-5.851601666666666">
        <ele>506.8</ele>
        <time>2024-09-23T17:21:53Z</time>
      </trkpt>
      <trkpt lat="43.3842975" lon="-5.8515875">
        <ele>506.85</ele>
        <time>2024-09-23T17:21:54Z</time>
      </trkpt>
      <trkpt lat="43.384313666666664" lon="-5.8515733333333335">
        <ele>506.9</ele>
        <time>2024-09-23T17:21:55Z</time>
      </trkpt>
      <trkpt lat="43.38432983333333" lon="-5.851559166666666">
        <ele>506.95</ele>
        <time>2024-09-23T17:21:56Z</time>
      </trkpt>
    </trkseg>
    <trkseg>
      <trkpt lat="43.384381" lon="-5.851403">
        <ele>508.0</ele>
        <time>2024-09-23T17:22:03Z</time>
      </trkpt>
      <trkpt lat="43.38438575" lon="-5.851379250000001">
        <ele>508.25</ele>
        <time>2024-09-23T17:22:04Z</time>
      </trkpt>
      <trkpt lat="43.384390499999995" lon="-5.8513555">
        <ele>508.5</ele>
        <time>2024-09-23T17:22:05Z</time>
      </trkpt>
      <trkpt lat="43.38439525" lon="-5.85133175">
        <ele>508.75</ele>
        <time>2024-09-23T17:22:06Z</time>
      </trkpt>
    </trkseg>
    <trkseg>
      <trkpt lat="43.387505" lon="-5.851569">
        <ele>560.0</ele>
        <time>2024-09-23T17:26:55Z</time>
      </trkpt>
      <trkpt lat="43.387520249999994" lon="-5.851562749999999">
        <ele>560.0</ele>
        <time>2024-09-23T17:26:56Z</time>
      </trkpt>
      <trkpt lat="43.3875355" lon="-5.851556499999999">
        <ele>560.0</ele>
        <time>2024-09-23T17:26:57Z</time>
      </trkpt>
      <trkpt lat="43.38755075" lon="-5.85155025">
        <ele>560.0</ele>
        <time>2024-09-23T17:26:58Z</time>
      </trkpt>
    </trkseg>
    <trkseg>
      <trkpt lat="43.386855" lon="-5.854247">
        <ele>585.7</ele>
        <time>2024-09-23T17:29:41Z</time>
      </trkpt>
      <trkpt lat="43.386811333333334" lon="-5.854228666666667">
        <ele>585.8000000000001</ele>
        <time>2024-09-23T17:29:42Z</time>
      </trkpt>
      <trkpt lat="43.386767666666664" lon="-5.8542103333333335">
        <ele>585.9</ele>
        <time>2024-09-23T17:29:43Z</time>
      </trkpt>
    </trkseg>
    <trkseg>
      <trkpt lat="43.385107" lon="-5.854267">
        <ele>591.0</ele>
        <time>2024-09-23T17:30:33Z</time>
      </trkpt>
      <trkpt lat="43.3850735" lon="-5.854281">
        <ele>590.5</ele>
        <time>2024-09-23T17:30:34Z</time>
      </trkpt>
    </trkseg>
    <trkseg>
      <trkpt lat="43.384861" lon="-5.854391">
        <ele>590.0</ele>
        <time>2024-09-23T17:30:40Z</time>
      </trkpt>
      <trkpt lat="43.384824" lon="-5.854422">
        <ele>589.7</ele>
        <time>2024-09-23T17:30:41Z</time>
      </trkpt>
      <trkpt lat="43.384780500000005" lon="-5.8544465">
        <ele>589.35</ele>
        <time>2024-09-23T17:30:42Z</time>
      </trkpt>
    </trkseg>
    <trkseg>
      <trkpt lat="43.386524" lon="-5.854008">
        <ele>587.0</ele>
        <time>2024-09-23T17:31:51Z</time>
      </trkpt>
      <trkpt lat="43.38657933333334" lon="-5.854048333333334">
        <ele>586.6666666666666</ele>
        <time>2024-09-23T17:31:52Z</time>
      </trkpt>
      <trkpt lat="43.386634666666666" lon="-5.854088666666667">
        <ele>586.3333333333334</ele>
        <time>2024-09-23T17:31:53Z</time>
      </trkpt>
    </trkseg>
    <trkseg>
      <trkpt lat="43.38806" lon="-5.85299">
        <ele>574.0</ele>
        <time>2024-09-23T17:32:24Z</time>
      </trkpt>
      <trkpt lat="43.38805" lon="-5.852836">
        <ele>572.0</ele>
        <time>2024-09-23T17:32:25Z</time>
      </trkpt>
      <trkpt lat="43.38804125" lon="-5.8526785">
        <ele>570.875</ele>
        <time>2024-09-23T17:32:26Z</time>
      </trkpt>
      <trkpt lat="43.3880325" lon="-5.852520999999999">
        <ele>569.75</ele>
        <time>2024-09-23T17:32:27Z</time>
      </trkpt>
      <trkpt lat="43.38802375" lon="-5.8523635">
        <ele>568.625</ele>
        <time>2024-09-23T17:32:28Z</time>
      </trkpt>
    </trkseg>
    <trkseg>
      <trkpt lat="43.387455" lon="-5.851606">
        <ele>559.2</ele>
        <time>2024-09-23T17:32:41Z</time>
      </trkpt>
      <trkpt lat="43.387319" lon="-5.851527">
        <ele>557.3</ele>
        <time>2024-09-23T17:32:42Z</time>
      </trkpt>
    </trkseg>
    <trkseg>
      <trkpt lat="43.38718" lon="-5.849955">
        <ele>544.0</ele>
        <time>2024-09-23T17:32:55Z</time>
      </trkpt>
      <trkpt lat="43.387173" lon="-5.849801">
        <ele>542.6</ele>
        <time>2024-09-23T17:32:56Z</time>
      </trkpt>
    </trkseg>
    <trkseg>
      <trkpt lat="43.387166" lon="-5.849642">
        <ele>541.2</ele>
        <time>2024-09-23T17:32:58Z</time>
      </trkpt>
      <trkpt lat="43.387116" lon="-5.849565">
        <ele>541.0</ele>
        <time>2024-09-23T17:32:59Z</time>
      </trkpt>
    </trkseg>
    <trkseg>
      <trkpt lat="43.386673" lon="-5.849549">
        <ele>536.0</ele>
        <time>2024-09-23T17:33:04Z</time>
      </trkpt>
      <trkpt lat="43.386564" lon="-5.8495755">
        <ele>535.0</ele>
        <time>2024-09-23T17:33:05Z</time>
      </trkpt>
      <trkpt lat="43.386455" lon="-5.849602">
        <ele>534.0</ele>
        <time>2024-09-23T17:33:06Z</time>
      </trkpt>
      <trkpt lat="43.386314" lon="-5.8496">
        <ele>533.1</ele>
        <time>2024-09-23T17:33:07Z</time>
      </trkpt>
      <trkpt lat="43.386242" lon="-5.849567">
        <ele>532.0</ele>
        <time>2024-09-23T17:33:08Z</time>
      </trkpt>
      <trkpt lat="43.386132" lon="-5.849557">
        <ele>531.0</ele>
        <time>2024-09-23T17:33:09Z</time>
      </trkpt>
      <trkpt lat="43.3860195" lon="-5.849552">
        <ele>530.0</ele>
        <time>2024-09-23T17:33:10Z</time>
      </trkpt>
      <trkpt lat="43.385907" lon="-5.849547">
        <ele>529.0</ele>
        <time>2024-09-23T17:33:11Z</time>
      </trkpt>
      <trkpt lat="43.385796" lon="-5.849569">
        <ele>528.0</ele>
        <time>2024-09-23T17:33:12Z</time>
      </trkpt>
      <trkpt lat="43.385684499999996" lon="-5.84960075">
        <ele>527.25</ele>
        <time>2024-09-23T17:33:13Z</time>
      </trkpt>
      <trkpt lat="43.385573" lon="-5.8496325">
        <ele>526.5</ele>
        <time>2024-09-23T17:33:14Z</time>
      </trkpt>
      <trkpt lat="43.385461500000005" lon="-5.84966425">
        <ele>525.75</ele>
        <time>2024-09-23T17:33:15Z</time>
      </trkpt>
    </trkseg>
    <trkseg>
      <trkpt lat="43.385057" lon="-5.850054">
        <ele>521.0</ele>
        <time>2024-09-23T17:33:20Z</time>
      </trkpt>
      <trkpt lat="43.385013" lon="-5.850189">
        <ele>520.1</ele>
        <time>2024-09-23T17:33:21Z</time>
      </trkpt>
    </trkseg>
    <trkseg>
      <trkpt lat="43.384665" lon="-5.850942">
        <ele>513.0</ele>
        <time>2024-09-23T17:33:28Z</time>
      </trkpt>
      <trkpt lat="43.384585" lon="-5.850996">
        <ele>512.5</ele>
        <time>2024-09-23T17:33:29Z</time>
      </trkpt>
    </trkseg>
    <trkseg>
      <trkpt lat="43.384019" lon="-5.85169">
        <ele>504.0</ele>
        <time>2024-09-23T17:33:38Z</time>
      </trkpt>
      <trkpt lat="43.38391" lon="-5.85169275">
        <ele>503.0</ele>
        <time>2024-09-23T17:33:39Z</time>
      </trkpt>
      <trkpt lat="43.383801000000005" lon="-5.8516955">
        <ele>502.0</ele>
        <time>2024-09-23T17:33:40Z</time>
      </trkpt>
      <trkpt lat="43.383692" lon="-5.85169825">
        <ele>501.0</ele>
        <time>2024-09-23T17:33:41Z</time>
      </trkpt>
      <trkpt lat="43.383583" lon="-5.851701">
        <ele>500.0</ele>
        <time>2024-09-23T17:33:42Z</time>
      </trkpt>
      <trkpt lat="43.383468" lon="-5.851729000000001">
        <ele>499.05</ele>
        <time>2024-09-23T17:33:43Z</time>
      </trkpt>
      <trkpt lat="43.383353" lon="-5.851757">
        <ele>498.1</ele>
        <time>2024-09-23T17:33:44Z</time>
      </trkpt>
      <trkpt lat="43.383239" lon="-5.851813">
        <ele>497.4</ele>
        <time>2024-09-23T17:33:45Z</time>
      </trkpt>
      <trkpt lat="43.383131" lon="-5.85189">
        <ele>497.0</ele>
        <time>2024-09-23T17:33:46Z</time>
      </trkpt>
      <trkpt lat="43.383032" lon="-5.851989">
        <ele>496.0</ele>
        <time>2024-09-23T17:33:47Z</time>
      </trkpt>
      <trkpt lat="43.382949" lon="-5.852107">
        <ele>495.0</ele>
        <time>2024-09-23T17:33:48Z</time>
      </trkpt>
      <trkpt lat="43.382877" lon="-5.852249">
        <ele>494.0</ele>
        <time>2024-09-23T17:33:49Z</time>
      </trkpt>
      <trkpt lat="43.382823" lon="-5.852402">
        <ele>492.9</ele>
        <time>2024-09-23T17:33:50Z</time>
      </trkpt>
      <trkpt lat="43.382782" lon="-5.852569">
        <ele>492.0</ele>
        <time>2024-09-23T17:33:51Z</time>
      </trkpt>
      <trkpt lat="43.382747" lon="-5.852731">
        <ele>491.0</ele>
        <time>2024-09-23T17:33:52Z</time>
      </trkpt>
      <trkpt lat="43.3827105" lon="-5.8528970000000005">
        <ele>489.75</ele>
        <time>2024-09-23T17:33:53Z</time>
      </trkpt>
      <trkpt lat="43.382674" lon="-5.853063000000001">
        <ele>488.5</ele>
        <time>2024-09-23T17:33:54Z</time>
      </trkpt>
      <trkpt lat="43.3826375" lon="-5.853229">
        <ele>487.25</ele>
        <time>2024-09-23T17:33:55Z</time>
      </trkpt>
      <trkpt lat="43.382601" lon="-5.853395">
        <ele>486.0</ele>
        <time>2024-09-23T17:33:56Z</time>
      </trkpt>
      <trkpt lat="43.38255433333333" lon="-5.853556666666667">
        <ele>485.0</ele>
        <time>2024-09-23T17:33:57Z</time>
      </trkpt>
      <trkpt lat="43.38250766666667" lon="-5.853718333333333">
        <ele>484.0</ele>
        <time>2024-09-23T17:33:58Z</time>
      </trkpt>
      <trkpt lat="43.382461" lon="-5.85388">
        <ele>483.0</ele>
        <time>2024-09-23T17:33:59Z</time>
      </trkpt>
      <trkpt lat="43.382414499999996" lon="-5.8540555">
        <ele>481.55</ele>
        <time>2024-09-23T17:34:00Z</time>
      </trkpt>
      <trkpt lat="43.382368" lon="-5.854231">
        <ele>480.1</ele>
        <time>2024-09-23T17:34:01Z</time>
      </trkpt>
      <trkpt lat="43.382349000000005" lon="-5.8543545">
        <ele>479.55</ele>
        <time>2024-09-23T17:34:02Z</time>
      </trkpt>
      <trkpt lat="43.38233" lon="-5.854478">
        <ele>479.0</ele>
        <time>2024-09-23T17:34:03Z</time>
      </trkpt>
      <trkpt lat="43.382308" lon="-5.854637">
        <ele>478.0</ele>
        <time>2024-09-23T17:34:04Z</time>
      </trkpt>
      <trkpt lat="43.382314" lon="-5.854800333333333">
        <ele>477.0</ele>
        <time>2024-09-23T17:34:05Z</time>
      </trkpt>
      <trkpt lat="43.38232" lon="-5.854963666666667">
        <ele>476.0</ele>
        <time>2024-09-23T17:34:06Z</time>
      </trkpt>
      <trkpt lat="43.382326" lon="-5.855127">
        <ele>475.0</ele>
        <time>2024-09-23T17:34:07Z</time>
      </trkpt>
      <trkpt lat="43.382329666666664" lon="-5.855287000000001">
        <ele>474.0</ele>
        <time>2024-09-23T17:34:08Z</time>
      </trkpt>
      <trkpt lat="43.382333333333335" lon="-5.855447">
        <ele>473.0</ele>
        <time>2024-09-23T17:34:09Z</time>
      </trkpt>
    </trkseg>
    <trkseg>
      <trkpt lat="43.382292" lon="-5.855886">
        <ele>470.0</ele>
        <time>2024-09-23T17:34:12Z</time>
      </trkpt>
      <trkpt lat="43.382249" lon="-5.856018">
        <ele>469.7</ele>
        <time>2024-09-23T17:34:13Z</time>
      </trkpt>
    </trkseg>
    <trkseg>
      <trkpt lat="43.382041" lon="-5.856317">
        <ele>467.0</ele>
        <time>2024-09-23T17:34:16Z</time>
      </trkpt>
      <trkpt lat="43.381944" lon="-5.856383">
        <ele>466.0</ele>
        <time>2024-09-23T17:34:17Z</time>
      </trkpt>
      <trkpt lat="43.381849" lon="-5.856462">
        <ele>465.0</ele>
        <time>2024-09-23T17:34:18Z</time>
      </trkpt>
      <trkpt lat="43.381767" lon="-5.856567">
        <ele>464.0</ele>
        <time>2024-09-23T17:34:19Z</time>
      </trkpt>
      <trkpt lat="43.381698" lon="-5.856696">
        <ele>463.0</ele>
        <time>2024-09-23T17:34:20Z</time>
      </trkpt>
      <trkpt lat="43.381639" lon="-5.856838">
        <ele>462.0</ele>
        <time>2024-09-23T17:34:21Z</time>
      </trkpt>
      <trkpt lat="43.381586" lon="-5.856992">
        <ele>461.0</ele>
        <time>2024-09-23T17:34:22Z</time>
      </trkpt>
      <trkpt lat="43.381537" lon="-5.857146">
        <ele>459.0</ele>
        <time>2024-09-23T17:34:23Z</time>
      </trkpt>
      <trkpt lat="43.3814845" lon="-5.857308">
        <ele>457.95</ele>
        <time>2024-09-23T17:34:24Z</time>
      </trkpt>
      <trkpt lat="43.381432" lon="-5.85747">
        <ele>456.9</ele>
        <time>2024-09-23T17:34:25Z</time>
      </trkpt>
      <trkpt lat="43.381372" lon="-5.857631">
        <ele>455.0</ele>
        <time>2024-09-23T17:34:26Z</time>
      </trkpt>
      <trkpt lat="43.381313" lon="-5.857794999999999">
        <ele>454.0</ele>
        <time>2024-09-23T17:34:27Z</time>
      </trkpt>
      <trkpt lat="43.381254" lon="-5.857959">
        <ele>453.0</ele>
        <time>2024-09-23T17:34:28Z</time>
      </trkpt>
      <trkpt lat="43.381195" lon="-5.858123">
        <ele>452.0</ele>
        <time>2024-09-23T17:34:29Z</time>
      </trkpt>
      <trkpt lat="43.38116" lon="-5.858301">
        <ele>451.0</ele>
        <time>2024-09-23T17:34:30Z</time>
      </trkpt>
      <trkpt lat="43.381138" lon="-5.858474">
        <ele>450.0</ele>
        <time>2024-09-23T17:34:31Z</time>
      </trkpt>
      <trkpt lat="43.381134" lon="-5.858653">
        <ele>449.0</ele>
        <time>2024-09-23T17:34:32Z</time>
      </trkpt>
      <trkpt lat="43.381149" lon="-5.858827">
        <ele>448.0</ele>
        <time>2024-09-23T17:34:33Z</time>
      </trkpt>
      <trkpt lat="43.381167" lon="-5.859001">
        <ele>447.0</ele>
        <time>2024-09-23T17:34:34Z</time>
      </trkpt>
      <trkpt lat="43.381165499999994" lon="-5.85917625">
        <ele>446.0</ele>
        <time>2024-09-23T17:34:35Z</time>
      </trkpt>
      <trkpt lat="43.381164" lon="-5.859351500000001">
        <ele>445.0</ele>
        <time>2024-09-23T17:34:36Z</time>
      </trkpt>
      <trkpt lat="43.3811625" lon="-5.859526750000001">
        <ele>444.0</ele>
        <time>2024-09-23T17:34:37Z</time>
      </trkpt>
      <trkpt lat="43.381161" lon="-5.859702">
        <ele>443.0</ele>
        <time>2024-09-23T17:34:38Z</time>
      </trkpt>
      <trkpt lat="43.381145" lon="-5.859873">
        <ele>442.0</ele>
        <time>2024-09-23T17:34:39Z</time>
      </trkpt>
      <trkpt lat="43.381111" lon="-5.860043">
        <ele>440.1</ele>
        <time>2024-09-23T17:34:40Z</time>
      </trkpt>
      <trkpt lat="43.3810745" lon="-5.860209">
        <ele>439.05</ele>
        <time>2024-09-23T17:34:41Z</time>
      </trkpt>
      <trkpt lat="43.381038" lon="-5.860375">
        <ele>438.0</ele>
        <time>2024-09-23T17:34:42Z</time>
      </trkpt>
      <trkpt lat="43.38101" lon="-5.860519">
        <ele>437.0</ele>
        <time>2024-09-23T17:34:43Z</time>
      </trkpt>
      <trkpt lat="43.380982" lon="-5.860663">
        <ele>436.0</ele>
        <time>2024-09-23T17:34:44Z</time>
      </trkpt>
      <trkpt lat="43.3809455" lon="-5.8607945">
        <ele>434.95</ele>
        <time>2024-09-23T17:34:45Z</time>
      </trkpt>
      <trkpt lat="43.380909" lon="-5.860926">
        <ele>433.9</ele>
        <time>2024-09-23T17:34:46Z</time>
      </trkpt>
    </trkseg>
    <trkseg>
      <trkpt lat="43.380707" lon="-5.861694">
        <ele>427.0</ele>
        <time>2024-09-23T17:34:52Z</time>
      </trkpt>
      <trkpt lat="43.380724" lon="-5.861843">
        <ele>426.0</ele>
        <time>2024-09-23T17:34:53Z</time>
      </trkpt>
      <trkpt lat="43.380731" lon="-5.861998">
        <ele>424.8</ele>
        <time>2024-09-23T17:34:54Z</time>
      </trkpt>
      <trkpt lat="43.38072" lon="-5.86215">
        <ele>423.3</ele>
        <time>2024-09-23T17:34:55Z</time>
      </trkpt>
      <trkpt lat="43.380683" lon="-5.862299">
        <ele>422.5</ele>
        <time>2024-09-23T17:34:56Z</time>
      </trkpt>
      <trkpt lat="43.380615" lon="-5.862447">
        <ele>421.0</ele>
        <time>2024-09-23T17:34:57Z</time>
      </trkpt>
      <trkpt lat="43.38055" lon="-5.862592">
        <ele>420.0</ele>
        <time>2024-09-23T17:34:58Z</time>
      </trkpt>
      <trkpt lat="43.380487" lon="-5.862732">
        <ele>419.0</ele>
        <time>2024-09-23T17:34:59Z</time>
      </trkpt>
      <trkpt lat="43.380427" lon="-5.862879">
        <ele>418.0</ele>
        <time>2024-09-23T17:35:00Z</time>
      </trkpt>
      <trkpt lat="43.380379" lon="-5.863043">
        <ele>417.1</ele>
        <time>2024-09-23T17:35:01Z</time>
      </trkpt>
      <trkpt lat="43.38036" lon="-5.863215">
        <ele>415.8</ele>
        <time>2024-09-23T17:35:02Z</time>
      </trkpt>
      <trkpt lat="43.380350500000006" lon="-5.863386">
        <ele>415.0</ele>
        <time>2024-09-23T17:35:03Z</time>
      </trkpt>
      <trkpt lat="43.380341" lon="-5.863557">
        <ele>414.2</ele>
        <time>2024-09-23T17:35:04Z</time>
      </trkpt>
      <trkpt lat="43.3803315" lon="-5.8637235">
        <ele>413.4</ele>
        <time>2024-09-23T17:35:05Z</time>
      </trkpt>
      <trkpt lat="43.380322" lon="-5.86389">
        <ele>412.6</ele>
        <time>2024-09-23T17:35:06Z</time>
      </trkpt>
      <trkpt lat="43.3803125" lon="-5.8640565">
        <ele>411.8</ele>
        <time>2024-09-23T17:35:07Z</time>
      </trkpt>
      <trkpt lat="43.380303" lon="-5.864223">
        <ele>411.0</ele>
        <time>2024-09-23T17:35:08Z</time>
      </trkpt>
      <trkpt lat="43.380292999999995" lon="-5.864394">
        <ele>409.7</ele>
        <time>2024-09-23T17:35:09Z</time>
      </trkpt>
      <trkpt lat="43.380283" lon="-5.864565">
        <ele>408.4</ele>
        <time>2024-09-23T17:35:10Z</time>
      </trkpt>
      <trkpt lat="43.380272" lon="-5.864741666666666">
        <ele>406.93333333333334</ele>
        <time>2024-09-23T17:35:11Z</time>
      </trkpt>
      <trkpt lat="43.380261" lon="-5.864918333333334">
        <ele>405.46666666666664</ele>
        <time>2024-09-23T17:35:12Z</time>
      </trkpt>
      <trkpt lat="43.38025" lon="-5.865095">
        <ele>404.0</ele>
        <time>2024-09-23T17:35:13Z</time>
      </trkpt>
      <trkpt lat="43.380230499999996" lon="-5.865277000000001">
        <ele>402.35</ele>
        <time>2024-09-23T17:35:14Z</time>
      </trkpt>
      <trkpt lat="43.380211" lon="-5.865459">
        <ele>400.7</ele>
        <time>2024-09-23T17:35:15Z</time>
      </trkpt>
      <trkpt lat="43.380182000000005" lon="-5.865640333333333">
        <ele>399.3333333333333</ele>
        <time>2024-09-23T17:35:16Z</time>
      </trkpt>
      <trkpt lat="43.380153" lon="-5.865821666666667">
        <ele>397.9666666666667</ele>
        <time>2024-09-23T17:35:17Z</time>
      </trkpt>
      <trkpt lat="43.380124" lon="-5.866003">
        <ele>396.6</ele>
        <time>2024-09-23T17:35:18Z</time>
      </trkpt>
      <trkpt lat="43.3801125" lon="-5.866174">
        <ele>395.3</ele>
        <time>2024-09-23T17:35:19Z</time>
      </trkpt>
      <trkpt lat="43.380101" lon="-5.866345">
        <ele>394.0</ele>
        <time>2024-09-23T17:35:20Z</time>
      </trkpt>
      <trkpt lat="43.38011" lon="-5.866516">
        <ele>393.0</ele>
        <time>2024-09-23T17:35:21Z</time>
      </trkpt>
    </trkseg>
    <trkseg>
      <trkpt lat="43.379239" lon="-5.866036">
        <ele>369.0</ele>
        <time>2024-09-23T17:35:57Z</time>
      </trkpt>
      <trkpt lat="43.379229" lon="-5.865886">
        <ele>368.0</ele>
        <time>2024-09-23T17:35:58Z</time>
      </trkpt>
      <trkpt lat="43.379215" lon="-5.8657352">
        <ele>367.34</ele>
        <time>2024-09-23T17:35:59Z</time>
      </trkpt>
      <trkpt lat="43.379201" lon="-5.8655843999999995">
        <ele>366.68</ele>
        <time>2024-09-23T17:36:00Z</time>
      </trkpt>
      <trkpt lat="43.379187" lon="-5.8654336">
        <ele>366.02</ele>
        <time>2024-09-23T17:36:01Z</time>
      </trkpt>
      <trkpt lat="43.379173" lon="-5.8652828">
        <ele>365.36</ele>
        <time>2024-09-23T17:36:02Z</time>
      </trkpt>
      <trkpt lat="43.379159" lon="-5.865132">
        <ele>364.7</ele>
        <time>2024-09-23T17:36:03Z</time>
      </trkpt>
      <trkpt lat="43.379132" lon="-5.864983">
        <ele>364.0</ele>
        <time>2024-09-23T17:36:04Z</time>
      </trkpt>
      <trkpt lat="43.379085" lon="-5.864844">
        <ele>363.0</ele>
        <time>2024-09-23T17:36:05Z</time>
      </trkpt>
      <trkpt lat="43.37902" lon="-5.864721">
        <ele>362.2</ele>
        <time>2024-09-23T17:36:06Z</time>
      </trkpt>
      <trkpt lat="43.378943" lon="-5.864609">
        <ele>362.0</ele>
        <time>2024-09-23T17:36:07Z</time>
      </trkpt>
      <trkpt lat="43.378867" lon="-5.864497">
        <ele>361.0</ele>
        <time>2024-09-23T17:36:08Z</time>
      </trkpt>
    </trkseg>
    <trkseg>
      <trkpt lat="43.378477" lon="-5.863474">
        <ele>353.0</ele>
        <time>2024-09-23T17:36:25Z</time>
      </trkpt>
      <trkpt lat="43.378463" lon="-5.863649">
        <ele>352.0</ele>
        <time>2024-09-23T17:36:26Z</time>
      </trkpt>
    </trkseg>
    <trkseg>
      <trkpt lat="43.378323" lon="-5.86503">
        <ele>343.0</ele>
        <time>2024-09-23T17:36:38Z</time>
      </trkpt>
      <trkpt lat="43.378246" lon="-5.865124">
        <ele>342.1</ele>
        <time>2024-09-23T17:36:39Z</time>
      </trkpt>
      <trkpt lat="43.378161" lon="-5.865208">
        <ele>341.6</ele>
        <time>2024-09-23T17:36:40Z</time>
      </trkpt>
    </trkseg>
    <trkseg>
      <trkpt lat="43.376062" lon="-5.864822">
        <ele>317.0</ele>
        <time>2024-09-23T17:37:23Z</time>
      </trkpt>
      <trkpt lat="43.376016" lon="-5.864731">
        <ele>316.0</ele>
        <time>2024-09-23T17:37:24Z</time>
      </trkpt>
      <trkpt lat="43.375956" lon="-5.864648">
        <ele>316.0</ele>
        <time>2024-09-23T17:37:25Z</time>
      </trkpt>
      <trkpt lat="43.375887" lon="-5.864605">
        <ele>315.0</ele>
        <time>2024-09-23T17:37:26Z</time>
      </trkpt>
      <trkpt lat="43.37582" lon="-5.864564">
        <ele>315.0</ele>
        <time>2024-09-23T17:37:27Z</time>
      </trkpt>
    </trkseg>
    <trkseg>
      <trkpt lat="43.375633" lon="-5.864514">
        <ele>314.0</ele>
        <time>2024-09-23T17:37:29Z</time>
      </trkpt>
      <trkpt lat="43.375564" lon="-5.864505">
        <ele>314.0</ele>
        <time>2024-09-23T17:37:30Z</time>
      </trkpt>
      <trkpt lat="43.375462" lon="-5.864494">
        <ele>313.0</ele>
        <time>2024-09-23T17:37:31Z</time>
      </trkpt>
    </trkseg>
    <trkseg>
      <trkpt lat="43.374802" lon="-5.864398">
        <ele>309.0</ele>
        <time>2024-09-23T17:37:38Z</time>
      </trkpt>
      <trkpt lat="43.374696" lon="-5.864304">
        <ele>308.0</ele>
        <time>2024-09-23T17:37:39Z</time>
      </trkpt>
      <trkpt lat="43.374633" lon="-5.864163">
        <ele>308.0</ele>
        <time>2024-09-23T17:37:40Z</time>
      </trkpt>
      <trkpt lat="43.374572" lon="-5.864037">
        <ele>307.0</ele>
        <time>2024-09-23T17:37:41Z</time>
      </trkpt>
    </trkseg>
    <trkseg>
      <trkpt lat="43.374199" lon="-5.863194">
        <ele>303.8</ele>
        <time>2024-09-23T17:37:48Z</time>
      </trkpt>
      <trkpt lat="43.3741495" lon="-5.8630534999999995">
        <ele>302.9</ele>
        <time>2024-09-23T17:37:49Z</time>
      </trkpt>
    </trkseg>
    <trkseg>
      <trkpt lat="43.371962" lon="-5.859673">
        <ele>278.0</ele>
        <time>2024-09-23T17:42:17Z</time>
      </trkpt>
      <trkpt lat="43.37198433333334" lon="-5.859653333333333">
        <ele>277.6666666666667</ele>
        <time>2024-09-23T17:42:18Z</time>
      </trkpt>
    </trkseg>
    <trkseg>
      <trkpt lat="43.37667733333333" lon="-5.857268">
        <ele>259.6666666666667</ele>
        <time>2024-09-23T17:46:16Z</time>
      </trkpt>
      <trkpt lat="43.376728" lon="-5.857252">
        <ele>259.0</ele>
        <time>2024-09-23T17:46:17Z</time>
      </trkpt>
      <trkpt lat="43.3767905" lon="-5.8572120000000005">
        <ele>258.0</ele>
        <time>2024-09-23T17:46:18Z</time>
      </trkpt>
    </trkseg>
    <trkseg>
      <trkpt lat="43.377188" lon="-5.856206">
        <ele>256.5</ele>
        <time>2024-09-23T17:46:31Z</time>
      </trkpt>
      <trkpt lat="43.377184666666665" lon="-5.856145000000001">
        <ele>256.2</ele>
        <time>2024-09-23T17:46:32Z</time>
      </trkpt>
      <trkpt lat="43.37718133333333" lon="-5.856084">
        <ele>255.9</ele>
        <time>2024-09-23T17:46:33Z</time>
      </trkpt>
      <trkpt lat="43.377178" lon="-5.856023">
        <ele>255.6</ele>
        <time>2024-09-23T17:46:34Z</time>
      </trkpt>
      <trkpt lat="43.377128" lon="-5.855878">
        <ele>256.0</ele>
        <time>2024-09-23T17:46:35Z</time>
      </trkpt>
    </trkseg>
    <trkseg>
      <trkpt lat="43.376483" lon="-5.854032">
        <ele>255.0</ele>
        <time>2024-09-23T17:47:01Z</time>
      </trkpt>
      <trkpt lat="43.376451714285714" lon="-5.853993285714286">
        <ele>257.95714285714286</ele>
        <time>2024-09-23T17:47:02Z</time>
      </trkpt>
      <trkpt lat="43.37642042857143" lon="-5.853954571428572">
        <ele>260.9142857142857</ele>
        <time>2024-09-23T17:47:03Z</time>
      </trkpt>
      <trkpt lat="43.37638914285714" lon="-5.853915857142858">
        <ele>263.87142857142857</ele>
        <time>2024-09-23T17:47:04Z</time>
      </trkpt>
      <trkpt lat="43.37635785714286" lon="-5.853877142857143">
        <ele>266.8285714285714</ele>
        <time>2024-09-23T17:47:05Z</time>
      </trkpt>
      <trkpt lat="43.37632657142857" lon="-5.853838428571429">
        <ele>269.7857142857143</ele>
        <time>2024-09-23T17:47:06Z</time>
      </trkpt>
      <trkpt lat="43.376295285714285" lon="-5.8537997142857146">
        <ele>272.74285714285713</ele>
        <time>2024-09-23T17:47:07Z</time>
      </trkpt>
    </trkseg>
    <trkseg>
      <trkpt lat="43.376109" lon="-5.8535544999999995">
        <ele>271.45</ele>
        <time>2024-09-23T17:47:14Z</time>
      </trkpt>
      <trkpt lat="43.376097" lon="-5.853516">
        <ele>271.2</ele>
        <time>2024-09-23T17:47:15Z</time>
      </trkpt>
      <trkpt lat="43.376082" lon="-5.853449">
        <ele>271.0</ele>
        <time>2024-09-23T17:47:16Z</time>
      </trkpt>
      <trkpt lat="43.376068000000004" lon="-5.853388000000001">
        <ele>270.8</ele>
        <time>2024-09-23T17:47:17Z</time>
      </trkpt>
    </trkseg>
    <trkseg>
      <trkpt lat="43.377071" lon="-5.849082">
        <ele>254.0</ele>
        <time>2024-09-23T17:48:25Z</time>
      </trkpt>
      <trkpt lat="43.377042333333335" lon="-5.849027">
        <ele>253.66666666666666</ele>
        <time>2024-09-23T17:48:26Z</time>
      </trkpt>
      <trkpt lat="43.37701366666666" lon="-5.848972">
        <ele>253.33333333333334</ele>
        <time>2024-09-23T17:48:27Z</time>
      </trkpt>
    </trkseg>
    <trkseg>
      <trkpt lat="43.377006" lon="-5.848477">
        <ele>253.0</ele>
        <time>2024-09-23T17:48:37Z</time>
      </trkpt>
      <trkpt lat="43.377009" lon="-5.848446666666667">
        <ele>252.66666666666666</ele>
        <time>2024-09-23T17:48:38Z</time>
      </trkpt>
      <trkpt lat="43.377012" lon="-5.848416333333334">
        <ele>252.33333333333334</ele>
        <time>2024-09-23T17:48:39Z</time>
      </trkpt>
      <trkpt lat="43.377015" lon="-5.848386">
        <ele>252.0</ele>
        <time>2024-09-23T17:48:40Z</time>
      </trkpt>
      <trkpt lat="43.377018" lon="-5.8483556666666665">
        <ele>251.66666666666666</ele>
        <time>2024-09-23T17:48:41Z</time>
      </trkpt>
      <trkpt lat="43.377021" lon="-5.848325333333333">
        <ele>251.33333333333334</ele>
        <time>2024-09-23T17:48:42Z</time>
      </trkpt>
    </trkseg>
    <trkseg>
      <trkpt lat="43.382128" lon="-5.840388">
        <ele>250.0</ele>
        <time>2024-09-23T17:53:23Z</time>
      </trkpt>
      <trkpt lat="43.382189499999996" lon="-5.840243">
        <ele>249.0</ele>
        <time>2024-09-23T17:53:24Z</time>
      </trkpt>
    </trkseg>
    <trkseg>
      <trkpt lat="43.384011" lon="-5.836478">
        <ele>249.0</ele>
        <time>2024-09-23T17:54:41Z</time>
      </trkpt>
      <trkpt lat="43.384073666666666" lon="-5.836370666666666">
        <ele>247.66666666666666</ele>
        <time>2024-09-23T17:54:42Z</time>
      </trkpt>
      <trkpt lat="43.38413633333334" lon="-5.836263333333333">
        <ele>246.33333333333334</ele>
        <time>2024-09-23T17:54:43Z</time>
      </trkpt>
      <trkpt lat="43.384199" lon="-5.836156">
        <ele>245.0</ele>
        <time>2024-09-23T17:54:44Z</time>
      </trkpt>
    </trkseg>
    <trkseg>
      <trkpt lat="43.38458" lon="-5.834925666666667">
        <ele>237.6</ele>
        <time>2024-09-23T17:54:54Z</time>
      </trkpt>
      <trkpt lat="43.3846" lon="-5.834797">
        <ele>236.9</ele>
        <time>2024-09-23T17:54:55Z</time>
      </trkpt>
    </trkseg>
    <trkseg>
      <trkpt lat="43.384341360772524" lon="-5.833692644477845">
        <ele>228.0</ele>
        <time>2024-09-23T17:55:18Z</time>
      </trkpt>
      <trkpt lat="43.38434391691814" lon="-5.833686853852326">
        <ele>227.98471803100432</ele>
        <time>2024-09-23T17:55:19Z</time>
      </trkpt>
    </trkseg>
    <trkseg>
      <trkpt lat="43.3844515" lon="-5.833765">
        <ele>227.7</ele>
        <time>2024-09-23T17:55:27Z</time>
      </trkpt>
      <trkpt lat="43.384479" lon="-5.833791">
        <ele>227.4</ele>
        <time>2024-09-23T17:55:28Z</time>
      </trkpt>
      <trkpt lat="43.3845135" lon="-5.833819999999999">
        <ele>227.2</ele>
        <time>2024-09-23T17:55:29Z</time>
      </trkpt>
    </trkseg>
    <trkseg>
      <trkpt lat="43.38494" lon="-5.834192">
        <ele>226.7</ele>
        <time>2024-09-23T17:55:41Z</time>
      </trkpt>
      <trkpt lat="43.384982666666666" lon="-5.834232">
        <ele>227.13333333333333</ele>
        <time>2024-09-23T17:55:42Z</time>
      </trkpt>
      <trkpt lat="43.38502533333333" lon="-5.8342719999999995">
        <ele>227.56666666666666</ele>
        <time>2024-09-23T17:55:43Z</time>
      </trkpt>
    </trkseg>
    <trkseg>
      <trkpt lat="43.387152" lon="-5.832685">
        <ele>227.0</ele>
        <time>2024-09-23T17:56:31Z</time>
      </trkpt>
      <trkpt lat="43.3872135" lon="-5.832685">
        <ele>227.5</ele>
        <time>2024-09-23T17:56:32Z</time>
      </trkpt>
    </trkseg>
    <trkseg>
      <trkpt lat="43.386489" lon="-5.828142">
        <ele>200.0</ele>
        <time>2024-09-23T17:58:35Z</time>
      </trkpt>
      <trkpt lat="43.386472999999995" lon="-5.8280899999999995">
        <ele>197.0</ele>
        <time>2024-09-23T17:58:36Z</time>
      </trkpt>
    </trkseg>
    <trkseg>
      <trkpt lat="43.386118" lon="-5.827985">
        <ele>184.0</ele>
        <time>2024-09-23T17:59:37Z</time>
      </trkpt>
      <trkpt lat="43.386118" lon="-5.827934">
        <ele>183.0</ele>
        <time>2024-09-23T17:59:38Z</time>
      </trkpt>
    </trkseg>
    <trkseg>
      <trkpt lat="43.385001" lon="-5.826053">
        <ele>177.0</ele>
        <time>2024-09-23T18:00:32Z</time>
      </trkpt>
      <trkpt lat="43.3849765" lon="-5.82596425">
        <ele>176.75</ele>
        <time>2024-09-23T18:00:33Z</time>
      </trkpt>
      <trkpt lat="43.384952" lon="-5.8258755">
        <ele>176.5</ele>
        <time>2024-09-23T18:00:34Z</time>
      </trkpt>
      <trkpt lat="43.3849275" lon="-5.82578675">
        <ele>176.25</ele>
        <time>2024-09-23T18:00:35Z</time>
      </trkpt>
    </trkseg>
    <trkseg>
      <trkpt lat="43.384279" lon="-5.824915">
        <ele>173.0</ele>
        <time>2024-09-23T18:00:56Z</time>
      </trkpt>
      <trkpt lat="43.384264" lon="-5.824839">
        <ele>172.5</ele>
        <time>2024-09-23T18:00:57Z</time>
      </trkpt>
    </trkseg>
    <trkseg>
      <trkpt lat="43.384364" lon="-5.822039">
        <ele>167.0</ele>
        <time>2024-09-23T18:01:47Z</time>
      </trkpt>
      <trkpt lat="43.384383" lon="-5.821984">
        <ele>166.3</ele>
        <time>2024-09-23T18:01:48Z</time>
      </trkpt>
    </trkseg>
  </trk>
</gpx>