<?xml version="1.0" encoding="UTF-8"?>
<gpx xmlns="http://www.topografix.com/GPX/1/1" xmlns:xsi="http://www.w3.org/2001/XMLSchema-instance" xsi:schemaLocation="http://www.topografix.com/GPX/1/1 http://www.topografix.com/GPX/1/1/gpx.xsd" version="1.1" creator="gpx.py -- https://github.com/tkrajina/gpxpy">
  <wpt lat="43.38491236885717" lon="-5.821535141845037">
    <ele>165.0</ele>
    <time>2024-09-23T16:40:24Z</time>
    <name>ANOM:DZ_HAMPEL</name>
    <desc>Tramo #1 (39-42), dur=4s
Causas: DZ_HAMPEL
vh_max=21.55 km/h | grade_ext=7.0% | vz_ext=24.0 m/min
max|dx|=1.04 m/s, max|dy|=5.89 m/s, max|dz|=0.40 m/s</desc>
  </wpt>
  <wpt lat="43.38460129232616" lon="-5.821450531546773">
    <ele>166.0</ele>
    <time>2024-09-23T16:40:30Z</time>
    <name>ANOM:DZ_HAMPEL</name>
    <desc>Tramo #2 (45-47), dur=3s
Causas: DZ_HAMPEL
vh_max=22.52 km/h | grade_ext=-8.5% | vz_ext=-30.4 m/min
max|dx|=2.56 m/s, max|dy|=5.86 m/s, max|dz|=0.51 m/s</desc>
  </wpt>
  <wpt lat="43.38404947567832" lon="-5.820959039406143">
    <ele>165.0</ele>
    <time>2024-09-23T16:40:42Z</time>
    <name>ANOM:DZ_HAMPEL</name>
    <desc>Tramo #3 (57-59), dur=3s
Causas: DZ_HAMPEL
vh_max=23.37 km/h | grade_ext=-7.3% | vz_ext=-28.5 m/min
max|dx|=5.00 m/s, max|dy|=4.36 m/s, max|dz|=0.47 m/s</desc>
  </wpt>
  <wpt lat="43.36926953612873" lon="-5.84709788581161">
    <ele>203.0</ele>
    <time>2024-09-23T16:51:53Z</time>
    <name>ANOM:DZ_HAMPEL</name>
    <desc>Tramo #4 (728-729), dur=2s
Causas: DZ_HAMPEL
vh_max=33.63 km/h | grade_ext=12.5% | vz_ext=70.3 m/min
max|dx|=8.96 m/s, max|dy|=3.95 m/s, max|dz|=1.17 m/s</desc>
  </wpt>
  <wpt lat="43.369719245600095" lon="-5.847710114000238">
    <ele>210.0</ele>
    <time>2024-09-23T16:52:18Z</time>
    <name>ANOM:DZ_HAMPEL</name>
    <desc>Tramo #5 (753-755), dur=3s
Causas: DZ_HAMPEL
vh_max=10.83 km/h | grade_ext=0.0% | vz_ext=0.0 m/min
max|dx|=2.64 m/s, max|dy|=1.45 m/s, max|dz|=0.00 m/s</desc>
  </wpt>
  <wpt lat="43.37035342915822" lon="-5.849434345849016">
    <ele>212.0</ele>
    <time>2024-09-23T16:52:59Z</time>
    <name>ANOM:DZ_HAMPEL</name>
    <desc>Tramo #6 (794-798), dur=5s
Causas: DZ_HAMPEL
vh_max=16.82 km/h | grade_ext=9.3% | vz_ext=25.3 m/min
max|dx|=3.45 m/s, max|dy|=4.62 m/s, max|dz|=0.42 m/s</desc>
  </wpt>
  <wpt lat="43.36778601829712" lon="-5.852754740248393">
    <ele>216.93040354777963</ele>
    <time>2024-09-23T16:54:14Z</time>
    <name>ANOM:DZ_HAMPEL</name>
    <desc>Tramo #7 (869-874), dur=6s
Causas: DZ_HAMPEL
vh_max=17.73 km/h | grade_ext=29.1% | vz_ext=69.6 m/min
max|dx|=4.25 m/s, max|dy|=3.56 m/s, max|dz|=1.16 m/s</desc>
  </wpt>
  <wpt lat="43.37055" lon="-5.85557">
    <ele>242.0</ele>
    <time>2024-09-23T16:56:38Z</time>
    <name>ANOM:DZ_HAMPEL</name>
    <desc>Tramo #8 (1013-1015), dur=3s
Causas: DZ_HAMPEL
vh_max=7.15 km/h | grade_ext=8.8% | vz_ext=10.5 m/min
max|dx|=1.95 m/s, max|dy|=0.37 m/s, max|dz|=0.18 m/s</desc>
  </wpt>
  <wpt lat="43.370282871092186" lon="-5.857408742184361">
    <ele>259.9166532328525</ele>
    <time>2024-09-23T16:57:51Z</time>
    <name>ANOM:DZ_HAMPEL</name>
    <desc>Tramo #9 (1086-1090), dur=5s
Causas: DZ_HAMPEL
vh_max=8.05 km/h | grade_ext=9.7% | vz_ext=13.1 m/min
max|dx|=1.84 m/s, max|dy|=1.27 m/s, max|dz|=0.22 m/s</desc>
  </wpt>
  <wpt lat="43.37733339231029" lon="-5.866599042629544">
    <ele>330.9965450024474</ele>
    <time>2024-09-23T17:04:53Z</time>
    <name>ANOM:DZ_HAMPEL</name>
    <desc>Tramo #10 (1508-1511), dur=4s
Causas: DZ_HAMPEL
vh_max=7.99 km/h | grade_ext=5.7% | vz_ext=7.6 m/min
max|dx|=1.82 m/s, max|dy|=1.42 m/s, max|dz|=0.13 m/s</desc>
  </wpt>
  <wpt lat="43.38750892652628" lon="-5.851567390767916">
    <ele>560.0</ele>
    <time>2024-09-23T17:26:55Z</time>
    <name>ANOM:DZ_HAMPEL</name>
    <desc>Tramo #11 (2830-2833), dur=4s
Causas: DZ_HAMPEL
vh_max=6.37 km/h | grade_ext=2.3% | vz_ext=2.4 m/min
max|dx|=0.50 m/s, max|dy|=1.73 m/s, max|dz|=0.04 m/s</desc>
  </wpt>
  <wpt lat="43.388056263605705" lon="-5.852563170075229">
    <ele>569.6738095979555</ele>
    <time>2024-09-23T17:27:59Z</time>
    <name>ANOM:DZ_HAMPEL</name>
    <desc>Tramo #12 (2894-2898), dur=5s
Causas: DZ_HAMPEL
vh_max=6.97 km/h | grade_ext=12.7% | vz_ext=14.8 m/min
max|dx|=1.93 m/s, max|dy|=0.10 m/s, max|dz|=0.25 m/s</desc>
  </wpt>
  <wpt lat="43.38511793366186" lon="-5.854261627424774">
    <ele>591.0</ele>
    <time>2024-09-23T17:30:33Z</time>
    <name>ANOM:DZ_HAMPEL</name>
    <desc>Tramo #13 (3048-3049), dur=2s
Causas: DZ_HAMPEL
vh_max=14.08 km/h | grade_ext=-12.8% | vz_ext=-30.1 m/min
max|dx|=1.18 m/s, max|dy|=3.74 m/s, max|dz|=0.50 m/s</desc>
  </wpt>
  <wpt lat="43.38487615180194" lon="-5.854382697642773">
    <ele>590.0</ele>
    <time>2024-09-23T17:30:40Z</time>
    <name>ANOM:DZ_HAMPEL</name>
    <desc>Tramo #14 (3055-3058), dur=4s
Causas: DZ_HAMPEL
vh_max=19.72 km/h | grade_ext=-6.7% | vz_ext=-21.3 m/min
max|dx|=2.25 m/s, max|dy|=5.11 m/s, max|dz|=0.36 m/s</desc>
  </wpt>
  <wpt lat="43.38655593983256" lon="-5.854031281444216">
    <ele>586.8075913701163</ele>
    <time>2024-09-23T17:31:51Z</time>
    <name>ANOM:DZ_HAMPEL</name>
    <desc>Tramo #15 (3126-3128), dur=3s
Causas: DZ_HAMPEL
vh_max=22.45 km/h | grade_ext=-4.8% | vz_ext=-17.8 m/min
max|dx|=2.91 m/s, max|dy|=5.60 m/s, max|dz|=0.30 m/s</desc>
  </wpt>
  <wpt lat="43.387664686043834" lon="-5.85424020102919">
    <ele>584.0</ele>
    <time>2024-09-23T17:32:11Z</time>
    <name>ANOM:DZ_HAMPEL</name>
    <desc>Tramo #16 (3146-3147), dur=2s
Causas: DZ_HAMPEL
vh_max=27.89 km/h | grade_ext=-10.7% | vz_ext=-49.6 m/min
max|dx|=2.92 m/s, max|dy|=7.18 m/s, max|dz|=0.83 m/s</desc>
  </wpt>
  <wpt lat="43.38805994477427" lon="-5.852989149523742">
    <ele>573.9889548537844</ele>
    <time>2024-09-23T17:32:24Z</time>
    <name>ANOM:DZ_HAMPEL,VH</name>
    <desc>Tramo #17 (3159-3163), dur=5s
Causas: DZ_HAMPEL,VH
vh_max=45.97 km/h | grade_ext=-16.0% | vz_ext=-119.2 m/min
max|dx|=12.73 m/s, max|dy|=1.10 m/s, max|dz|=1.99 m/s</desc>
  </wpt>
  <wpt lat="43.387173" lon="-5.8497343547697485">
    <ele>542.0287551692718</ele>
    <time>2024-09-23T17:32:57Z</time>
    <name>ANOM:DZ_HAMPEL</name>
    <desc>Tramo #18 (3192-3193), dur=2s
Causas: DZ_HAMPEL
vh_max=29.06 km/h | grade_ext=-10.8% | vz_ext=-50.1 m/min
max|dx|=7.67 m/s, max|dy|=5.38 m/s, max|dz|=0.84 m/s</desc>
  </wpt>
  <wpt lat="43.3864827965306" lon="-5.84959524212788">
    <ele>534.2550140422487</ele>
    <time>2024-09-23T17:33:06Z</time>
    <name>ANOM:DZ_HAMPEL,VH</name>
    <desc>Tramo #19 (3201-3202), dur=2s
Causas: DZ_HAMPEL,VH
vh_max=47.36 km/h | grade_ext=-9.9% | vz_ext=-78.1 m/min
max|dx|=2.39 m/s, max|dy|=12.94 m/s, max|dz|=1.30 m/s</desc>
  </wpt>
  <wpt lat="43.386144878023" lon="-5.849558170729363">
    <ele>531.1170729363374</ele>
    <time>2024-09-23T17:33:09Z</time>
    <name>ANOM:VH</name>
    <desc>Tramo #20 (3204-3210), dur=7s
Causas: VH
vh_max=46.23 km/h | grade_ext=-8.0% | vz_ext=-61.6 m/min
max|dx|=2.53 m/s, max|dy|=12.83 m/s, max|dz|=1.03 m/s</desc>
  </wpt>
  <wpt lat="43.384680177197126" lon="-5.850932514251796">
    <ele>513.1724681491539</ele>
    <time>2024-09-23T17:33:28Z</time>
    <name>ANOM:DZ_HAMPEL</name>
    <desc>Tramo #21 (3223-3224), dur=2s
Causas: DZ_HAMPEL
vh_max=36.04 km/h | grade_ext=-6.9% | vz_ext=-39.6 m/min
max|dx|=4.36 m/s, max|dy|=9.01 m/s, max|dz|=0.66 m/s</desc>
  </wpt>
  <wpt lat="43.384030288831376" lon="-5.851688339877739">
    <ele>504.110674817382</ele>
    <time>2024-09-23T17:33:38Z</time>
    <name>ANOM:DZ_HAMPEL,VH,VT</name>
    <desc>Tramo #22 (3233-3264), dur=32s
Causas: DZ_HAMPEL,VH,VT
vh_max=50.72 km/h | grade_ext=-9.6% | vz_ext=-76.6 m/min
max|dx|=13.49 m/s, max|dy|=12.84 m/s, max|dz|=1.28 m/s</desc>
  </wpt>
  <wpt lat="43.382292" lon="-5.855886">
    <ele>470.0</ele>
    <time>2024-09-23T17:34:12Z</time>
    <name>ANOM:DZ_HAMPEL</name>
    <desc>Tramo #23 (3267-3268), dur=2s
Causas: DZ_HAMPEL
vh_max=40.65 km/h | grade_ext=-6.0% | vz_ext=-40.7 m/min
max|dx|=10.09 m/s, max|dy|=6.05 m/s, max|dz|=0.68 m/s</desc>
  </wpt>
  <wpt lat="43.38195463126058" lon="-5.856375766358783">
    <ele>466.1096006244939</ele>
    <time>2024-09-23T17:34:17Z</time>
    <name>ANOM:DZ_HAMPEL,VH,VT</name>
    <desc>Tramo #24 (3272-3298), dur=27s
Causas: DZ_HAMPEL,VH,VT
vh_max=53.79 km/h | grade_ext=-14.1% | vz_ext=-118.0 m/min
max|dx|=14.43 m/s, max|dy|=10.72 m/s, max|dz|=1.97 m/s</desc>
  </wpt>
  <wpt lat="43.3807076177264" lon="-5.861699414190212">
    <ele>426.96366315294176</ele>
    <time>2024-09-23T17:34:52Z</time>
    <name>ANOM:DZ_HAMPEL,VH,VT</name>
    <desc>Tramo #25 (3307-3336), dur=30s
Causas: DZ_HAMPEL,VH,VT
vh_max=53.63 km/h | grade_ext=-11.9% | vz_ext=-99.0 m/min
max|dx|=14.71 m/s, max|dy|=7.08 m/s, max|dz|=1.65 m/s</desc>
  </wpt>
  <wpt lat="43.37924250978812" lon="-5.866048995701972">
    <ele>369.0948591384774</ele>
    <time>2024-09-23T17:35:57Z</time>
    <name>ANOM:VH</name>
    <desc>Tramo #26 (3372-3379), dur=8s
Causas: VH
vh_max=44.80 km/h | grade_ext=-8.3% | vz_ext=-61.4 m/min
max|dx|=12.35 m/s, max|dy|=5.05 m/s, max|dz|=1.02 m/s</desc>
  </wpt>
  <wpt lat="43.37895247230205" lon="-5.8646227778938975">
    <ele>362.02460338196016</ele>
    <time>2024-09-23T17:36:07Z</time>
    <name>ANOM:VH</name>
    <desc>Tramo #27 (3382-3384), dur=3s
Causas: VH
vh_max=44.97 km/h | grade_ext=-8.1% | vz_ext=-60.5 m/min
max|dx|=10.14 m/s, max|dy|=8.52 m/s, max|dz|=1.01 m/s</desc>
  </wpt>
  <wpt lat="43.37868632513503" lon="-5.864149119183848">
    <ele>359.08160632135326</ele>
    <time>2024-09-23T17:36:11Z</time>
    <name>ANOM:VH</name>
    <desc>Tramo #28 (3386-3387), dur=2s
Causas: VH
vh_max=47.23 km/h | grade_ext=-7.2% | vz_ext=-52.5 m/min
max|dx|=13.04 m/s, max|dy|=1.47 m/s, max|dz|=0.88 m/s</desc>
  </wpt>
  <wpt lat="43.375958263363934" lon="-5.86465113098677">
    <ele>316.0</ele>
    <time>2024-09-23T17:37:25Z</time>
    <name>ANOM:DZ_HAMPEL</name>
    <desc>Tramo #29 (3460-3461), dur=2s
Causas: DZ_HAMPEL
vh_max=32.59 km/h | grade_ext=-11.0% | vz_ext=-60.0 m/min
max|dx|=3.85 m/s, max|dy|=8.22 m/s, max|dz|=1.00 m/s</desc>
  </wpt>
  <wpt lat="43.37476495522272" lon="-5.8643651489710935">
    <ele>308.6505209690801</ele>
    <time>2024-09-23T17:37:38Z</time>
    <name>ANOM:DZ_HAMPEL,VH</name>
    <desc>Tramo #30 (3473-3474), dur=2s
Causas: DZ_HAMPEL,VH
vh_max=46.54 km/h | grade_ext=-5.0% | vz_ext=-39.0 m/min
max|dx|=9.96 m/s, max|dy|=9.81 m/s, max|dz|=0.65 m/s</desc>
  </wpt>
  <wpt lat="43.373167625709634" lon="-5.862192560681251">
    <ele>293.0260113541883</ele>
    <time>2024-09-23T17:38:04Z</time>
    <name>ANOM:DZ_HAMPEL</name>
    <desc>Tramo #31 (3499-3500), dur=2s
Causas: DZ_HAMPEL
vh_max=23.07 km/h | grade_ext=-13.8% | vz_ext=-52.9 m/min
max|dx|=3.99 m/s, max|dy|=5.02 m/s, max|dz|=0.88 m/s</desc>
  </wpt>
  <wpt lat="43.37673952813655" lon="-5.857244621992611">
    <ele>258.8155498152693</ele>
    <time>2024-09-23T17:46:17Z</time>
    <name>ANOM:DZ_HAMPEL</name>
    <desc>Tramo #32 (3992-3993), dur=2s
Causas: DZ_HAMPEL
vh_max=26.33 km/h | grade_ext=-13.0% | vz_ext=-57.2 m/min
max|dx|=3.41 m/s, max|dy|=6.63 m/s, max|dz|=0.95 m/s</desc>
  </wpt>
  <wpt lat="43.378061984697794" lon="-5.847343057638301">
    <ele>243.99974496327175</ele>
    <time>2024-09-23T17:49:41Z</time>
    <name>ANOM:DZ_HAMPEL</name>
    <desc>Tramo #33 (4196-4200), dur=5s
Causas: DZ_HAMPEL
vh_max=8.41 km/h | grade_ext=16.6% | vz_ext=23.3 m/min
max|dx|=1.60 m/s, max|dy|=1.70 m/s, max|dz|=0.39 m/s</desc>
  </wpt>
  <wpt lat="43.38401366493293" lon="-5.836473435593599">
    <ele>248.9432992993743</ele>
    <time>2024-09-23T17:54:41Z</time>
    <name>ANOM:DZ_HAMPEL</name>
    <desc>Tramo #34 (4496-4498), dur=3s
Causas: DZ_HAMPEL
vh_max=39.49 km/h | grade_ext=-12.0% | vz_ext=-78.9 m/min
max|dx|=8.55 m/s, max|dy|=6.87 m/s, max|dz|=1.31 m/s</desc>
  </wpt>
  <wpt lat="43.38442594226977" lon="-5.833740836327784">
    <ele>227.9788116024894</ele>
    <time>2024-09-23T17:55:26Z</time>
    <name>ANOM:DZ_HAMPEL</name>
    <desc>Tramo #35 (4541-4544), dur=4s
Causas: DZ_HAMPEL
vh_max=17.92 km/h | grade_ext=-8.1% | vz_ext=-18.8 m/min
max|dx|=2.62 m/s, max|dy|=4.24 m/s, max|dz|=0.31 m/s</desc>
  </wpt>
  <wpt lat="43.38709453095683" lon="-5.832692792412633">
    <ele>227.0</ele>
    <time>2024-09-23T17:56:30Z</time>
    <name>ANOM:DZ_HAMPEL</name>
    <desc>Tramo #36 (4605-4607), dur=3s
Causas: DZ_HAMPEL
vh_max=24.26 km/h | grade_ext=7.3% | vz_ext=28.2 m/min
max|dx|=0.63 m/s, max|dy|=6.71 m/s, max|dz|=0.47 m/s</desc>
  </wpt>
  <wpt lat="43.38426985209759" lon="-5.824868650627782">
    <ele>172.69506991962024</ele>
    <time>2024-09-23T18:00:57Z</time>
    <name>ANOM:DZ_HAMPEL</name>
    <desc>Tramo #37 (4872-4873), dur=2s
Causas: DZ_HAMPEL
vh_max=19.67 km/h | grade_ext=-8.0% | vz_ext=-25.9 m/min
max|dx|=5.46 m/s, max|dy|=0.86 m/s, max|dz|=0.43 m/s</desc>
  </wpt>
  <wpt lat="43.38436325502943" lon="-5.822041441847981">
    <ele>167.0</ele>
    <time>2024-09-23T18:01:47Z</time>
    <name>ANOM:DZ_HAMPEL</name>
    <desc>Tramo #38 (4922-4924), dur=3s
Causas: DZ_HAMPEL
vh_max=18.25 km/h | grade_ext=-13.6% | vz_ext=-40.2 m/min
max|dx|=4.45 m/s, max|dy|=4.81 m/s, max|dz|=0.67 m/s</desc>
  </wpt>
  <trk>
    <name>16_pattern_aligned_resampled_anomalies</name>
    <trkseg>
      <trkpt lat="43.38491236885717" lon="-5.821535141845037">
        <ele>165.0</ele>
        <time>2024-09-23T16:40:24Z</time>
      </trkpt>
      <trkpt lat="43.384861494618356" lon="-5.821525759699643">
        <ele>165.33265081283471</ele>
        <time>2024-09-23T16:40:25Z</time>
      </trkpt>
      <trkpt lat="43.384810283315176" lon="-5.821514626807647">
        <ele>165.73343492468376</ele>
        <time>2024-09-23T16:40:26Z</time>
      </trkpt>
      <trkpt lat="43.38475786505649" lon="-5.821503773011299">
        <ele>165.94447849071997</ele>
        <time>2024-09-23T16:40:27Z</time>
      </trkpt>
    </trkseg>
    <trkseg>
      <trkpt lat="43.38460129232616" lon="-5.821450531546773">
        <ele>166.0</ele>
        <time>2024-09-23T16:40:30Z</time>
      </trkpt>
      <trkpt lat="43.384548615608495" lon="-5.821423391098037">
        <ele>165.7898516339409</ele>
        <time>2024-09-23T16:40:31Z</time>
      </trkpt>
      <trkpt lat="43.38449949280503" lon="-5.821393005858781">
        <ele>165.2834309796758</ele>
        <time>2024-09-23T16:40:32Z</time>
      </trkpt>
    </trkseg>
    <trkseg>
      <trkpt lat="43.38404947567832" lon="-5.820959039406143">
        <ele>165.0</ele>
        <time>2024-09-23T16:40:42Z</time>
      </trkpt>
      <trkpt lat="43.38401022806249" lon="-5.820899577932124">
        <ele>164.5252128568801</ele>
        <time>2024-09-23T16:40:43Z</time>
      </trkpt>
      <trkpt lat="43.38397656849718" lon="-5.820839129969007">
        <ele>164.1003512675883</ele>
        <time>2024-09-23T16:40:44Z</time>
      </trkpt>
    </trkseg>
    <trkseg>
      <trkpt lat="43.36926953612873" lon="-5.84709788581161">
        <ele>203.0</ele>
        <time>2024-09-23T16:51:53Z</time>
      </trkpt>
      <trkpt lat="43.36929319565825" lon="-5.847208796447656">
        <ele>204.17137218500804</ele>
        <time>2024-09-23T16:51:54Z</time>
      </trkpt>
    </trkseg>
    <trkseg>
      <trkpt lat="43.369719245600095" lon="-5.847710114000238">
        <ele>210.0</ele>
        <time>2024-09-23T16:52:18Z</time>
      </trkpt>
      <trkpt lat="43.369732290464874" lon="-5.847742726162198">
        <ele>210.0</ele>
        <time>2024-09-23T16:52:19Z</time>
      </trkpt>
      <trkpt lat="43.36974533532966" lon="-5.847775338324158">
        <ele>210.0</ele>
        <time>2024-09-23T16:52:20Z</time>
      </trkpt>
    </trkseg>
    <trkseg>
      <trkpt lat="43.37035342915822" lon="-5.849434345849016">
        <ele>212.0</ele>
        <time>2024-09-23T16:52:59Z</time>
      </trkpt>
      <trkpt lat="43.370325091563316" lon="-5.849477052187354">
        <ele>212.00809374888036</ele>
        <time>2024-09-23T16:53:00Z</time>
      </trkpt>
      <trkpt lat="43.37028357553444" lon="-5.849484445452772">
        <ele>212.06496502132387</ele>
        <time>2024-09-23T16:53:01Z</time>
      </trkpt>
      <trkpt lat="43.37024236856372" lon="-5.849490437373451">
        <ele>212.26170451317705</ele>
        <time>2024-09-23T16:53:02Z</time>
      </trkpt>
      <trkpt lat="43.37020165745769" lon="-5.849494180923431">
        <ele>212.68285388596865</ele>
        <time>2024-09-23T16:53:03Z</time>
      </trkpt>
    </trkseg>
    <trkseg>
      <trkpt lat="43.36778601829712" lon="-5.852754740248393">
        <ele>216.93040354777963</ele>
        <time>2024-09-23T16:54:14Z</time>
      </trkpt>
      <trkpt lat="43.36779434490806" lon="-5.8528072805110485">
        <ele>217.50876597027386</ele>
        <time>2024-09-23T16:54:15Z</time>
      </trkpt>
      <trkpt lat="43.367817918694016" lon="-5.852844380239757">
        <ele>218.66813249240616</ele>
        <time>2024-09-23T16:54:16Z</time>
      </trkpt>
      <trkpt lat="43.36784149247997" lon="-5.852881479968465">
        <ele>219.82749901453846</ele>
        <time>2024-09-23T16:54:17Z</time>
      </trkpt>
      <trkpt lat="43.36786951991906" lon="-5.852926392656851">
        <ele>220.40196588623076</ele>
        <time>2024-09-23T16:54:18Z</time>
      </trkpt>
      <trkpt lat="43.36789832584269" lon="-5.852972671025963">
        <ele>220.87419414248072</ele>
        <time>2024-09-23T16:54:19Z</time>
      </trkpt>
    </trkseg>
    <trkseg>
      <trkpt lat="43.37055" lon="-5.85557">
        <ele>242.0</ele>
        <time>2024-09-23T16:56:38Z</time>
      </trkpt>
      <trkpt lat="43.37055332617739" lon="-5.855594158551523">
        <ele>242.17506196755997</ele>
        <time>2024-09-23T16:56:39Z</time>
      </trkpt>
      <trkpt lat="43.37055665235477" lon="-5.855618317103047">
        <ele>242.35012393511994</ele>
        <time>2024-09-23T16:56:40Z</time>
      </trkpt>
    </trkseg>
    <trkseg>
      <trkpt lat="43.370282871092186" lon="-5.857408742184361">
        <ele>259.9166532328525</ele>
        <time>2024-09-23T16:57:51Z</time>
      </trkpt>
      <trkpt lat="43.37029426372607" lon="-5.857431527452143">
        <ele>260.1344535866608</ele>
        <time>2024-09-23T16:57:52Z</time>
      </trkpt>
      <trkpt lat="43.37030565635997" lon="-5.857454312719926">
        <ele>260.3522539404691</ele>
        <time>2024-09-23T16:57:53Z</time>
      </trkpt>
      <trkpt lat="43.370317048993854" lon="-5.857477097987709">
        <ele>260.57005429427744</ele>
        <time>2024-09-23T16:57:54Z</time>
      </trkpt>
      <trkpt lat="43.37032844162775" lon="-5.857499883255492">
        <ele>260.7878546480857</ele>
        <time>2024-09-23T16:57:55Z</time>
      </trkpt>
    </trkseg>
    <trkseg>
      <trkpt lat="43.37733339231029" lon="-5.866599042629544">
        <ele>330.9965450024474</ele>
        <time>2024-09-23T17:04:53Z</time>
      </trkpt>
      <trkpt lat="43.377346199451026" lon="-5.866578855102614">
        <ele>331.1050800934704</ele>
        <time>2024-09-23T17:04:54Z</time>
      </trkpt>
      <trkpt lat="43.37735900659177" lon="-5.866558667575684">
        <ele>331.21361518449334</ele>
        <time>2024-09-23T17:04:55Z</time>
      </trkpt>
      <trkpt lat="43.37737181373251" lon="-5.866538480048754">
        <ele>331.3221502755163</ele>
        <time>2024-09-23T17:04:56Z</time>
      </trkpt>
    </trkseg>
    <trkseg>
      <trkpt lat="43.38750892652628" lon="-5.851567390767916">
        <ele>560.0</ele>
        <time>2024-09-23T17:26:55Z</time>
      </trkpt>
      <trkpt lat="43.387524170554435" lon="-5.851561143215395">
        <ele>560.0</ele>
        <time>2024-09-23T17:26:56Z</time>
      </trkpt>
      <trkpt lat="43.387539414582584" lon="-5.851554895662874">
        <ele>560.0</ele>
        <time>2024-09-23T17:26:57Z</time>
      </trkpt>
      <trkpt lat="43.38755465861074" lon="-5.851548648110352">
        <ele>560.0</ele>
        <time>2024-09-23T17:26:58Z</time>
      </trkpt>
    </trkseg>
    <trkseg>
      <trkpt lat="43.388056263605705" lon="-5.852563170075229">
        <ele>569.6738095979555</ele>
        <time>2024-09-23T17:27:59Z</time>
      </trkpt>
      <trkpt lat="43.38805714330305" lon="-5.852587097842929">
        <ele>569.9201248536843</ele>
        <time>2024-09-23T17:28:00Z</time>
      </trkpt>
      <trkpt lat="43.38805802300039" lon="-5.852611025610629">
        <ele>570.1664401094132</ele>
        <time>2024-09-23T17:28:01Z</time>
      </trkpt>
      <trkpt lat="43.38805890269773" lon="-5.852634953378328">
        <ele>570.4127553651422</ele>
        <time>2024-09-23T17:28:02Z</time>
      </trkpt>
      <trkpt lat="43.388059782395075" lon="-5.852658881146027">
        <ele>570.659070620871</ele>
        <time>2024-09-23T17:28:03Z</time>
      </trkpt>
    </trkseg>
    <trkseg>
      <trkpt lat="43.38511793366186" lon="-5.854261627424774">
        <ele>591.0</ele>
        <time>2024-09-23T17:30:33Z</time>
      </trkpt>
      <trkpt lat="43.38508499973485" lon="-5.854276194140659">
        <ele>590.6716378336305</ele>
        <time>2024-09-23T17:30:34Z</time>
      </trkpt>
    </trkseg>
    <trkseg>
      <trkpt lat="43.38487615180194" lon="-5.854382697642773">
        <ele>590.0</ele>
        <time>2024-09-23T17:30:40Z</time>
      </trkpt>
      <trkpt lat="43.38483840896584" lon="-5.854409927623216">
        <ele>589.816829452744</ele>
        <time>2024-09-23T17:30:41Z</time>
      </trkpt>
      <trkpt lat="43.384795928522244" lon="-5.854437810372528">
        <ele>589.4741375353045</ele>
        <time>2024-09-23T17:30:42Z</time>
      </trkpt>
      <trkpt lat="43.384751750343014" lon="-5.854462692335543">
        <ele>589.1186809208155</ele>
        <time>2024-09-23T17:30:43Z</time>
      </trkpt>
    </trkseg>
    <trkseg>
      <trkpt lat="43.38655593983256" lon="-5.854031281444216">
        <ele>586.8075913701163</ele>
        <time>2024-09-23T17:31:51Z</time>
      </trkpt>
      <trkpt lat="43.38660528810831" lon="-5.854067252175338">
        <ele>586.5103126005174</ele>
        <time>2024-09-23T17:31:52Z</time>
      </trkpt>
      <trkpt lat="43.386654636384065" lon="-5.854103222906459">
        <ele>586.2130338309186</ele>
        <time>2024-09-23T17:31:53Z</time>
      </trkpt>
    </trkseg>
    <trkseg>
      <trkpt lat="43.387664686043834" lon="-5.85424020102919">
        <ele>584.0</ele>
        <time>2024-09-23T17:32:11Z</time>
      </trkpt>
      <trkpt lat="43.387727766964524" lon="-5.854226856988275">
        <ele>584.0</ele>
        <time>2024-09-23T17:32:12Z</time>
      </trkpt>
    </trkseg>
    <trkseg>
      <trkpt lat="43.38805994477427" lon="-5.852989149523742">
        <ele>573.9889548537844</ele>
        <time>2024-09-23T17:32:24Z</time>
      </trkpt>
      <trkpt lat="43.388050010302045" lon="-5.8528361586515345">
        <ele>572.0020604095387</ele>
        <time>2024-09-23T17:32:25Z</time>
      </trkpt>
      <trkpt lat="43.38804125680708" lon="-5.85267862252739">
        <ele>570.8758751956444</ele>
        <time>2024-09-23T17:32:26Z</time>
      </trkpt>
      <trkpt lat="43.38803250453805" lon="-5.852521081684927">
        <ele>569.750583463763</ele>
        <time>2024-09-23T17:32:27Z</time>
      </trkpt>
      <trkpt lat="43.38802375226903" lon="-5.852363540842463">
        <ele>568.6252917318815</ele>
        <time>2024-09-23T17:32:28Z</time>
      </trkpt>
    </trkseg>
    <trkseg>
      <trkpt lat="43.387173" lon="-5.8497343547697485">
        <ele>542.0287551692718</ele>
        <time>2024-09-23T17:32:57Z</time>
      </trkpt>
      <trkpt lat="43.38716436197975" lon="-5.849639477448809">
        <ele>541.193447918984</ele>
        <time>2024-09-23T17:32:58Z</time>
      </trkpt>
    </trkseg>
    <trkseg>
      <trkpt lat="43.3864827965306" lon="-5.84959524212788">
        <ele>534.2550140422487</ele>
        <time>2024-09-23T17:33:06Z</time>
      </trkpt>
      <trkpt lat="43.38636757681782" lon="-5.849600759954862">
        <ele>533.4419796882337</ele>
        <time>2024-09-23T17:33:07Z</time>
      </trkpt>
    </trkseg>
    <trkseg>
      <trkpt lat="43.386144878023" lon="-5.849558170729363">
        <ele>531.1170729363374</ele>
        <time>2024-09-23T17:33:09Z</time>
      </trkpt>
      <trkpt lat="43.38603063954181" lon="-5.849552495090747">
        <ele>530.0990181493603</ele>
        <time>2024-09-23T17:33:10Z</time>
      </trkpt>
      <trkpt lat="43.38591521822836" lon="-5.849547365254594">
        <ele>529.0730509187537</ele>
        <time>2024-09-23T17:33:11Z</time>
      </trkpt>
      <trkpt lat="43.38580480650591" lon="-5.849567254566397">
        <ele>528.0793378910568</ele>
        <time>2024-09-23T17:33:12Z</time>
      </trkpt>
      <trkpt lat="43.38569469426652" lon="-5.849597847148322">
        <ele>527.3185712994755</ele>
        <time>2024-09-23T17:33:13Z</time>
      </trkpt>
      <trkpt lat="43.385584574670716" lon="-5.849629204073586">
        <ele>526.5778565294747</ele>
        <time>2024-09-23T17:33:14Z</time>
      </trkpt>
      <trkpt lat="43.38547445507491" lon="-5.849660560998848">
        <ele>525.8371417594741</ele>
        <time>2024-09-23T17:33:15Z</time>
      </trkpt>
    </trkseg>
    <trkseg>
      <trkpt lat="43.384680177197126" lon="-5.850932514251796">
        <ele>513.1724681491539</ele>
        <time>2024-09-23T17:33:28Z</time>
      </trkpt>
      <trkpt lat="43.384599119751385" lon="-5.850986469167815">
        <ele>512.5882484461611</ele>
        <time>2024-09-23T17:33:29Z</time>
      </trkpt>
    </trkseg>
    <trkseg>
      <trkpt lat="43.384030288831376" lon="-5.851688339877739">
        <ele>504.110674817382</ele>
        <time>2024-09-23T17:33:38Z</time>
      </trkpt>
      <trkpt lat="43.38392139513666" lon="-5.85169246250802">
        <ele>503.1045425381235</ele>
        <time>2024-09-23T17:33:39Z</time>
      </trkpt>
      <trkpt lat="43.38381143318954" lon="-5.851695236777328">
        <ele>502.09571733524876</ele>
        <time>2024-09-23T17:33:40Z</time>
      </trkpt>
      <trkpt lat="43.38370147124243" lon="-5.851698011046636">
        <ele>501.08689213237403</ele>
        <time>2024-09-23T17:33:41Z</time>
      </trkpt>
      <trkpt lat="43.383591509295314" lon="-5.851700785315944">
        <ele>500.07806692949924</ele>
        <time>2024-09-23T17:33:42Z</time>
      </trkpt>
      <trkpt lat="43.38347648599216" lon="-5.851726933845386">
        <ele>499.120101674395</ele>
        <time>2024-09-23T17:33:43Z</time>
      </trkpt>
      <trkpt lat="43.38336103817006" lon="-5.851755042880333">
        <ele>498.1664022744225</ele>
        <time>2024-09-23T17:33:44Z</time>
      </trkpt>
      <trkpt lat="43.38324953465457" lon="-5.851807825081967">
        <ele>497.4646864754078</ele>
        <time>2024-09-23T17:33:45Z</time>
      </trkpt>
      <trkpt lat="43.38314266411365" lon="-5.85188168391897">
        <ele>497.0432004209369</ele>
        <time>2024-09-23T17:33:46Z</time>
      </trkpt>
      <trkpt lat="43.38304181675555" lon="-5.8519791832444525">
        <ele>496.0991591469454</ele>
        <time>2024-09-23T17:33:47Z</time>
      </trkpt>
      <trkpt lat="43.382954231977806" lon="-5.852099561766496">
        <ele>495.0630358771505</ele>
        <time>2024-09-23T17:33:48Z</time>
      </trkpt>
      <trkpt lat="43.38288247763812" lon="-5.852238196880382">
        <ele>494.0760783071677</ele>
        <time>2024-09-23T17:33:49Z</time>
      </trkpt>
      <trkpt lat="43.38282744911477" lon="-5.852389394174827">
        <ele>492.9906301156243</ele>
        <time>2024-09-23T17:33:50Z</time>
      </trkpt>
      <trkpt lat="43.38278608079079" lon="-5.852552378242412">
        <ele>492.0895783343086</ele>
        <time>2024-09-23T17:33:51Z</time>
      </trkpt>
      <trkpt lat="43.38274952651158" lon="-5.852719305860683">
        <ele>491.072186045167</ele>
        <time>2024-09-23T17:33:52Z</time>
      </trkpt>
      <trkpt lat="43.382713217314425" lon="-5.852884641802913">
        <ele>489.8430587130117</ele>
        <time>2024-09-23T17:33:53Z</time>
      </trkpt>
      <trkpt lat="43.38267689516582" lon="-5.853049832944487">
        <ele>488.5991495144027</ele>
        <time>2024-09-23T17:33:54Z</time>
      </trkpt>
      <trkpt lat="43.38264057301722" lon="-5.8532150240860625">
        <ele>487.3552403157937</ele>
        <time>2024-09-23T17:33:55Z</time>
      </trkpt>
      <trkpt lat="43.382604250868624" lon="-5.853380215227638">
        <ele>486.1113311171847</ele>
        <time>2024-09-23T17:33:56Z</time>
      </trkpt>
      <trkpt lat="43.38255924406041" lon="-5.853539654505008">
        <ele>485.1052298659301</ele>
        <time>2024-09-23T17:33:57Z</time>
      </trkpt>
      <trkpt lat="43.38251338356019" lon="-5.853698528380771">
        <ele>484.12250486121303</ele>
        <time>2024-09-23T17:33:58Z</time>
      </trkpt>
      <trkpt lat="43.38246752305997" lon="-5.8538574022565335">
        <ele>483.1397798564959</ele>
        <time>2024-09-23T17:33:59Z</time>
      </trkpt>
      <trkpt lat="43.38242590365394" lon="-5.854012460402862">
        <ele>481.9055978111188</ele>
        <time>2024-09-23T17:34:00Z</time>
      </trkpt>
      <trkpt lat="43.3823849875197" lon="-5.854166885812749">
        <ele>480.6297183562097</ele>
        <time>2024-09-23T17:34:01Z</time>
      </trkpt>
      <trkpt lat="43.38235423400801" lon="-5.8543204789479395">
        <ele>479.7015107581666</ele>
        <time>2024-09-23T17:34:02Z</time>
      </trkpt>
      <trkpt lat="43.3823306951953" lon="-5.854473481230585">
        <ele>479.0201240743207</ele>
        <time>2024-09-23T17:34:03Z</time>
      </trkpt>
      <trkpt lat="43.38230892939704" lon="-5.854630282994102">
        <ele>478.0422453201115</ele>
        <time>2024-09-23T17:34:04Z</time>
      </trkpt>
      <trkpt lat="43.38231377305495" lon="-5.854794155384865">
        <ele>477.0378241742998</ele>
        <time>2024-09-23T17:34:05Z</time>
      </trkpt>
      <trkpt lat="43.38231980428264" lon="-5.854958338805221">
        <ele>476.0326195598745</ele>
        <time>2024-09-23T17:34:06Z</time>
      </trkpt>
      <trkpt lat="43.38232583551033" lon="-5.855122522225577">
        <ele>475.0274149454492</ele>
        <time>2024-09-23T17:34:07Z</time>
      </trkpt>
      <trkpt lat="43.3823295601956" lon="-5.855282353990016">
        <ele>474.02903756240323</ele>
        <time>2024-09-23T17:34:08Z</time>
      </trkpt>
      <trkpt lat="43.3823332202108" lon="-5.855442063744156">
        <ele>473.03085159902736</ele>
        <time>2024-09-23T17:34:09Z</time>
      </trkpt>
    </trkseg>
    <trkseg>
      <trkpt lat="43.382292" lon="-5.855886">
        <ele>470.0</ele>
        <time>2024-09-23T17:34:12Z</time>
      </trkpt>
      <trkpt lat="43.38225133909962" lon="-5.856010819508154">
        <ele>469.71631929964906</ele>
        <time>2024-09-23T17:34:13Z</time>
      </trkpt>
    </trkseg>
    <trkseg>
      <trkpt lat="43.38195463126058" lon="-5.856375766358783">
        <ele>466.1096006244939</ele>
        <time>2024-09-23T17:34:17Z</time>
      </trkpt>
      <trkpt lat="43.38185822201184" lon="-5.856454331169102">
        <ele>465.09707380883304</ele>
        <time>2024-09-23T17:34:18Z</time>
      </trkpt>
      <trkpt lat="43.381772637611846" lon="-5.856559781106783">
        <ele>464.0687513639714</ele>
        <time>2024-09-23T17:34:19Z</time>
      </trkpt>
      <trkpt lat="43.38170136263713" lon="-5.856689713330589">
        <ele>463.0487338714116</ele>
        <time>2024-09-23T17:34:20Z</time>
      </trkpt>
      <trkpt lat="43.381642710069535" lon="-5.85682907068011">
        <ele>462.06288253443364</ele>
        <time>2024-09-23T17:34:21Z</time>
      </trkpt>
      <trkpt lat="43.38159081866844" lon="-5.856977998586033">
        <ele>461.090918272513</ele>
        <time>2024-09-23T17:34:22Z</time>
      </trkpt>
      <trkpt lat="43.38154002882219" lon="-5.857136480844554">
        <ele>459.12362539540584</ele>
        <time>2024-09-23T17:34:23Z</time>
      </trkpt>
      <trkpt lat="43.381486960078945" lon="-5.857300408899255">
        <ele>457.99920157890017</ele>
        <time>2024-09-23T17:34:24Z</time>
      </trkpt>
      <trkpt lat="43.38143374214237" lon="-5.857464624246396">
        <ele>456.9348428474333</ele>
        <time>2024-09-23T17:34:25Z</time>
      </trkpt>
      <trkpt lat="43.38137428735084" lon="-5.857624862275258">
        <ele>455.0724327764519</ele>
        <time>2024-09-23T17:34:26Z</time>
      </trkpt>
      <trkpt lat="43.38131541488673" lon="-5.857788287433492">
        <ele>454.0409302835829</ele>
        <time>2024-09-23T17:34:27Z</time>
      </trkpt>
      <trkpt lat="43.38125657405119" lon="-5.8579518450102475">
        <ele>453.04362798629705</ele>
        <time>2024-09-23T17:34:28Z</time>
      </trkpt>
      <trkpt lat="43.38119773321565" lon="-5.858115402587002">
        <ele>452.0463256890112</ele>
        <time>2024-09-23T17:34:29Z</time>
      </trkpt>
      <trkpt lat="43.38116148845469" lon="-5.858293430144733">
        <ele>451.0425272767802</ele>
        <time>2024-09-23T17:34:30Z</time>
      </trkpt>
      <trkpt lat="43.38113864624494" lon="-5.858468918164782">
        <ele>450.02937477005037</ele>
        <time>2024-09-23T17:34:31Z</time>
      </trkpt>
      <trkpt lat="43.38113425866012" lon="-5.858641424959784">
        <ele>449.0646650291384</ele>
        <time>2024-09-23T17:34:32Z</time>
      </trkpt>
      <trkpt lat="43.381148396436956" lon="-5.858819998668694">
        <ele>448.0402375362405</ele>
        <time>2024-09-23T17:34:33Z</time>
      </trkpt>
      <trkpt lat="43.38116598492413" lon="-5.85899118759992">
        <ele>447.0563931039088</ele>
        <time>2024-09-23T17:34:34Z</time>
      </trkpt>
      <trkpt lat="43.38116556886955" lon="-5.859168203741043">
        <ele>446.04591303256393</ele>
        <time>2024-09-23T17:34:35Z</time>
      </trkpt>
      <trkpt lat="43.38116405054796" lon="-5.859345594313076">
        <ele>445.03369864150704</ele>
        <time>2024-09-23T17:34:36Z</time>
      </trkpt>
      <trkpt lat="43.38116253222638" lon="-5.859522984885109">
        <ele>444.02148425045016</ele>
        <time>2024-09-23T17:34:37Z</time>
      </trkpt>
      <trkpt lat="43.38116101390479" lon="-5.859700375457142">
        <ele>443.00926985939327</ele>
        <time>2024-09-23T17:34:38Z</time>
      </trkpt>
      <trkpt lat="43.381145" lon="-5.859873">
        <ele>442.0</ele>
        <time>2024-09-23T17:34:39Z</time>
      </trkpt>
      <trkpt lat="43.38111080944791" lon="-5.860043866620459">
        <ele>440.0945183645654</ele>
        <time>2024-09-23T17:34:40Z</time>
      </trkpt>
      <trkpt lat="43.3810754762217" lon="-5.860204560197169">
        <ele>439.07808309019555</ele>
        <time>2024-09-23T17:34:41Z</time>
      </trkpt>
      <trkpt lat="43.3810401429955" lon="-5.860365253773879">
        <ele>438.0616478158258</ele>
        <time>2024-09-23T17:34:42Z</time>
      </trkpt>
      <trkpt lat="43.38101041235403" lon="-5.8605168793221445">
        <ele>437.0147269295498</ele>
        <time>2024-09-23T17:34:43Z</time>
      </trkpt>
    </trkseg>
    <trkseg>
      <trkpt lat="43.3807076177264" lon="-5.861699414190212">
        <ele>426.96366315294176</ele>
        <time>2024-09-23T17:34:52Z</time>
      </trkpt>
      <trkpt lat="43.38072422995125" lon="-5.8618480917777">
        <ele>425.9605797855515</ele>
        <time>2024-09-23T17:34:53Z</time>
      </trkpt>
      <trkpt lat="43.38073079146722" lon="-5.862000881543832">
        <ele>424.77156371218746</ele>
        <time>2024-09-23T17:34:54Z</time>
      </trkpt>
      <trkpt lat="43.38071852483624" lon="-5.862155940524325">
        <ele>423.2681045673852</ele>
        <time>2024-09-23T17:34:55Z</time>
      </trkpt>
      <trkpt lat="43.380680974293824" lon="-5.862303408889903">
        <ele>422.4553153050375</ele>
        <time>2024-09-23T17:34:56Z</time>
      </trkpt>
      <trkpt lat="43.38061738681944" lon="-5.862441805157693">
        <ele>421.05265042879466</ele>
        <time>2024-09-23T17:34:57Z</time>
      </trkpt>
      <trkpt lat="43.380555530132206" lon="-5.862579663551225">
        <ele>420.0850789570746</ele>
        <time>2024-09-23T17:34:58Z</time>
      </trkpt>
      <trkpt lat="43.380491863541" lon="-5.862721192131108">
        <ele>419.0771990635167</ele>
        <time>2024-09-23T17:34:59Z</time>
      </trkpt>
      <trkpt lat="43.380430500840404" lon="-5.862870422941005">
        <ele>418.0583473401062</ele>
        <time>2024-09-23T17:35:00Z</time>
      </trkpt>
      <trkpt lat="43.38038229079147" lon="-5.863031756462494">
        <ele>417.161702339974</ele>
        <time>2024-09-23T17:35:01Z</time>
      </trkpt>
      <trkpt lat="43.38036080919562" lon="-5.863207674650157">
        <ele>415.85536601625915</ele>
        <time>2024-09-23T17:35:02Z</time>
      </trkpt>
      <trkpt lat="43.38035111443326" lon="-5.863374940201387">
        <ele>415.0517417478949</ele>
        <time>2024-09-23T17:35:03Z</time>
      </trkpt>
      <trkpt lat="43.38034184514582" lon="-5.8635417873752305">
        <ele>414.2711701743602</ele>
        <time>2024-09-23T17:35:04Z</time>
      </trkpt>
      <trkpt lat="43.38033219660388" lon="-5.863711291100394">
        <ele>413.4586613794877</ele>
        <time>2024-09-23T17:35:05Z</time>
      </trkpt>
      <trkpt lat="43.380322510013514" lon="-5.863881061342118">
        <ele>412.64294850634053</ele>
        <time>2024-09-23T17:35:06Z</time>
      </trkpt>
      <trkpt lat="43.38031282342314" lon="-5.8640508315838415">
        <ele>411.8272356331933</ele>
        <time>2024-09-23T17:35:07Z</time>
      </trkpt>
      <trkpt lat="43.38030313683277" lon="-5.864220601825566">
        <ele>411.0115227600461</ele>
        <time>2024-09-23T17:35:08Z</time>
      </trkpt>
      <trkpt lat="43.380292905962946" lon="-5.864395608033567">
        <ele>409.68777518341295</ele>
        <time>2024-09-23T17:35:09Z</time>
      </trkpt>
      <trkpt lat="43.38028264279397" lon="-5.864570736945317">
        <ele>408.35237252944444</ele>
        <time>2024-09-23T17:35:10Z</time>
      </trkpt>
      <trkpt lat="43.380271650148046" lon="-5.864747285501">
        <ele>406.88668640679384</ele>
        <time>2024-09-23T17:35:11Z</time>
      </trkpt>
      <trkpt lat="43.38026065750213" lon="-5.8649238340566825">
        <ele>405.42100028414325</ele>
        <time>2024-09-23T17:35:12Z</time>
      </trkpt>
      <trkpt lat="43.380249405408485" lon="-5.86510054952079">
        <ele>403.9496884104281</ele>
        <time>2024-09-23T17:35:13Z</time>
      </trkpt>
      <trkpt lat="43.380229902931674" lon="-5.865282572637725">
        <ele>402.29947883381186</ele>
        <time>2024-09-23T17:35:14Z</time>
      </trkpt>
      <trkpt lat="43.38021011477946" lon="-5.865464535172119">
        <ele>400.65828271013345</ele>
        <time>2024-09-23T17:35:15Z</time>
      </trkpt>
      <trkpt lat="43.380181319628164" lon="-5.865644587612392">
        <ele>399.3012698330742</ele>
        <time>2024-09-23T17:35:16Z</time>
      </trkpt>
      <trkpt lat="43.38015252447688" lon="-5.865824640052666">
        <ele>397.9442569560149</ele>
        <time>2024-09-23T17:35:17Z</time>
      </trkpt>
      <trkpt lat="43.38012389020343" lon="-5.866004632627358">
        <ele>396.58758821306833</ele>
        <time>2024-09-23T17:35:18Z</time>
      </trkpt>
      <trkpt lat="43.38011220971654" lon="-5.86617831638884">
        <ele>395.26718534799727</ele>
        <time>2024-09-23T17:35:19Z</time>
      </trkpt>
      <trkpt lat="43.380101351937505" lon="-5.866351686812531">
        <ele>393.9608958331514</ele>
        <time>2024-09-23T17:35:20Z</time>
      </trkpt>
      <trkpt lat="43.380110186006306" lon="-5.866517576158705">
        <ele>392.99021019438175</ele>
        <time>2024-09-23T17:35:21Z</time>
      </trkpt>
    </trkseg>
    <trkseg>
      <trkpt lat="43.37924250978812" lon="-5.866048995701972">
        <ele>369.0948591384774</ele>
        <time>2024-09-23T17:35:57Z</time>
      </trkpt>
      <trkpt lat="43.379229716511" lon="-5.865896747664989">
        <ele>368.07165109992974</ele>
        <time>2024-09-23T17:35:58Z</time>
      </trkpt>
      <trkpt lat="43.37921581066019" lon="-5.865743931968308">
        <ele>367.37821683742146</ele>
        <time>2024-09-23T17:35:59Z</time>
      </trkpt>
      <trkpt lat="43.37920163089192" lon="-5.865591195607269">
        <ele>366.70974204773273</ele>
        <time>2024-09-23T17:36:00Z</time>
      </trkpt>
      <trkpt lat="43.379187451123656" lon="-5.865438459246231">
        <ele>366.041267258044</ele>
        <time>2024-09-23T17:36:01Z</time>
      </trkpt>
      <trkpt lat="43.37917327135539" lon="-5.865285722885194">
        <ele>365.3727924683553</ele>
        <time>2024-09-23T17:36:02Z</time>
      </trkpt>
      <trkpt lat="43.37915909158713" lon="-5.865132986524156">
        <ele>364.7043176786666</ele>
        <time>2024-09-23T17:36:03Z</time>
      </trkpt>
      <trkpt lat="43.379132801941296" lon="-5.864987425527905">
        <ele>364.0207910706926</ele>
        <time>2024-09-23T17:36:04Z</time>
      </trkpt>
    </trkseg>
    <trkseg>
      <trkpt lat="43.37895247230205" lon="-5.8646227778938975">
        <ele>362.02460338196016</ele>
        <time>2024-09-23T17:36:07Z</time>
      </trkpt>
      <trkpt lat="43.378876193906336" lon="-5.864510548914605">
        <ele>361.1209724518379</ele>
        <time>2024-09-23T17:36:08Z</time>
      </trkpt>
      <trkpt lat="43.37879953394069" lon="-5.864397576333657">
        <ele>360.11228869336117</ele>
        <time>2024-09-23T17:36:09Z</time>
      </trkpt>
    </trkseg>
    <trkseg>
      <trkpt lat="43.37868632513503" lon="-5.864149119183848">
        <ele>359.08160632135326</ele>
        <time>2024-09-23T17:36:11Z</time>
      </trkpt>
      <trkpt lat="43.37867308795122" lon="-5.863987799439036">
        <ele>358.76481951225816</ele>
        <time>2024-09-23T17:36:12Z</time>
      </trkpt>
    </trkseg>
    <trkseg>
      <trkpt lat="43.375958263363934" lon="-5.86465113098677">
        <ele>316.0</ele>
        <time>2024-09-23T17:37:25Z</time>
      </trkpt>
      <trkpt lat="43.37588457491589" lon="-5.864603515993303">
        <ele>315.0</ele>
        <time>2024-09-23T17:37:26Z</time>
      </trkpt>
    </trkseg>
    <trkseg>
      <trkpt lat="43.37476495522272" lon="-5.8643651489710935">
        <ele>308.6505209690801</ele>
        <time>2024-09-23T17:37:38Z</time>
      </trkpt>
      <trkpt lat="43.37467675398562" lon="-5.864260925586851">
        <ele>308.0</ele>
        <time>2024-09-23T17:37:39Z</time>
      </trkpt>
    </trkseg>
    <trkseg>
      <trkpt lat="43.373167625709634" lon="-5.862192560681251">
        <ele>293.0260113541883</ele>
        <time>2024-09-23T17:38:04Z</time>
      </trkpt>
      <trkpt lat="43.37312782444727" lon="-5.862155617780399">
        <ele>293.0</ele>
        <time>2024-09-23T17:38:05Z</time>
      </trkpt>
    </trkseg>
    <trkseg>
      <trkpt lat="43.37673952813655" lon="-5.857244621992611">
        <ele>258.8155498152693</ele>
        <time>2024-09-23T17:46:17Z</time>
      </trkpt>
      <trkpt lat="43.37679915714868" lon="-5.857206459424843">
        <ele>257.86148562106</ele>
        <time>2024-09-23T17:46:18Z</time>
      </trkpt>
    </trkseg>
    <trkseg>
      <trkpt lat="43.378061984697794" lon="-5.847343057638301">
        <ele>243.99974496327175</ele>
        <time>2024-09-23T17:49:41Z</time>
      </trkpt>
      <trkpt lat="43.37807729150197" lon="-5.847323256541764">
        <ele>244.38712663208295</ele>
        <time>2024-09-23T17:49:42Z</time>
      </trkpt>
      <trkpt lat="43.37809261463087" lon="-5.847303472248747">
        <ele>244.77505394614212</ele>
        <time>2024-09-23T17:49:43Z</time>
      </trkpt>
      <trkpt lat="43.37810793775978" lon="-5.84728368795573">
        <ele>245.16298126020126</ele>
        <time>2024-09-23T17:49:44Z</time>
      </trkpt>
      <trkpt lat="43.378123260888685" lon="-5.847263903662713">
        <ele>245.55090857426043</ele>
        <time>2024-09-23T17:49:45Z</time>
      </trkpt>
    </trkseg>
    <trkseg>
      <trkpt lat="43.38401366493293" lon="-5.836473435593599">
        <ele>248.9432992993743</ele>
        <time>2024-09-23T17:54:41Z</time>
      </trkpt>
      <trkpt lat="43.38407544328862" lon="-5.836367623729066">
        <ele>247.62886619958286</ele>
        <time>2024-09-23T17:54:42Z</time>
      </trkpt>
      <trkpt lat="43.38413722164431" lon="-5.836261811864533">
        <ele>246.31443309979144</ele>
        <time>2024-09-23T17:54:43Z</time>
      </trkpt>
    </trkseg>
    <trkseg>
      <trkpt lat="43.38442594226977" lon="-5.833740836327784">
        <ele>227.9788116024894</ele>
        <time>2024-09-23T17:55:26Z</time>
      </trkpt>
      <trkpt lat="43.38445474010166" lon="-5.833768063368844">
        <ele>227.66465343641912</ele>
        <time>2024-09-23T17:55:27Z</time>
      </trkpt>
      <trkpt lat="43.38448501013707" lon="-5.833796051999279">
        <ele>227.36515862566068</ele>
        <time>2024-09-23T17:55:28Z</time>
      </trkpt>
      <trkpt lat="43.38452315060677" lon="-5.8338281121042375">
        <ele>227.14405445353552</ele>
        <time>2024-09-23T17:55:29Z</time>
      </trkpt>
    </trkseg>
    <trkseg>
      <trkpt lat="43.38709453095683" lon="-5.832692792412633">
        <ele>227.0</ele>
        <time>2024-09-23T17:56:30Z</time>
      </trkpt>
      <trkpt lat="43.387154862378836" lon="-5.832685">
        <ele>227.0232713726313</ele>
        <time>2024-09-23T17:56:31Z</time>
      </trkpt>
      <trkpt lat="43.38721273146954" lon="-5.832685">
        <ele>227.49375178488506</ele>
        <time>2024-09-23T17:56:32Z</time>
      </trkpt>
    </trkseg>
    <trkseg>
      <trkpt lat="43.38426985209759" lon="-5.824868650627782">
        <ele>172.69506991962024</ele>
        <time>2024-09-23T18:00:57Z</time>
      </trkpt>
      <trkpt lat="43.38426211204016" lon="-5.824803128763086">
        <ele>172.26400502030396</ele>
        <time>2024-09-23T18:00:58Z</time>
      </trkpt>
    </trkseg>
    <trkseg>
      <trkpt lat="43.38436325502943" lon="-5.822041441847981">
        <ele>167.0</ele>
        <time>2024-09-23T18:01:47Z</time>
      </trkpt>
      <trkpt lat="43.38438218163535" lon="-5.821986368950289">
        <ele>166.3301502764136</ele>
        <time>2024-09-23T18:01:48Z</time>
      </trkpt>
      <trkpt lat="43.3844179934594" lon="-5.8219490065405965">
        <ele>166.03754905447022</ele>
        <time>2024-09-23T18:01:49Z</time>
      </trkpt>
    </trkseg>
  </trk>
</gpx>