<?xml version="1.0" encoding="UTF-8"?>
<gpx xmlns="http://www.topografix.com/GPX/1/1" xmlns:xsi="http://www.w3.org/2001/XMLSchema-instance" xsi:schemaLocation="http://www.topografix.com/GPX/1/1 http://www.topografix.com/GPX/1/1/gpx.xsd" version="1.1" creator="gpx.py -- https://github.com/tkrajina/gpxpy">
  <wpt lat="43.384667" lon="-5.82216">
    <ele>166.0</ele>
    <time>2024-08-23T16:13:35Z</time>
    <name>ANOM:DZ_HAMPEL</name>
    <desc>Tramo #1 (111-113), dur=3s
Causas: DZ_HAMPEL
vh_max=6.76 km/h | grade_ext=17.7% | vz_ext=20.0 m/min
max|dx|=1.10 m/s, max|dy|=1.52 m/s, max|dz|=0.33 m/s</desc>
  </wpt>
  <wpt lat="43.384376" lon="-5.823794">
    <ele>169.0</ele>
    <time>2024-08-23T16:14:57Z</time>
    <name>ANOM:DZ_HAMPEL</name>
    <desc>Tramo #2 (193-197), dur=5s
Causas: DZ_HAMPEL
vh_max=6.60 km/h | grade_ext=9.1% | vz_ext=10.0 m/min
max|dx|=1.76 m/s, max|dy|=0.50 m/s, max|dz|=0.17 m/s</desc>
  </wpt>
  <wpt lat="43.384349" lon="-5.823925">
    <ele>170.0</ele>
    <time>2024-08-23T16:15:03Z</time>
    <name>ANOM:DZ_HAMPEL</name>
    <desc>Tramo #3 (199-201), dur=3s
Causas: DZ_HAMPEL
vh_max=7.39 km/h | grade_ext=0.0% | vz_ext=0.0 m/min
max|dx|=1.96 m/s, max|dy|=0.62 m/s, max|dz|=0.00 m/s</desc>
  </wpt>
  <wpt lat="43.38452369216354" lon="-5.824254639379081">
    <ele>171.092572695754</ele>
    <time>2024-08-23T16:15:29Z</time>
    <name>ANOM:DZ_HAMPEL</name>
    <desc>Tramo #4 (225-229), dur=5s
Causas: DZ_HAMPEL
vh_max=5.96 km/h | grade_ext=10.6% | vz_ext=10.5 m/min
max|dx|=0.39 m/s, max|dy|=1.65 m/s, max|dz|=0.18 m/s</desc>
  </wpt>
  <wpt lat="43.384892947260816" lon="-5.8244322473112">
    <ele>172.0</ele>
    <time>2024-08-23T16:15:58Z</time>
    <name>ANOM:DZ_HAMPEL</name>
    <desc>Tramo #5 (254-259), dur=6s
Causas: DZ_HAMPEL
vh_max=6.57 km/h | grade_ext=12.7% | vz_ext=13.9 m/min
max|dx|=1.75 m/s, max|dy|=0.80 m/s, max|dz|=0.23 m/s</desc>
  </wpt>
  <wpt lat="43.38493012801421" lon="-5.824773923936061">
    <ele>173.04359928957012</ele>
    <time>2024-08-23T16:16:14Z</time>
    <name>ANOM:DZ_HAMPEL</name>
    <desc>Tramo #6 (270-272), dur=3s
Causas: DZ_HAMPEL
vh_max=6.57 km/h | grade_ext=13.1% | vz_ext=14.4 m/min
max|dx|=1.75 m/s, max|dy|=0.57 m/s, max|dz|=0.24 m/s</desc>
  </wpt>
  <wpt lat="43.38486210705624" lon="-5.824978029324519">
    <ele>174.0</ele>
    <time>2024-08-23T16:16:24Z</time>
    <name>ANOM:DZ_HAMPEL</name>
    <desc>Tramo #7 (280-283), dur=4s
Causas: DZ_HAMPEL
vh_max=6.57 km/h | grade_ext=17.0% | vz_ext=18.7 m/min
max|dx|=1.38 m/s, max|dy|=1.36 m/s, max|dz|=0.31 m/s</desc>
  </wpt>
  <wpt lat="43.38548206448556" lon="-5.826549535018049">
    <ele>178.0</ele>
    <time>2024-08-23T16:17:52Z</time>
    <name>ANOM:DZ_HAMPEL</name>
    <desc>Tramo #8 (368-373), dur=6s
Causas: DZ_HAMPEL
vh_max=6.47 km/h | grade_ext=9.7% | vz_ext=10.5 m/min
max|dx|=1.61 m/s, max|dy|=0.82 m/s, max|dz|=0.18 m/s</desc>
  </wpt>
  <wpt lat="43.386358" lon="-5.828081">
    <ele>191.0</ele>
    <time>2024-08-23T16:21:02Z</time>
    <name>ANOM:DZ_HAMPEL</name>
    <desc>Tramo #9 (558-560), dur=3s
Causas: DZ_HAMPEL
vh_max=4.43 km/h | grade_ext=0.0% | vz_ext=0.0 m/min
max|dx|=1.19 m/s, max|dy|=0.33 m/s, max|dz|=0.00 m/s</desc>
  </wpt>
  <wpt lat="43.386578" lon="-5.827909">
    <ele>193.0</ele>
    <time>2024-08-23T16:21:17Z</time>
    <name>ANOM:DZ_HAMPEL</name>
    <desc>Tramo #10 (573-575), dur=3s
Causas: DZ_HAMPEL
vh_max=5.06 km/h | grade_ext=0.0% | vz_ext=0.0 m/min
max|dx|=1.37 m/s, max|dy|=0.30 m/s, max|dz|=0.00 m/s</desc>
  </wpt>
  <wpt lat="43.389166" lon="-5.830257">
    <ele>222.0</ele>
    <time>2024-08-23T16:25:44Z</time>
    <name>ANOM:DZ_HAMPEL</name>
    <desc>Tramo #11 (840-841), dur=2s
Causas: DZ_HAMPEL
vh_max=9.90 km/h | grade_ext=18.2% | vz_ext=30.0 m/min
max|dx|=2.67 m/s, max|dy|=0.67 m/s, max|dz|=0.50 m/s</desc>
  </wpt>
  <wpt lat="43.387333" lon="-5.850851">
    <ele>543.1</ele>
    <time>2024-08-23T17:05:55Z</time>
    <name>ANOM:DZ_HAMPEL</name>
    <desc>Tramo #12 (3251-3255), dur=5s
Causas: DZ_HAMPEL
vh_max=5.12 km/h | grade_ext=-2.8% | vz_ext=-2.4 m/min
max|dx|=1.42 m/s, max|dy|=0.02 m/s, max|dz|=0.04 m/s</desc>
  </wpt>
  <wpt lat="43.387917" lon="-5.851319">
    <ele>552.5</ele>
    <time>2024-08-23T17:06:53Z</time>
    <name>ANOM:DZ_HAMPEL</name>
    <desc>Tramo #13 (3309-3313), dur=5s
Causas: DZ_HAMPEL
vh_max=4.95 km/h | grade_ext=-5.8% | vz_ext=-4.8 m/min
max|dx|=0.23 m/s, max|dy|=1.36 m/s, max|dz|=0.08 m/s</desc>
  </wpt>
  <wpt lat="43.388252" lon="-5.852009">
    <ele>557.5</ele>
    <time>2024-08-23T17:07:44Z</time>
    <name>ANOM:DZ_HAMPEL,GRADE_UP</name>
    <desc>Tramo #14 (3360-3362), dur=3s
Causas: DZ_HAMPEL,GRADE_UP
vh_max=5.08 km/h | grade_ext=35.4% | vz_ext=30.0 m/min
max|dx|=0.92 m/s, max|dy|=1.07 m/s, max|dz|=0.50 m/s</desc>
  </wpt>
  <wpt lat="43.38818" lon="-5.853358571428571">
    <ele>572.2857142857143</ele>
    <time>2024-08-23T17:09:11Z</time>
    <name>ANOM:DZ_HAMPEL</name>
    <desc>Tramo #15 (3447-3451), dur=5s
Causas: DZ_HAMPEL
vh_max=5.62 km/h | grade_ext=9.1% | vz_ext=8.6 m/min
max|dx|=1.56 m/s, max|dy|=0.11 m/s, max|dz|=0.14 m/s</desc>
  </wpt>
  <wpt lat="43.388114" lon="-5.853949">
    <ele>576.5</ele>
    <time>2024-08-23T17:09:45Z</time>
    <name>ANOM:GRADE_UP</name>
    <desc>Tramo #16 (3481-3482), dur=2s
Causas: GRADE_UP
vh_max=5.54 km/h | grade_ext=42.2% | vz_ext=39.0 m/min
max|dx|=0.77 m/s, max|dy|=1.33 m/s, max|dz|=0.65 m/s</desc>
  </wpt>
  <wpt lat="43.387815" lon="-5.854272">
    <ele>581.8</ele>
    <time>2024-08-23T17:10:20Z</time>
    <name>ANOM:GRADE_UP</name>
    <desc>Tramo #17 (3516-3519), dur=4s
Causas: GRADE_UP
vh_max=4.51 km/h | grade_ext=35.9% | vz_ext=27.0 m/min
max|dx|=0.06 m/s, max|dy|=1.25 m/s, max|dz|=0.45 m/s</desc>
  </wpt>
  <wpt lat="43.386667" lon="-5.854782">
    <ele>567.6</ele>
    <time>2024-08-23T17:11:44Z</time>
    <name>ANOM:DZ_HAMPEL</name>
    <desc>Tramo #18 (3600-3606), dur=7s
Causas: DZ_HAMPEL
vh_max=6.23 km/h | grade_ext=-4.9% | vz_ext=-5.1 m/min
max|dx|=0.40 m/s, max|dy|=1.68 m/s, max|dz|=0.09 m/s</desc>
  </wpt>
  <wpt lat="43.385428" lon="-5.855544">
    <ele>562.8</ele>
    <time>2024-08-23T17:13:09Z</time>
    <name>ANOM:DZ_HAMPEL</name>
    <desc>Tramo #19 (3685-3691), dur=7s
Causas: DZ_HAMPEL
vh_max=6.20 km/h | grade_ext=-14.9% | vz_ext=-15.4 m/min
max|dx|=1.18 m/s, max|dy|=1.25 m/s, max|dz|=0.26 m/s</desc>
  </wpt>
  <wpt lat="43.384065" lon="-5.85886">
    <ele>582.5</ele>
    <time>2024-08-23T17:17:43Z</time>
    <name>ANOM:DZ_HAMPEL</name>
    <desc>Tramo #20 (3959-3964), dur=6s
Causas: DZ_HAMPEL
vh_max=5.05 km/h | grade_ext=3.6% | vz_ext=3.0 m/min
max|dx|=1.37 m/s, max|dy|=0.28 m/s, max|dz|=0.05 m/s</desc>
  </wpt>
  <wpt lat="43.38409" lon="-5.859115">
    <ele>582.7</ele>
    <time>2024-08-23T17:17:56Z</time>
    <name>ANOM:DZ_HAMPEL</name>
    <desc>Tramo #21 (3972-3978), dur=7s
Causas: DZ_HAMPEL
vh_max=6.23 km/h | grade_ext=-5.8% | vz_ext=-6.0 m/min
max|dx|=1.70 m/s, max|dy|=0.33 m/s, max|dz|=0.10 m/s</desc>
  </wpt>
  <wpt lat="43.384335" lon="-5.861144">
    <ele>592.8</ele>
    <time>2024-08-23T17:19:43Z</time>
    <name>ANOM:DZ_HAMPEL</name>
    <desc>Tramo #22 (4079-4083), dur=5s
Causas: DZ_HAMPEL
vh_max=6.03 km/h | grade_ext=2.4% | vz_ext=2.4 m/min
max|dx|=1.54 m/s, max|dy|=0.67 m/s, max|dz|=0.04 m/s</desc>
  </wpt>
  <wpt lat="43.384671" lon="-5.863868">
    <ele>634.9</ele>
    <time>2024-08-23T17:28:31Z</time>
    <name>ANOM:DZ_HAMPEL</name>
    <desc>Tramo #23 (4607-4611), dur=5s
Causas: DZ_HAMPEL
vh_max=6.79 km/h | grade_ext=-34.1% | vz_ext=-27.0 m/min
max|dx|=0.35 m/s, max|dy|=1.85 m/s, max|dz|=0.45 m/s</desc>
  </wpt>
  <wpt lat="43.384397" lon="-5.861541">
    <ele>599.0</ele>
    <time>2024-08-23T17:30:52Z</time>
    <name>ANOM:DZ_HAMPEL</name>
    <desc>Tramo #24 (4748-4752), dur=5s
Causas: DZ_HAMPEL
vh_max=8.72 km/h | grade_ext=-8.3% | vz_ext=-12.0 m/min
max|dx|=2.41 m/s, max|dy|=0.27 m/s, max|dz|=0.20 m/s</desc>
  </wpt>
  <wpt lat="43.383728" lon="-5.852647">
    <ele>531.6</ele>
    <time>2024-08-23T17:37:37Z</time>
    <name>ANOM:DZ_HAMPEL</name>
    <desc>Tramo #25 (5153-5159), dur=7s
Causas: DZ_HAMPEL
vh_max=8.59 km/h | grade_ext=3.6% | vz_ext=5.1 m/min
max|dx|=0.62 m/s, max|dy|=2.30 m/s, max|dz|=0.09 m/s</desc>
  </wpt>
  <wpt lat="43.384093" lon="-5.852178">
    <ele>526.4</ele>
    <time>2024-08-23T17:38:12Z</time>
    <name>ANOM:GRADE_DOWN</name>
    <desc>Tramo #26 (5188-5194), dur=7s
Causas: GRADE_DOWN
vh_max=2.00 km/h | grade_ext=-66.9% | vz_ext=-22.3 m/min
max|dx|=0.40 m/s, max|dy|=0.38 m/s, max|dz|=0.37 m/s</desc>
  </wpt>
  <wpt lat="43.383971" lon="-5.851996">
    <ele>514.6</ele>
    <time>2024-08-23T17:38:42Z</time>
    <name>ANOM:DZ_HAMPEL</name>
    <desc>Tramo #27 (5218-5219), dur=2s
Causas: DZ_HAMPEL
vh_max=4.53 km/h | grade_ext=-47.7% | vz_ext=-36.0 m/min
max|dx|=1.21 m/s, max|dy|=0.33 m/s, max|dz|=0.60 m/s</desc>
  </wpt>
  <wpt lat="43.384187623785714" lon="-5.8517612241683725">
    <ele>509.6075242858495</ele>
    <time>2024-08-23T17:39:04Z</time>
    <name>ANOM:DZ_HAMPEL</name>
    <desc>Tramo #28 (5240-5243), dur=4s
Causas: DZ_HAMPEL
vh_max=7.45 km/h | grade_ext=-46.6% | vz_ext=-57.9 m/min
max|dx|=1.94 m/s, max|dy|=1.20 m/s, max|dz|=0.96 m/s</desc>
  </wpt>
  <wpt lat="43.382245" lon="-5.852497">
    <ele>460.6</ele>
    <time>2024-08-23T17:41:16Z</time>
    <name>ANOM:DZ_HAMPEL,GRADE_DOWN</name>
    <desc>Tramo #29 (5372-5375), dur=4s
Causas: DZ_HAMPEL,GRADE_DOWN
vh_max=6.47 km/h | grade_ext=-90.9% | vz_ext=-88.9 m/min
max|dx|=1.45 m/s, max|dy|=1.56 m/s, max|dz|=1.48 m/s</desc>
  </wpt>
  <wpt lat="43.382188" lon="-5.852464">
    <ele>455.6</ele>
    <time>2024-08-23T17:41:29Z</time>
    <name>ANOM:DZ_HAMPEL,GRADE_DOWN,GRADE_UP</name>
    <desc>Tramo #30 (5385-5387), dur=3s
Causas: DZ_HAMPEL,GRADE_DOWN,GRADE_UP
vh_max=9.10 km/h | grade_ext=-75.2% | vz_ext=-114.0 m/min
max|dx|=2.51 m/s, max|dy|=0.33 m/s, max|dz|=1.90 m/s</desc>
  </wpt>
  <wpt lat="43.382158" lon="-5.852024">
    <ele>450.1</ele>
    <time>2024-08-23T17:41:52Z</time>
    <name>ANOM:GRADE_DOWN</name>
    <desc>Tramo #31 (5408-5409), dur=2s
Causas: GRADE_DOWN
vh_max=6.72 km/h | grade_ext=-61.6% | vz_ext=-69.0 m/min
max|dx|=0.57 m/s, max|dy|=1.78 m/s, max|dz|=1.15 m/s</desc>
  </wpt>
  <wpt lat="43.38201" lon="-5.85195">
    <ele>442.8</ele>
    <time>2024-08-23T17:42:04Z</time>
    <name>ANOM:DZ_HAMPEL</name>
    <desc>Tramo #32 (5420-5421), dur=2s
Causas: DZ_HAMPEL
vh_max=8.52 km/h | grade_ext=-60.0% | vz_ext=-66.0 m/min
max|dx|=0.97 m/s, max|dy|=2.22 m/s, max|dz|=1.10 m/s</desc>
  </wpt>
  <wpt lat="43.381891" lon="-5.850939">
    <ele>427.8</ele>
    <time>2024-08-23T17:42:48Z</time>
    <name>ANOM:DZ_HAMPEL</name>
    <desc>Tramo #33 (5464-5465), dur=2s
Causas: DZ_HAMPEL
vh_max=9.31 km/h | grade_ext=-21.3% | vz_ext=-33.0 m/min
max|dx|=2.59 m/s, max|dy|=0.06 m/s, max|dz|=0.55 m/s</desc>
  </wpt>
  <wpt lat="43.381829" lon="-5.850214">
    <ele>407.9</ele>
    <time>2024-08-23T17:43:42Z</time>
    <name>ANOM:DZ_HAMPEL</name>
    <desc>Tramo #34 (5518-5519), dur=2s
Causas: DZ_HAMPEL
vh_max=8.74 km/h | grade_ext=-30.9% | vz_ext=-45.0 m/min
max|dx|=1.37 m/s, max|dy|=2.00 m/s, max|dz|=0.75 m/s</desc>
  </wpt>
  <wpt lat="43.381731" lon="-5.85022">
    <ele>403.9</ele>
    <time>2024-08-23T17:44:03Z</time>
    <name>ANOM:DZ_HAMPEL</name>
    <desc>Tramo #35 (5539-5540), dur=2s
Causas: DZ_HAMPEL
vh_max=7.12 km/h | grade_ext=-43.0% | vz_ext=-51.0 m/min
max|dx|=1.94 m/s, max|dy|=0.39 m/s, max|dz|=0.85 m/s</desc>
  </wpt>
  <wpt lat="43.381447" lon="-5.848987">
    <ele>365.0</ele>
    <time>2024-08-23T17:45:53Z</time>
    <name>ANOM:DZ_HAMPEL</name>
    <desc>Tramo #36 (5649-5650), dur=2s
Causas: DZ_HAMPEL
vh_max=6.34 km/h | grade_ext=-28.4% | vz_ext=-30.0 m/min
max|dx|=0.57 m/s, max|dy|=1.67 m/s, max|dz|=0.50 m/s</desc>
  </wpt>
  <wpt lat="43.380453" lon="-5.850012">
    <ele>337.0</ele>
    <time>2024-08-23T17:47:00Z</time>
    <name>ANOM:DZ_HAMPEL</name>
    <desc>Tramo #37 (5716-5718), dur=3s
Causas: DZ_HAMPEL
vh_max=10.77 km/h | grade_ext=-5.0% | vz_ext=-9.0 m/min
max|dx|=1.94 m/s, max|dy|=2.28 m/s, max|dz|=0.15 m/s</desc>
  </wpt>
  <wpt lat="43.37923275" lon="-5.850748">
    <ele>304.85</ele>
    <time>2024-08-23T17:48:08Z</time>
    <name>ANOM:DZ_HAMPEL</name>
    <desc>Tramo #38 (5784-5786), dur=3s
Causas: DZ_HAMPEL
vh_max=8.24 km/h | grade_ext=-19.7% | vz_ext=-27.0 m/min
max|dx|=0.40 m/s, max|dy|=2.25 m/s, max|dz|=0.45 m/s</desc>
  </wpt>
  <wpt lat="43.378873" lon="-5.850499">
    <ele>295.0</ele>
    <time>2024-08-23T17:48:27Z</time>
    <name>ANOM:DZ_HAMPEL</name>
    <desc>Tramo #39 (5803-5805), dur=3s
Causas: DZ_HAMPEL
vh_max=7.59 km/h | grade_ext=-7.9% | vz_ext=-10.0 m/min
max|dx|=2.07 m/s, max|dy|=0.37 m/s, max|dz|=0.17 m/s</desc>
  </wpt>
  <wpt lat="43.378876" lon="-5.850232">
    <ele>292.3</ele>
    <time>2024-08-23T17:48:35Z</time>
    <name>ANOM:DZ_HAMPEL</name>
    <desc>Tramo #40 (5811-5814), dur=4s
Causas: DZ_HAMPEL
vh_max=25.27 km/h | grade_ext=-12.8% | vz_ext=-54.0 m/min
max|dx|=6.87 m/s, max|dy|=1.45 m/s, max|dz|=0.90 m/s</desc>
  </wpt>
  <wpt lat="43.379483" lon="-5.847029">
    <ele>285.0</ele>
    <time>2024-08-23T17:50:51Z</time>
    <name>ANOM:DZ_HAMPEL</name>
    <desc>Tramo #41 (5947-5951), dur=5s
Causas: DZ_HAMPEL
vh_max=6.91 km/h | grade_ext=-10.4% | vz_ext=-12.0 m/min
max|dx|=0.16 m/s, max|dy|=1.91 m/s, max|dz|=0.20 m/s</desc>
  </wpt>
  <wpt lat="43.379855" lon="-5.847008">
    <ele>284.6</ele>
    <time>2024-08-23T17:51:11Z</time>
    <name>ANOM:DZ_HAMPEL</name>
    <desc>Tramo #42 (5967-5970), dur=4s
Causas: DZ_HAMPEL
vh_max=7.98 km/h | grade_ext=-6.8% | vz_ext=-9.0 m/min
max|dx|=0.46 m/s, max|dy|=2.17 m/s, max|dz|=0.15 m/s</desc>
  </wpt>
  <wpt lat="43.380056" lon="-5.846823">
    <ele>284.9</ele>
    <time>2024-08-23T17:51:22Z</time>
    <name>ANOM:DZ_HAMPEL</name>
    <desc>Tramo #43 (5978-5981), dur=4s
Causas: DZ_HAMPEL
vh_max=10.48 km/h | grade_ext=-3.4% | vz_ext=-6.0 m/min
max|dx|=2.30 m/s, max|dy|=1.78 m/s, max|dz|=0.10 m/s</desc>
  </wpt>
  <wpt lat="43.380466" lon="-5.846062">
    <ele>286.0</ele>
    <time>2024-08-23T17:51:47Z</time>
    <name>ANOM:DZ_HAMPEL</name>
    <desc>Tramo #44 (6003-6007), dur=5s
Causas: DZ_HAMPEL
vh_max=20.36 km/h | grade_ext=-15.9% | vz_ext=-54.0 m/min
max|dx|=3.88 m/s, max|dy|=4.11 m/s, max|dz|=0.90 m/s</desc>
  </wpt>
  <wpt lat="43.380583" lon="-5.84594">
    <ele>284.4</ele>
    <time>2024-08-23T17:52:11Z</time>
    <name>ANOM:DZ_HAMPEL</name>
    <desc>Tramo #45 (6027-6028), dur=2s
Causas: DZ_HAMPEL
vh_max=7.96 km/h | grade_ext=10.2% | vz_ext=13.5 m/min
max|dx|=1.70 m/s, max|dy|=1.42 m/s, max|dz|=0.23 m/s</desc>
  </wpt>
  <wpt lat="43.380746" lon="-5.845757">
    <ele>286.0</ele>
    <time>2024-08-23T17:52:21Z</time>
    <name>ANOM:DZ_HAMPEL</name>
    <desc>Tramo #46 (6037-6040), dur=4s
Causas: DZ_HAMPEL
vh_max=8.95 km/h | grade_ext=0.0% | vz_ext=0.0 m/min
max|dx|=1.11 m/s, max|dy|=2.22 m/s, max|dz|=0.00 m/s</desc>
  </wpt>
  <wpt lat="43.381154200000005" lon="-5.8455474">
    <ele>285.9</ele>
    <time>2024-08-23T17:52:38Z</time>
    <name>ANOM:DZ_HAMPEL</name>
    <desc>Tramo #47 (6054-6057), dur=4s
Causas: DZ_HAMPEL
vh_max=11.45 km/h | grade_ext=-3.1% | vz_ext=-6.0 m/min
max|dx|=0.53 m/s, max|dy|=3.14 m/s, max|dz|=0.10 m/s</desc>
  </wpt>
  <wpt lat="43.38174166666667" lon="-5.845347">
    <ele>285.3666666666667</ele>
    <time>2024-08-23T17:53:02Z</time>
    <name>ANOM:DZ_HAMPEL</name>
    <desc>Tramo #48 (6078-6080), dur=3s
Causas: DZ_HAMPEL
vh_max=12.19 km/h | grade_ext=-18.7% | vz_ext=-38.0 m/min
max|dx|=2.59 m/s, max|dy|=2.19 m/s, max|dz|=0.63 m/s</desc>
  </wpt>
  <wpt lat="43.381926" lon="-5.844278">
    <ele>286.0</ele>
    <time>2024-08-23T17:53:33Z</time>
    <name>ANOM:DZ_HAMPEL</name>
    <desc>Tramo #49 (6109-6110), dur=2s
Causas: DZ_HAMPEL
vh_max=7.92 km/h | grade_ext=4.5% | vz_ext=6.0 m/min
max|dx|=1.80 m/s, max|dy|=1.26 m/s, max|dz|=0.10 m/s</desc>
  </wpt>
  <wpt lat="43.382034" lon="-5.844121">
    <ele>286.1</ele>
    <time>2024-08-23T17:53:40Z</time>
    <name>ANOM:DZ_HAMPEL</name>
    <desc>Tramo #50 (6116-6118), dur=3s
Causas: DZ_HAMPEL
vh_max=11.64 km/h | grade_ext=-7.2% | vz_ext=-14.0 m/min
max|dx|=2.86 m/s, max|dy|=1.52 m/s, max|dz|=0.23 m/s</desc>
  </wpt>
  <wpt lat="43.382276" lon="-5.843487">
    <ele>286.0</ele>
    <time>2024-08-23T17:54:03Z</time>
    <name>ANOM:DZ_HAMPEL</name>
    <desc>Tramo #51 (6139-6141), dur=3s
Causas: DZ_HAMPEL
vh_max=20.98 km/h | grade_ext=4.0% | vz_ext=-6.0 m/min
max|dx|=5.82 m/s, max|dy|=0.33 m/s, max|dz|=0.10 m/s</desc>
  </wpt>
  <wpt lat="43.382236" lon="-5.843161">
    <ele>286.0</ele>
    <time>2024-08-23T17:54:12Z</time>
    <name>ANOM:DZ_HAMPEL</name>
    <desc>Tramo #52 (6148-6150), dur=3s
Causas: DZ_HAMPEL
vh_max=9.41 km/h | grade_ext=2.5% | vz_ext=4.0 m/min
max|dx|=2.61 m/s, max|dy|=0.11 m/s, max|dz|=0.07 m/s</desc>
  </wpt>
  <wpt lat="43.382242" lon="-5.842928">
    <ele>286.2</ele>
    <time>2024-08-23T17:54:19Z</time>
    <name>ANOM:DZ_HAMPEL</name>
    <desc>Tramo #53 (6155-6158), dur=4s
Causas: DZ_HAMPEL
vh_max=10.41 km/h | grade_ext=-1.7% | vz_ext=-3.0 m/min
max|dx|=2.89 m/s, max|dy|=0.11 m/s, max|dz|=0.05 m/s</desc>
  </wpt>
  <wpt lat="43.382377" lon="-5.842127">
    <ele>286.9</ele>
    <time>2024-08-23T17:54:42Z</time>
    <name>ANOM:DZ_HAMPEL</name>
    <desc>Tramo #54 (6178-6179), dur=2s
Causas: DZ_HAMPEL
vh_max=9.77 km/h | grade_ext=-16.6% | vz_ext=-27.0 m/min
max|dx|=2.22 m/s, max|dy|=1.56 m/s, max|dz|=0.45 m/s</desc>
  </wpt>
  <wpt lat="43.38274333333334" lon="-5.841504666666667">
    <ele>288.31666666666666</ele>
    <time>2024-08-23T17:55:05Z</time>
    <name>ANOM:DZ_HAMPEL</name>
    <desc>Tramo #55 (6201-6204), dur=4s
Causas: DZ_HAMPEL
vh_max=10.28 km/h | grade_ext=-6.4% | vz_ext=-11.0 m/min
max|dx|=2.29 m/s, max|dy|=1.70 m/s, max|dz|=0.18 m/s</desc>
  </wpt>
  <wpt lat="43.38282" lon="-5.841363">
    <ele>287.4</ele>
    <time>2024-08-23T17:55:10Z</time>
    <name>ANOM:DZ_HAMPEL</name>
    <desc>Tramo #56 (6206-6210), dur=5s
Causas: DZ_HAMPEL
vh_max=10.60 km/h | grade_ext=4.1% | vz_ext=7.2 m/min
max|dx|=1.57 m/s, max|dy|=2.49 m/s, max|dz|=0.12 m/s</desc>
  </wpt>
  <wpt lat="43.383487" lon="-5.840196">
    <ele>287.5</ele>
    <time>2024-08-23T17:55:55Z</time>
    <name>ANOM:DZ_HAMPEL</name>
    <desc>Tramo #57 (6251-6254), dur=4s
Causas: DZ_HAMPEL
vh_max=9.44 km/h | grade_ext=4.8% | vz_ext=7.5 m/min
max|dx|=2.48 m/s, max|dy|=0.83 m/s, max|dz|=0.12 m/s</desc>
  </wpt>
  <wpt lat="43.384605" lon="-5.838438">
    <ele>285.5</ele>
    <time>2024-08-23T17:57:06Z</time>
    <name>ANOM:DZ_HAMPEL</name>
    <desc>Tramo #58 (6322-6325), dur=4s
Causas: DZ_HAMPEL
vh_max=11.64 km/h | grade_ext=11.6% | vz_ext=22.5 m/min
max|dx|=1.05 m/s, max|dy|=3.06 m/s, max|dz|=0.38 m/s</desc>
  </wpt>
  <wpt lat="43.3854956" lon="-5.8372476">
    <ele>289.16</ele>
    <time>2024-08-23T17:57:57Z</time>
    <name>ANOM:DZ_HAMPEL</name>
    <desc>Tramo #59 (6373-6376), dur=4s
Causas: DZ_HAMPEL
vh_max=8.00 km/h | grade_ext=2.7% | vz_ext=3.6 m/min
max|dx|=1.81 m/s, max|dy|=1.29 m/s, max|dz|=0.06 m/s</desc>
  </wpt>
  <wpt lat="43.38635" lon="-5.835687">
    <ele>289.8</ele>
    <time>2024-08-23T17:58:59Z</time>
    <name>ANOM:DZ_HAMPEL</name>
    <desc>Tramo #60 (6435-6438), dur=4s
Causas: DZ_HAMPEL
vh_max=11.41 km/h | grade_ext=-6.3% | vz_ext=-12.0 m/min
max|dx|=2.36 m/s, max|dy|=2.11 m/s, max|dz|=0.20 m/s</desc>
  </wpt>
  <wpt lat="43.390035" lon="-5.833413">
    <ele>280.9</ele>
    <time>2024-08-23T18:03:02Z</time>
    <name>ANOM:DZ_HAMPEL</name>
    <desc>Tramo #61 (6678-6679), dur=2s
Causas: DZ_HAMPEL
vh_max=9.73 km/h | grade_ext=-14.8% | vz_ext=-24.0 m/min
max|dx|=1.54 m/s, max|dy|=2.22 m/s, max|dz|=0.40 m/s</desc>
  </wpt>
  <wpt lat="43.388256" lon="-5.83236">
    <ele>249.9</ele>
    <time>2024-08-23T18:04:30Z</time>
    <name>ANOM:DZ_HAMPEL</name>
    <desc>Tramo #62 (6766-6767), dur=2s
Causas: DZ_HAMPEL
vh_max=17.41 km/h | grade_ext=-36.5% | vz_ext=-60.0 m/min
max|dx|=0.73 m/s, max|dy|=4.78 m/s, max|dz|=1.00 m/s</desc>
  </wpt>
  <wpt lat="43.389075" lon="-5.830737">
    <ele>228.0</ele>
    <time>2024-08-23T18:05:34Z</time>
    <name>ANOM:DZ_HAMPEL</name>
    <desc>Tramo #63 (6830-6832), dur=3s
Causas: DZ_HAMPEL
vh_max=13.40 km/h | grade_ext=-17.9% | vz_ext=-40.0 m/min
max|dx|=3.21 m/s, max|dy|=1.89 m/s, max|dz|=0.67 m/s</desc>
  </wpt>
  <wpt lat="43.388759" lon="-5.830167">
    <ele>219.5</ele>
    <time>2024-08-23T18:06:02Z</time>
    <name>ANOM:DZ_HAMPEL</name>
    <desc>Tramo #64 (6858-6862), dur=5s
Causas: DZ_HAMPEL
vh_max=12.28 km/h | grade_ext=-14.7% | vz_ext=-30.0 m/min
max|dx|=0.26 m/s, max|dy|=3.40 m/s, max|dz|=0.50 m/s</desc>
  </wpt>
  <wpt lat="43.386349" lon="-5.828037">
    <ele>191.0</ele>
    <time>2024-08-23T18:08:20Z</time>
    <name>ANOM:DZ_HAMPEL</name>
    <desc>Tramo #65 (6996-6999), dur=4s
Causas: DZ_HAMPEL
vh_max=3.32 km/h | grade_ext=0.0% | vz_ext=0.0 m/min
max|dx|=0.89 m/s, max|dy|=0.25 m/s, max|dz|=0.00 m/s</desc>
  </wpt>
  <wpt lat="43.386126" lon="-5.827513">
    <ele>180.0</ele>
    <time>2024-08-23T18:09:21Z</time>
    <name>ANOM:DZ_HAMPEL</name>
    <desc>Tramo #66 (7057-7059), dur=3s
Causas: DZ_HAMPEL
vh_max=8.99 km/h | grade_ext=13.3% | vz_ext=20.0 m/min
max|dx|=0.27 m/s, max|dy|=2.48 m/s, max|dz|=0.33 m/s</desc>
  </wpt>
  <wpt lat="43.385766" lon="-5.827279">
    <ele>181.0</ele>
    <time>2024-08-23T18:09:50Z</time>
    <name>ANOM:DZ_HAMPEL</name>
    <desc>Tramo #67 (7086-7090), dur=5s
Causas: DZ_HAMPEL
vh_max=11.45 km/h | grade_ext=-6.3% | vz_ext=-12.0 m/min
max|dx|=2.65 m/s, max|dy|=1.76 m/s, max|dz|=0.20 m/s</desc>
  </wpt>
  <wpt lat="43.385568" lon="-5.826896">
    <ele>180.0</ele>
    <time>2024-08-23T18:10:03Z</time>
    <name>ANOM:DZ_HAMPEL</name>
    <desc>Tramo #68 (7099-7104), dur=6s
Causas: DZ_HAMPEL
vh_max=10.13 km/h | grade_ext=-7.1% | vz_ext=-12.0 m/min
max|dx|=2.34 m/s, max|dy|=1.67 m/s, max|dz|=0.20 m/s</desc>
  </wpt>
  <wpt lat="43.38518943311739" lon="-5.826169579733696">
    <ele>178.0</ele>
    <time>2024-08-23T18:10:28Z</time>
    <name>ANOM:DZ_HAMPEL</name>
    <desc>Tramo #69 (7124-7127), dur=4s
Causas: DZ_HAMPEL
vh_max=10.63 km/h | grade_ext=-10.6% | vz_ext=-18.8 m/min
max|dx|=2.45 m/s, max|dy|=1.72 m/s, max|dz|=0.31 m/s</desc>
  </wpt>
  <wpt lat="43.385042" lon="-5.82586">
    <ele>177.0</ele>
    <time>2024-08-23T18:10:38Z</time>
    <name>ANOM:DZ_HAMPEL</name>
    <desc>Tramo #70 (7134-7137), dur=4s
Causas: DZ_HAMPEL
vh_max=9.78 km/h | grade_ext=-14.5% | vz_ext=-23.6 m/min
max|dx|=2.62 m/s, max|dy|=1.50 m/s, max|dz|=0.39 m/s</desc>
  </wpt>
  <wpt lat="43.38494123449644" lon="-5.82551940516487">
    <ele>175.9168854723585</ele>
    <time>2024-08-23T18:10:49Z</time>
    <name>ANOM:DZ_HAMPEL</name>
    <desc>Tramo #71 (7145-7147), dur=3s
Causas: DZ_HAMPEL
vh_max=9.78 km/h | grade_ext=-19.2% | vz_ext=-31.3 m/min
max|dx|=2.47 m/s, max|dy|=1.35 m/s, max|dz|=0.52 m/s</desc>
  </wpt>
  <wpt lat="43.384815956474945" lon="-5.825047720554828">
    <ele>175.0</ele>
    <time>2024-08-23T18:11:06Z</time>
    <name>ANOM:DZ_HAMPEL</name>
    <desc>Tramo #72 (7162-7164), dur=3s
Causas: DZ_HAMPEL
vh_max=9.78 km/h | grade_ext=-14.9% | vz_ext=-24.3 m/min
max|dx|=1.80 m/s, max|dy|=2.12 m/s, max|dz|=0.40 m/s</desc>
  </wpt>
  <wpt lat="43.384934482652596" lon="-5.8248021067532365">
    <ele>173.65093409082058</ele>
    <time>2024-08-23T18:11:15Z</time>
    <name>ANOM:DZ_HAMPEL</name>
    <desc>Tramo #73 (7171-7172), dur=2s
Causas: DZ_HAMPEL
vh_max=9.78 km/h | grade_ext=-10.6% | vz_ext=-17.2 m/min
max|dx|=2.69 m/s, max|dy|=0.59 m/s, max|dz|=0.29 m/s</desc>
  </wpt>
  <wpt lat="43.38489782083994" lon="-5.824544300926768">
    <ele>173.0</ele>
    <time>2024-08-23T18:11:23Z</time>
    <name>ANOM:DZ_HAMPEL</name>
    <desc>Tramo #74 (7179-7182), dur=4s
Causas: DZ_HAMPEL
vh_max=9.78 km/h | grade_ext=-13.8% | vz_ext=-22.5 m/min
max|dx|=2.60 m/s, max|dy|=0.98 m/s, max|dz|=0.38 m/s</desc>
  </wpt>
  <wpt lat="43.384603698900705" lon="-5.824252750058473">
    <ele>172.0</ele>
    <time>2024-08-23T18:11:42Z</time>
    <name>ANOM:DZ_HAMPEL</name>
    <desc>Tramo #75 (7198-7201), dur=4s
Causas: DZ_HAMPEL
vh_max=9.78 km/h | grade_ext=-22.0% | vz_ext=-35.6 m/min
max|dx|=0.51 m/s, max|dy|=2.72 m/s, max|dz|=0.59 m/s</desc>
  </wpt>
  <wpt lat="43.38436414249647" lon="-5.8242150123804235">
    <ele>171.0</ele>
    <time>2024-08-23T18:11:53Z</time>
    <name>ANOM:DZ_HAMPEL</name>
    <desc>Tramo #76 (7209-7211), dur=3s
Causas: DZ_HAMPEL
vh_max=9.78 km/h | grade_ext=-14.5% | vz_ext=-23.6 m/min
max|dx|=2.25 m/s, max|dy|=1.70 m/s, max|dz|=0.39 m/s</desc>
  </wpt>
  <wpt lat="43.38457384463993" lon="-5.8227775662963674">
    <ele>168.0</ele>
    <time>2024-08-23T18:12:38Z</time>
    <name>ANOM:DZ_HAMPEL</name>
    <desc>Tramo #77 (7254-7260), dur=7s
Causas: DZ_HAMPEL
vh_max=9.78 km/h | grade_ext=-5.7% | vz_ext=-9.3 m/min
max|dx|=2.67 m/s, max|dy|=0.54 m/s, max|dz|=0.16 m/s</desc>
  </wpt>
  <wpt lat="43.384606719295014" lon="-5.822253181292469">
    <ele>167.0</ele>
    <time>2024-08-23T18:12:54Z</time>
    <name>ANOM:DZ_HAMPEL</name>
    <desc>Tramo #78 (7270-7274), dur=5s
Causas: DZ_HAMPEL
vh_max=9.78 km/h | grade_ext=-12.4% | vz_ext=-20.2 m/min
max|dx|=2.41 m/s, max|dy|=1.94 m/s, max|dz|=0.34 m/s</desc>
  </wpt>
  <wpt lat="43.384781633506456" lon="-5.821578659688379">
    <ele>166.0</ele>
    <time>2024-08-23T18:13:16Z</time>
    <name>ANOM:DZ_HAMPEL</name>
    <desc>Tramo #79 (7292-7294), dur=3s
Causas: DZ_HAMPEL
vh_max=9.78 km/h | grade_ext=-10.6% | vz_ext=-17.2 m/min
max|dx|=2.06 m/s, max|dy|=1.77 m/s, max|dz|=0.29 m/s</desc>
  </wpt>
  <trk>
    <name>1_aligned_pattern_resampled_anomalies</name>
    <trkseg>
      <trkpt lat="43.384667" lon="-5.82216">
        <ele>166.0</ele>
        <time>2024-08-23T16:13:35Z</time>
      </trkpt>
      <trkpt lat="43.38465333333333" lon="-5.822173666666667">
        <ele>166.33333333333334</ele>
        <time>2024-08-23T16:13:36Z</time>
      </trkpt>
      <trkpt lat="43.384639666666665" lon="-5.822187333333333">
        <ele>166.66666666666666</ele>
        <time>2024-08-23T16:13:37Z</time>
      </trkpt>
    </trkseg>
    <trkseg>
      <trkpt lat="43.384376" lon="-5.823794">
        <ele>169.0</ele>
        <time>2024-08-23T16:14:57Z</time>
      </trkpt>
      <trkpt lat="43.3843715" lon="-5.823815833333334">
        <ele>169.16666666666666</ele>
        <time>2024-08-23T16:14:58Z</time>
      </trkpt>
      <trkpt lat="43.384367000000005" lon="-5.823837666666667">
        <ele>169.33333333333334</ele>
        <time>2024-08-23T16:14:59Z</time>
      </trkpt>
      <trkpt lat="43.3843625" lon="-5.8238595">
        <ele>169.5</ele>
        <time>2024-08-23T16:15:00Z</time>
      </trkpt>
      <trkpt lat="43.384358" lon="-5.8238813333333335">
        <ele>169.66666666666666</ele>
        <time>2024-08-23T16:15:01Z</time>
      </trkpt>
    </trkseg>
    <trkseg>
      <trkpt lat="43.384349" lon="-5.823925">
        <ele>170.0</ele>
        <time>2024-08-23T16:15:03Z</time>
      </trkpt>
      <trkpt lat="43.3843434" lon="-5.8239492">
        <ele>170.0</ele>
        <time>2024-08-23T16:15:04Z</time>
      </trkpt>
      <trkpt lat="43.3843378" lon="-5.8239734">
        <ele>170.0</ele>
        <time>2024-08-23T16:15:05Z</time>
      </trkpt>
    </trkseg>
    <trkseg>
      <trkpt lat="43.38452369216354" lon="-5.824254639379081">
        <ele>171.092572695754</ele>
        <time>2024-08-23T16:15:29Z</time>
      </trkpt>
      <trkpt lat="43.38453780194937" lon="-5.824249839242838">
        <ele>171.21607571621414</ele>
        <time>2024-08-23T16:15:30Z</time>
      </trkpt>
      <trkpt lat="43.38455264030308" lon="-5.8242480820693725">
        <ele>171.39179306275724</ele>
        <time>2024-08-23T16:15:31Z</time>
      </trkpt>
      <trkpt lat="43.38456747865679" lon="-5.824246324895907">
        <ele>171.56751040930035</ele>
        <time>2024-08-23T16:15:32Z</time>
      </trkpt>
      <trkpt lat="43.3845823170105" lon="-5.824244567722442">
        <ele>171.7432277558435</ele>
        <time>2024-08-23T16:15:33Z</time>
      </trkpt>
    </trkseg>
    <trkseg>
      <trkpt lat="43.384892947260816" lon="-5.8244322473112">
        <ele>172.0</ele>
        <time>2024-08-23T16:15:58Z</time>
      </trkpt>
      <trkpt lat="43.38488716521982" lon="-5.824453358443031">
        <ele>172.06115933925363</ele>
        <time>2024-08-23T16:15:59Z</time>
      </trkpt>
      <trkpt lat="43.38488241772083" lon="-5.824474985938435">
        <ele>172.21940930562553</ele>
        <time>2024-08-23T16:16:00Z</time>
      </trkpt>
      <trkpt lat="43.384882438553895" lon="-5.824496567066883">
        <ele>172.41379918181184</ele>
        <time>2024-08-23T16:16:01Z</time>
      </trkpt>
      <trkpt lat="43.384887407710345" lon="-5.824518100078148">
        <ele>172.64569314928903</ele>
        <time>2024-08-23T16:16:02Z</time>
      </trkpt>
      <trkpt lat="43.38489237686679" lon="-5.8245396330894135">
        <ele>172.87758711676622</ele>
        <time>2024-08-23T16:16:03Z</time>
      </trkpt>
    </trkseg>
    <trkseg>
      <trkpt lat="43.38493012801421" lon="-5.824773923936061">
        <ele>173.04359928957012</ele>
        <time>2024-08-23T16:16:14Z</time>
      </trkpt>
      <trkpt lat="43.384925326885536" lon="-5.824795529015106">
        <ele>173.28365572340834</ele>
        <time>2024-08-23T16:16:15Z</time>
      </trkpt>
      <trkpt lat="43.384920525756854" lon="-5.824817134094152">
        <ele>173.52371215724656</ele>
        <time>2024-08-23T16:16:16Z</time>
      </trkpt>
    </trkseg>
    <trkseg>
      <trkpt lat="43.38486210705624" lon="-5.824978029324519">
        <ele>174.0</ele>
        <time>2024-08-23T16:16:24Z</time>
      </trkpt>
      <trkpt lat="43.38485156507893" lon="-5.824995084900827">
        <ele>174.16499797605715</ele>
        <time>2024-08-23T16:16:25Z</time>
      </trkpt>
      <trkpt lat="43.38483944007575" lon="-5.8250103188791895">
        <ele>174.47589549366484</ele>
        <time>2024-08-23T16:16:26Z</time>
      </trkpt>
      <trkpt lat="43.38482731507256" lon="-5.825025552857552">
        <ele>174.78679301127252</ele>
        <time>2024-08-23T16:16:27Z</time>
      </trkpt>
    </trkseg>
    <trkseg>
      <trkpt lat="43.38548206448556" lon="-5.826549535018049">
        <ele>178.0</ele>
        <time>2024-08-23T16:17:52Z</time>
      </trkpt>
      <trkpt lat="43.38548935188153" lon="-5.82656939910984">
        <ele>178.1274257508024</ele>
        <time>2024-08-23T16:17:53Z</time>
      </trkpt>
      <trkpt lat="43.38549671552526" lon="-5.826589210817964">
        <ele>178.3027506014519</ele>
        <time>2024-08-23T16:17:54Z</time>
      </trkpt>
      <trkpt lat="43.38550407916899" lon="-5.826609022526087">
        <ele>178.47807545210142</ele>
        <time>2024-08-23T16:17:55Z</time>
      </trkpt>
      <trkpt lat="43.385511442812714" lon="-5.826628834234211">
        <ele>178.65340030275095</ele>
        <time>2024-08-23T16:17:56Z</time>
      </trkpt>
      <trkpt lat="43.38551880645644" lon="-5.826648645942334">
        <ele>178.82872515340048</ele>
        <time>2024-08-23T16:17:57Z</time>
      </trkpt>
    </trkseg>
    <trkseg>
      <trkpt lat="43.386358" lon="-5.828081">
        <ele>191.0</ele>
        <time>2024-08-23T16:21:02Z</time>
      </trkpt>
      <trkpt lat="43.386355" lon="-5.828066333333333">
        <ele>191.0</ele>
        <time>2024-08-23T16:21:03Z</time>
      </trkpt>
      <trkpt lat="43.386352" lon="-5.828051666666667">
        <ele>191.0</ele>
        <time>2024-08-23T16:21:04Z</time>
      </trkpt>
    </trkseg>
    <trkseg>
      <trkpt lat="43.386578" lon="-5.827909">
        <ele>193.0</ele>
        <time>2024-08-23T16:21:17Z</time>
      </trkpt>
      <trkpt lat="43.38658066666667" lon="-5.827926">
        <ele>193.0</ele>
        <time>2024-08-23T16:21:18Z</time>
      </trkpt>
      <trkpt lat="43.386583333333334" lon="-5.827943">
        <ele>193.0</ele>
        <time>2024-08-23T16:21:19Z</time>
      </trkpt>
    </trkseg>
    <trkseg>
      <trkpt lat="43.389166" lon="-5.830257">
        <ele>222.0</ele>
        <time>2024-08-23T16:25:44Z</time>
      </trkpt>
      <trkpt lat="43.389172" lon="-5.83029">
        <ele>222.5</ele>
        <time>2024-08-23T16:25:45Z</time>
      </trkpt>
    </trkseg>
    <trkseg>
      <trkpt lat="43.387333" lon="-5.850851">
        <ele>543.1</ele>
        <time>2024-08-23T17:05:55Z</time>
      </trkpt>
      <trkpt lat="43.3873332" lon="-5.8508686">
        <ele>543.0600000000001</ele>
        <time>2024-08-23T17:05:56Z</time>
      </trkpt>
      <trkpt lat="43.3873334" lon="-5.8508862">
        <ele>543.02</ele>
        <time>2024-08-23T17:05:57Z</time>
      </trkpt>
      <trkpt lat="43.3873336" lon="-5.8509038">
        <ele>542.98</ele>
        <time>2024-08-23T17:05:58Z</time>
      </trkpt>
      <trkpt lat="43.3873338" lon="-5.8509214">
        <ele>542.9399999999999</ele>
        <time>2024-08-23T17:05:59Z</time>
      </trkpt>
    </trkseg>
    <trkseg>
      <trkpt lat="43.387917" lon="-5.851319">
        <ele>552.5</ele>
        <time>2024-08-23T17:06:53Z</time>
      </trkpt>
      <trkpt lat="43.3879292" lon="-5.8513218">
        <ele>552.42</ele>
        <time>2024-08-23T17:06:54Z</time>
      </trkpt>
      <trkpt lat="43.3879414" lon="-5.8513246">
        <ele>552.34</ele>
        <time>2024-08-23T17:06:55Z</time>
      </trkpt>
      <trkpt lat="43.387953599999996" lon="-5.851327400000001">
        <ele>552.26</ele>
        <time>2024-08-23T17:06:56Z</time>
      </trkpt>
      <trkpt lat="43.387965799999996" lon="-5.8513302000000005">
        <ele>552.1800000000001</ele>
        <time>2024-08-23T17:06:57Z</time>
      </trkpt>
    </trkseg>
    <trkseg>
      <trkpt lat="43.388252" lon="-5.852009">
        <ele>557.5</ele>
        <time>2024-08-23T17:07:44Z</time>
      </trkpt>
      <trkpt lat="43.38824233333334" lon="-5.852020333333333">
        <ele>558.0</ele>
        <time>2024-08-23T17:07:45Z</time>
      </trkpt>
      <trkpt lat="43.38823266666667" lon="-5.852031666666667">
        <ele>558.5</ele>
        <time>2024-08-23T17:07:46Z</time>
      </trkpt>
    </trkseg>
    <trkseg>
      <trkpt lat="43.38818" lon="-5.853358571428571">
        <ele>572.2857142857143</ele>
        <time>2024-08-23T17:09:11Z</time>
      </trkpt>
      <trkpt lat="43.388179" lon="-5.853377857142857">
        <ele>572.4285714285714</ele>
        <time>2024-08-23T17:09:12Z</time>
      </trkpt>
      <trkpt lat="43.388177999999996" lon="-5.853397142857143">
        <ele>572.5714285714286</ele>
        <time>2024-08-23T17:09:13Z</time>
      </trkpt>
      <trkpt lat="43.388177" lon="-5.853416428571429">
        <ele>572.7142857142857</ele>
        <time>2024-08-23T17:09:14Z</time>
      </trkpt>
      <trkpt lat="43.388175999999994" lon="-5.853435714285714">
        <ele>572.8571428571429</ele>
        <time>2024-08-23T17:09:15Z</time>
      </trkpt>
    </trkseg>
    <trkseg>
      <trkpt lat="43.388114" lon="-5.853949">
        <ele>576.5</ele>
        <time>2024-08-23T17:09:45Z</time>
      </trkpt>
      <trkpt lat="43.388102" lon="-5.8539585">
        <ele>577.15</ele>
        <time>2024-08-23T17:09:46Z</time>
      </trkpt>
    </trkseg>
    <trkseg>
      <trkpt lat="43.387815" lon="-5.854272">
        <ele>581.8</ele>
        <time>2024-08-23T17:10:20Z</time>
      </trkpt>
      <trkpt lat="43.38780375" lon="-5.85427125">
        <ele>582.25</ele>
        <time>2024-08-23T17:10:21Z</time>
      </trkpt>
      <trkpt lat="43.3877925" lon="-5.8542705">
        <ele>582.7</ele>
        <time>2024-08-23T17:10:22Z</time>
      </trkpt>
      <trkpt lat="43.38778125" lon="-5.85426975">
        <ele>583.15</ele>
        <time>2024-08-23T17:10:23Z</time>
      </trkpt>
    </trkseg>
    <trkseg>
      <trkpt lat="43.386667" lon="-5.854782">
        <ele>567.6</ele>
        <time>2024-08-23T17:11:44Z</time>
      </trkpt>
      <trkpt lat="43.38665185714286" lon="-5.854787">
        <ele>567.5142857142857</ele>
        <time>2024-08-23T17:11:45Z</time>
      </trkpt>
      <trkpt lat="43.386636714285714" lon="-5.854792">
        <ele>567.4285714285714</ele>
        <time>2024-08-23T17:11:46Z</time>
      </trkpt>
      <trkpt lat="43.38662157142857" lon="-5.854797">
        <ele>567.3428571428572</ele>
        <time>2024-08-23T17:11:47Z</time>
      </trkpt>
      <trkpt lat="43.38660642857143" lon="-5.854802">
        <ele>567.2571428571429</ele>
        <time>2024-08-23T17:11:48Z</time>
      </trkpt>
      <trkpt lat="43.38659128571429" lon="-5.854807">
        <ele>567.1714285714286</ele>
        <time>2024-08-23T17:11:49Z</time>
      </trkpt>
      <trkpt lat="43.386576142857145" lon="-5.854812">
        <ele>567.0857142857143</ele>
        <time>2024-08-23T17:11:50Z</time>
      </trkpt>
    </trkseg>
    <trkseg>
      <trkpt lat="43.385428" lon="-5.855544">
        <ele>562.8</ele>
        <time>2024-08-23T17:13:09Z</time>
      </trkpt>
      <trkpt lat="43.38541671428571" lon="-5.855558571428571">
        <ele>562.5428571428571</ele>
        <time>2024-08-23T17:13:10Z</time>
      </trkpt>
      <trkpt lat="43.385405428571424" lon="-5.855573142857143">
        <ele>562.2857142857142</ele>
        <time>2024-08-23T17:13:11Z</time>
      </trkpt>
      <trkpt lat="43.38539414285714" lon="-5.855587714285714">
        <ele>562.0285714285714</ele>
        <time>2024-08-23T17:13:12Z</time>
      </trkpt>
      <trkpt lat="43.38538285714286" lon="-5.855602285714286">
        <ele>561.7714285714286</ele>
        <time>2024-08-23T17:13:13Z</time>
      </trkpt>
      <trkpt lat="43.38537157142857" lon="-5.8556168571428575">
        <ele>561.5142857142857</ele>
        <time>2024-08-23T17:13:14Z</time>
      </trkpt>
      <trkpt lat="43.385360285714285" lon="-5.855631428571429">
        <ele>561.2571428571429</ele>
        <time>2024-08-23T17:13:15Z</time>
      </trkpt>
    </trkseg>
    <trkseg>
      <trkpt lat="43.384065" lon="-5.85886">
        <ele>582.5</ele>
        <time>2024-08-23T17:17:43Z</time>
      </trkpt>
      <trkpt lat="43.3840675" lon="-5.858877">
        <ele>582.55</ele>
        <time>2024-08-23T17:17:44Z</time>
      </trkpt>
      <trkpt lat="43.38407" lon="-5.858894">
        <ele>582.6</ele>
        <time>2024-08-23T17:17:45Z</time>
      </trkpt>
      <trkpt lat="43.3840725" lon="-5.858911">
        <ele>582.65</ele>
        <time>2024-08-23T17:17:46Z</time>
      </trkpt>
      <trkpt lat="43.384074999999996" lon="-5.858928">
        <ele>582.6999999999999</ele>
        <time>2024-08-23T17:17:47Z</time>
      </trkpt>
      <trkpt lat="43.3840775" lon="-5.858945">
        <ele>582.75</ele>
        <time>2024-08-23T17:17:48Z</time>
      </trkpt>
    </trkseg>
    <trkseg>
      <trkpt lat="43.38409" lon="-5.859115">
        <ele>582.7</ele>
        <time>2024-08-23T17:17:56Z</time>
      </trkpt>
      <trkpt lat="43.384093" lon="-5.859136">
        <ele>582.6</ele>
        <time>2024-08-23T17:17:57Z</time>
      </trkpt>
      <trkpt lat="43.384096" lon="-5.859157">
        <ele>582.5</ele>
        <time>2024-08-23T17:17:58Z</time>
      </trkpt>
      <trkpt lat="43.384099" lon="-5.859178">
        <ele>582.4</ele>
        <time>2024-08-23T17:17:59Z</time>
      </trkpt>
      <trkpt lat="43.384102" lon="-5.859199">
        <ele>582.3000000000001</ele>
        <time>2024-08-23T17:18:00Z</time>
      </trkpt>
      <trkpt lat="43.384105" lon="-5.8592200000000005">
        <ele>582.2</ele>
        <time>2024-08-23T17:18:01Z</time>
      </trkpt>
      <trkpt lat="43.384108" lon="-5.859241">
        <ele>582.1</ele>
        <time>2024-08-23T17:18:02Z</time>
      </trkpt>
    </trkseg>
    <trkseg>
      <trkpt lat="43.384335" lon="-5.861144">
        <ele>592.8</ele>
        <time>2024-08-23T17:19:43Z</time>
      </trkpt>
      <trkpt lat="43.384329" lon="-5.861163">
        <ele>592.8399999999999</ele>
        <time>2024-08-23T17:19:44Z</time>
      </trkpt>
      <trkpt lat="43.384323" lon="-5.861182">
        <ele>592.88</ele>
        <time>2024-08-23T17:19:45Z</time>
      </trkpt>
      <trkpt lat="43.384316999999996" lon="-5.861201">
        <ele>592.92</ele>
        <time>2024-08-23T17:19:46Z</time>
      </trkpt>
      <trkpt lat="43.384311" lon="-5.86122">
        <ele>592.96</ele>
        <time>2024-08-23T17:19:47Z</time>
      </trkpt>
    </trkseg>
    <trkseg>
      <trkpt lat="43.384671" lon="-5.863868">
        <ele>634.9</ele>
        <time>2024-08-23T17:28:31Z</time>
      </trkpt>
      <trkpt lat="43.3846595" lon="-5.8638639999999995">
        <ele>634.45</ele>
        <time>2024-08-23T17:28:32Z</time>
      </trkpt>
      <trkpt lat="43.384648" lon="-5.86386">
        <ele>634.0</ele>
        <time>2024-08-23T17:28:33Z</time>
      </trkpt>
      <trkpt lat="43.38463133333333" lon="-5.863855666666667">
        <ele>633.6666666666666</ele>
        <time>2024-08-23T17:28:34Z</time>
      </trkpt>
      <trkpt lat="43.384614666666664" lon="-5.863851333333333">
        <ele>633.3333333333334</ele>
        <time>2024-08-23T17:28:35Z</time>
      </trkpt>
    </trkseg>
    <trkseg>
      <trkpt lat="43.384397" lon="-5.861541">
        <ele>599.0</ele>
        <time>2024-08-23T17:30:52Z</time>
      </trkpt>
      <trkpt lat="43.3843946" lon="-5.8615112">
        <ele>598.8</ele>
        <time>2024-08-23T17:30:53Z</time>
      </trkpt>
      <trkpt lat="43.3843922" lon="-5.8614814">
        <ele>598.6</ele>
        <time>2024-08-23T17:30:54Z</time>
      </trkpt>
      <trkpt lat="43.3843898" lon="-5.8614516000000005">
        <ele>598.4</ele>
        <time>2024-08-23T17:30:55Z</time>
      </trkpt>
      <trkpt lat="43.3843874" lon="-5.8614218000000005">
        <ele>598.2</ele>
        <time>2024-08-23T17:30:56Z</time>
      </trkpt>
    </trkseg>
    <trkseg>
      <trkpt lat="43.383728" lon="-5.852647">
        <ele>531.6</ele>
        <time>2024-08-23T17:37:37Z</time>
      </trkpt>
      <trkpt lat="43.383748714285716" lon="-5.852639285714286">
        <ele>531.6857142857143</ele>
        <time>2024-08-23T17:37:38Z</time>
      </trkpt>
      <trkpt lat="43.383769428571426" lon="-5.852631571428572">
        <ele>531.7714285714286</ele>
        <time>2024-08-23T17:37:39Z</time>
      </trkpt>
      <trkpt lat="43.383790142857144" lon="-5.8526238571428575">
        <ele>531.8571428571429</ele>
        <time>2024-08-23T17:37:40Z</time>
      </trkpt>
      <trkpt lat="43.383810857142855" lon="-5.852616142857142">
        <ele>531.9428571428572</ele>
        <time>2024-08-23T17:37:41Z</time>
      </trkpt>
      <trkpt lat="43.38383157142857" lon="-5.852608428571428">
        <ele>532.0285714285715</ele>
        <time>2024-08-23T17:37:42Z</time>
      </trkpt>
      <trkpt lat="43.38385228571428" lon="-5.852600714285714">
        <ele>532.1142857142858</ele>
        <time>2024-08-23T17:37:43Z</time>
      </trkpt>
    </trkseg>
    <trkseg>
      <trkpt lat="43.384093" lon="-5.852178">
        <ele>526.4</ele>
        <time>2024-08-23T17:38:12Z</time>
      </trkpt>
      <trkpt lat="43.38408957142857" lon="-5.8521730000000005">
        <ele>526.0285714285714</ele>
        <time>2024-08-23T17:38:13Z</time>
      </trkpt>
      <trkpt lat="43.38408614285714" lon="-5.852168">
        <ele>525.6571428571428</ele>
        <time>2024-08-23T17:38:14Z</time>
      </trkpt>
      <trkpt lat="43.38408271428571" lon="-5.852163">
        <ele>525.2857142857142</ele>
        <time>2024-08-23T17:38:15Z</time>
      </trkpt>
      <trkpt lat="43.384079285714286" lon="-5.852158">
        <ele>524.9142857142857</ele>
        <time>2024-08-23T17:38:16Z</time>
      </trkpt>
      <trkpt lat="43.384075857142854" lon="-5.852153">
        <ele>524.5428571428571</ele>
        <time>2024-08-23T17:38:17Z</time>
      </trkpt>
      <trkpt lat="43.38407242857143" lon="-5.852148">
        <ele>524.1714285714286</ele>
        <time>2024-08-23T17:38:18Z</time>
      </trkpt>
    </trkseg>
    <trkseg>
      <trkpt lat="43.383971" lon="-5.851996">
        <ele>514.6</ele>
        <time>2024-08-23T17:38:42Z</time>
      </trkpt>
      <trkpt lat="43.383968" lon="-5.851981">
        <ele>514.0</ele>
        <time>2024-08-23T17:38:43Z</time>
      </trkpt>
    </trkseg>
    <trkseg>
      <trkpt lat="43.384187623785714" lon="-5.8517612241683725">
        <ele>509.6075242858495</ele>
        <time>2024-08-23T17:39:04Z</time>
      </trkpt>
      <trkpt lat="43.38419844630666" lon="-5.851741651317586">
        <ele>508.8563455761879</ele>
        <time>2024-08-23T17:39:05Z</time>
      </trkpt>
      <trkpt lat="43.38420660886929" lon="-5.851718647731995">
        <ele>507.89167908365584</ele>
        <time>2024-08-23T17:39:06Z</time>
      </trkpt>
      <trkpt lat="43.38421477143192" lon="-5.851695644146404">
        <ele>506.92701259112386</ele>
        <time>2024-08-23T17:39:07Z</time>
      </trkpt>
    </trkseg>
    <trkseg>
      <trkpt lat="43.382245" lon="-5.852497">
        <ele>460.6</ele>
        <time>2024-08-23T17:41:16Z</time>
      </trkpt>
      <trkpt lat="43.3822355" lon="-5.852515">
        <ele>459.65</ele>
        <time>2024-08-23T17:41:17Z</time>
      </trkpt>
      <trkpt lat="43.382226" lon="-5.852533">
        <ele>458.7</ele>
        <time>2024-08-23T17:41:18Z</time>
      </trkpt>
      <trkpt lat="43.3822120063416" lon="-5.852541231563767">
        <ele>457.21831852200626</ele>
        <time>2024-08-23T17:41:19Z</time>
      </trkpt>
    </trkseg>
    <trkseg>
      <trkpt lat="43.382188" lon="-5.852464">
        <ele>455.6</ele>
        <time>2024-08-23T17:41:29Z</time>
      </trkpt>
      <trkpt lat="43.382189499999996" lon="-5.8524475">
        <ele>456.4</ele>
        <time>2024-08-23T17:41:30Z</time>
      </trkpt>
      <trkpt lat="43.382191" lon="-5.852431">
        <ele>457.2</ele>
        <time>2024-08-23T17:41:31Z</time>
      </trkpt>
    </trkseg>
    <trkseg>
      <trkpt lat="43.382158" lon="-5.852024">
        <ele>450.1</ele>
        <time>2024-08-23T17:41:52Z</time>
      </trkpt>
      <trkpt lat="43.382142" lon="-5.852017">
        <ele>448.95000000000005</ele>
        <time>2024-08-23T17:41:53Z</time>
      </trkpt>
    </trkseg>
    <trkseg>
      <trkpt lat="43.38201" lon="-5.85195">
        <ele>442.8</ele>
        <time>2024-08-23T17:42:04Z</time>
      </trkpt>
      <trkpt lat="43.38199" lon="-5.85194">
        <ele>441.7</ele>
        <time>2024-08-23T17:42:05Z</time>
      </trkpt>
    </trkseg>
    <trkseg>
      <trkpt lat="43.381891" lon="-5.850939">
        <ele>427.8</ele>
        <time>2024-08-23T17:42:48Z</time>
      </trkpt>
      <trkpt lat="43.3818905" lon="-5.850907">
        <ele>427.25</ele>
        <time>2024-08-23T17:42:49Z</time>
      </trkpt>
    </trkseg>
    <trkseg>
      <trkpt lat="43.381829" lon="-5.850214">
        <ele>407.9</ele>
        <time>2024-08-23T17:43:42Z</time>
      </trkpt>
      <trkpt lat="43.381811" lon="-5.850231">
        <ele>407.15</ele>
        <time>2024-08-23T17:43:43Z</time>
      </trkpt>
    </trkseg>
    <trkseg>
      <trkpt lat="43.381731" lon="-5.85022">
        <ele>403.9</ele>
        <time>2024-08-23T17:44:03Z</time>
      </trkpt>
      <trkpt lat="43.3817345" lon="-5.850196">
        <ele>403.04999999999995</ele>
        <time>2024-08-23T17:44:04Z</time>
      </trkpt>
    </trkseg>
    <trkseg>
      <trkpt lat="43.381447" lon="-5.848987">
        <ele>365.0</ele>
        <time>2024-08-23T17:45:53Z</time>
      </trkpt>
      <trkpt lat="43.381432000000004" lon="-5.848994">
        <ele>364.5</ele>
        <time>2024-08-23T17:45:54Z</time>
      </trkpt>
    </trkseg>
    <trkseg>
      <trkpt lat="43.380453" lon="-5.850012">
        <ele>337.0</ele>
        <time>2024-08-23T17:47:00Z</time>
      </trkpt>
      <trkpt lat="43.3804445" lon="-5.8500345">
        <ele>336.9</ele>
        <time>2024-08-23T17:47:01Z</time>
      </trkpt>
      <trkpt lat="43.380436" lon="-5.850057">
        <ele>336.8</ele>
        <time>2024-08-23T17:47:02Z</time>
      </trkpt>
    </trkseg>
    <trkseg>
      <trkpt lat="43.37923275" lon="-5.850748">
        <ele>304.85</ele>
        <time>2024-08-23T17:48:08Z</time>
      </trkpt>
      <trkpt lat="43.379212499999994" lon="-5.850743">
        <ele>304.4</ele>
        <time>2024-08-23T17:48:09Z</time>
      </trkpt>
      <trkpt lat="43.379192249999996" lon="-5.850738">
        <ele>303.95</ele>
        <time>2024-08-23T17:48:10Z</time>
      </trkpt>
    </trkseg>
    <trkseg>
      <trkpt lat="43.378873" lon="-5.850499">
        <ele>295.0</ele>
        <time>2024-08-23T17:48:27Z</time>
      </trkpt>
      <trkpt lat="43.37887633333333" lon="-5.850473333333333">
        <ele>294.8333333333333</ele>
        <time>2024-08-23T17:48:28Z</time>
      </trkpt>
      <trkpt lat="43.37887966666667" lon="-5.850447666666667">
        <ele>294.6666666666667</ele>
        <time>2024-08-23T17:48:29Z</time>
      </trkpt>
    </trkseg>
    <trkseg>
      <trkpt lat="43.378876" lon="-5.850232">
        <ele>292.3</ele>
        <time>2024-08-23T17:48:35Z</time>
      </trkpt>
      <trkpt lat="43.378889" lon="-5.850147">
        <ele>291.4</ele>
        <time>2024-08-23T17:48:36Z</time>
      </trkpt>
      <trkpt lat="43.37888866666667" lon="-5.850120666666666">
        <ele>291.26666666666665</ele>
        <time>2024-08-23T17:48:37Z</time>
      </trkpt>
      <trkpt lat="43.378888333333336" lon="-5.850094333333334">
        <ele>291.1333333333333</ele>
        <time>2024-08-23T17:48:38Z</time>
      </trkpt>
    </trkseg>
    <trkseg>
      <trkpt lat="43.379483" lon="-5.847029">
        <ele>285.0</ele>
        <time>2024-08-23T17:50:51Z</time>
      </trkpt>
      <trkpt lat="43.3795002" lon="-5.847027">
        <ele>284.8</ele>
        <time>2024-08-23T17:50:52Z</time>
      </trkpt>
      <trkpt lat="43.3795174" lon="-5.847025">
        <ele>284.6</ele>
        <time>2024-08-23T17:50:53Z</time>
      </trkpt>
      <trkpt lat="43.3795346" lon="-5.847023">
        <ele>284.4</ele>
        <time>2024-08-23T17:50:54Z</time>
      </trkpt>
      <trkpt lat="43.379551799999994" lon="-5.847021000000001">
        <ele>284.2</ele>
        <time>2024-08-23T17:50:55Z</time>
      </trkpt>
    </trkseg>
    <trkseg>
      <trkpt lat="43.379855" lon="-5.847008">
        <ele>284.6</ele>
        <time>2024-08-23T17:51:11Z</time>
      </trkpt>
      <trkpt lat="43.3798745" lon="-5.84700225">
        <ele>284.45000000000005</ele>
        <time>2024-08-23T17:51:12Z</time>
      </trkpt>
      <trkpt lat="43.379894" lon="-5.8469964999999995">
        <ele>284.3</ele>
        <time>2024-08-23T17:51:13Z</time>
      </trkpt>
      <trkpt lat="43.3799135" lon="-5.84699075">
        <ele>284.15</ele>
        <time>2024-08-23T17:51:14Z</time>
      </trkpt>
    </trkseg>
    <trkseg>
      <trkpt lat="43.380056" lon="-5.846823">
        <ele>284.9</ele>
        <time>2024-08-23T17:51:22Z</time>
      </trkpt>
      <trkpt lat="43.380072" lon="-5.8467945">
        <ele>284.79999999999995</ele>
        <time>2024-08-23T17:51:23Z</time>
      </trkpt>
      <trkpt lat="43.380088" lon="-5.846766">
        <ele>284.7</ele>
        <time>2024-08-23T17:51:24Z</time>
      </trkpt>
      <trkpt lat="43.380104" lon="-5.8467375">
        <ele>284.6</ele>
        <time>2024-08-23T17:51:25Z</time>
      </trkpt>
    </trkseg>
    <trkseg>
      <trkpt lat="43.380466" lon="-5.846062">
        <ele>286.0</ele>
        <time>2024-08-23T17:51:47Z</time>
      </trkpt>
      <trkpt lat="43.380503" lon="-5.846014">
        <ele>285.1</ele>
        <time>2024-08-23T17:51:48Z</time>
      </trkpt>
      <trkpt lat="43.3805285" lon="-5.8460355">
        <ele>285.1</ele>
        <time>2024-08-23T17:51:49Z</time>
      </trkpt>
      <trkpt lat="43.380554" lon="-5.846057">
        <ele>285.1</ele>
        <time>2024-08-23T17:51:50Z</time>
      </trkpt>
      <trkpt lat="43.380578" lon="-5.8460715">
        <ele>285.05</ele>
        <time>2024-08-23T17:51:51Z</time>
      </trkpt>
    </trkseg>
    <trkseg>
      <trkpt lat="43.380583" lon="-5.84594">
        <ele>284.4</ele>
        <time>2024-08-23T17:52:11Z</time>
      </trkpt>
      <trkpt lat="43.38059575" lon="-5.845919">
        <ele>284.625</ele>
        <time>2024-08-23T17:52:12Z</time>
      </trkpt>
    </trkseg>
    <trkseg>
      <trkpt lat="43.380746" lon="-5.845757">
        <ele>286.0</ele>
        <time>2024-08-23T17:52:21Z</time>
      </trkpt>
      <trkpt lat="43.380766" lon="-5.84574325">
        <ele>286.0</ele>
        <time>2024-08-23T17:52:22Z</time>
      </trkpt>
      <trkpt lat="43.380786" lon="-5.8457295">
        <ele>286.0</ele>
        <time>2024-08-23T17:52:23Z</time>
      </trkpt>
      <trkpt lat="43.380806" lon="-5.84571575">
        <ele>286.0</ele>
        <time>2024-08-23T17:52:24Z</time>
      </trkpt>
    </trkseg>
    <trkseg>
      <trkpt lat="43.381154200000005" lon="-5.8455474">
        <ele>285.9</ele>
        <time>2024-08-23T17:52:38Z</time>
      </trkpt>
      <trkpt lat="43.3811824" lon="-5.8455408">
        <ele>285.8</ele>
        <time>2024-08-23T17:52:39Z</time>
      </trkpt>
      <trkpt lat="43.3812106" lon="-5.8455341999999995">
        <ele>285.7</ele>
        <time>2024-08-23T17:52:40Z</time>
      </trkpt>
      <trkpt lat="43.3812388" lon="-5.8455276">
        <ele>285.6</ele>
        <time>2024-08-23T17:52:41Z</time>
      </trkpt>
    </trkseg>
    <trkseg>
      <trkpt lat="43.38174166666667" lon="-5.845347">
        <ele>285.3666666666667</ele>
        <time>2024-08-23T17:53:02Z</time>
      </trkpt>
      <trkpt lat="43.38176133333333" lon="-5.845315">
        <ele>284.73333333333335</ele>
        <time>2024-08-23T17:53:03Z</time>
      </trkpt>
      <trkpt lat="43.381781" lon="-5.845283">
        <ele>284.1</ele>
        <time>2024-08-23T17:53:04Z</time>
      </trkpt>
    </trkseg>
    <trkseg>
      <trkpt lat="43.381926" lon="-5.844278">
        <ele>286.0</ele>
        <time>2024-08-23T17:53:33Z</time>
      </trkpt>
      <trkpt lat="43.38193733333333" lon="-5.844255666666666">
        <ele>286.1</ele>
        <time>2024-08-23T17:53:34Z</time>
      </trkpt>
    </trkseg>
    <trkseg>
      <trkpt lat="43.382034" lon="-5.844121">
        <ele>286.1</ele>
        <time>2024-08-23T17:53:40Z</time>
      </trkpt>
      <trkpt lat="43.382047666666665" lon="-5.8440856666666665">
        <ele>285.8666666666667</ele>
        <time>2024-08-23T17:53:41Z</time>
      </trkpt>
      <trkpt lat="43.38206133333333" lon="-5.844050333333334">
        <ele>285.6333333333333</ele>
        <time>2024-08-23T17:53:42Z</time>
      </trkpt>
    </trkseg>
    <trkseg>
      <trkpt lat="43.382276" lon="-5.843487">
        <ele>286.0</ele>
        <time>2024-08-23T17:54:03Z</time>
      </trkpt>
      <trkpt lat="43.382273" lon="-5.843415">
        <ele>285.9</ele>
        <time>2024-08-23T17:54:04Z</time>
      </trkpt>
      <trkpt lat="43.3822715" lon="-5.8433995">
        <ele>285.95</ele>
        <time>2024-08-23T17:54:05Z</time>
      </trkpt>
    </trkseg>
    <trkseg>
      <trkpt lat="43.382236" lon="-5.843161">
        <ele>286.0</ele>
        <time>2024-08-23T17:54:12Z</time>
      </trkpt>
      <trkpt lat="43.382236999999996" lon="-5.843128666666667">
        <ele>286.06666666666666</ele>
        <time>2024-08-23T17:54:13Z</time>
      </trkpt>
      <trkpt lat="43.382238" lon="-5.8430963333333334">
        <ele>286.1333333333333</ele>
        <time>2024-08-23T17:54:14Z</time>
      </trkpt>
    </trkseg>
    <trkseg>
      <trkpt lat="43.382242" lon="-5.842928">
        <ele>286.2</ele>
        <time>2024-08-23T17:54:19Z</time>
      </trkpt>
      <trkpt lat="43.382243" lon="-5.84289225">
        <ele>286.15</ele>
        <time>2024-08-23T17:54:20Z</time>
      </trkpt>
      <trkpt lat="43.382244" lon="-5.8428565">
        <ele>286.1</ele>
        <time>2024-08-23T17:54:21Z</time>
      </trkpt>
      <trkpt lat="43.382245" lon="-5.84282075">
        <ele>286.05</ele>
        <time>2024-08-23T17:54:22Z</time>
      </trkpt>
    </trkseg>
    <trkseg>
      <trkpt lat="43.382377" lon="-5.842127">
        <ele>286.9</ele>
        <time>2024-08-23T17:54:42Z</time>
      </trkpt>
      <trkpt lat="43.382391" lon="-5.8420995">
        <ele>286.45</ele>
        <time>2024-08-23T17:54:43Z</time>
      </trkpt>
    </trkseg>
    <trkseg>
      <trkpt lat="43.38274333333334" lon="-5.841504666666667">
        <ele>288.31666666666666</ele>
        <time>2024-08-23T17:55:05Z</time>
      </trkpt>
      <trkpt lat="43.38275866666667" lon="-5.8414763333333335">
        <ele>288.1333333333333</ele>
        <time>2024-08-23T17:55:06Z</time>
      </trkpt>
      <trkpt lat="43.382774" lon="-5.841448">
        <ele>287.95</ele>
        <time>2024-08-23T17:55:07Z</time>
      </trkpt>
      <trkpt lat="43.382789333333335" lon="-5.841419666666667">
        <ele>287.76666666666665</ele>
        <time>2024-08-23T17:55:08Z</time>
      </trkpt>
    </trkseg>
    <trkseg>
      <trkpt lat="43.38282" lon="-5.841363">
        <ele>287.4</ele>
        <time>2024-08-23T17:55:10Z</time>
      </trkpt>
      <trkpt lat="43.3828424" lon="-5.8413436">
        <ele>287.52</ele>
        <time>2024-08-23T17:55:11Z</time>
      </trkpt>
      <trkpt lat="43.3828648" lon="-5.8413242">
        <ele>287.64</ele>
        <time>2024-08-23T17:55:12Z</time>
      </trkpt>
      <trkpt lat="43.3828872" lon="-5.8413048000000005">
        <ele>287.76</ele>
        <time>2024-08-23T17:55:13Z</time>
      </trkpt>
      <trkpt lat="43.3829096" lon="-5.8412854">
        <ele>287.88</ele>
        <time>2024-08-23T17:55:14Z</time>
      </trkpt>
    </trkseg>
    <trkseg>
      <trkpt lat="43.383487" lon="-5.840196">
        <ele>287.5</ele>
        <time>2024-08-23T17:55:55Z</time>
      </trkpt>
      <trkpt lat="43.3834945" lon="-5.84016525">
        <ele>287.625</ele>
        <time>2024-08-23T17:55:56Z</time>
      </trkpt>
      <trkpt lat="43.383502" lon="-5.8401345">
        <ele>287.75</ele>
        <time>2024-08-23T17:55:57Z</time>
      </trkpt>
      <trkpt lat="43.3835095" lon="-5.84010375">
        <ele>287.875</ele>
        <time>2024-08-23T17:55:58Z</time>
      </trkpt>
    </trkseg>
    <trkseg>
      <trkpt lat="43.384605" lon="-5.838438">
        <ele>285.5</ele>
        <time>2024-08-23T17:57:06Z</time>
      </trkpt>
      <trkpt lat="43.3846325" lon="-5.838425">
        <ele>285.875</ele>
        <time>2024-08-23T17:57:07Z</time>
      </trkpt>
      <trkpt lat="43.38466" lon="-5.838412">
        <ele>286.25</ele>
        <time>2024-08-23T17:57:08Z</time>
      </trkpt>
      <trkpt lat="43.3846875" lon="-5.838399">
        <ele>286.625</ele>
        <time>2024-08-23T17:57:09Z</time>
      </trkpt>
    </trkseg>
    <trkseg>
      <trkpt lat="43.3854956" lon="-5.8372476">
        <ele>289.16</ele>
        <time>2024-08-23T17:57:57Z</time>
      </trkpt>
      <trkpt lat="43.3855072" lon="-5.8372252">
        <ele>289.22</ele>
        <time>2024-08-23T17:57:58Z</time>
      </trkpt>
      <trkpt lat="43.3855188" lon="-5.8372028">
        <ele>289.28</ele>
        <time>2024-08-23T17:57:59Z</time>
      </trkpt>
      <trkpt lat="43.3855304" lon="-5.837180399999999">
        <ele>289.34</ele>
        <time>2024-08-23T17:58:00Z</time>
      </trkpt>
    </trkseg>
    <trkseg>
      <trkpt lat="43.38635" lon="-5.835687">
        <ele>289.8</ele>
        <time>2024-08-23T17:58:59Z</time>
      </trkpt>
      <trkpt lat="43.386369" lon="-5.83565775">
        <ele>289.6</ele>
        <time>2024-08-23T17:59:00Z</time>
      </trkpt>
      <trkpt lat="43.386388" lon="-5.8356285">
        <ele>289.4</ele>
        <time>2024-08-23T17:59:01Z</time>
      </trkpt>
      <trkpt lat="43.386407" lon="-5.83559925">
        <ele>289.2</ele>
        <time>2024-08-23T17:59:02Z</time>
      </trkpt>
    </trkseg>
    <trkseg>
      <trkpt lat="43.390035" lon="-5.833413">
        <ele>280.9</ele>
        <time>2024-08-23T18:03:02Z</time>
      </trkpt>
      <trkpt lat="43.390015" lon="-5.833394">
        <ele>280.5</ele>
        <time>2024-08-23T18:03:03Z</time>
      </trkpt>
    </trkseg>
    <trkseg>
      <trkpt lat="43.388256" lon="-5.83236">
        <ele>249.9</ele>
        <time>2024-08-23T18:04:30Z</time>
      </trkpt>
      <trkpt lat="43.388213" lon="-5.832369">
        <ele>248.9</ele>
        <time>2024-08-23T18:04:31Z</time>
      </trkpt>
    </trkseg>
    <trkseg>
      <trkpt lat="43.389075" lon="-5.830737">
        <ele>228.0</ele>
        <time>2024-08-23T18:05:34Z</time>
      </trkpt>
      <trkpt lat="43.389092" lon="-5.830697333333333">
        <ele>227.33333333333334</ele>
        <time>2024-08-23T18:05:35Z</time>
      </trkpt>
      <trkpt lat="43.389109" lon="-5.830657666666667">
        <ele>226.66666666666666</ele>
        <time>2024-08-23T18:05:36Z</time>
      </trkpt>
    </trkseg>
    <trkseg>
      <trkpt lat="43.388759" lon="-5.830167">
        <ele>219.5</ele>
        <time>2024-08-23T18:06:02Z</time>
      </trkpt>
      <trkpt lat="43.3887284" lon="-5.8301638">
        <ele>219.0</ele>
        <time>2024-08-23T18:06:03Z</time>
      </trkpt>
      <trkpt lat="43.3886978" lon="-5.8301606">
        <ele>218.5</ele>
        <time>2024-08-23T18:06:04Z</time>
      </trkpt>
      <trkpt lat="43.3886672" lon="-5.8301574">
        <ele>218.0</ele>
        <time>2024-08-23T18:06:05Z</time>
      </trkpt>
      <trkpt lat="43.388636600000005" lon="-5.8301542">
        <ele>217.5</ele>
        <time>2024-08-23T18:06:06Z</time>
      </trkpt>
    </trkseg>
    <trkseg>
      <trkpt lat="43.386349" lon="-5.828037">
        <ele>191.0</ele>
        <time>2024-08-23T18:08:20Z</time>
      </trkpt>
      <trkpt lat="43.386351250000004" lon="-5.828048">
        <ele>191.0</ele>
        <time>2024-08-23T18:08:21Z</time>
      </trkpt>
      <trkpt lat="43.3863535" lon="-5.828059">
        <ele>191.0</ele>
        <time>2024-08-23T18:08:22Z</time>
      </trkpt>
      <trkpt lat="43.38635575" lon="-5.82807">
        <ele>191.0</ele>
        <time>2024-08-23T18:08:23Z</time>
      </trkpt>
    </trkseg>
    <trkseg>
      <trkpt lat="43.386126" lon="-5.827513">
        <ele>180.0</ele>
        <time>2024-08-23T18:09:21Z</time>
      </trkpt>
      <trkpt lat="43.38610366666666" lon="-5.8275163333333335">
        <ele>180.33333333333334</ele>
        <time>2024-08-23T18:09:22Z</time>
      </trkpt>
      <trkpt lat="43.38608133333334" lon="-5.827519666666666">
        <ele>180.66666666666666</ele>
        <time>2024-08-23T18:09:23Z</time>
      </trkpt>
    </trkseg>
    <trkseg>
      <trkpt lat="43.385766" lon="-5.827279">
        <ele>181.0</ele>
        <time>2024-08-23T18:09:50Z</time>
      </trkpt>
      <trkpt lat="43.3857502" lon="-5.8272462">
        <ele>180.8</ele>
        <time>2024-08-23T18:09:51Z</time>
      </trkpt>
      <trkpt lat="43.3857344" lon="-5.8272134">
        <ele>180.6</ele>
        <time>2024-08-23T18:09:52Z</time>
      </trkpt>
      <trkpt lat="43.3857186" lon="-5.8271806">
        <ele>180.4</ele>
        <time>2024-08-23T18:09:53Z</time>
      </trkpt>
      <trkpt lat="43.3857028" lon="-5.8271478">
        <ele>180.2</ele>
        <time>2024-08-23T18:09:54Z</time>
      </trkpt>
    </trkseg>
    <trkseg>
      <trkpt lat="43.385568" lon="-5.826896">
        <ele>180.0</ele>
        <time>2024-08-23T18:10:03Z</time>
      </trkpt>
      <trkpt lat="43.385554" lon="-5.826867">
        <ele>179.8</ele>
        <time>2024-08-23T18:10:04Z</time>
      </trkpt>
      <trkpt lat="43.38554" lon="-5.826838">
        <ele>179.6</ele>
        <time>2024-08-23T18:10:05Z</time>
      </trkpt>
      <trkpt lat="43.385525" lon="-5.8268147500000005">
        <ele>179.45</ele>
        <time>2024-08-23T18:10:06Z</time>
      </trkpt>
      <trkpt lat="43.38551" lon="-5.826791500000001">
        <ele>179.3</ele>
        <time>2024-08-23T18:10:07Z</time>
      </trkpt>
      <trkpt lat="43.385495" lon="-5.82676825">
        <ele>179.15</ele>
        <time>2024-08-23T18:10:08Z</time>
      </trkpt>
    </trkseg>
    <trkseg>
      <trkpt lat="43.38518943311739" lon="-5.826169579733696">
        <ele>178.0</ele>
        <time>2024-08-23T18:10:28Z</time>
      </trkpt>
      <trkpt lat="43.38517394509652" lon="-5.826139890193033">
        <ele>177.8321895107543</ele>
        <time>2024-08-23T18:10:29Z</time>
      </trkpt>
      <trkpt lat="43.38515888723197" lon="-5.826109774463932">
        <ele>177.51848399929352</ele>
        <time>2024-08-23T18:10:30Z</time>
      </trkpt>
      <trkpt lat="43.385143829367415" lon="-5.826079658734832">
        <ele>177.20477848783278</ele>
        <time>2024-08-23T18:10:31Z</time>
      </trkpt>
    </trkseg>
    <trkseg>
      <trkpt lat="43.385042" lon="-5.82586">
        <ele>177.0</ele>
        <time>2024-08-23T18:10:38Z</time>
      </trkpt>
      <trkpt lat="43.385028500000004" lon="-5.825832">
        <ele>176.95</ele>
        <time>2024-08-23T18:10:39Z</time>
      </trkpt>
      <trkpt lat="43.385015" lon="-5.825804">
        <ele>176.9</ele>
        <time>2024-08-23T18:10:40Z</time>
      </trkpt>
      <trkpt lat="43.38500843930747" lon="-5.8257716339168555">
        <ele>176.5063584482475</ele>
        <time>2024-08-23T18:10:41Z</time>
      </trkpt>
    </trkseg>
    <trkseg>
      <trkpt lat="43.38494123449644" lon="-5.82551940516487">
        <ele>175.9168854723585</ele>
        <time>2024-08-23T18:10:49Z</time>
      </trkpt>
      <trkpt lat="43.384931224548346" lon="-5.825488822598283">
        <ele>175.6851046755828</ele>
        <time>2024-08-23T18:10:50Z</time>
      </trkpt>
      <trkpt lat="43.384919628073206" lon="-5.825459251586688">
        <ele>175.163263294489</ele>
        <time>2024-08-23T18:10:51Z</time>
      </trkpt>
    </trkseg>
    <trkseg>
      <trkpt lat="43.384815956474945" lon="-5.825047720554828">
        <ele>175.0</ele>
        <time>2024-08-23T18:11:06Z</time>
      </trkpt>
      <trkpt lat="43.384834646809416" lon="-5.825026114168301">
        <ele>174.75219554424677</ele>
        <time>2024-08-23T18:11:07Z</time>
      </trkpt>
      <trkpt lat="43.38485367776144" lon="-5.825005058646916">
        <ele>174.34728167145207</ele>
        <time>2024-08-23T18:11:08Z</time>
      </trkpt>
    </trkseg>
    <trkseg>
      <trkpt lat="43.384934482652596" lon="-5.8248021067532365">
        <ele>173.65093409082058</ele>
        <time>2024-08-23T18:11:15Z</time>
      </trkpt>
      <trkpt lat="43.384939811296725" lon="-5.824769315097074">
        <ele>173.36400709939358</ele>
        <time>2024-08-23T18:11:16Z</time>
      </trkpt>
    </trkseg>
    <trkseg>
      <trkpt lat="43.38489782083994" lon="-5.824544300926768">
        <ele>173.0</ele>
        <time>2024-08-23T18:11:23Z</time>
      </trkpt>
      <trkpt lat="43.38488948588478" lon="-5.824512781006683">
        <ele>172.81077841129863</ele>
        <time>2024-08-23T18:11:24Z</time>
      </trkpt>
      <trkpt lat="43.384882509045745" lon="-5.824480580211108">
        <ele>172.43510246293152</ele>
        <time>2024-08-23T18:11:25Z</time>
      </trkpt>
      <trkpt lat="43.38488486859082" lon="-5.824448551918584">
        <ele>172.15394227560006</ele>
        <time>2024-08-23T18:11:26Z</time>
      </trkpt>
    </trkseg>
    <trkseg>
      <trkpt lat="43.384603698900705" lon="-5.824252750058473">
        <ele>172.0</ele>
        <time>2024-08-23T18:11:42Z</time>
      </trkpt>
      <trkpt lat="43.38457928442283" lon="-5.824253386579945">
        <ele>171.8453680221577</ele>
        <time>2024-08-23T18:11:43Z</time>
      </trkpt>
      <trkpt lat="43.38455486691212" lon="-5.824253865354664">
        <ele>171.65385813426278</ele>
        <time>2024-08-23T18:11:44Z</time>
      </trkpt>
      <trkpt lat="43.384530892385996" lon="-5.824259402404422">
        <ele>171.0597595577486</ele>
        <time>2024-08-23T18:11:45Z</time>
      </trkpt>
    </trkseg>
    <trkseg>
      <trkpt lat="43.38436414249647" lon="-5.8242150123804235">
        <ele>171.0</ele>
        <time>2024-08-23T18:11:53Z</time>
      </trkpt>
      <trkpt lat="43.38434885145838" lon="-5.8241888155016195">
        <ele>170.78874151348168</ele>
        <time>2024-08-23T18:11:54Z</time>
      </trkpt>
      <trkpt lat="43.38433370822866" lon="-5.82416245506471">
        <ele>170.39613926162735</ele>
        <time>2024-08-23T18:11:55Z</time>
      </trkpt>
    </trkseg>
    <trkseg>
      <trkpt lat="43.38457384463993" lon="-5.8227775662963674">
        <ele>168.0</ele>
        <time>2024-08-23T18:12:38Z</time>
      </trkpt>
      <trkpt lat="43.3845787288288" lon="-5.822744649609811">
        <ele>167.87570570665412</ele>
        <time>2024-08-23T18:12:39Z</time>
      </trkpt>
      <trkpt lat="43.38458339607223" lon="-5.822711667756209">
        <ele>167.72013092551282</ele>
        <time>2024-08-23T18:12:40Z</time>
      </trkpt>
      <trkpt lat="43.38458806331567" lon="-5.822678685902607">
        <ele>167.56455614437152</ele>
        <time>2024-08-23T18:12:41Z</time>
      </trkpt>
      <trkpt lat="43.384592730559106" lon="-5.822645704049005">
        <ele>167.40898136323025</ele>
        <time>2024-08-23T18:12:42Z</time>
      </trkpt>
      <trkpt lat="43.38459739780254" lon="-5.822612722195403">
        <ele>167.25340658208896</ele>
        <time>2024-08-23T18:12:43Z</time>
      </trkpt>
      <trkpt lat="43.384602065045975" lon="-5.822579740341801">
        <ele>167.09783180094766</ele>
        <time>2024-08-23T18:12:44Z</time>
      </trkpt>
    </trkseg>
    <trkseg>
      <trkpt lat="43.384606719295014" lon="-5.822253181292469">
        <ele>167.0</ele>
        <time>2024-08-23T18:12:54Z</time>
      </trkpt>
      <trkpt lat="43.38462145027672" lon="-5.822226394455451">
        <ele>166.9953419650116</ele>
        <time>2024-08-23T18:12:55Z</time>
      </trkpt>
      <trkpt lat="43.38463891436994" lon="-5.822202908261118">
        <ele>166.81467893167925</ele>
        <time>2024-08-23T18:12:56Z</time>
      </trkpt>
      <trkpt lat="43.38465456767658" lon="-5.822177459207905">
        <ele>166.57702409223032</ele>
        <time>2024-08-23T18:12:57Z</time>
      </trkpt>
      <trkpt lat="43.38466707387556" lon="-5.822148598748707">
        <ele>166.2403187349114</ele>
        <time>2024-08-23T18:12:58Z</time>
      </trkpt>
    </trkseg>
    <trkseg>
      <trkpt lat="43.384781633506456" lon="-5.821578659688379">
        <ele>166.0</ele>
        <time>2024-08-23T18:13:16Z</time>
      </trkpt>
      <trkpt lat="43.384797529188326" lon="-5.821553153298684">
        <ele>165.72047461018917</ele>
        <time>2024-08-23T18:13:17Z</time>
      </trkpt>
      <trkpt lat="43.38481345185765" lon="-5.82152767702776">
        <ele>165.43386656229887</ele>
        <time>2024-08-23T18:13:18Z</time>
      </trkpt>
    </trkseg>
  </trk>
</gpx>