<?xml version="1.0" encoding="UTF-8"?>
<gpx xmlns="http://www.topografix.com/GPX/1/1" xmlns:xsi="http://www.w3.org/2001/XMLSchema-instance" xsi:schemaLocation="http://www.topografix.com/GPX/1/1 http://www.topografix.com/GPX/1/1/gpx.xsd" version="1.1" creator="gpx.py -- https://github.com/tkrajina/gpxpy">
  <wpt lat="43.385798" lon="-5.820955">
    <ele>165.0</ele>
    <time>2024-08-26T17:55:15Z</time>
    <name>ANOM:DZ_HAMPEL</name>
    <desc>Tramo #1 (50-55), dur=6s
Causas: DZ_HAMPEL
vh_max=6.11 km/h | grade_ext=-9.8% | vz_ext=-10.0 m/min
max|dx|=1.05 m/s, max|dy|=1.33 m/s, max|dz|=0.17 m/s</desc>
  </wpt>
  <wpt lat="43.388477" lon="-5.821879">
    <ele>160.0</ele>
    <time>2024-08-26T17:59:14Z</time>
    <name>ANOM:DZ_HAMPEL</name>
    <desc>Tramo #2 (289-290), dur=2s
Causas: DZ_HAMPEL
vh_max=8.72 km/h | grade_ext=20.7% | vz_ext=30.0 m/min
max|dx|=2.02 m/s, max|dy|=1.33 m/s, max|dz|=0.50 m/s</desc>
  </wpt>
  <wpt lat="43.399158" lon="-5.823231">
    <ele>156.0</ele>
    <time>2024-08-26T18:16:39Z</time>
    <name>ANOM:DZ_HAMPEL</name>
    <desc>Tramo #3 (1334-1340), dur=7s
Causas: DZ_HAMPEL
vh_max=6.42 km/h | grade_ext=8.4% | vz_ext=9.0 m/min
max|dx|=1.70 m/s, max|dy|=0.75 m/s, max|dz|=0.15 m/s</desc>
  </wpt>
  <wpt lat="43.400688" lon="-5.826347">
    <ele>160.3</ele>
    <time>2024-08-26T18:19:40Z</time>
    <name>ANOM:DZ_HAMPEL</name>
    <desc>Tramo #4 (1515-1516), dur=2s
Causas: DZ_HAMPEL
vh_max=7.70 km/h | grade_ext=14.0% | vz_ext=18.0 m/min
max|dx|=1.24 m/s, max|dy|=1.74 m/s, max|dz|=0.30 m/s</desc>
  </wpt>
  <wpt lat="43.400648" lon="-5.826646">
    <ele>163.0</ele>
    <time>2024-08-26T18:20:01Z</time>
    <name>ANOM:DZ_HAMPEL</name>
    <desc>Tramo #5 (1536-1539), dur=4s
Causas: DZ_HAMPEL
vh_max=11.36 km/h | grade_ext=0.0% | vz_ext=0.0 m/min
max|dx|=2.34 m/s, max|dy|=2.11 m/s, max|dz|=0.00 m/s</desc>
  </wpt>
  <wpt lat="43.39823362037456" lon="-5.8250067671310966">
    <ele>167.10632709060735</ele>
    <time>2024-08-26T18:23:06Z</time>
    <name>ANOM:DZ_HAMPEL</name>
    <desc>Tramo #6 (1721-1724), dur=4s
Causas: DZ_HAMPEL
vh_max=5.31 km/h | grade_ext=14.5% | vz_ext=12.9 m/min
max|dx|=0.36 m/s, max|dy|=1.43 m/s, max|dz|=0.21 m/s</desc>
  </wpt>
  <wpt lat="43.397997" lon="-5.825001">
    <ele>169.0</ele>
    <time>2024-08-26T18:23:24Z</time>
    <name>ANOM:DZ_HAMPEL</name>
    <desc>Tramo #7 (1739-1744), dur=6s
Causas: DZ_HAMPEL
vh_max=7.42 km/h | grade_ext=0.0% | vz_ext=0.0 m/min
max|dx|=0.40 m/s, max|dy|=2.02 m/s, max|dz|=0.00 m/s</desc>
  </wpt>
  <wpt lat="43.397871" lon="-5.825037142857143">
    <ele>169.14285714285714</ele>
    <time>2024-08-26T18:23:31Z</time>
    <name>ANOM:DZ_HAMPEL</name>
    <desc>Tramo #8 (1746-1751), dur=6s
Causas: DZ_HAMPEL
vh_max=7.04 km/h | grade_ext=7.3% | vz_ext=8.6 m/min
max|dx|=0.50 m/s, max|dy|=1.89 m/s, max|dz|=0.14 m/s</desc>
  </wpt>
  <wpt lat="43.396994" lon="-5.825434">
    <ele>172.0</ele>
    <time>2024-08-26T18:24:31Z</time>
    <name>ANOM:DZ_HAMPEL</name>
    <desc>Tramo #9 (1806-1812), dur=7s
Causas: DZ_HAMPEL
vh_max=5.55 km/h | grade_ext=9.3% | vz_ext=8.6 m/min
max|dx|=0.08 m/s, max|dy|=1.54 m/s, max|dz|=0.14 m/s</desc>
  </wpt>
  <wpt lat="43.394603" lon="-5.825367">
    <ele>181.0</ele>
    <time>2024-08-26T18:27:19Z</time>
    <name>ANOM:DZ_HAMPEL</name>
    <desc>Tramo #10 (1974-1977), dur=4s
Causas: DZ_HAMPEL
vh_max=6.21 km/h | grade_ext=13.0% | vz_ext=13.5 m/min
max|dx|=0.32 m/s, max|dy|=1.70 m/s, max|dz|=0.23 m/s</desc>
  </wpt>
  <wpt lat="43.392071" lon="-5.824818">
    <ele>180.0</ele>
    <time>2024-08-26T18:30:38Z</time>
    <name>ANOM:DZ_HAMPEL</name>
    <desc>Tramo #11 (2173-2176), dur=4s
Causas: DZ_HAMPEL
vh_max=6.91 km/h | grade_ext=-13.0% | vz_ext=-15.0 m/min
max|dx|=0.65 m/s, max|dy|=1.81 m/s, max|dz|=0.25 m/s</desc>
  </wpt>
  <wpt lat="43.39183128571429" lon="-5.824940714285714">
    <ele>177.71428571428572</ele>
    <time>2024-08-26T18:30:54Z</time>
    <name>ANOM:DZ_HAMPEL</name>
    <desc>Tramo #12 (2189-2191), dur=3s
Causas: DZ_HAMPEL
vh_max=5.52 km/h | grade_ext=-9.3% | vz_ext=-8.6 m/min
max|dx|=0.55 m/s, max|dy|=1.43 m/s, max|dz|=0.14 m/s</desc>
  </wpt>
  <wpt lat="43.39168083333333" lon="-5.8250075">
    <ele>175.95</ele>
    <time>2024-08-26T18:31:05Z</time>
    <name>ANOM:DZ_HAMPEL</name>
    <desc>Tramo #13 (2200-2204), dur=5s
Causas: DZ_HAMPEL
vh_max=5.98 km/h | grade_ext=-3.0% | vz_ext=-3.0 m/min
max|dx|=0.53 m/s, max|dy|=1.58 m/s, max|dz|=0.05 m/s</desc>
  </wpt>
  <wpt lat="43.391524" lon="-5.825083">
    <ele>174.4</ele>
    <time>2024-08-26T18:31:16Z</time>
    <name>ANOM:DZ_HAMPEL</name>
    <desc>Tramo #14 (2211-2213), dur=3s
Causas: DZ_HAMPEL
vh_max=5.74 km/h | grade_ext=12.5% | vz_ext=12.0 m/min
max|dx|=1.02 m/s, max|dy|=1.22 m/s, max|dz|=0.20 m/s</desc>
  </wpt>
  <wpt lat="43.39074733333333" lon="-5.825477">
    <ele>168.8</ele>
    <time>2024-08-26T18:32:13Z</time>
    <name>ANOM:DZ_HAMPEL</name>
    <desc>Tramo #15 (2268-2273), dur=6s
Causas: DZ_HAMPEL
vh_max=7.67 km/h | grade_ext=-9.4% | vz_ext=-12.0 m/min
max|dx|=0.48 m/s, max|dy|=2.08 m/s, max|dz|=0.20 m/s</desc>
  </wpt>
  <wpt lat="43.38866532340906" lon="-5.825342658803411">
    <ele>167.19408351628078</ele>
    <time>2024-08-26T18:34:35Z</time>
    <name>ANOM:DZ_HAMPEL</name>
    <desc>Tramo #16 (2410-2414), dur=5s
Causas: DZ_HAMPEL
vh_max=5.98 km/h | grade_ext=9.3% | vz_ext=9.3 m/min
max|dx|=0.49 m/s, max|dy|=1.59 m/s, max|dz|=0.15 m/s</desc>
  </wpt>
  <wpt lat="43.386122" lon="-5.827482">
    <ele>180.0</ele>
    <time>2024-08-26T18:38:15Z</time>
    <name>ANOM:DZ_HAMPEL</name>
    <desc>Tramo #17 (2630-2634), dur=5s
Causas: DZ_HAMPEL
vh_max=5.09 km/h | grade_ext=14.1% | vz_ext=12.0 m/min
max|dx|=0.71 m/s, max|dy|=1.22 m/s, max|dz|=0.20 m/s</desc>
  </wpt>
  <wpt lat="43.38552" lon="-5.826797">
    <ele>179.0</ele>
    <time>2024-08-26T18:39:17Z</time>
    <name>ANOM:DZ_HAMPEL</name>
    <desc>Tramo #18 (2692-2698), dur=7s
Causas: DZ_HAMPEL
vh_max=6.51 km/h | grade_ext=0.0% | vz_ext=0.0 m/min
max|dx|=1.32 m/s, max|dy|=1.24 m/s, max|dz|=0.00 m/s</desc>
  </wpt>
  <trk>
    <name>2_aligned_pattern_resampled_anomalies</name>
    <trkseg>
      <trkpt lat="43.385798" lon="-5.820955">
        <ele>165.0</ele>
        <time>2024-08-26T17:55:15Z</time>
      </trkpt>
      <trkpt lat="43.38581" lon="-5.820942">
        <ele>164.83333333333334</ele>
        <time>2024-08-26T17:55:16Z</time>
      </trkpt>
      <trkpt lat="43.385822" lon="-5.820929">
        <ele>164.66666666666666</ele>
        <time>2024-08-26T17:55:17Z</time>
      </trkpt>
      <trkpt lat="43.385834" lon="-5.820916">
        <ele>164.5</ele>
        <time>2024-08-26T17:55:18Z</time>
      </trkpt>
      <trkpt lat="43.385846" lon="-5.820903">
        <ele>164.33333333333334</ele>
        <time>2024-08-26T17:55:19Z</time>
      </trkpt>
      <trkpt lat="43.385858" lon="-5.82089">
        <ele>164.16666666666666</ele>
        <time>2024-08-26T17:55:20Z</time>
      </trkpt>
    </trkseg>
    <trkseg>
      <trkpt lat="43.388477" lon="-5.821879">
        <ele>160.0</ele>
        <time>2024-08-26T17:59:14Z</time>
      </trkpt>
      <trkpt lat="43.388465" lon="-5.821904">
        <ele>160.5</ele>
        <time>2024-08-26T17:59:15Z</time>
      </trkpt>
    </trkseg>
    <trkseg>
      <trkpt lat="43.399158" lon="-5.823231">
        <ele>156.0</ele>
        <time>2024-08-26T18:16:39Z</time>
      </trkpt>
      <trkpt lat="43.39916266666667" lon="-5.823252">
        <ele>156.13333333333333</ele>
        <time>2024-08-26T18:16:40Z</time>
      </trkpt>
      <trkpt lat="43.39916733333333" lon="-5.8232729999999995">
        <ele>156.26666666666668</ele>
        <time>2024-08-26T18:16:41Z</time>
      </trkpt>
      <trkpt lat="43.399172" lon="-5.823294">
        <ele>156.4</ele>
        <time>2024-08-26T18:16:42Z</time>
      </trkpt>
      <trkpt lat="43.399178750000004" lon="-5.823314">
        <ele>156.55</ele>
        <time>2024-08-26T18:16:43Z</time>
      </trkpt>
      <trkpt lat="43.3991855" lon="-5.823334">
        <ele>156.7</ele>
        <time>2024-08-26T18:16:44Z</time>
      </trkpt>
      <trkpt lat="43.39919225" lon="-5.823354">
        <ele>156.85</ele>
        <time>2024-08-26T18:16:45Z</time>
      </trkpt>
    </trkseg>
    <trkseg>
      <trkpt lat="43.400688" lon="-5.826347">
        <ele>160.3</ele>
        <time>2024-08-26T18:19:40Z</time>
      </trkpt>
      <trkpt lat="43.400703666666665" lon="-5.826362333333334">
        <ele>160.6</ele>
        <time>2024-08-26T18:19:41Z</time>
      </trkpt>
    </trkseg>
    <trkseg>
      <trkpt lat="43.400648" lon="-5.826646">
        <ele>163.0</ele>
        <time>2024-08-26T18:20:01Z</time>
      </trkpt>
      <trkpt lat="43.4006375" lon="-5.826665500000001">
        <ele>163.0</ele>
        <time>2024-08-26T18:20:02Z</time>
      </trkpt>
      <trkpt lat="43.400627" lon="-5.826685">
        <ele>163.0</ele>
        <time>2024-08-26T18:20:03Z</time>
      </trkpt>
      <trkpt lat="43.400608" lon="-5.826714">
        <ele>163.0</ele>
        <time>2024-08-26T18:20:04Z</time>
      </trkpt>
    </trkseg>
    <trkseg>
      <trkpt lat="43.39823362037456" lon="-5.8250067671310966">
        <ele>167.10632709060735</ele>
        <time>2024-08-26T18:23:06Z</time>
      </trkpt>
      <trkpt lat="43.39822076100061" lon="-5.825002266350212">
        <ele>167.32064998991612</ele>
        <time>2024-08-26T18:23:07Z</time>
      </trkpt>
      <trkpt lat="43.39820790162665" lon="-5.824997765569326">
        <ele>167.53497288922486</ele>
        <time>2024-08-26T18:23:08Z</time>
      </trkpt>
      <trkpt lat="43.39819504225269" lon="-5.824993264788441">
        <ele>167.7492957885336</ele>
        <time>2024-08-26T18:23:09Z</time>
      </trkpt>
    </trkseg>
    <trkseg>
      <trkpt lat="43.397997" lon="-5.825001">
        <ele>169.0</ele>
        <time>2024-08-26T18:23:24Z</time>
      </trkpt>
      <trkpt lat="43.39797883333333" lon="-5.825006">
        <ele>169.0</ele>
        <time>2024-08-26T18:23:25Z</time>
      </trkpt>
      <trkpt lat="43.39796066666666" lon="-5.825011">
        <ele>169.0</ele>
        <time>2024-08-26T18:23:26Z</time>
      </trkpt>
      <trkpt lat="43.3979425" lon="-5.825016">
        <ele>169.0</ele>
        <time>2024-08-26T18:23:27Z</time>
      </trkpt>
      <trkpt lat="43.397924333333336" lon="-5.8250210000000004">
        <ele>169.0</ele>
        <time>2024-08-26T18:23:28Z</time>
      </trkpt>
      <trkpt lat="43.397906166666665" lon="-5.825026">
        <ele>169.0</ele>
        <time>2024-08-26T18:23:29Z</time>
      </trkpt>
    </trkseg>
    <trkseg>
      <trkpt lat="43.397871" lon="-5.825037142857143">
        <ele>169.14285714285714</ele>
        <time>2024-08-26T18:23:31Z</time>
      </trkpt>
      <trkpt lat="43.397854" lon="-5.825043285714286">
        <ele>169.28571428571428</ele>
        <time>2024-08-26T18:23:32Z</time>
      </trkpt>
      <trkpt lat="43.397837" lon="-5.825049428571429">
        <ele>169.42857142857142</ele>
        <time>2024-08-26T18:23:33Z</time>
      </trkpt>
      <trkpt lat="43.397819999999996" lon="-5.825055571428571">
        <ele>169.57142857142858</ele>
        <time>2024-08-26T18:23:34Z</time>
      </trkpt>
      <trkpt lat="43.397802999999996" lon="-5.825061714285714">
        <ele>169.71428571428572</ele>
        <time>2024-08-26T18:23:35Z</time>
      </trkpt>
      <trkpt lat="43.397785999999996" lon="-5.825067857142857">
        <ele>169.85714285714286</ele>
        <time>2024-08-26T18:23:36Z</time>
      </trkpt>
    </trkseg>
    <trkseg>
      <trkpt lat="43.396994" lon="-5.825434">
        <ele>172.0</ele>
        <time>2024-08-26T18:24:31Z</time>
      </trkpt>
      <trkpt lat="43.396980142857146" lon="-5.825435">
        <ele>172.14285714285714</ele>
        <time>2024-08-26T18:24:32Z</time>
      </trkpt>
      <trkpt lat="43.396966285714285" lon="-5.825436">
        <ele>172.28571428571428</ele>
        <time>2024-08-26T18:24:33Z</time>
      </trkpt>
      <trkpt lat="43.39695242857143" lon="-5.825437">
        <ele>172.42857142857142</ele>
        <time>2024-08-26T18:24:34Z</time>
      </trkpt>
      <trkpt lat="43.39693857142857" lon="-5.825437999999999">
        <ele>172.57142857142858</ele>
        <time>2024-08-26T18:24:35Z</time>
      </trkpt>
      <trkpt lat="43.39692471428572" lon="-5.825438999999999">
        <ele>172.71428571428572</ele>
        <time>2024-08-26T18:24:36Z</time>
      </trkpt>
      <trkpt lat="43.396910857142856" lon="-5.8254399999999995">
        <ele>172.85714285714286</ele>
        <time>2024-08-26T18:24:37Z</time>
      </trkpt>
    </trkseg>
    <trkseg>
      <trkpt lat="43.394603" lon="-5.825367">
        <ele>181.0</ele>
        <time>2024-08-26T18:27:19Z</time>
      </trkpt>
      <trkpt lat="43.39458775" lon="-5.8253710000000005">
        <ele>181.225</ele>
        <time>2024-08-26T18:27:20Z</time>
      </trkpt>
      <trkpt lat="43.394572499999995" lon="-5.825375">
        <ele>181.45</ele>
        <time>2024-08-26T18:27:21Z</time>
      </trkpt>
      <trkpt lat="43.39455725" lon="-5.825379">
        <ele>181.675</ele>
        <time>2024-08-26T18:27:22Z</time>
      </trkpt>
    </trkseg>
    <trkseg>
      <trkpt lat="43.392071" lon="-5.824818">
        <ele>180.0</ele>
        <time>2024-08-26T18:30:38Z</time>
      </trkpt>
      <trkpt lat="43.39205475" lon="-5.824826">
        <ele>179.75</ele>
        <time>2024-08-26T18:30:39Z</time>
      </trkpt>
      <trkpt lat="43.3920385" lon="-5.824833999999999">
        <ele>179.5</ele>
        <time>2024-08-26T18:30:40Z</time>
      </trkpt>
      <trkpt lat="43.392022250000004" lon="-5.824841999999999">
        <ele>179.25</ele>
        <time>2024-08-26T18:30:41Z</time>
      </trkpt>
    </trkseg>
    <trkseg>
      <trkpt lat="43.39183128571429" lon="-5.824940714285714">
        <ele>177.71428571428572</ele>
        <time>2024-08-26T18:30:54Z</time>
      </trkpt>
      <trkpt lat="43.39181842857143" lon="-5.824947571428571">
        <ele>177.57142857142858</ele>
        <time>2024-08-26T18:30:55Z</time>
      </trkpt>
      <trkpt lat="43.39180557142857" lon="-5.824954428571429">
        <ele>177.42857142857142</ele>
        <time>2024-08-26T18:30:56Z</time>
      </trkpt>
    </trkseg>
    <trkseg>
      <trkpt lat="43.39168083333333" lon="-5.8250075">
        <ele>175.95</ele>
        <time>2024-08-26T18:31:05Z</time>
      </trkpt>
      <trkpt lat="43.391666666666666" lon="-5.825014">
        <ele>175.9</ele>
        <time>2024-08-26T18:31:06Z</time>
      </trkpt>
      <trkpt lat="43.3916525" lon="-5.825020500000001">
        <ele>175.85</ele>
        <time>2024-08-26T18:31:07Z</time>
      </trkpt>
      <trkpt lat="43.39163833333333" lon="-5.825027">
        <ele>175.79999999999998</ele>
        <time>2024-08-26T18:31:08Z</time>
      </trkpt>
      <trkpt lat="43.391624166666666" lon="-5.8250335">
        <ele>175.75</ele>
        <time>2024-08-26T18:31:09Z</time>
      </trkpt>
    </trkseg>
    <trkseg>
      <trkpt lat="43.391524" lon="-5.825083">
        <ele>174.4</ele>
        <time>2024-08-26T18:31:16Z</time>
      </trkpt>
      <trkpt lat="43.391512999999996" lon="-5.825095666666667">
        <ele>174.6</ele>
        <time>2024-08-26T18:31:17Z</time>
      </trkpt>
      <trkpt lat="43.391502" lon="-5.8251083333333336">
        <ele>174.8</ele>
        <time>2024-08-26T18:31:18Z</time>
      </trkpt>
    </trkseg>
    <trkseg>
      <trkpt lat="43.39074733333333" lon="-5.825477">
        <ele>168.8</ele>
        <time>2024-08-26T18:32:13Z</time>
      </trkpt>
      <trkpt lat="43.39072866666667" lon="-5.825483">
        <ele>168.6</ele>
        <time>2024-08-26T18:32:14Z</time>
      </trkpt>
      <trkpt lat="43.39071" lon="-5.825489">
        <ele>168.4</ele>
        <time>2024-08-26T18:32:15Z</time>
      </trkpt>
      <trkpt lat="43.390694249999996" lon="-5.82549325">
        <ele>168.3</ele>
        <time>2024-08-26T18:32:16Z</time>
      </trkpt>
      <trkpt lat="43.3906785" lon="-5.8254975">
        <ele>168.2</ele>
        <time>2024-08-26T18:32:17Z</time>
      </trkpt>
      <trkpt lat="43.390662750000004" lon="-5.82550175">
        <ele>168.1</ele>
        <time>2024-08-26T18:32:18Z</time>
      </trkpt>
    </trkseg>
    <trkseg>
      <trkpt lat="43.38866532340906" lon="-5.825342658803411">
        <ele>167.19408351628078</ele>
        <time>2024-08-26T18:34:35Z</time>
      </trkpt>
      <trkpt lat="43.38865103982624" lon="-5.825348682000982">
        <ele>167.34896573953594</ele>
        <time>2024-08-26T18:34:36Z</time>
      </trkpt>
      <trkpt lat="43.38863675624343" lon="-5.825354705198553">
        <ele>167.5038479627911</ele>
        <time>2024-08-26T18:34:37Z</time>
      </trkpt>
      <trkpt lat="43.38862247266062" lon="-5.825360728396124">
        <ele>167.65873018604626</ele>
        <time>2024-08-26T18:34:38Z</time>
      </trkpt>
      <trkpt lat="43.38860818907781" lon="-5.825366751593695">
        <ele>167.8136124093014</ele>
        <time>2024-08-26T18:34:39Z</time>
      </trkpt>
    </trkseg>
    <trkseg>
      <trkpt lat="43.386122" lon="-5.827482">
        <ele>180.0</ele>
        <time>2024-08-26T18:38:15Z</time>
      </trkpt>
      <trkpt lat="43.386111" lon="-5.8274908">
        <ele>180.2</ele>
        <time>2024-08-26T18:38:16Z</time>
      </trkpt>
      <trkpt lat="43.3861" lon="-5.8274995999999994">
        <ele>180.4</ele>
        <time>2024-08-26T18:38:17Z</time>
      </trkpt>
      <trkpt lat="43.386089" lon="-5.8275084">
        <ele>180.6</ele>
        <time>2024-08-26T18:38:18Z</time>
      </trkpt>
      <trkpt lat="43.386078" lon="-5.8275172">
        <ele>180.8</ele>
        <time>2024-08-26T18:38:19Z</time>
      </trkpt>
    </trkseg>
    <trkseg>
      <trkpt lat="43.38552" lon="-5.826797">
        <ele>179.0</ele>
        <time>2024-08-26T18:39:17Z</time>
      </trkpt>
      <trkpt lat="43.38550885714286" lon="-5.826780714285714">
        <ele>179.0</ele>
        <time>2024-08-26T18:39:18Z</time>
      </trkpt>
      <trkpt lat="43.38549771428571" lon="-5.826764428571429">
        <ele>179.0</ele>
        <time>2024-08-26T18:39:19Z</time>
      </trkpt>
      <trkpt lat="43.38548657142857" lon="-5.826748142857143">
        <ele>179.0</ele>
        <time>2024-08-26T18:39:20Z</time>
      </trkpt>
      <trkpt lat="43.385475428571425" lon="-5.826731857142857">
        <ele>179.0</ele>
        <time>2024-08-26T18:39:21Z</time>
      </trkpt>
      <trkpt lat="43.385464285714285" lon="-5.826715571428571">
        <ele>179.0</ele>
        <time>2024-08-26T18:39:22Z</time>
      </trkpt>
      <trkpt lat="43.38545314285714" lon="-5.826699285714286">
        <ele>179.0</ele>
        <time>2024-08-26T18:39:23Z</time>
      </trkpt>
    </trkseg>
  </trk>
</gpx>