<?xml version="1.0" encoding="UTF-8"?>
<gpx xmlns="http://www.topografix.com/GPX/1/1" xmlns:xsi="http://www.w3.org/2001/XMLSchema-instance" xsi:schemaLocation="http://www.topografix.com/GPX/1/1 http://www.topografix.com/GPX/1/1/gpx.xsd" version="1.1" creator="gpx.py -- https://github.com/tkrajina/gpxpy">
  <wpt lat="43.38578886123247" lon="-5.82096713508475">
    <ele>165.0</ele>
    <time>2024-08-26T17:55:13Z</time>
    <name>ANOM:DZ_HAMPEL</name>
    <desc>Tramo #1 (46-51), dur=6s
Causas: DZ_HAMPEL
vh_max=7.54 km/h | grade_ext=-9.8% | vz_ext=-11.2 m/min
max|dx|=1.40 m/s, max|dy|=1.55 m/s, max|dz|=0.19 m/s</desc>
  </wpt>
  <wpt lat="43.38847322258547" lon="-5.821870400354148">
    <ele>160.0</ele>
    <time>2024-08-26T17:59:13Z</time>
    <name>ANOM:DZ_HAMPEL</name>
    <desc>Tramo #2 (286-288), dur=3s
Causas: DZ_HAMPEL
vh_max=9.02 km/h | grade_ext=20.7% | vz_ext=31.0 m/min
max|dx|=2.09 m/s, max|dy|=1.38 m/s, max|dz|=0.52 m/s</desc>
  </wpt>
  <wpt lat="43.399157239934105" lon="-5.82322470231117">
    <ele>156.0</ele>
    <time>2024-08-26T18:16:39Z</time>
    <name>ANOM:DZ_HAMPEL</name>
    <desc>Tramo #3 (1332-1338), dur=7s
Causas: DZ_HAMPEL
vh_max=7.03 km/h | grade_ext=8.4% | vz_ext=9.7 m/min
max|dx|=1.87 m/s, max|dy|=0.81 m/s, max|dz|=0.16 m/s</desc>
  </wpt>
  <wpt lat="43.40068696153814" lon="-5.826345997347168">
    <ele>160.29731432277194</ele>
    <time>2024-08-26T18:19:39Z</time>
    <name>ANOM:DZ_HAMPEL</name>
    <desc>Tramo #4 (1512-1514), dur=3s
Causas: DZ_HAMPEL
vh_max=7.52 km/h | grade_ext=10.9% | vz_ext=13.7 m/min
max|dx|=1.21 m/s, max|dy|=1.70 m/s, max|dz|=0.23 m/s</desc>
  </wpt>
  <wpt lat="43.398237201850606" lon="-5.825008020647712">
    <ele>167.04663582320893</ele>
    <time>2024-08-26T18:23:03Z</time>
    <name>ANOM:DZ_HAMPEL</name>
    <desc>Tramo #5 (1716-1719), dur=4s
Causas: DZ_HAMPEL
vh_max=5.80 km/h | grade_ext=14.5% | vz_ext=14.0 m/min
max|dx|=0.40 m/s, max|dy|=1.56 m/s, max|dz|=0.23 m/s</desc>
  </wpt>
  <wpt lat="43.39459934297579" lon="-5.825367959219466">
    <ele>181.05395609492794</ele>
    <time>2024-08-26T18:27:19Z</time>
    <name>ANOM:DZ_HAMPEL</name>
    <desc>Tramo #6 (1972-1975), dur=4s
Causas: DZ_HAMPEL
vh_max=5.02 km/h | grade_ext=13.0% | vz_ext=10.9 m/min
max|dx|=0.26 m/s, max|dy|=1.37 m/s, max|dz|=0.18 m/s</desc>
  </wpt>
  <wpt lat="43.39208156620661" lon="-5.824812082924297">
    <ele>180.0</ele>
    <time>2024-08-26T18:30:37Z</time>
    <name>ANOM:DZ_HAMPEL</name>
    <desc>Tramo #7 (2170-2174), dur=5s
Causas: DZ_HAMPEL
vh_max=6.47 km/h | grade_ext=-13.0% | vz_ext=-14.1 m/min
max|dx|=0.61 m/s, max|dy|=1.69 m/s, max|dz|=0.23 m/s</desc>
  </wpt>
  <wpt lat="43.39182111248549" lon="-5.82494614000774">
    <ele>177.6012498387371</ele>
    <time>2024-08-26T18:30:55Z</time>
    <name>ANOM:DZ_HAMPEL</name>
    <desc>Tramo #8 (2188-2189), dur=2s
Causas: DZ_HAMPEL
vh_max=5.86 km/h | grade_ext=-9.3% | vz_ext=-9.1 m/min
max|dx|=0.59 m/s, max|dy|=1.52 m/s, max|dz|=0.15 m/s</desc>
  </wpt>
  <wpt lat="43.39168182643149" lon="-5.8250070443432">
    <ele>175.95350505231443</ele>
    <time>2024-08-26T18:31:05Z</time>
    <name>ANOM:DZ_HAMPEL</name>
    <desc>Tramo #9 (2198-2201), dur=4s
Causas: DZ_HAMPEL
vh_max=6.58 km/h | grade_ext=-3.0% | vz_ext=-3.3 m/min
max|dx|=0.58 m/s, max|dy|=1.73 m/s, max|dz|=0.06 m/s</desc>
  </wpt>
  <wpt lat="43.391521418035985" lon="-5.825085973170678">
    <ele>174.446944800175</ele>
    <time>2024-08-26T18:31:16Z</time>
    <name>ANOM:DZ_HAMPEL</name>
    <desc>Tramo #10 (2209-2211), dur=3s
Causas: DZ_HAMPEL
vh_max=5.29 km/h | grade_ext=12.5% | vz_ext=11.1 m/min
max|dx|=0.94 m/s, max|dy|=1.13 m/s, max|dz|=0.18 m/s</desc>
  </wpt>
  <wpt lat="43.39073622417368" lon="-5.825480570801317">
    <ele>168.68097328944907</ele>
    <time>2024-08-26T18:32:14Z</time>
    <name>ANOM:DZ_HAMPEL</name>
    <desc>Tramo #11 (2267-2271), dur=5s
Causas: DZ_HAMPEL
vh_max=8.16 km/h | grade_ext=-9.4% | vz_ext=-11.6 m/min
max|dx|=0.47 m/s, max|dy|=2.22 m/s, max|dz|=0.19 m/s</desc>
  </wpt>
  <wpt lat="43.38867865849649" lon="-5.825337695620982">
    <ele>167.09378867134834</ele>
    <time>2024-08-26T18:34:31Z</time>
    <name>ANOM:DZ_HAMPEL</name>
    <desc>Tramo #12 (2404-2409), dur=6s
Causas: DZ_HAMPEL
vh_max=6.37 km/h | grade_ext=9.3% | vz_ext=9.9 m/min
max|dx|=0.59 m/s, max|dy|=1.70 m/s, max|dz|=0.16 m/s</desc>
  </wpt>
  <wpt lat="43.38612521629126" lon="-5.827486670614267">
    <ele>180.008390325031</ele>
    <time>2024-08-26T18:38:16Z</time>
    <name>ANOM:DZ_HAMPEL</name>
    <desc>Tramo #13 (2629-2633), dur=5s
Causas: DZ_HAMPEL
vh_max=5.35 km/h | grade_ext=14.1% | vz_ext=12.6 m/min
max|dx|=0.75 m/s, max|dy|=1.28 m/s, max|dz|=0.21 m/s</desc>
  </wpt>
  <wpt lat="43.384934042323614" lon="-5.82474719585137">
    <ele>173.48941909698402</ele>
    <time>2024-08-26T18:41:32Z</time>
    <name>ANOM:DZ_HAMPEL</name>
    <desc>Tramo #14 (2825-2826), dur=2s
Causas: DZ_HAMPEL
vh_max=4.96 km/h | grade_ext=-16.2% | vz_ext=-13.4 m/min
max|dx|=1.38 m/s, max|dy|=0.10 m/s, max|dz|=0.22 m/s</desc>
  </wpt>
  <wpt lat="43.38489367902266" lon="-5.824552557530932">
    <ele>172.83196913665333</ele>
    <time>2024-08-26T18:41:42Z</time>
    <name>ANOM:DZ_HAMPEL</name>
    <desc>Tramo #15 (2835-2839), dur=5s
Causas: DZ_HAMPEL
vh_max=2.29 km/h | grade_ext=-13.6% | vz_ext=-5.2 m/min
max|dx|=0.56 m/s, max|dy|=0.30 m/s, max|dz|=0.09 m/s</desc>
  </wpt>
  <wpt lat="43.38460982665212" lon="-5.824234">
    <ele>172.0</ele>
    <time>2024-08-26T18:43:01Z</time>
    <name>ANOM:DZ_HAMPEL</name>
    <desc>Tramo #16 (2914-2919), dur=6s
Causas: DZ_HAMPEL
vh_max=9.69 km/h | grade_ext=-19.0% | vz_ext=-30.8 m/min
max|dx|=0.60 m/s, max|dy|=2.66 m/s, max|dz|=0.51 m/s</desc>
  </wpt>
  <trk>
    <name>2_pattern_aligned_resampled_anomalies</name>
    <trkseg>
      <trkpt lat="43.38578886123247" lon="-5.82096713508475">
        <ele>165.0</ele>
        <time>2024-08-26T17:55:13Z</time>
      </trkpt>
      <trkpt lat="43.38580283964252" lon="-5.820949757053936">
        <ele>164.93278274277304</ele>
        <time>2024-08-26T17:55:14Z</time>
      </trkpt>
      <trkpt lat="43.38581627171401" lon="-5.820935205643149">
        <ele>164.74622619421842</ele>
        <time>2024-08-26T17:55:15Z</time>
      </trkpt>
      <trkpt lat="43.38582970378551" lon="-5.820920654232362">
        <ele>164.55966964566383</ele>
        <time>2024-08-26T17:55:16Z</time>
      </trkpt>
      <trkpt lat="43.38584313585701" lon="-5.820906102821574">
        <ele>164.3731130971092</ele>
        <time>2024-08-26T17:55:17Z</time>
      </trkpt>
      <trkpt lat="43.3858565679285" lon="-5.820891551410788">
        <ele>164.18655654855462</ele>
        <time>2024-08-26T17:55:18Z</time>
      </trkpt>
    </trkseg>
    <trkseg>
      <trkpt lat="43.38847322258547" lon="-5.821870400354148">
        <ele>160.0</ele>
        <time>2024-08-26T17:59:13Z</time>
      </trkpt>
      <trkpt lat="43.38847043115301" lon="-5.8218926850979">
        <ele>160.27370195800808</ele>
        <time>2024-08-26T17:59:14Z</time>
      </trkpt>
      <trkpt lat="43.388458011184184" lon="-5.821918560032954">
        <ele>160.79120065908634</ele>
        <time>2024-08-26T17:59:15Z</time>
      </trkpt>
    </trkseg>
    <trkseg>
      <trkpt lat="43.399157239934105" lon="-5.82322470231117">
        <ele>156.0</ele>
        <time>2024-08-26T18:16:39Z</time>
      </trkpt>
      <trkpt lat="43.39916165603042" lon="-5.823247452136909">
        <ele>156.10445801212146</ele>
        <time>2024-08-26T18:16:40Z</time>
      </trkpt>
      <trkpt lat="43.39916678882122" lon="-5.823270549695497">
        <ele>156.2511091777599</ele>
        <time>2024-08-26T18:16:41Z</time>
      </trkpt>
      <trkpt lat="43.399171921612016" lon="-5.823293647254085">
        <ele>156.39776034339837</ele>
        <time>2024-08-26T18:16:42Z</time>
      </trkpt>
      <trkpt lat="43.399179181394686" lon="-5.823315278206476">
        <ele>156.559586548567</ele>
        <time>2024-08-26T18:16:43Z</time>
      </trkpt>
      <trkpt lat="43.39918647416455" lon="-5.823336886413489">
        <ele>156.7216481011653</ele>
        <time>2024-08-26T18:16:44Z</time>
      </trkpt>
      <trkpt lat="43.399193766934424" lon="-5.823358494620502">
        <ele>156.8837096537636</ele>
        <time>2024-08-26T18:16:45Z</time>
      </trkpt>
    </trkseg>
    <trkseg>
      <trkpt lat="43.40068696153814" lon="-5.826345997347168">
        <ele>160.29731432277194</ele>
        <time>2024-08-26T18:19:39Z</time>
      </trkpt>
      <trkpt lat="43.400701888572165" lon="-5.826360593070627">
        <ele>160.5068510747512</ele>
        <time>2024-08-26T18:19:40Z</time>
      </trkpt>
      <trkpt lat="43.40071719656241" lon="-5.826375575358957">
        <ele>160.73484241889696</ele>
        <time>2024-08-26T18:19:41Z</time>
      </trkpt>
    </trkseg>
    <trkseg>
      <trkpt lat="43.398237201850606" lon="-5.825008020647712">
        <ele>167.04663582320893</ele>
        <time>2024-08-26T18:23:03Z</time>
      </trkpt>
      <trkpt lat="43.39822315371702" lon="-5.825003103800957">
        <ele>167.28077138301535</ele>
        <time>2024-08-26T18:23:04Z</time>
      </trkpt>
      <trkpt lat="43.39820910558343" lon="-5.8249981869542005">
        <ele>167.51490694282177</ele>
        <time>2024-08-26T18:23:05Z</time>
      </trkpt>
      <trkpt lat="43.39819505744985" lon="-5.824993270107445">
        <ele>167.74904250262819</ele>
        <time>2024-08-26T18:23:06Z</time>
      </trkpt>
    </trkseg>
    <trkseg>
      <trkpt lat="43.39459934297579" lon="-5.825367959219466">
        <ele>181.05395609492794</ele>
        <time>2024-08-26T18:27:19Z</time>
      </trkpt>
      <trkpt lat="43.394587024951875" lon="-5.825371190176558">
        <ele>181.23569743136892</ele>
        <time>2024-08-26T18:27:20Z</time>
      </trkpt>
      <trkpt lat="43.394574706927955" lon="-5.82537442113365">
        <ele>181.4174387678099</ele>
        <time>2024-08-26T18:27:21Z</time>
      </trkpt>
      <trkpt lat="43.39456238890404" lon="-5.825377652090743">
        <ele>181.59918010425088</ele>
        <time>2024-08-26T18:27:22Z</time>
      </trkpt>
    </trkseg>
    <trkseg>
      <trkpt lat="43.39208156620661" lon="-5.824812082924297">
        <ele>180.0</ele>
        <time>2024-08-26T18:30:37Z</time>
      </trkpt>
      <trkpt lat="43.39206791872304" lon="-5.824819516936349">
        <ele>179.9525957391007</ele>
        <time>2024-08-26T18:30:38Z</time>
      </trkpt>
      <trkpt lat="43.392052697880324" lon="-5.824827010274302">
        <ele>179.71842892803116</ele>
        <time>2024-08-26T18:30:39Z</time>
      </trkpt>
      <trkpt lat="43.392037477037604" lon="-5.824834503612257">
        <ele>179.48426211696165</ele>
        <time>2024-08-26T18:30:40Z</time>
      </trkpt>
      <trkpt lat="43.392022256194885" lon="-5.824841996950211">
        <ele>179.2500953058921</ele>
        <time>2024-08-26T18:30:41Z</time>
      </trkpt>
    </trkseg>
    <trkseg>
      <trkpt lat="43.39182111248549" lon="-5.82494614000774">
        <ele>177.6012498387371</ele>
        <time>2024-08-26T18:30:55Z</time>
      </trkpt>
      <trkpt lat="43.391807468619795" lon="-5.824953416736111">
        <ele>177.44965133101215</ele>
        <time>2024-08-26T18:30:56Z</time>
      </trkpt>
    </trkseg>
    <trkseg>
      <trkpt lat="43.39168182643149" lon="-5.8250070443432">
        <ele>175.95350505231443</ele>
        <time>2024-08-26T18:31:05Z</time>
      </trkpt>
      <trkpt lat="43.39166622607088" lon="-5.825014202155713">
        <ele>175.8984449560547</ele>
        <time>2024-08-26T18:31:06Z</time>
      </trkpt>
      <trkpt lat="43.39165062571028" lon="-5.825021359968227">
        <ele>175.84338485979495</ele>
        <time>2024-08-26T18:31:07Z</time>
      </trkpt>
      <trkpt lat="43.391635025349665" lon="-5.825028517780741">
        <ele>175.78832476353523</ele>
        <time>2024-08-26T18:31:08Z</time>
      </trkpt>
    </trkseg>
    <trkseg>
      <trkpt lat="43.391521418035985" lon="-5.825085973170678">
        <ele>174.446944800175</ele>
        <time>2024-08-26T18:31:16Z</time>
      </trkpt>
      <trkpt lat="43.39151127869066" lon="-5.825097648780452">
        <ele>174.63129653345</ele>
        <time>2024-08-26T18:31:17Z</time>
      </trkpt>
      <trkpt lat="43.39150113934533" lon="-5.825109324390226">
        <ele>174.815648266725</ele>
        <time>2024-08-26T18:31:18Z</time>
      </trkpt>
    </trkseg>
    <trkseg>
      <trkpt lat="43.39073622417368" lon="-5.825480570801317">
        <ele>168.68097328944907</ele>
        <time>2024-08-26T18:32:14Z</time>
      </trkpt>
      <trkpt lat="43.39071822125078" lon="-5.825486357455107">
        <ele>168.48808482977273</ele>
        <time>2024-08-26T18:32:15Z</time>
      </trkpt>
      <trkpt lat="43.39069912918501" lon="-5.82549193339452">
        <ele>168.3309789524664</ele>
        <time>2024-08-26T18:32:16Z</time>
      </trkpt>
      <trkpt lat="43.39067912172191" lon="-5.82549733223377">
        <ele>168.20394744071203</ele>
        <time>2024-08-26T18:32:17Z</time>
      </trkpt>
      <trkpt lat="43.39065911425881" lon="-5.825502731073019">
        <ele>168.07691592895762</ele>
        <time>2024-08-26T18:32:18Z</time>
      </trkpt>
    </trkseg>
    <trkseg>
      <trkpt lat="43.38867865849649" lon="-5.825337695620982">
        <ele>167.09378867134834</ele>
        <time>2024-08-26T18:34:31Z</time>
      </trkpt>
      <trkpt lat="43.38866339626885" lon="-5.825343471452892">
        <ele>167.21498021723474</ele>
        <time>2024-08-26T18:34:32Z</time>
      </trkpt>
      <trkpt lat="43.38864818580552" lon="-5.825349885503695">
        <ele>167.37991295216767</ele>
        <time>2024-08-26T18:34:33Z</time>
      </trkpt>
      <trkpt lat="43.38863297534219" lon="-5.825356299554498">
        <ele>167.5448456871006</ele>
        <time>2024-08-26T18:34:34Z</time>
      </trkpt>
      <trkpt lat="43.38861776487886" lon="-5.825362713605301">
        <ele>167.70977842203354</ele>
        <time>2024-08-26T18:34:35Z</time>
      </trkpt>
      <trkpt lat="43.38860255441552" lon="-5.825369127656105">
        <ele>167.87471115696647</ele>
        <time>2024-08-26T18:34:36Z</time>
      </trkpt>
    </trkseg>
    <trkseg>
      <trkpt lat="43.38612521629126" lon="-5.827486670614267">
        <ele>180.008390325031</ele>
        <time>2024-08-26T18:38:16Z</time>
      </trkpt>
      <trkpt lat="43.386114606231374" lon="-5.827487915014902">
        <ele>180.134432156855</ele>
        <time>2024-08-26T18:38:17Z</time>
      </trkpt>
      <trkpt lat="43.38610306190968" lon="-5.827497150472257">
        <ele>180.3443289149366</ele>
        <time>2024-08-26T18:38:18Z</time>
      </trkpt>
      <trkpt lat="43.386091517587985" lon="-5.827506385929612">
        <ele>180.5542256730182</ele>
        <time>2024-08-26T18:38:19Z</time>
      </trkpt>
      <trkpt lat="43.386079973266284" lon="-5.8275156213869685">
        <ele>180.76412243109982</ele>
        <time>2024-08-26T18:38:20Z</time>
      </trkpt>
    </trkseg>
    <trkseg>
      <trkpt lat="43.384934042323614" lon="-5.82474719585137">
        <ele>173.48941909698402</ele>
        <time>2024-08-26T18:41:32Z</time>
      </trkpt>
      <trkpt lat="43.384934937852954" lon="-5.8247301807939404">
        <ele>173.26553676237486</ele>
        <time>2024-08-26T18:41:33Z</time>
      </trkpt>
    </trkseg>
    <trkseg>
      <trkpt lat="43.38489367902266" lon="-5.824552557530932">
        <ele>172.83196913665333</ele>
        <time>2024-08-26T18:41:42Z</time>
      </trkpt>
      <trkpt lat="43.384890948109195" lon="-5.8245456583811235">
        <ele>172.74572976403903</ele>
        <time>2024-08-26T18:41:43Z</time>
      </trkpt>
      <trkpt lat="43.38488821719573" lon="-5.824538759231314">
        <ele>172.6594903914247</ele>
        <time>2024-08-26T18:41:44Z</time>
      </trkpt>
      <trkpt lat="43.384885486282265" lon="-5.824531860081505">
        <ele>172.5732510188104</ele>
        <time>2024-08-26T18:41:45Z</time>
      </trkpt>
      <trkpt lat="43.3848827553688" lon="-5.824524960931696">
        <ele>172.48701164619607</ele>
        <time>2024-08-26T18:41:46Z</time>
      </trkpt>
    </trkseg>
    <trkseg>
      <trkpt lat="43.38460982665212" lon="-5.824234">
        <ele>172.0</ele>
        <time>2024-08-26T18:43:01Z</time>
      </trkpt>
      <trkpt lat="43.384594252633086" lon="-5.824235447091254">
        <ele>171.97588181243316</ele>
        <time>2024-08-26T18:43:02Z</time>
      </trkpt>
      <trkpt lat="43.38457672997429" lon="-5.824237291581653">
        <ele>171.94514030577346</ele>
        <time>2024-08-26T18:43:03Z</time>
      </trkpt>
      <trkpt lat="43.3845592073155" lon="-5.824239136072053">
        <ele>171.9143987991138</ele>
        <time>2024-08-26T18:43:04Z</time>
      </trkpt>
      <trkpt lat="43.384538279897455" lon="-5.8242427257362595">
        <ele>171.6274263740333</ele>
        <time>2024-08-26T18:43:05Z</time>
      </trkpt>
      <trkpt lat="43.384514352704485" lon="-5.824247852991896">
        <ele>171.11470081039124</ele>
        <time>2024-08-26T18:43:06Z</time>
      </trkpt>
    </trkseg>
  </trk>
</gpx>