<?xml version="1.0" encoding="UTF-8"?>
<gpx xmlns="http://www.topografix.com/GPX/1/1" xmlns:xsi="http://www.w3.org/2001/XMLSchema-instance" xsi:schemaLocation="http://www.topografix.com/GPX/1/1 http://www.topografix.com/GPX/1/1/gpx.xsd" version="1.1" creator="gpx.py -- https://github.com/tkrajina/gpxpy">
  <wpt lat="43.38579054024469" lon="-5.820964905576721">
    <ele>165.0</ele>
    <time>2024-08-27T11:28:56Z</time>
    <name>ANOM:DZ_HAMPEL</name>
    <desc>Tramo #1 (29-33), dur=5s
Causas: DZ_HAMPEL
vh_max=8.32 km/h | grade_ext=-9.8% | vz_ext=-13.6 m/min
max|dx|=1.52 m/s, max|dy|=1.82 m/s, max|dz|=0.23 m/s</desc>
  </wpt>
  <wpt lat="43.387901" lon="-5.821146">
    <ele>161.0</ele>
    <time>2024-08-27T11:31:34Z</time>
    <name>ANOM:DZ_HAMPEL</name>
    <desc>Tramo #2 (187-190), dur=4s
Causas: DZ_HAMPEL
vh_max=5.02 km/h | grade_ext=-14.4% | vz_ext=-12.0 m/min
max|dx|=0.97 m/s, max|dy|=1.00 m/s, max|dz|=0.20 m/s</desc>
  </wpt>
  <wpt lat="43.398228" lon="-5.825004799999999">
    <ele>167.2</ele>
    <time>2024-08-27T11:56:43Z</time>
    <name>ANOM:DZ_HAMPEL</name>
    <desc>Tramo #3 (1696-1699), dur=4s
Causas: DZ_HAMPEL
vh_max=4.96 km/h | grade_ext=14.5% | vz_ext=12.0 m/min
max|dx|=0.34 m/s, max|dy|=1.33 m/s, max|dz|=0.20 m/s</desc>
  </wpt>
  <wpt lat="43.39806985714286" lon="-5.824991">
    <ele>168.28571428571428</ele>
    <time>2024-08-27T11:56:54Z</time>
    <name>ANOM:DZ_HAMPEL</name>
    <desc>Tramo #4 (1707-1711), dur=5s
Causas: DZ_HAMPEL
vh_max=5.86 km/h | grade_ext=8.8% | vz_ext=8.6 m/min
max|dx|=0.16 m/s, max|dy|=1.62 m/s, max|dz|=0.14 m/s</desc>
  </wpt>
  <wpt lat="43.396994" lon="-5.825434">
    <ele>172.0</ele>
    <time>2024-08-27T11:58:27Z</time>
    <name>ANOM:DZ_HAMPEL</name>
    <desc>Tramo #5 (1800-1806), dur=7s
Causas: DZ_HAMPEL
vh_max=5.55 km/h | grade_ext=9.3% | vz_ext=8.6 m/min
max|dx|=0.08 m/s, max|dy|=1.54 m/s, max|dz|=0.14 m/s</desc>
  </wpt>
  <wpt lat="43.394603" lon="-5.825367">
    <ele>181.0</ele>
    <time>2024-08-27T12:01:08Z</time>
    <name>ANOM:DZ_HAMPEL</name>
    <desc>Tramo #6 (1961-1964), dur=4s
Causas: DZ_HAMPEL
vh_max=6.21 km/h | grade_ext=13.0% | vz_ext=13.5 m/min
max|dx|=0.32 m/s, max|dy|=1.70 m/s, max|dz|=0.23 m/s</desc>
  </wpt>
  <wpt lat="43.392071" lon="-5.824818">
    <ele>180.0</ele>
    <time>2024-08-27T12:04:20Z</time>
    <name>ANOM:DZ_HAMPEL</name>
    <desc>Tramo #7 (2153-2156), dur=4s
Causas: DZ_HAMPEL
vh_max=5.53 km/h | grade_ext=-13.0% | vz_ext=-12.0 m/min
max|dx|=0.52 m/s, max|dy|=1.45 m/s, max|dz|=0.20 m/s</desc>
  </wpt>
  <wpt lat="43.392006" lon="-5.82485">
    <ele>179.0</ele>
    <time>2024-08-27T12:04:25Z</time>
    <name>ANOM:DZ_HAMPEL</name>
    <desc>Tramo #8 (2158-2161), dur=4s
Causas: DZ_HAMPEL
vh_max=7.69 km/h | grade_ext=0.0% | vz_ext=0.0 m/min
max|dx|=0.75 m/s, max|dy|=2.00 m/s, max|dz|=0.00 m/s</desc>
  </wpt>
  <wpt lat="43.39183128571429" lon="-5.824940714285714">
    <ele>177.71428571428572</ele>
    <time>2024-08-27T12:04:36Z</time>
    <name>ANOM:DZ_HAMPEL</name>
    <desc>Tramo #9 (2169-2171), dur=3s
Causas: DZ_HAMPEL
vh_max=5.52 km/h | grade_ext=-9.3% | vz_ext=-8.6 m/min
max|dx|=0.55 m/s, max|dy|=1.43 m/s, max|dz|=0.14 m/s</desc>
  </wpt>
  <wpt lat="43.39168083333333" lon="-5.8250075">
    <ele>175.95</ele>
    <time>2024-08-27T12:04:47Z</time>
    <name>ANOM:DZ_HAMPEL</name>
    <desc>Tramo #10 (2180-2184), dur=5s
Causas: DZ_HAMPEL
vh_max=5.98 km/h | grade_ext=-3.0% | vz_ext=-3.0 m/min
max|dx|=0.53 m/s, max|dy|=1.58 m/s, max|dz|=0.05 m/s</desc>
  </wpt>
  <wpt lat="43.391524" lon="-5.825083">
    <ele>174.4</ele>
    <time>2024-08-27T12:04:58Z</time>
    <name>ANOM:DZ_HAMPEL</name>
    <desc>Tramo #11 (2191-2193), dur=3s
Causas: DZ_HAMPEL
vh_max=5.74 km/h | grade_ext=12.5% | vz_ext=12.0 m/min
max|dx|=1.02 m/s, max|dy|=1.22 m/s, max|dz|=0.20 m/s</desc>
  </wpt>
  <wpt lat="43.391399" lon="-5.825166">
    <ele>174.0</ele>
    <time>2024-08-27T12:05:08Z</time>
    <name>ANOM:DZ_HAMPEL</name>
    <desc>Tramo #12 (2201-2206), dur=6s
Causas: DZ_HAMPEL
vh_max=7.26 km/h | grade_ext=-8.3% | vz_ext=-10.0 m/min
max|dx|=0.75 m/s, max|dy|=1.87 m/s, max|dz|=0.17 m/s</desc>
  </wpt>
  <wpt lat="43.391282714285715" lon="-5.82523">
    <ele>172.85714285714286</ele>
    <time>2024-08-27T12:05:15Z</time>
    <name>ANOM:DZ_HAMPEL</name>
    <desc>Tramo #13 (2208-2213), dur=6s
Causas: DZ_HAMPEL
vh_max=6.55 km/h | grade_ext=-7.9% | vz_ext=-8.6 m/min
max|dx|=0.65 m/s, max|dy|=1.70 m/s, max|dz|=0.14 m/s</desc>
  </wpt>
  <wpt lat="43.388674" lon="-5.825339">
    <ele>167.1</ele>
    <time>2024-08-27T12:08:13Z</time>
    <name>ANOM:DZ_HAMPEL</name>
    <desc>Tramo #14 (2386-2390), dur=5s
Causas: DZ_HAMPEL
vh_max=6.95 km/h | grade_ext=9.3% | vz_ext=10.8 m/min
max|dx|=0.57 m/s, max|dy|=1.85 m/s, max|dz|=0.18 m/s</desc>
  </wpt>
  <wpt lat="43.388267" lon="-5.825661">
    <ele>169.0</ele>
    <time>2024-08-27T12:08:46Z</time>
    <name>ANOM:DZ_HAMPEL</name>
    <desc>Tramo #15 (2419-2423), dur=5s
Causas: DZ_HAMPEL
vh_max=5.86 km/h | grade_ext=12.3% | vz_ext=12.0 m/min
max|dx|=1.50 m/s, max|dy|=0.62 m/s, max|dz|=0.20 m/s</desc>
  </wpt>
  <wpt lat="43.386122" lon="-5.827482">
    <ele>180.0</ele>
    <time>2024-08-27T12:11:55Z</time>
    <name>ANOM:DZ_HAMPEL</name>
    <desc>Tramo #16 (2608-2614), dur=7s
Causas: DZ_HAMPEL
vh_max=3.64 km/h | grade_ext=14.1% | vz_ext=8.6 m/min
max|dx|=0.51 m/s, max|dy|=0.87 m/s, max|dz|=0.14 m/s</desc>
  </wpt>
  <wpt lat="43.384865" lon="-5.82499">
    <ele>174.0</ele>
    <time>2024-08-27T12:15:07Z</time>
    <name>ANOM:DZ_HAMPEL</name>
    <desc>Tramo #17 (2800-2803), dur=4s
Causas: DZ_HAMPEL
vh_max=6.35 km/h | grade_ext=0.0% | vz_ext=0.0 m/min
max|dx|=1.40 m/s, max|dy|=1.07 m/s, max|dz|=0.00 m/s</desc>
  </wpt>
  <wpt lat="43.384919556757104" lon="-5.824860624529897">
    <ele>173.69738044114388</ele>
    <time>2024-08-27T12:15:14Z</time>
    <name>ANOM:DZ_HAMPEL</name>
    <desc>Tramo #18 (2807-2808), dur=2s
Causas: DZ_HAMPEL
vh_max=6.35 km/h | grade_ext=-8.5% | vz_ext=-8.9 m/min
max|dx|=1.73 m/s, max|dy|=0.36 m/s, max|dz|=0.15 m/s</desc>
  </wpt>
  <wpt lat="43.384933401902195" lon="-5.824753233355781">
    <ele>173.49252377745526</ele>
    <time>2024-08-27T12:15:19Z</time>
    <name>ANOM:DZ_HAMPEL</name>
    <desc>Tramo #19 (2812-2813), dur=2s
Causas: DZ_HAMPEL
vh_max=6.35 km/h | grade_ext=-16.1% | vz_ext=-17.0 m/min
max|dx|=1.76 m/s, max|dy|=0.16 m/s, max|dz|=0.28 m/s</desc>
  </wpt>
  <wpt lat="43.384614474987195" lon="-5.824234">
    <ele>172.0</ele>
    <time>2024-08-27T12:15:59Z</time>
    <name>ANOM:DZ_HAMPEL</name>
    <desc>Tramo #20 (2852-2858), dur=7s
Causas: DZ_HAMPEL
vh_max=6.35 km/h | grade_ext=-19.0% | vz_ext=-20.1 m/min
max|dx|=0.51 m/s, max|dy|=1.76 m/s, max|dz|=0.34 m/s</desc>
  </wpt>
  <wpt lat="43.38458316859562" lon="-5.822693937847579">
    <ele>167.79325617510315</ele>
    <time>2024-08-27T12:17:30Z</time>
    <name>ANOM:DZ_HAMPEL</name>
    <desc>Tramo #21 (2943-2948), dur=6s
Causas: DZ_HAMPEL
vh_max=6.35 km/h | grade_ext=-7.7% | vz_ext=-8.1 m/min
max|dx|=1.73 m/s, max|dy|=0.38 m/s, max|dz|=0.14 m/s</desc>
  </wpt>
  <wpt lat="43.384613096554865" lon="-5.82223062685496">
    <ele>167.0</ele>
    <time>2024-08-27T12:17:52Z</time>
    <name>ANOM:DZ_HAMPEL</name>
    <desc>Tramo #22 (2965-2970), dur=6s
Causas: DZ_HAMPEL
vh_max=6.35 km/h | grade_ext=-11.6% | vz_ext=-12.3 m/min
max|dx|=1.41 m/s, max|dy|=1.25 m/s, max|dz|=0.20 m/s</desc>
  </wpt>
  <trk>
    <name>3_aligned_pattern_resampled_anomalies</name>
    <trkseg>
      <trkpt lat="43.38579054024469" lon="-5.820964905576721">
        <ele>165.0</ele>
        <time>2024-08-27T11:28:56Z</time>
      </trkpt>
      <trkpt lat="43.38580618494023" lon="-5.820946132981416">
        <ele>164.88632027456615</ele>
        <time>2024-08-27T11:28:57Z</time>
      </trkpt>
      <trkpt lat="43.38582251520347" lon="-5.820928441862902">
        <ele>164.65951106284612</ele>
        <time>2024-08-27T11:28:58Z</time>
      </trkpt>
      <trkpt lat="43.385838845466715" lon="-5.820910750744388">
        <ele>164.43270185112607</ele>
        <time>2024-08-27T11:28:59Z</time>
      </trkpt>
      <trkpt lat="43.38585517572996" lon="-5.820893059625874">
        <ele>164.20589263940602</ele>
        <time>2024-08-27T11:29:00Z</time>
      </trkpt>
    </trkseg>
    <trkseg>
      <trkpt lat="43.387901" lon="-5.821146">
        <ele>161.0</ele>
        <time>2024-08-27T11:31:34Z</time>
      </trkpt>
      <trkpt lat="43.38791" lon="-5.821158">
        <ele>160.8</ele>
        <time>2024-08-27T11:31:35Z</time>
      </trkpt>
      <trkpt lat="43.387919" lon="-5.82117">
        <ele>160.6</ele>
        <time>2024-08-27T11:31:36Z</time>
      </trkpt>
      <trkpt lat="43.387928" lon="-5.821182">
        <ele>160.39999999999998</ele>
        <time>2024-08-27T11:31:37Z</time>
      </trkpt>
    </trkseg>
    <trkseg>
      <trkpt lat="43.398228" lon="-5.825004799999999">
        <ele>167.2</ele>
        <time>2024-08-27T11:56:43Z</time>
      </trkpt>
      <trkpt lat="43.398216000000005" lon="-5.8250006">
        <ele>167.4</ele>
        <time>2024-08-27T11:56:44Z</time>
      </trkpt>
      <trkpt lat="43.398204" lon="-5.8249964">
        <ele>167.6</ele>
        <time>2024-08-27T11:56:45Z</time>
      </trkpt>
      <trkpt lat="43.398192" lon="-5.8249922000000005">
        <ele>167.8</ele>
        <time>2024-08-27T11:56:46Z</time>
      </trkpt>
    </trkseg>
    <trkseg>
      <trkpt lat="43.39806985714286" lon="-5.824991">
        <ele>168.28571428571428</ele>
        <time>2024-08-27T11:56:54Z</time>
      </trkpt>
      <trkpt lat="43.398055285714285" lon="-5.824993">
        <ele>168.42857142857142</ele>
        <time>2024-08-27T11:56:55Z</time>
      </trkpt>
      <trkpt lat="43.39804071428571" lon="-5.824995">
        <ele>168.57142857142858</ele>
        <time>2024-08-27T11:56:56Z</time>
      </trkpt>
      <trkpt lat="43.39802614285714" lon="-5.824997000000001">
        <ele>168.71428571428572</ele>
        <time>2024-08-27T11:56:57Z</time>
      </trkpt>
      <trkpt lat="43.39801157142857" lon="-5.824999">
        <ele>168.85714285714286</ele>
        <time>2024-08-27T11:56:58Z</time>
      </trkpt>
    </trkseg>
    <trkseg>
      <trkpt lat="43.396994" lon="-5.825434">
        <ele>172.0</ele>
        <time>2024-08-27T11:58:27Z</time>
      </trkpt>
      <trkpt lat="43.396980142857146" lon="-5.825435">
        <ele>172.14285714285714</ele>
        <time>2024-08-27T11:58:28Z</time>
      </trkpt>
      <trkpt lat="43.396966285714285" lon="-5.825436">
        <ele>172.28571428571428</ele>
        <time>2024-08-27T11:58:29Z</time>
      </trkpt>
      <trkpt lat="43.39695242857143" lon="-5.825437">
        <ele>172.42857142857142</ele>
        <time>2024-08-27T11:58:30Z</time>
      </trkpt>
      <trkpt lat="43.39693857142857" lon="-5.825437999999999">
        <ele>172.57142857142858</ele>
        <time>2024-08-27T11:58:31Z</time>
      </trkpt>
      <trkpt lat="43.39692471428572" lon="-5.825438999999999">
        <ele>172.71428571428572</ele>
        <time>2024-08-27T11:58:32Z</time>
      </trkpt>
      <trkpt lat="43.396910857142856" lon="-5.8254399999999995">
        <ele>172.85714285714286</ele>
        <time>2024-08-27T11:58:33Z</time>
      </trkpt>
    </trkseg>
    <trkseg>
      <trkpt lat="43.394603" lon="-5.825367">
        <ele>181.0</ele>
        <time>2024-08-27T12:01:08Z</time>
      </trkpt>
      <trkpt lat="43.39458775" lon="-5.8253710000000005">
        <ele>181.225</ele>
        <time>2024-08-27T12:01:09Z</time>
      </trkpt>
      <trkpt lat="43.394572499999995" lon="-5.825375">
        <ele>181.45</ele>
        <time>2024-08-27T12:01:10Z</time>
      </trkpt>
      <trkpt lat="43.39455725" lon="-5.825379">
        <ele>181.675</ele>
        <time>2024-08-27T12:01:11Z</time>
      </trkpt>
    </trkseg>
    <trkseg>
      <trkpt lat="43.392071" lon="-5.824818">
        <ele>180.0</ele>
        <time>2024-08-27T12:04:20Z</time>
      </trkpt>
      <trkpt lat="43.392058" lon="-5.8248244">
        <ele>179.8</ele>
        <time>2024-08-27T12:04:21Z</time>
      </trkpt>
      <trkpt lat="43.392045" lon="-5.8248308">
        <ele>179.6</ele>
        <time>2024-08-27T12:04:22Z</time>
      </trkpt>
      <trkpt lat="43.392032" lon="-5.824837199999999">
        <ele>179.4</ele>
        <time>2024-08-27T12:04:23Z</time>
      </trkpt>
    </trkseg>
    <trkseg>
      <trkpt lat="43.392006" lon="-5.82485">
        <ele>179.0</ele>
        <time>2024-08-27T12:04:25Z</time>
      </trkpt>
      <trkpt lat="43.391988" lon="-5.824859249999999">
        <ele>179.0</ele>
        <time>2024-08-27T12:04:26Z</time>
      </trkpt>
      <trkpt lat="43.39197" lon="-5.8248685">
        <ele>179.0</ele>
        <time>2024-08-27T12:04:27Z</time>
      </trkpt>
      <trkpt lat="43.391952" lon="-5.824877750000001">
        <ele>179.0</ele>
        <time>2024-08-27T12:04:28Z</time>
      </trkpt>
    </trkseg>
    <trkseg>
      <trkpt lat="43.39183128571429" lon="-5.824940714285714">
        <ele>177.71428571428572</ele>
        <time>2024-08-27T12:04:36Z</time>
      </trkpt>
      <trkpt lat="43.39181842857143" lon="-5.824947571428571">
        <ele>177.57142857142858</ele>
        <time>2024-08-27T12:04:37Z</time>
      </trkpt>
      <trkpt lat="43.39180557142857" lon="-5.824954428571429">
        <ele>177.42857142857142</ele>
        <time>2024-08-27T12:04:38Z</time>
      </trkpt>
    </trkseg>
    <trkseg>
      <trkpt lat="43.39168083333333" lon="-5.8250075">
        <ele>175.95</ele>
        <time>2024-08-27T12:04:47Z</time>
      </trkpt>
      <trkpt lat="43.391666666666666" lon="-5.825014">
        <ele>175.9</ele>
        <time>2024-08-27T12:04:48Z</time>
      </trkpt>
      <trkpt lat="43.3916525" lon="-5.825020500000001">
        <ele>175.85</ele>
        <time>2024-08-27T12:04:49Z</time>
      </trkpt>
      <trkpt lat="43.39163833333333" lon="-5.825027">
        <ele>175.79999999999998</ele>
        <time>2024-08-27T12:04:50Z</time>
      </trkpt>
      <trkpt lat="43.391624166666666" lon="-5.8250335">
        <ele>175.75</ele>
        <time>2024-08-27T12:04:51Z</time>
      </trkpt>
    </trkseg>
    <trkseg>
      <trkpt lat="43.391524" lon="-5.825083">
        <ele>174.4</ele>
        <time>2024-08-27T12:04:58Z</time>
      </trkpt>
      <trkpt lat="43.391512999999996" lon="-5.825095666666667">
        <ele>174.6</ele>
        <time>2024-08-27T12:04:59Z</time>
      </trkpt>
      <trkpt lat="43.391502" lon="-5.8251083333333336">
        <ele>174.8</ele>
        <time>2024-08-27T12:05:00Z</time>
      </trkpt>
    </trkseg>
    <trkseg>
      <trkpt lat="43.391399" lon="-5.825166">
        <ele>174.0</ele>
        <time>2024-08-27T12:05:08Z</time>
      </trkpt>
      <trkpt lat="43.391382166666666" lon="-5.825175333333334">
        <ele>173.83333333333334</ele>
        <time>2024-08-27T12:05:09Z</time>
      </trkpt>
      <trkpt lat="43.39136533333333" lon="-5.825184666666667">
        <ele>173.66666666666666</ele>
        <time>2024-08-27T12:05:10Z</time>
      </trkpt>
      <trkpt lat="43.3913485" lon="-5.825194">
        <ele>173.5</ele>
        <time>2024-08-27T12:05:11Z</time>
      </trkpt>
      <trkpt lat="43.391331666666666" lon="-5.8252033333333335">
        <ele>173.33333333333334</ele>
        <time>2024-08-27T12:05:12Z</time>
      </trkpt>
      <trkpt lat="43.39131483333333" lon="-5.825212666666667">
        <ele>173.16666666666666</ele>
        <time>2024-08-27T12:05:13Z</time>
      </trkpt>
    </trkseg>
    <trkseg>
      <trkpt lat="43.391282714285715" lon="-5.82523">
        <ele>172.85714285714286</ele>
        <time>2024-08-27T12:05:15Z</time>
      </trkpt>
      <trkpt lat="43.391267428571425" lon="-5.825238">
        <ele>172.71428571428572</ele>
        <time>2024-08-27T12:05:16Z</time>
      </trkpt>
      <trkpt lat="43.39125214285714" lon="-5.825246">
        <ele>172.57142857142858</ele>
        <time>2024-08-27T12:05:17Z</time>
      </trkpt>
      <trkpt lat="43.39123685714286" lon="-5.825254">
        <ele>172.42857142857142</ele>
        <time>2024-08-27T12:05:18Z</time>
      </trkpt>
      <trkpt lat="43.391221571428574" lon="-5.825262">
        <ele>172.28571428571428</ele>
        <time>2024-08-27T12:05:19Z</time>
      </trkpt>
      <trkpt lat="43.39120628571428" lon="-5.82527">
        <ele>172.14285714285714</ele>
        <time>2024-08-27T12:05:20Z</time>
      </trkpt>
    </trkseg>
    <trkseg>
      <trkpt lat="43.388674" lon="-5.825339">
        <ele>167.1</ele>
        <time>2024-08-27T12:08:13Z</time>
      </trkpt>
      <trkpt lat="43.3886574" lon="-5.825346">
        <ele>167.28</ele>
        <time>2024-08-27T12:08:14Z</time>
      </trkpt>
      <trkpt lat="43.3886408" lon="-5.825353">
        <ele>167.46</ele>
        <time>2024-08-27T12:08:15Z</time>
      </trkpt>
      <trkpt lat="43.3886242" lon="-5.82536">
        <ele>167.64</ele>
        <time>2024-08-27T12:08:16Z</time>
      </trkpt>
      <trkpt lat="43.3886076" lon="-5.825367">
        <ele>167.82</ele>
        <time>2024-08-27T12:08:17Z</time>
      </trkpt>
    </trkseg>
    <trkseg>
      <trkpt lat="43.388267" lon="-5.825661">
        <ele>169.0</ele>
        <time>2024-08-27T12:08:46Z</time>
      </trkpt>
      <trkpt lat="43.3882614" lon="-5.8256796">
        <ele>169.2</ele>
        <time>2024-08-27T12:08:47Z</time>
      </trkpt>
      <trkpt lat="43.388255799999996" lon="-5.8256982">
        <ele>169.4</ele>
        <time>2024-08-27T12:08:48Z</time>
      </trkpt>
      <trkpt lat="43.3882502" lon="-5.8257168">
        <ele>169.6</ele>
        <time>2024-08-27T12:08:49Z</time>
      </trkpt>
      <trkpt lat="43.3882446" lon="-5.8257354">
        <ele>169.8</ele>
        <time>2024-08-27T12:08:50Z</time>
      </trkpt>
    </trkseg>
    <trkseg>
      <trkpt lat="43.386122" lon="-5.827482">
        <ele>180.0</ele>
        <time>2024-08-27T12:11:55Z</time>
      </trkpt>
      <trkpt lat="43.386114142857146" lon="-5.827488285714286">
        <ele>180.14285714285714</ele>
        <time>2024-08-27T12:11:56Z</time>
      </trkpt>
      <trkpt lat="43.386106285714284" lon="-5.827494571428571">
        <ele>180.28571428571428</ele>
        <time>2024-08-27T12:11:57Z</time>
      </trkpt>
      <trkpt lat="43.38609842857143" lon="-5.827500857142857">
        <ele>180.42857142857142</ele>
        <time>2024-08-27T12:11:58Z</time>
      </trkpt>
      <trkpt lat="43.38609057142857" lon="-5.827507142857143">
        <ele>180.57142857142858</ele>
        <time>2024-08-27T12:11:59Z</time>
      </trkpt>
      <trkpt lat="43.38608271428571" lon="-5.827513428571429">
        <ele>180.71428571428572</ele>
        <time>2024-08-27T12:12:00Z</time>
      </trkpt>
      <trkpt lat="43.38607485714285" lon="-5.827519714285714">
        <ele>180.85714285714286</ele>
        <time>2024-08-27T12:12:01Z</time>
      </trkpt>
    </trkseg>
    <trkseg>
      <trkpt lat="43.384865" lon="-5.82499">
        <ele>174.0</ele>
        <time>2024-08-27T12:15:07Z</time>
      </trkpt>
      <trkpt lat="43.38487465879113" lon="-5.824972694665892">
        <ele>174.0</ele>
        <time>2024-08-27T12:15:08Z</time>
      </trkpt>
      <trkpt lat="43.384884317582255" lon="-5.824955389331785">
        <ele>174.0</ele>
        <time>2024-08-27T12:15:09Z</time>
      </trkpt>
      <trkpt lat="43.384893976373384" lon="-5.824938083997677">
        <ele>174.0</ele>
        <time>2024-08-27T12:15:10Z</time>
      </trkpt>
    </trkseg>
    <trkseg>
      <trkpt lat="43.384919556757104" lon="-5.824860624529897">
        <ele>173.69738044114388</ele>
        <time>2024-08-27T12:15:14Z</time>
      </trkpt>
      <trkpt lat="43.38492278599633" lon="-5.8248392618704345">
        <ele>173.54833863094169</ele>
        <time>2024-08-27T12:15:15Z</time>
      </trkpt>
    </trkseg>
    <trkseg>
      <trkpt lat="43.384933401902195" lon="-5.824753233355781">
        <ele>173.49252377745526</ele>
        <time>2024-08-27T12:15:19Z</time>
      </trkpt>
      <trkpt lat="43.384934867318066" lon="-5.824731520956787">
        <ele>173.2831704840464</ele>
        <time>2024-08-27T12:15:20Z</time>
      </trkpt>
    </trkseg>
    <trkseg>
      <trkpt lat="43.384614474987195" lon="-5.824234">
        <ele>172.0</ele>
        <time>2024-08-27T12:15:59Z</time>
      </trkpt>
      <trkpt lat="43.3845986446147" lon="-5.8242349847774">
        <ele>171.98358704332824</ele>
        <time>2024-08-27T12:16:00Z</time>
      </trkpt>
      <trkpt lat="43.38458283310564" lon="-5.8242366491467745">
        <ele>171.9558475537515</ele>
        <time>2024-08-27T12:16:01Z</time>
      </trkpt>
      <trkpt lat="43.38456702159658" lon="-5.824238313516149">
        <ele>171.92810806417475</ele>
        <time>2024-08-27T12:16:02Z</time>
      </trkpt>
      <trkpt lat="43.38455121008752" lon="-5.824239977885524">
        <ele>171.90036857459802</ele>
        <time>2024-08-27T12:16:03Z</time>
      </trkpt>
      <trkpt lat="43.384535539356385" lon="-5.82424331299506">
        <ele>171.56870049394138</ele>
        <time>2024-08-27T12:16:04Z</time>
      </trkpt>
      <trkpt lat="43.384519870520954" lon="-5.824246670602653">
        <ele>171.23293973467437</ele>
        <time>2024-08-27T12:16:05Z</time>
      </trkpt>
    </trkseg>
    <trkseg>
      <trkpt lat="43.38458316859562" lon="-5.822693937847579">
        <ele>167.79325617510315</ele>
        <time>2024-08-27T12:17:30Z</time>
      </trkpt>
      <trkpt lat="43.3845865522833" lon="-5.822672620615185">
        <ele>167.65790866784047</ele>
        <time>2024-08-27T12:17:31Z</time>
      </trkpt>
      <trkpt lat="43.384589935970986" lon="-5.822651303382791">
        <ele>167.52256116057782</ele>
        <time>2024-08-27T12:17:32Z</time>
      </trkpt>
      <trkpt lat="43.38459331965866" lon="-5.822629986150397">
        <ele>167.38721365331514</ele>
        <time>2024-08-27T12:17:33Z</time>
      </trkpt>
      <trkpt lat="43.38459670334635" lon="-5.822608668918003">
        <ele>167.2518661460525</ele>
        <time>2024-08-27T12:17:34Z</time>
      </trkpt>
      <trkpt lat="43.38460008703403" lon="-5.822587351685609">
        <ele>167.1165186387898</ele>
        <time>2024-08-27T12:17:35Z</time>
      </trkpt>
    </trkseg>
    <trkseg>
      <trkpt lat="43.384613096554865" lon="-5.82223062685496">
        <ele>167.0</ele>
        <time>2024-08-27T12:17:52Z</time>
      </trkpt>
      <trkpt lat="43.38462351327922" lon="-5.822214209164697">
        <ele>166.936122195959</ele>
        <time>2024-08-27T12:17:53Z</time>
      </trkpt>
      <trkpt lat="43.38463477674982" lon="-5.8221988498866075">
        <ele>166.73133182143425</ele>
        <time>2024-08-27T12:17:54Z</time>
      </trkpt>
      <trkpt lat="43.38464604022042" lon="-5.822183490608518">
        <ele>166.52654144690953</ele>
        <time>2024-08-27T12:17:55Z</time>
      </trkpt>
      <trkpt lat="43.38465730369102" lon="-5.822168131330429">
        <ele>166.32175107238479</ele>
        <time>2024-08-27T12:17:56Z</time>
      </trkpt>
      <trkpt lat="43.38466856716162" lon="-5.822152772052339">
        <ele>166.11696069786007</ele>
        <time>2024-08-27T12:17:57Z</time>
      </trkpt>
    </trkseg>
  </trk>
</gpx>