<?xml version="1.0" encoding="UTF-8"?>
<gpx xmlns="http://www.topografix.com/GPX/1/1" xmlns:xsi="http://www.w3.org/2001/XMLSchema-instance" xsi:schemaLocation="http://www.topografix.com/GPX/1/1 http://www.topografix.com/GPX/1/1/gpx.xsd" version="1.1" creator="gpx.py -- https://github.com/tkrajina/gpxpy">
  <wpt lat="43.385790476639905" lon="-5.820964990035534">
    <ele>165.0</ele>
    <time>2024-08-27T11:28:47Z</time>
    <name>ANOM:DZ_HAMPEL</name>
    <desc>Tramo #1 (41-47), dur=7s
Causas: DZ_HAMPEL
vh_max=5.96 km/h | grade_ext=-9.8% | vz_ext=-9.7 m/min
max|dx|=1.02 m/s, max|dy|=1.30 m/s, max|dz|=0.16 m/s</desc>
  </wpt>
  <wpt lat="43.38789879831066" lon="-5.821141568027949">
    <ele>161.0</ele>
    <time>2024-08-27T11:31:34Z</time>
    <name>ANOM:DZ_HAMPEL</name>
    <desc>Tramo #2 (208-214), dur=7s
Causas: DZ_HAMPEL
vh_max=9.14 km/h | grade_ext=-14.4% | vz_ext=-21.9 m/min
max|dx|=1.77 m/s, max|dy|=1.82 m/s, max|dz|=0.36 m/s</desc>
  </wpt>
  <wpt lat="43.388088118675434" lon="-5.821309895770064">
    <ele>160.08059856289736</ele>
    <time>2024-08-27T11:32:11Z</time>
    <name>ANOM:DZ_HAMPEL</name>
    <desc>Tramo #3 (245-246), dur=2s
Causas: DZ_HAMPEL
vh_max=8.91 km/h | grade_ext=-1.9% | vz_ext=-2.8 m/min
max|dx|=0.65 m/s, max|dy|=2.40 m/s, max|dz|=0.05 m/s</desc>
  </wpt>
  <wpt lat="43.3884741438781" lon="-5.821872497765035">
    <ele>160.0</ele>
    <time>2024-08-27T11:32:53Z</time>
    <name>ANOM:DZ_HAMPEL</name>
    <desc>Tramo #4 (287-290), dur=4s
Causas: DZ_HAMPEL
vh_max=7.00 km/h | grade_ext=20.7% | vz_ext=20.2 m/min
max|dx|=1.94 m/s, max|dy|=0.90 m/s, max|dz|=0.34 m/s</desc>
  </wpt>
  <wpt lat="43.39823202311712" lon="-5.825006208090989">
    <ele>167.13294804811028</ele>
    <time>2024-08-27T11:56:43Z</time>
    <name>ANOM:DZ_HAMPEL</name>
    <desc>Tramo #5 (1717-1720), dur=4s
Causas: DZ_HAMPEL
vh_max=6.11 km/h | grade_ext=14.5% | vz_ext=14.8 m/min
max|dx|=0.42 m/s, max|dy|=1.64 m/s, max|dz|=0.25 m/s</desc>
  </wpt>
  <wpt lat="43.39459680872971" lon="-5.825368623939748">
    <ele>181.0913466108408</ele>
    <time>2024-08-27T12:01:09Z</time>
    <name>ANOM:DZ_HAMPEL</name>
    <desc>Tramo #6 (1983-1986), dur=4s
Causas: DZ_HAMPEL
vh_max=6.35 km/h | grade_ext=13.0% | vz_ext=13.6 m/min
max|dx|=0.43 m/s, max|dy|=1.71 m/s, max|dz|=0.23 m/s</desc>
  </wpt>
  <wpt lat="43.392065705286015" lon="-5.824820606628425">
    <ele>179.91854286170317</ele>
    <time>2024-08-27T12:04:21Z</time>
    <name>ANOM:DZ_HAMPEL</name>
    <desc>Tramo #7 (2175-2177), dur=3s
Causas: DZ_HAMPEL
vh_max=6.03 km/h | grade_ext=-13.0% | vz_ext=-13.1 m/min
max|dx|=0.56 m/s, max|dy|=1.58 m/s, max|dz|=0.22 m/s</desc>
  </wpt>
  <wpt lat="43.39198042101678" lon="-5.824863144755264">
    <ele>179.0</ele>
    <time>2024-08-27T12:04:27Z</time>
    <name>ANOM:DZ_HAMPEL</name>
    <desc>Tramo #8 (2181-2182), dur=2s
Causas: DZ_HAMPEL
vh_max=6.10 km/h | grade_ext=0.0% | vz_ext=0.0 m/min
max|dx|=0.59 m/s, max|dy|=1.59 m/s, max|dz|=0.00 m/s</desc>
  </wpt>
  <wpt lat="43.39167176121258" lon="-5.825011662502465">
    <ele>175.9179807502727</ele>
    <time>2024-08-27T12:04:48Z</time>
    <name>ANOM:DZ_HAMPEL</name>
    <desc>Tramo #9 (2202-2204), dur=3s
Causas: DZ_HAMPEL
vh_max=6.12 km/h | grade_ext=-3.0% | vz_ext=-3.1 m/min
max|dx|=0.54 m/s, max|dy|=1.61 m/s, max|dz|=0.05 m/s</desc>
  </wpt>
  <wpt lat="43.39151700326631" lon="-5.825091056844853">
    <ele>174.52721333978297</ele>
    <time>2024-08-27T12:04:59Z</time>
    <name>ANOM:DZ_HAMPEL</name>
    <desc>Tramo #10 (2213-2214), dur=2s
Causas: DZ_HAMPEL
vh_max=6.29 km/h | grade_ext=12.5% | vz_ext=13.1 m/min
max|dx|=1.12 m/s, max|dy|=1.34 m/s, max|dz|=0.22 m/s</desc>
  </wpt>
  <wpt lat="43.38866418064801" lon="-5.825343140690599">
    <ele>167.20647490113197</ele>
    <time>2024-08-27T12:08:13Z</time>
    <name>ANOM:DZ_HAMPEL</name>
    <desc>Tramo #11 (2407-2410), dur=4s
Causas: DZ_HAMPEL
vh_max=6.70 km/h | grade_ext=9.3% | vz_ext=10.4 m/min
max|dx|=0.55 m/s, max|dy|=1.78 m/s, max|dz|=0.17 m/s</desc>
  </wpt>
  <wpt lat="43.38612676378482" lon="-5.82748891784405">
    <ele>180.012427264762</ele>
    <time>2024-08-27T12:11:56Z</time>
    <name>ANOM:DZ_HAMPEL</name>
    <desc>Tramo #12 (2630-2633), dur=4s
Causas: DZ_HAMPEL
vh_max=7.27 km/h | grade_ext=14.1% | vz_ext=17.1 m/min
max|dx|=1.02 m/s, max|dy|=1.75 m/s, max|dz|=0.29 m/s</desc>
  </wpt>
  <wpt lat="43.38484421770546" lon="-5.825275661017807">
    <ele>175.0</ele>
    <time>2024-08-27T12:14:50Z</time>
    <name>ANOM:DZ_HAMPEL</name>
    <desc>Tramo #13 (2804-2805), dur=2s
Causas: DZ_HAMPEL
vh_max=9.55 km/h | grade_ext=0.0% | vz_ext=0.0 m/min
max|dx|=2.14 m/s, max|dy|=1.57 m/s, max|dz|=0.00 m/s</desc>
  </wpt>
  <wpt lat="43.384933534025514" lon="-5.824752077276751">
    <ele>173.49417531892556</ele>
    <time>2024-08-27T12:15:17Z</time>
    <name>ANOM:DZ_HAMPEL</name>
    <desc>Tramo #14 (2831-2832), dur=2s
Causas: DZ_HAMPEL
vh_max=7.41 km/h | grade_ext=-13.1% | vz_ext=-15.0 m/min
max|dx|=2.06 m/s, max|dy|=0.17 m/s, max|dz|=0.25 m/s</desc>
  </wpt>
  <wpt lat="43.38460578532821" lon="-5.824234233123346">
    <ele>171.9961146108993</ele>
    <time>2024-08-27T12:15:49Z</time>
    <name>ANOM:DZ_HAMPEL</name>
    <desc>Tramo #15 (2863-2869), dur=7s
Causas: DZ_HAMPEL
vh_max=8.20 km/h | grade_ext=-19.0% | vz_ext=-26.0 m/min
max|dx|=0.70 m/s, max|dy|=2.25 m/s, max|dz|=0.43 m/s</desc>
  </wpt>
  <wpt lat="43.38458398397554" lon="-5.822688800954086">
    <ele>167.76064097832094</ele>
    <time>2024-08-27T12:17:30Z</time>
    <name>ANOM:DZ_HAMPEL</name>
    <desc>Tramo #16 (2964-2967), dur=4s
Causas: DZ_HAMPEL
vh_max=8.29 km/h | grade_ext=-7.7% | vz_ext=-10.6 m/min
max|dx|=2.25 m/s, max|dy|=0.49 m/s, max|dz|=0.18 m/s</desc>
  </wpt>
  <wpt lat="43.38461784056172" lon="-5.8222226369486885">
    <ele>167.0</ele>
    <time>2024-08-27T12:17:53Z</time>
    <name>ANOM:DZ_HAMPEL</name>
    <desc>Tramo #17 (2987-2990), dur=4s
Causas: DZ_HAMPEL
vh_max=11.16 km/h | grade_ext=-11.6% | vz_ext=-18.7 m/min
max|dx|=2.62 m/s, max|dy|=1.90 m/s, max|dz|=0.31 m/s</desc>
  </wpt>
  <trk>
    <name>3_pattern_aligned_resampled_anomalies</name>
    <trkseg>
      <trkpt lat="43.385790476639905" lon="-5.820964990035534">
        <ele>165.0</ele>
        <time>2024-08-27T11:28:47Z</time>
      </trkpt>
      <trkpt lat="43.385799820331926" lon="-5.820953027973745">
        <ele>164.9747176121238</ele>
        <time>2024-08-27T11:28:48Z</time>
      </trkpt>
      <trkpt lat="43.38581151694327" lon="-5.820940356644788">
        <ele>164.81226467676984</ele>
        <time>2024-08-27T11:28:49Z</time>
      </trkpt>
      <trkpt lat="43.385823213554616" lon="-5.82092768531583">
        <ele>164.64981174141587</ele>
        <time>2024-08-27T11:28:50Z</time>
      </trkpt>
      <trkpt lat="43.38583491016596" lon="-5.820915013986872">
        <ele>164.4873588060619</ele>
        <time>2024-08-27T11:28:51Z</time>
      </trkpt>
      <trkpt lat="43.38584660677731" lon="-5.820902342657916">
        <ele>164.32490587070794</ele>
        <time>2024-08-27T11:28:52Z</time>
      </trkpt>
      <trkpt lat="43.38585830338865" lon="-5.820889671328958">
        <ele>164.16245293535397</ele>
        <time>2024-08-27T11:28:53Z</time>
      </trkpt>
    </trkseg>
    <trkseg>
      <trkpt lat="43.38789879831066" lon="-5.821141568027949">
        <ele>161.0</ele>
        <time>2024-08-27T11:31:34Z</time>
      </trkpt>
      <trkpt lat="43.38791302072399" lon="-5.821162027631988">
        <ele>160.73287280019423</ele>
        <time>2024-08-27T11:31:35Z</time>
      </trkpt>
      <trkpt lat="43.38792942061156" lon="-5.821183894148748">
        <ele>160.3684308542018</ele>
        <time>2024-08-27T11:31:36Z</time>
      </trkpt>
      <trkpt lat="43.38794162240309" lon="-5.821194355569468">
        <ele>160.17629536878675</ele>
        <time>2024-08-27T11:31:37Z</time>
      </trkpt>
      <trkpt lat="43.38795021680232" lon="-5.821195016677101">
        <ele>160.13222152659006</ele>
        <time>2024-08-27T11:31:38Z</time>
      </trkpt>
      <trkpt lat="43.38795881120154" lon="-5.8211956777847345">
        <ele>160.0881476843934</ele>
        <time>2024-08-27T11:31:39Z</time>
      </trkpt>
      <trkpt lat="43.387967405600776" lon="-5.821196338892367">
        <ele>160.0440738421967</ele>
        <time>2024-08-27T11:31:40Z</time>
      </trkpt>
    </trkseg>
    <trkseg>
      <trkpt lat="43.388088118675434" lon="-5.821309895770064">
        <ele>160.08059856289736</ele>
        <time>2024-08-27T11:32:11Z</time>
      </trkpt>
      <trkpt lat="43.38810972578464" lon="-5.821302540158421">
        <ele>160.0346259901343</ele>
        <time>2024-08-27T11:32:12Z</time>
      </trkpt>
    </trkseg>
    <trkseg>
      <trkpt lat="43.3884741438781" lon="-5.821872497765035">
        <ele>160.0</ele>
        <time>2024-08-27T11:32:53Z</time>
      </trkpt>
      <trkpt lat="43.38847191851475" lon="-5.821889586427602">
        <ele>160.2117285520487</ele>
        <time>2024-08-27T11:32:54Z</time>
      </trkpt>
      <trkpt lat="43.38846382348449" lon="-5.821906451073974">
        <ele>160.5490214794882</ele>
        <time>2024-08-27T11:32:55Z</time>
      </trkpt>
      <trkpt lat="43.38845572845423" lon="-5.821923315720347">
        <ele>160.88631440692774</ele>
        <time>2024-08-27T11:32:56Z</time>
      </trkpt>
    </trkseg>
    <trkseg>
      <trkpt lat="43.39823202311712" lon="-5.825006208090989">
        <ele>167.13294804811028</ele>
        <time>2024-08-27T11:56:43Z</time>
      </trkpt>
      <trkpt lat="43.39821723542038" lon="-5.825001032397132">
        <ele>167.37940966035865</ele>
        <time>2024-08-27T11:56:44Z</time>
      </trkpt>
      <trkpt lat="43.39820244772365" lon="-5.824995856703275">
        <ele>167.625871272607</ele>
        <time>2024-08-27T11:56:45Z</time>
      </trkpt>
      <trkpt lat="43.39818766002691" lon="-5.824990681009418">
        <ele>167.87233288485535</ele>
        <time>2024-08-27T11:56:46Z</time>
      </trkpt>
    </trkseg>
    <trkseg>
      <trkpt lat="43.39459680872971" lon="-5.825368623939748">
        <ele>181.0913466108408</ele>
        <time>2024-08-27T12:01:09Z</time>
      </trkpt>
      <trkpt lat="43.39458146918512" lon="-5.825372647426854">
        <ele>181.3176677605522</ele>
        <time>2024-08-27T12:01:10Z</time>
      </trkpt>
      <trkpt lat="43.39456612964052" lon="-5.82537667091396">
        <ele>181.54398891026366</ele>
        <time>2024-08-27T12:01:11Z</time>
      </trkpt>
      <trkpt lat="43.394550790095934" lon="-5.825380694401066">
        <ele>181.77031005997512</ele>
        <time>2024-08-27T12:01:12Z</time>
      </trkpt>
    </trkseg>
    <trkseg>
      <trkpt lat="43.392065705286015" lon="-5.824820606628425">
        <ele>179.91854286170317</ele>
        <time>2024-08-27T12:04:21Z</time>
      </trkpt>
      <trkpt lat="43.39205151277752" lon="-5.82482759370953">
        <ele>179.70019657715997</ele>
        <time>2024-08-27T12:04:22Z</time>
      </trkpt>
      <trkpt lat="43.39203732026902" lon="-5.824834580790636">
        <ele>179.48185029261677</ele>
        <time>2024-08-27T12:04:23Z</time>
      </trkpt>
    </trkseg>
    <trkseg>
      <trkpt lat="43.39198042101678" lon="-5.824863144755264">
        <ele>179.0</ele>
        <time>2024-08-27T12:04:27Z</time>
      </trkpt>
      <trkpt lat="43.39196615644746" lon="-5.824870475158946">
        <ele>179.0</ele>
        <time>2024-08-27T12:04:28Z</time>
      </trkpt>
    </trkseg>
    <trkseg>
      <trkpt lat="43.39167176121258" lon="-5.825011662502465">
        <ele>175.9179807502727</ele>
        <time>2024-08-27T12:04:48Z</time>
      </trkpt>
      <trkpt lat="43.39165726388111" lon="-5.825018314219256">
        <ele>175.8668136980339</ele>
        <time>2024-08-27T12:04:49Z</time>
      </trkpt>
      <trkpt lat="43.391642766549644" lon="-5.825024965936047">
        <ele>175.81564664579506</ele>
        <time>2024-08-27T12:04:50Z</time>
      </trkpt>
    </trkseg>
    <trkseg>
      <trkpt lat="43.39151700326631" lon="-5.825091056844853">
        <ele>174.52721333978297</ele>
        <time>2024-08-27T12:04:59Z</time>
      </trkpt>
      <trkpt lat="43.391504955843274" lon="-5.825104929635018">
        <ele>174.74625739501857</ele>
        <time>2024-08-27T12:05:00Z</time>
      </trkpt>
    </trkseg>
    <trkseg>
      <trkpt lat="43.38866418064801" lon="-5.825343140690599">
        <ele>167.20647490113197</ele>
        <time>2024-08-27T12:08:13Z</time>
      </trkpt>
      <trkpt lat="43.388648181338866" lon="-5.825349887387224">
        <ele>167.37996138576378</ele>
        <time>2024-08-27T12:08:14Z</time>
      </trkpt>
      <trkpt lat="43.38863218202973" lon="-5.825356634083849">
        <ele>167.55344787039556</ele>
        <time>2024-08-27T12:08:15Z</time>
      </trkpt>
      <trkpt lat="43.38861618272059" lon="-5.825363380780473">
        <ele>167.72693435502737</ele>
        <time>2024-08-27T12:08:16Z</time>
      </trkpt>
    </trkseg>
    <trkseg>
      <trkpt lat="43.38612676378482" lon="-5.82748891784405">
        <ele>180.012427264762</ele>
        <time>2024-08-27T12:11:56Z</time>
      </trkpt>
      <trkpt lat="43.38611410869661" lon="-5.827488313042713">
        <ele>180.14347824349088</ele>
        <time>2024-08-27T12:11:57Z</time>
      </trkpt>
      <trkpt lat="43.38609840579774" lon="-5.8275008753618085">
        <ele>180.42898549566058</ele>
        <time>2024-08-27T12:11:58Z</time>
      </trkpt>
      <trkpt lat="43.38608270289887" lon="-5.827513437680905">
        <ele>180.7144927478303</ele>
        <time>2024-08-27T12:11:59Z</time>
      </trkpt>
    </trkseg>
    <trkseg>
      <trkpt lat="43.38484421770546" lon="-5.825275661017807">
        <ele>175.0</ele>
        <time>2024-08-27T12:14:50Z</time>
      </trkpt>
      <trkpt lat="43.38483009168165" lon="-5.825249197074482">
        <ele>175.0</ele>
        <time>2024-08-27T12:14:51Z</time>
      </trkpt>
    </trkseg>
    <trkseg>
      <trkpt lat="43.384933534025514" lon="-5.824752077276751">
        <ele>173.49417531892556</ele>
        <time>2024-08-27T12:15:17Z</time>
      </trkpt>
      <trkpt lat="43.38493502242411" lon="-5.824728573941937">
        <ele>173.24439397286378</ele>
        <time>2024-08-27T12:15:18Z</time>
      </trkpt>
    </trkseg>
    <trkseg>
      <trkpt lat="43.38460578532821" lon="-5.824234233123346">
        <ele>171.9961146108993</ele>
        <time>2024-08-27T12:15:49Z</time>
      </trkpt>
      <trkpt lat="43.38459358630435" lon="-5.824235517231121">
        <ele>171.97471281464652</ele>
        <time>2024-08-27T12:15:50Z</time>
      </trkpt>
      <trkpt lat="43.384581387280484" lon="-5.824236801338896">
        <ele>171.95331101839378</ele>
        <time>2024-08-27T12:15:51Z</time>
      </trkpt>
      <trkpt lat="43.38456918825662" lon="-5.824238085446671">
        <ele>171.93190922214103</ele>
        <time>2024-08-27T12:15:52Z</time>
      </trkpt>
      <trkpt lat="43.384556989232756" lon="-5.824239369554446">
        <ele>171.91050742588826</ele>
        <time>2024-08-27T12:15:53Z</time>
      </trkpt>
      <trkpt lat="43.384540699106296" lon="-5.824242207334365">
        <ele>171.67926656346347</ele>
        <time>2024-08-27T12:15:54Z</time>
      </trkpt>
      <trkpt lat="43.38452046318435" lon="-5.824246543603353">
        <ele>171.24563966471968</ele>
        <time>2024-08-27T12:15:55Z</time>
      </trkpt>
    </trkseg>
    <trkseg>
      <trkpt lat="43.38458398397554" lon="-5.822688800954086">
        <ele>167.76064097832094</ele>
        <time>2024-08-27T12:17:30Z</time>
      </trkpt>
      <trkpt lat="43.38458840165181" lon="-5.822660969593576">
        <ele>167.58393392746663</ele>
        <time>2024-08-27T12:17:31Z</time>
      </trkpt>
      <trkpt lat="43.384592819328084" lon="-5.8226331382330665">
        <ele>167.40722687661233</ele>
        <time>2024-08-27T12:17:32Z</time>
      </trkpt>
      <trkpt lat="43.38459723700436" lon="-5.822605306872557">
        <ele>167.23051982575802</ele>
        <time>2024-08-27T12:17:33Z</time>
      </trkpt>
    </trkseg>
    <trkseg>
      <trkpt lat="43.38461784056172" lon="-5.8222226369486885">
        <ele>167.0</ele>
        <time>2024-08-27T12:17:53Z</time>
      </trkpt>
      <trkpt lat="43.38463162510052" lon="-5.822203147590197">
        <ele>166.78863453596622</ele>
        <time>2024-08-27T12:17:54Z</time>
      </trkpt>
      <trkpt lat="43.38464873520404" lon="-5.822179815630857">
        <ele>166.47754174476393</ele>
        <time>2024-08-27T12:17:55Z</time>
      </trkpt>
      <trkpt lat="43.38466584530755" lon="-5.822156483671517">
        <ele>166.16644895356163</ele>
        <time>2024-08-27T12:17:56Z</time>
      </trkpt>
    </trkseg>
  </trk>
</gpx>