<?xml version="1.0" encoding="UTF-8"?>
<gpx xmlns="http://www.topografix.com/GPX/1/1" xmlns:xsi="http://www.w3.org/2001/XMLSchema-instance" xsi:schemaLocation="http://www.topografix.com/GPX/1/1 http://www.topografix.com/GPX/1/1/gpx.xsd" version="1.1" creator="gpx.py -- https://github.com/tkrajina/gpxpy">
  <wpt lat="43.385790969924315" lon="-5.820964335018531">
    <ele>165.0</ele>
    <time>2024-09-03T18:21:46Z</time>
    <name>ANOM:DZ_HAMPEL</name>
    <desc>Tramo #1 (33-38), dur=6s
Causas: DZ_HAMPEL
vh_max=7.30 km/h | grade_ext=-9.8% | vz_ext=-11.9 m/min
max|dx|=1.35 m/s, max|dy|=1.59 m/s, max|dz|=0.20 m/s</desc>
  </wpt>
  <wpt lat="43.387901" lon="-5.821146">
    <ele>161.0</ele>
    <time>2024-09-03T18:24:11Z</time>
    <name>ANOM:DZ_HAMPEL</name>
    <desc>Tramo #2 (178-180), dur=3s
Causas: DZ_HAMPEL
vh_max=6.69 km/h | grade_ext=-14.4% | vz_ext=-16.0 m/min
max|dx|=1.29 m/s, max|dy|=1.33 m/s, max|dz|=0.27 m/s</desc>
  </wpt>
  <wpt lat="43.400648" lon="-5.826646">
    <ele>162.0</ele>
    <time>2024-09-03T18:48:01Z</time>
    <name>ANOM:DZ_HAMPEL</name>
    <desc>Tramo #3 (1608-1612), dur=5s
Causas: DZ_HAMPEL
vh_max=11.36 km/h | grade_ext=12.7% | vz_ext=24.0 m/min
max|dx|=2.34 m/s, max|dy|=2.11 m/s, max|dz|=0.40 m/s</desc>
  </wpt>
  <wpt lat="43.39824" lon="-5.825009">
    <ele>167.0</ele>
    <time>2024-09-03T18:50:50Z</time>
    <name>ANOM:DZ_HAMPEL</name>
    <desc>Tramo #4 (1777-1780), dur=4s
Causas: DZ_HAMPEL
vh_max=6.20 km/h | grade_ext=14.5% | vz_ext=15.0 m/min
max|dx|=0.42 m/s, max|dy|=1.67 m/s, max|dz|=0.25 m/s</desc>
  </wpt>
  <wpt lat="43.398099" lon="-5.824987">
    <ele>168.0</ele>
    <time>2024-09-03T18:51:00Z</time>
    <name>ANOM:DZ_HAMPEL</name>
    <desc>Tramo #5 (1787-1792), dur=6s
Causas: DZ_HAMPEL
vh_max=6.84 km/h | grade_ext=8.8% | vz_ext=10.0 m/min
max|dx|=0.19 m/s, max|dy|=1.89 m/s, max|dz|=0.17 m/s</desc>
  </wpt>
  <wpt lat="43.39798142857143" lon="-5.825005285714286">
    <ele>169.0</ele>
    <time>2024-09-03T18:51:07Z</time>
    <name>ANOM:DZ_HAMPEL</name>
    <desc>Tramo #6 (1794-1806), dur=13s
Causas: DZ_HAMPEL
vh_max=7.04 km/h | grade_ext=7.3% | vz_ext=8.6 m/min
max|dx|=0.50 m/s, max|dy|=1.89 m/s, max|dz|=0.14 m/s</desc>
  </wpt>
  <wpt lat="43.394603" lon="-5.825367">
    <ele>181.0</ele>
    <time>2024-09-03T18:54:50Z</time>
    <name>ANOM:DZ_HAMPEL</name>
    <desc>Tramo #7 (2017-2022), dur=6s
Causas: DZ_HAMPEL
vh_max=6.75 km/h | grade_ext=13.0% | vz_ext=13.5 m/min
max|dx|=0.59 m/s, max|dy|=1.78 m/s, max|dz|=0.23 m/s</desc>
  </wpt>
  <wpt lat="43.392071" lon="-5.824818">
    <ele>180.0</ele>
    <time>2024-09-03T18:58:35Z</time>
    <name>ANOM:DZ_HAMPEL</name>
    <desc>Tramo #8 (2242-2245), dur=4s
Causas: DZ_HAMPEL
vh_max=6.91 km/h | grade_ext=-13.0% | vz_ext=-15.0 m/min
max|dx|=0.65 m/s, max|dy|=1.81 m/s, max|dz|=0.25 m/s</desc>
  </wpt>
  <wpt lat="43.391695" lon="-5.825001">
    <ele>176.0</ele>
    <time>2024-09-03T18:58:59Z</time>
    <name>ANOM:DZ_HAMPEL</name>
    <desc>Tramo #9 (2266-2271), dur=6s
Causas: DZ_HAMPEL
vh_max=5.98 km/h | grade_ext=-3.0% | vz_ext=-3.0 m/min
max|dx|=0.53 m/s, max|dy|=1.58 m/s, max|dz|=0.05 m/s</desc>
  </wpt>
  <wpt lat="43.391524" lon="-5.825083">
    <ele>174.4</ele>
    <time>2024-09-03T18:59:11Z</time>
    <name>ANOM:DZ_HAMPEL</name>
    <desc>Tramo #10 (2278-2279), dur=2s
Causas: DZ_HAMPEL
vh_max=8.61 km/h | grade_ext=12.5% | vz_ext=18.0 m/min
max|dx|=1.54 m/s, max|dy|=1.83 m/s, max|dz|=0.30 m/s</desc>
  </wpt>
  <wpt lat="43.390273" lon="-5.825472">
    <ele>168.0</ele>
    <time>2024-09-03T19:00:34Z</time>
    <name>ANOM:DZ_HAMPEL</name>
    <desc>Tramo #11 (2361-2367), dur=7s
Causas: DZ_HAMPEL
vh_max=7.33 km/h | grade_ext=-7.0% | vz_ext=-8.6 m/min
max|dx|=0.10 m/s, max|dy|=2.03 m/s, max|dz|=0.14 m/s</desc>
  </wpt>
  <wpt lat="43.388674" lon="-5.825339">
    <ele>167.1</ele>
    <time>2024-09-03T19:02:16Z</time>
    <name>ANOM:DZ_HAMPEL</name>
    <desc>Tramo #12 (2463-2467), dur=5s
Causas: DZ_HAMPEL
vh_max=6.95 km/h | grade_ext=9.3% | vz_ext=10.8 m/min
max|dx|=0.57 m/s, max|dy|=1.85 m/s, max|dz|=0.18 m/s</desc>
  </wpt>
  <wpt lat="43.388267" lon="-5.825661">
    <ele>169.0</ele>
    <time>2024-09-03T19:02:47Z</time>
    <name>ANOM:DZ_HAMPEL</name>
    <desc>Tramo #13 (2494-2497), dur=4s
Causas: DZ_HAMPEL
vh_max=7.32 km/h | grade_ext=12.3% | vz_ext=15.0 m/min
max|dx|=1.88 m/s, max|dy|=0.78 m/s, max|dz|=0.25 m/s</desc>
  </wpt>
  <wpt lat="43.386122" lon="-5.827482">
    <ele>180.0</ele>
    <time>2024-09-03T19:05:54Z</time>
    <name>ANOM:DZ_HAMPEL</name>
    <desc>Tramo #14 (2681-2686), dur=6s
Causas: DZ_HAMPEL
vh_max=4.24 km/h | grade_ext=14.1% | vz_ext=10.0 m/min
max|dx|=0.59 m/s, max|dy|=1.02 m/s, max|dz|=0.17 m/s</desc>
  </wpt>
  <wpt lat="43.384762521259944" lon="-5.824253751216847">
    <ele>172.0</ele>
    <time>2024-09-03T19:09:22Z</time>
    <name>ANOM:DZ_HAMPEL</name>
    <desc>Tramo #15 (2889-2895), dur=7s
Causas: DZ_HAMPEL
vh_max=6.15 km/h | grade_ext=-9.6% | vz_ext=-9.8 m/min
max|dx|=0.26 m/s, max|dy|=1.71 m/s, max|dz|=0.16 m/s</desc>
  </wpt>
  <wpt lat="43.384316" lon="-5.824112">
    <ele>170.5</ele>
    <time>2024-09-03T19:10:06Z</time>
    <name>ANOM:DZ_HAMPEL</name>
    <desc>Tramo #16 (2933-2936), dur=4s
Causas: DZ_HAMPEL
vh_max=6.47 km/h | grade_ext=-4.1% | vz_ext=-4.4 m/min
max|dx|=1.75 m/s, max|dy|=0.41 m/s, max|dz|=0.07 m/s</desc>
  </wpt>
  <wpt lat="43.38458334133458" lon="-5.822692849592113">
    <ele>167.78634661659035</ele>
    <time>2024-09-03T19:11:12Z</time>
    <name>ANOM:DZ_HAMPEL</name>
    <desc>Tramo #17 (2999-3003), dur=5s
Causas: DZ_HAMPEL
vh_max=6.47 km/h | grade_ext=-7.7% | vz_ext=-8.3 m/min
max|dx|=1.75 m/s, max|dy|=0.38 m/s, max|dz|=0.14 m/s</desc>
  </wpt>
  <wpt lat="43.384617731132316" lon="-5.822222821250831">
    <ele>167.0</ele>
    <time>2024-09-03T19:11:34Z</time>
    <name>ANOM:DZ_HAMPEL</name>
    <desc>Tramo #18 (3021-3026), dur=6s
Causas: DZ_HAMPEL
vh_max=6.47 km/h | grade_ext=-11.6% | vz_ext=-12.5 m/min
max|dx|=1.67 m/s, max|dy|=1.28 m/s, max|dz|=0.21 m/s</desc>
  </wpt>
  <trk>
    <name>7_aligned_pattern_resampled_anomalies</name>
    <trkseg>
      <trkpt lat="43.385790969924315" lon="-5.820964335018531">
        <ele>165.0</ele>
        <time>2024-09-03T18:21:46Z</time>
      </trkpt>
      <trkpt lat="43.38580464986649" lon="-5.820947795977969">
        <ele>164.9076407432021</ele>
        <time>2024-09-03T18:21:47Z</time>
      </trkpt>
      <trkpt lat="43.38581897588692" lon="-5.8209322761225035">
        <ele>164.70866823722298</ele>
        <time>2024-09-03T18:21:48Z</time>
      </trkpt>
      <trkpt lat="43.38583330190735" lon="-5.820916756267037">
        <ele>164.50969573124385</ele>
        <time>2024-09-03T18:21:49Z</time>
      </trkpt>
      <trkpt lat="43.38584762792778" lon="-5.82090123641157">
        <ele>164.31072322526472</ele>
        <time>2024-09-03T18:21:50Z</time>
      </trkpt>
      <trkpt lat="43.38586195394821" lon="-5.820885716556105">
        <ele>164.1117507192856</ele>
        <time>2024-09-03T18:21:51Z</time>
      </trkpt>
    </trkseg>
    <trkseg>
      <trkpt lat="43.387901" lon="-5.821146">
        <ele>161.0</ele>
        <time>2024-09-03T18:24:11Z</time>
      </trkpt>
      <trkpt lat="43.387913" lon="-5.821162">
        <ele>160.73333333333332</ele>
        <time>2024-09-03T18:24:12Z</time>
      </trkpt>
      <trkpt lat="43.387925" lon="-5.821178">
        <ele>160.46666666666667</ele>
        <time>2024-09-03T18:24:13Z</time>
      </trkpt>
    </trkseg>
    <trkseg>
      <trkpt lat="43.400648" lon="-5.826646">
        <ele>162.0</ele>
        <time>2024-09-03T18:48:01Z</time>
      </trkpt>
      <trkpt lat="43.400641" lon="-5.826659">
        <ele>162.13333333333333</ele>
        <time>2024-09-03T18:48:02Z</time>
      </trkpt>
      <trkpt lat="43.400634" lon="-5.826672">
        <ele>162.26666666666668</ele>
        <time>2024-09-03T18:48:03Z</time>
      </trkpt>
      <trkpt lat="43.400627" lon="-5.826685">
        <ele>162.4</ele>
        <time>2024-09-03T18:48:04Z</time>
      </trkpt>
      <trkpt lat="43.400608" lon="-5.826714">
        <ele>162.8</ele>
        <time>2024-09-03T18:48:05Z</time>
      </trkpt>
    </trkseg>
    <trkseg>
      <trkpt lat="43.39824" lon="-5.825009">
        <ele>167.0</ele>
        <time>2024-09-03T18:50:50Z</time>
      </trkpt>
      <trkpt lat="43.398225000000004" lon="-5.82500375">
        <ele>167.25</ele>
        <time>2024-09-03T18:50:51Z</time>
      </trkpt>
      <trkpt lat="43.398210000000006" lon="-5.8249984999999995">
        <ele>167.5</ele>
        <time>2024-09-03T18:50:52Z</time>
      </trkpt>
      <trkpt lat="43.398195" lon="-5.82499325">
        <ele>167.75</ele>
        <time>2024-09-03T18:50:53Z</time>
      </trkpt>
    </trkseg>
    <trkseg>
      <trkpt lat="43.398099" lon="-5.824987">
        <ele>168.0</ele>
        <time>2024-09-03T18:51:00Z</time>
      </trkpt>
      <trkpt lat="43.398082" lon="-5.824989333333334">
        <ele>168.16666666666666</ele>
        <time>2024-09-03T18:51:01Z</time>
      </trkpt>
      <trkpt lat="43.398065" lon="-5.824991666666667">
        <ele>168.33333333333334</ele>
        <time>2024-09-03T18:51:02Z</time>
      </trkpt>
      <trkpt lat="43.398048" lon="-5.824994">
        <ele>168.5</ele>
        <time>2024-09-03T18:51:03Z</time>
      </trkpt>
      <trkpt lat="43.398030999999996" lon="-5.824996333333334">
        <ele>168.66666666666666</ele>
        <time>2024-09-03T18:51:04Z</time>
      </trkpt>
      <trkpt lat="43.398013999999996" lon="-5.824998666666667">
        <ele>168.83333333333334</ele>
        <time>2024-09-03T18:51:05Z</time>
      </trkpt>
    </trkseg>
    <trkseg>
      <trkpt lat="43.39798142857143" lon="-5.825005285714286">
        <ele>169.0</ele>
        <time>2024-09-03T18:51:07Z</time>
      </trkpt>
      <trkpt lat="43.39796585714286" lon="-5.825009571428572">
        <ele>169.0</ele>
        <time>2024-09-03T18:51:08Z</time>
      </trkpt>
      <trkpt lat="43.39795028571429" lon="-5.825013857142857">
        <ele>169.0</ele>
        <time>2024-09-03T18:51:09Z</time>
      </trkpt>
      <trkpt lat="43.39793471428571" lon="-5.825018142857143">
        <ele>169.0</ele>
        <time>2024-09-03T18:51:10Z</time>
      </trkpt>
      <trkpt lat="43.39791914285714" lon="-5.825022428571429">
        <ele>169.0</ele>
        <time>2024-09-03T18:51:11Z</time>
      </trkpt>
      <trkpt lat="43.39790357142857" lon="-5.825026714285714">
        <ele>169.0</ele>
        <time>2024-09-03T18:51:12Z</time>
      </trkpt>
      <trkpt lat="43.397888" lon="-5.825031">
        <ele>169.0</ele>
        <time>2024-09-03T18:51:13Z</time>
      </trkpt>
      <trkpt lat="43.397871" lon="-5.825037142857143">
        <ele>169.14285714285714</ele>
        <time>2024-09-03T18:51:14Z</time>
      </trkpt>
      <trkpt lat="43.397854" lon="-5.825043285714286">
        <ele>169.28571428571428</ele>
        <time>2024-09-03T18:51:15Z</time>
      </trkpt>
      <trkpt lat="43.397837" lon="-5.825049428571429">
        <ele>169.42857142857142</ele>
        <time>2024-09-03T18:51:16Z</time>
      </trkpt>
      <trkpt lat="43.397819999999996" lon="-5.825055571428571">
        <ele>169.57142857142858</ele>
        <time>2024-09-03T18:51:17Z</time>
      </trkpt>
      <trkpt lat="43.397802999999996" lon="-5.825061714285714">
        <ele>169.71428571428572</ele>
        <time>2024-09-03T18:51:18Z</time>
      </trkpt>
      <trkpt lat="43.397785999999996" lon="-5.825067857142857">
        <ele>169.85714285714286</ele>
        <time>2024-09-03T18:51:19Z</time>
      </trkpt>
    </trkseg>
    <trkseg>
      <trkpt lat="43.394603" lon="-5.825367">
        <ele>181.0</ele>
        <time>2024-09-03T18:54:50Z</time>
      </trkpt>
      <trkpt lat="43.39458775" lon="-5.8253710000000005">
        <ele>181.225</ele>
        <time>2024-09-03T18:54:51Z</time>
      </trkpt>
      <trkpt lat="43.394572499999995" lon="-5.825375">
        <ele>181.45</ele>
        <time>2024-09-03T18:54:52Z</time>
      </trkpt>
      <trkpt lat="43.39455725" lon="-5.825379">
        <ele>181.675</ele>
        <time>2024-09-03T18:54:53Z</time>
      </trkpt>
      <trkpt lat="43.394542" lon="-5.825383">
        <ele>181.9</ele>
        <time>2024-09-03T18:54:54Z</time>
      </trkpt>
      <trkpt lat="43.394526" lon="-5.825390333333334">
        <ele>181.93333333333334</ele>
        <time>2024-09-03T18:54:55Z</time>
      </trkpt>
    </trkseg>
    <trkseg>
      <trkpt lat="43.392071" lon="-5.824818">
        <ele>180.0</ele>
        <time>2024-09-03T18:58:35Z</time>
      </trkpt>
      <trkpt lat="43.39205475" lon="-5.824826">
        <ele>179.75</ele>
        <time>2024-09-03T18:58:36Z</time>
      </trkpt>
      <trkpt lat="43.3920385" lon="-5.824833999999999">
        <ele>179.5</ele>
        <time>2024-09-03T18:58:37Z</time>
      </trkpt>
      <trkpt lat="43.392022250000004" lon="-5.824841999999999">
        <ele>179.25</ele>
        <time>2024-09-03T18:58:38Z</time>
      </trkpt>
    </trkseg>
    <trkseg>
      <trkpt lat="43.391695" lon="-5.825001">
        <ele>176.0</ele>
        <time>2024-09-03T18:58:59Z</time>
      </trkpt>
      <trkpt lat="43.39168083333333" lon="-5.8250075">
        <ele>175.95</ele>
        <time>2024-09-03T18:59:00Z</time>
      </trkpt>
      <trkpt lat="43.391666666666666" lon="-5.825014">
        <ele>175.9</ele>
        <time>2024-09-03T18:59:01Z</time>
      </trkpt>
      <trkpt lat="43.3916525" lon="-5.825020500000001">
        <ele>175.85</ele>
        <time>2024-09-03T18:59:02Z</time>
      </trkpt>
      <trkpt lat="43.39163833333333" lon="-5.825027">
        <ele>175.79999999999998</ele>
        <time>2024-09-03T18:59:03Z</time>
      </trkpt>
      <trkpt lat="43.391624166666666" lon="-5.8250335">
        <ele>175.75</ele>
        <time>2024-09-03T18:59:04Z</time>
      </trkpt>
    </trkseg>
    <trkseg>
      <trkpt lat="43.391524" lon="-5.825083">
        <ele>174.4</ele>
        <time>2024-09-03T18:59:11Z</time>
      </trkpt>
      <trkpt lat="43.3915075" lon="-5.825102">
        <ele>174.7</ele>
        <time>2024-09-03T18:59:12Z</time>
      </trkpt>
    </trkseg>
    <trkseg>
      <trkpt lat="43.390273" lon="-5.825472">
        <ele>168.0</ele>
        <time>2024-09-03T19:00:34Z</time>
      </trkpt>
      <trkpt lat="43.39025471428572" lon="-5.825470714285714">
        <ele>167.85714285714286</ele>
        <time>2024-09-03T19:00:35Z</time>
      </trkpt>
      <trkpt lat="43.39023642857143" lon="-5.825469428571429">
        <ele>167.71428571428572</ele>
        <time>2024-09-03T19:00:36Z</time>
      </trkpt>
      <trkpt lat="43.390218142857144" lon="-5.825468142857143">
        <ele>167.57142857142858</ele>
        <time>2024-09-03T19:00:37Z</time>
      </trkpt>
      <trkpt lat="43.39019985714285" lon="-5.825466857142858">
        <ele>167.42857142857142</ele>
        <time>2024-09-03T19:00:38Z</time>
      </trkpt>
      <trkpt lat="43.39018157142857" lon="-5.8254655714285715">
        <ele>167.28571428571428</ele>
        <time>2024-09-03T19:00:39Z</time>
      </trkpt>
      <trkpt lat="43.39016328571428" lon="-5.825464285714286">
        <ele>167.14285714285714</ele>
        <time>2024-09-03T19:00:40Z</time>
      </trkpt>
    </trkseg>
    <trkseg>
      <trkpt lat="43.388674" lon="-5.825339">
        <ele>167.1</ele>
        <time>2024-09-03T19:02:16Z</time>
      </trkpt>
      <trkpt lat="43.3886574" lon="-5.825346">
        <ele>167.28</ele>
        <time>2024-09-03T19:02:17Z</time>
      </trkpt>
      <trkpt lat="43.3886408" lon="-5.825353">
        <ele>167.46</ele>
        <time>2024-09-03T19:02:18Z</time>
      </trkpt>
      <trkpt lat="43.3886242" lon="-5.82536">
        <ele>167.64</ele>
        <time>2024-09-03T19:02:19Z</time>
      </trkpt>
      <trkpt lat="43.3886076" lon="-5.825367">
        <ele>167.82</ele>
        <time>2024-09-03T19:02:20Z</time>
      </trkpt>
    </trkseg>
    <trkseg>
      <trkpt lat="43.388267" lon="-5.825661">
        <ele>169.0</ele>
        <time>2024-09-03T19:02:47Z</time>
      </trkpt>
      <trkpt lat="43.38826" lon="-5.82568425">
        <ele>169.25</ele>
        <time>2024-09-03T19:02:48Z</time>
      </trkpt>
      <trkpt lat="43.388253" lon="-5.8257075">
        <ele>169.5</ele>
        <time>2024-09-03T19:02:49Z</time>
      </trkpt>
      <trkpt lat="43.388245999999995" lon="-5.82573075">
        <ele>169.75</ele>
        <time>2024-09-03T19:02:50Z</time>
      </trkpt>
    </trkseg>
    <trkseg>
      <trkpt lat="43.386122" lon="-5.827482">
        <ele>180.0</ele>
        <time>2024-09-03T19:05:54Z</time>
      </trkpt>
      <trkpt lat="43.386112833333335" lon="-5.827489333333333">
        <ele>180.16666666666666</ele>
        <time>2024-09-03T19:05:55Z</time>
      </trkpt>
      <trkpt lat="43.38610366666666" lon="-5.827496666666667">
        <ele>180.33333333333334</ele>
        <time>2024-09-03T19:05:56Z</time>
      </trkpt>
      <trkpt lat="43.3860945" lon="-5.827503999999999">
        <ele>180.5</ele>
        <time>2024-09-03T19:05:57Z</time>
      </trkpt>
      <trkpt lat="43.386085333333334" lon="-5.827511333333333">
        <ele>180.66666666666666</ele>
        <time>2024-09-03T19:05:58Z</time>
      </trkpt>
      <trkpt lat="43.38607616666666" lon="-5.827518666666666">
        <ele>180.83333333333334</ele>
        <time>2024-09-03T19:05:59Z</time>
      </trkpt>
    </trkseg>
    <trkseg>
      <trkpt lat="43.384762521259944" lon="-5.824253751216847">
        <ele>172.0</ele>
        <time>2024-09-03T19:09:22Z</time>
      </trkpt>
      <trkpt lat="43.38474736524228" lon="-5.824250852740276">
        <ele>171.84263701380357</ele>
        <time>2024-09-03T19:09:23Z</time>
      </trkpt>
      <trkpt lat="43.384732185375555" lon="-5.824247588252807">
        <ele>171.67941264035665</ele>
        <time>2024-09-03T19:09:24Z</time>
      </trkpt>
      <trkpt lat="43.384717005508826" lon="-5.824244323765338">
        <ele>171.51618826690972</ele>
        <time>2024-09-03T19:09:25Z</time>
      </trkpt>
      <trkpt lat="43.3847018256421" lon="-5.824241059277869">
        <ele>171.3529638934628</ele>
        <time>2024-09-03T19:09:26Z</time>
      </trkpt>
      <trkpt lat="43.38468664577536" lon="-5.8242377947904">
        <ele>171.18973952001588</ele>
        <time>2024-09-03T19:09:27Z</time>
      </trkpt>
      <trkpt lat="43.38467146590863" lon="-5.824234530302931">
        <ele>171.02651514656895</ele>
        <time>2024-09-03T19:09:28Z</time>
      </trkpt>
    </trkseg>
    <trkseg>
      <trkpt lat="43.384316" lon="-5.824112">
        <ele>170.5</ele>
        <time>2024-09-03T19:10:06Z</time>
      </trkpt>
      <trkpt lat="43.38431968862678" lon="-5.824090360056205">
        <ele>170.42622746433466</ele>
        <time>2024-09-03T19:10:07Z</time>
      </trkpt>
      <trkpt lat="43.384323377253565" lon="-5.824068720112409">
        <ele>170.35245492866932</ele>
        <time>2024-09-03T19:10:08Z</time>
      </trkpt>
      <trkpt lat="43.38432706588035" lon="-5.824047080168614">
        <ele>170.278682393004</ele>
        <time>2024-09-03T19:10:09Z</time>
      </trkpt>
    </trkseg>
    <trkseg>
      <trkpt lat="43.38458334133458" lon="-5.822692849592113">
        <ele>167.78634661659035</ele>
        <time>2024-09-03T19:11:12Z</time>
      </trkpt>
      <trkpt lat="43.38458678821862" lon="-5.822671134222698">
        <ele>167.64847125522763</ele>
        <time>2024-09-03T19:11:13Z</time>
      </trkpt>
      <trkpt lat="43.38459023510265" lon="-5.822649418853284">
        <ele>167.51059589386495</ele>
        <time>2024-09-03T19:11:14Z</time>
      </trkpt>
      <trkpt lat="43.384593681986686" lon="-5.822627703483869">
        <ele>167.37272053250223</ele>
        <time>2024-09-03T19:11:15Z</time>
      </trkpt>
      <trkpt lat="43.38459712887072" lon="-5.8226059881144545">
        <ele>167.2348451711395</ele>
        <time>2024-09-03T19:11:16Z</time>
      </trkpt>
    </trkseg>
    <trkseg>
      <trkpt lat="43.384617731132316" lon="-5.822222821250831">
        <ele>167.0</ele>
        <time>2024-09-03T19:11:34Z</time>
      </trkpt>
      <trkpt lat="43.38462892667616" lon="-5.822206827259781">
        <ele>166.83769679709008</ele>
        <time>2024-09-03T19:11:35Z</time>
      </trkpt>
      <trkpt lat="43.38464040050873" lon="-5.82219118112446">
        <ele>166.62908165947502</ele>
        <time>2024-09-03T19:11:36Z</time>
      </trkpt>
      <trkpt lat="43.384651874341294" lon="-5.822175534989139">
        <ele>166.42046652185994</ele>
        <time>2024-09-03T19:11:37Z</time>
      </trkpt>
      <trkpt lat="43.384663348173866" lon="-5.822159888853818">
        <ele>166.21185138424488</ele>
        <time>2024-09-03T19:11:38Z</time>
      </trkpt>
      <trkpt lat="43.38467482200644" lon="-5.822144242718497">
        <ele>166.00323624662983</ele>
        <time>2024-09-03T19:11:39Z</time>
      </trkpt>
    </trkseg>
  </trk>
</gpx>