<?xml version="1.0" encoding="UTF-8"?>
<gpx xmlns="http://www.topografix.com/GPX/1/1" xmlns:xsi="http://www.w3.org/2001/XMLSchema-instance" xsi:schemaLocation="http://www.topografix.com/GPX/1/1 http://www.topografix.com/GPX/1/1/gpx.xsd" version="1.1" creator="gpx.py -- https://github.com/tkrajina/gpxpy">
  <wpt lat="43.38579063968733" lon="-5.820964773529938">
    <ele>165.0</ele>
    <time>2024-09-03T18:21:33Z</time>
    <name>ANOM:DZ_HAMPEL</name>
    <desc>Tramo #1 (139-144), dur=6s
Causas: DZ_HAMPEL
vh_max=7.42 km/h | grade_ext=-9.8% | vz_ext=-12.1 m/min
max|dx|=1.36 m/s, max|dy|=1.62 m/s, max|dz|=0.20 m/s</desc>
  </wpt>
  <wpt lat="43.3878964312162" lon="-5.82113680309754">
    <ele>161.0</ele>
    <time>2024-09-03T18:24:10Z</time>
    <name>ANOM:DZ_HAMPEL</name>
    <desc>Tramo #2 (296-300), dur=5s
Causas: DZ_HAMPEL
vh_max=7.41 km/h | grade_ext=-14.4% | vz_ext=-17.7 m/min
max|dx|=1.43 m/s, max|dy|=1.82 m/s, max|dz|=0.30 m/s</desc>
  </wpt>
  <wpt lat="43.388470737543976" lon="-5.821864742919269">
    <ele>160.0</ele>
    <time>2024-09-03T18:25:02Z</time>
    <name>ANOM:DZ_HAMPEL</name>
    <desc>Tramo #3 (348-352), dur=5s
Causas: DZ_HAMPEL
vh_max=9.48 km/h | grade_ext=20.7% | vz_ext=17.8 m/min
max|dx|=2.63 m/s, max|dy|=0.79 m/s, max|dz|=0.30 m/s</desc>
  </wpt>
  <wpt lat="43.40065320514227" lon="-5.8266334921208">
    <ele>162.922311309319</ele>
    <time>2024-09-03T18:48:00Z</time>
    <name>ANOM:DZ_HAMPEL</name>
    <desc>Tramo #4 (1726-1732), dur=7s
Causas: DZ_HAMPEL
vh_max=7.57 km/h | grade_ext=5.1% | vz_ext=5.3 m/min
max|dx|=1.30 m/s, max|dy|=2.02 m/s, max|dz|=0.09 m/s</desc>
  </wpt>
  <wpt lat="43.39822175641629" lon="-5.8250026147457">
    <ele>167.30405972853967</ele>
    <time>2024-09-03T18:50:52Z</time>
    <name>ANOM:DZ_HAMPEL</name>
    <desc>Tramo #5 (1898-1900), dur=3s
Causas: DZ_HAMPEL
vh_max=6.34 km/h | grade_ext=14.5% | vz_ext=15.3 m/min
max|dx|=0.43 m/s, max|dy|=1.71 m/s, max|dz|=0.26 m/s</desc>
  </wpt>
  <wpt lat="43.39807182611801" lon="-5.824990729748508">
    <ele>168.26641060774494</ele>
    <time>2024-09-03T18:51:02Z</time>
    <name>ANOM:DZ_HAMPEL</name>
    <desc>Tramo #6 (1908-1919), dur=12s
Causas: DZ_HAMPEL
vh_max=6.48 km/h | grade_ext=8.8% | vz_ext=8.5 m/min
max|dx|=0.35 m/s, max|dy|=1.76 m/s, max|dz|=0.14 m/s</desc>
  </wpt>
  <wpt lat="43.39699376616458" lon="-5.825434016874721">
    <ele>172.0024106744857</ele>
    <time>2024-09-03T18:52:13Z</time>
    <name>ANOM:DZ_HAMPEL</name>
    <desc>Tramo #7 (1979-1984), dur=6s
Causas: DZ_HAMPEL
vh_max=5.98 km/h | grade_ext=9.3% | vz_ext=9.2 m/min
max|dx|=0.09 m/s, max|dy|=1.66 m/s, max|dz|=0.15 m/s</desc>
  </wpt>
  <wpt lat="43.394611025967606" lon="-5.825367750090431">
    <ele>181.0</ele>
    <time>2024-09-03T18:54:50Z</time>
    <name>ANOM:DZ_HAMPEL</name>
    <desc>Tramo #8 (2136-2140), dur=5s
Causas: DZ_HAMPEL
vh_max=6.54 km/h | grade_ext=13.0% | vz_ext=14.0 m/min
max|dx|=0.48 m/s, max|dy|=1.75 m/s, max|dz|=0.23 m/s</desc>
  </wpt>
  <wpt lat="43.39208295922817" lon="-5.824811302832227">
    <ele>180.0</ele>
    <time>2024-09-03T18:58:34Z</time>
    <name>ANOM:DZ_HAMPEL</name>
    <desc>Tramo #9 (2360-2363), dur=4s
Causas: DZ_HAMPEL
vh_max=6.87 km/h | grade_ext=-13.0% | vz_ext=-14.9 m/min
max|dx|=0.69 m/s, max|dy|=1.80 m/s, max|dz|=0.25 m/s</desc>
  </wpt>
  <wpt lat="43.391658912019" lon="-5.825017558014813">
    <ele>175.87263065528768</ele>
    <time>2024-09-03T18:59:01Z</time>
    <name>ANOM:DZ_HAMPEL</name>
    <desc>Tramo #10 (2387-2388), dur=2s
Causas: DZ_HAMPEL
vh_max=6.46 km/h | grade_ext=-3.0% | vz_ext=-3.2 m/min
max|dx|=0.57 m/s, max|dy|=1.70 m/s, max|dz|=0.05 m/s</desc>
  </wpt>
  <wpt lat="43.39152467792369" lon="-5.825082661038154">
    <ele>174.41024768371065</ele>
    <time>2024-09-03T18:59:10Z</time>
    <name>ANOM:DZ_HAMPEL</name>
    <desc>Tramo #11 (2396-2398), dur=3s
Causas: DZ_HAMPEL
vh_max=6.61 km/h | grade_ext=12.5% | vz_ext=13.8 m/min
max|dx|=1.18 m/s, max|dy|=1.51 m/s, max|dz|=0.23 m/s</desc>
  </wpt>
  <wpt lat="43.38866455507955" lon="-5.825342982797781">
    <ele>167.20241480008124</ele>
    <time>2024-09-03T19:02:16Z</time>
    <name>ANOM:DZ_HAMPEL</name>
    <desc>Tramo #12 (2582-2586), dur=5s
Causas: DZ_HAMPEL
vh_max=6.11 km/h | grade_ext=9.3% | vz_ext=9.5 m/min
max|dx|=0.50 m/s, max|dy|=1.62 m/s, max|dz|=0.16 m/s</desc>
  </wpt>
  <wpt lat="43.38611761254634" lon="-5.8274855099629255">
    <ele>180.07977188467873</ele>
    <time>2024-09-03T19:05:55Z</time>
    <name>ANOM:DZ_HAMPEL</name>
    <desc>Tramo #13 (2801-2805), dur=5s
Causas: DZ_HAMPEL
vh_max=5.03 km/h | grade_ext=14.1% | vz_ext=11.8 m/min
max|dx|=0.70 m/s, max|dy|=1.30 m/s, max|dz|=0.20 m/s</desc>
  </wpt>
  <wpt lat="43.38461657059827" lon="-5.824234">
    <ele>172.0</ele>
    <time>2024-09-03T19:09:31Z</time>
    <name>ANOM:DZ_HAMPEL</name>
    <desc>Tramo #14 (3017-3022), dur=6s
Causas: DZ_HAMPEL
vh_max=11.19 km/h | grade_ext=-19.0% | vz_ext=-35.5 m/min
max|dx|=0.76 m/s, max|dy|=3.07 m/s, max|dz|=0.59 m/s</desc>
  </wpt>
  <wpt lat="43.38458189196958" lon="-5.8227015607064345">
    <ele>167.8058317390524</ele>
    <time>2024-09-03T19:11:11Z</time>
    <name>ANOM:DZ_HAMPEL</name>
    <desc>Tramo #15 (3117-3121), dur=5s
Causas: DZ_HAMPEL
vh_max=8.08 km/h | grade_ext=-7.7% | vz_ext=-10.3 m/min
max|dx|=2.19 m/s, max|dy|=0.48 m/s, max|dz|=0.17 m/s</desc>
  </wpt>
  <wpt lat="43.38461264640687" lon="-5.822231384998957">
    <ele>167.0</ele>
    <time>2024-09-03T19:11:30Z</time>
    <name>ANOM:DZ_HAMPEL</name>
    <desc>Tramo #16 (3136-3140), dur=5s
Causas: DZ_HAMPEL
vh_max=8.43 km/h | grade_ext=-11.6% | vz_ext=-14.1 m/min
max|dx|=1.74 m/s, max|dy|=1.57 m/s, max|dz|=0.24 m/s</desc>
  </wpt>
  <trk>
    <name>7_pattern_aligned_resampled_anomalies</name>
    <trkseg>
      <trkpt lat="43.38579063968733" lon="-5.820964773529938">
        <ele>165.0</ele>
        <time>2024-09-03T18:21:33Z</time>
      </trkpt>
      <trkpt lat="43.38580452997432" lon="-5.82094792586115">
        <ele>164.90930591218043</ele>
        <time>2024-09-03T18:21:34Z</time>
      </trkpt>
      <trkpt lat="43.38581909274238" lon="-5.820932149529087">
        <ele>164.7070452447</ele>
        <time>2024-09-03T18:21:35Z</time>
      </trkpt>
      <trkpt lat="43.38583365551044" lon="-5.820916373197023">
        <ele>164.5047845772196</ele>
        <time>2024-09-03T18:21:36Z</time>
      </trkpt>
      <trkpt lat="43.3858482182785" lon="-5.82090059686496">
        <ele>164.30252390973916</ele>
        <time>2024-09-03T18:21:37Z</time>
      </trkpt>
      <trkpt lat="43.385862781046555" lon="-5.820884820532896">
        <ele>164.10026324225873</ele>
        <time>2024-09-03T18:21:38Z</time>
      </trkpt>
    </trkseg>
    <trkseg>
      <trkpt lat="43.3878964312162" lon="-5.82113680309754">
        <ele>161.0</ele>
        <time>2024-09-03T18:24:10Z</time>
      </trkpt>
      <trkpt lat="43.38790722635168" lon="-5.821154301802243">
        <ele>160.86163662929056</ele>
        <time>2024-09-03T18:24:11Z</time>
      </trkpt>
      <trkpt lat="43.38792051913219" lon="-5.8211720255095845">
        <ele>160.56624150692866</ele>
        <time>2024-09-03T18:24:12Z</time>
      </trkpt>
      <trkpt lat="43.387933811912696" lon="-5.821189749216926">
        <ele>160.27084638456677</ele>
        <time>2024-09-03T18:24:13Z</time>
      </trkpt>
      <trkpt lat="43.387949426624125" lon="-5.821194955894163">
        <ele>160.13627372243803</ele>
        <time>2024-09-03T18:24:14Z</time>
      </trkpt>
    </trkseg>
    <trkseg>
      <trkpt lat="43.388470737543976" lon="-5.821864742919269">
        <ele>160.0</ele>
        <time>2024-09-03T18:25:02Z</time>
      </trkpt>
      <trkpt lat="43.388475638877246" lon="-5.821881835672406">
        <ele>160.0567134481219</ele>
        <time>2024-09-03T18:25:03Z</time>
      </trkpt>
      <trkpt lat="43.388468524127596" lon="-5.821896658067503">
        <ele>160.3531613500712</ele>
        <time>2024-09-03T18:25:04Z</time>
      </trkpt>
      <trkpt lat="43.38846140937795" lon="-5.821911480462601">
        <ele>160.64960925202044</ele>
        <time>2024-09-03T18:25:05Z</time>
      </trkpt>
      <trkpt lat="43.3884542946283" lon="-5.821926302857698">
        <ele>160.94605715396972</ele>
        <time>2024-09-03T18:25:06Z</time>
      </trkpt>
    </trkseg>
    <trkseg>
      <trkpt lat="43.40065320514227" lon="-5.8266334921208">
        <ele>162.922311309319</ele>
        <time>2024-09-03T18:48:00Z</time>
      </trkpt>
      <trkpt lat="43.400646071462134" lon="-5.826649581570322">
        <ele>163.0</ele>
        <time>2024-09-03T18:48:01Z</time>
      </trkpt>
      <trkpt lat="43.40063973394594" lon="-5.826661351243255">
        <ele>163.0</ele>
        <time>2024-09-03T18:48:02Z</time>
      </trkpt>
      <trkpt lat="43.40063339642975" lon="-5.826673120916188">
        <ele>163.0</ele>
        <time>2024-09-03T18:48:03Z</time>
      </trkpt>
      <trkpt lat="43.40062705891355" lon="-5.826684890589121">
        <ele>163.0</ele>
        <time>2024-09-03T18:48:04Z</time>
      </trkpt>
      <trkpt lat="43.40061655469125" lon="-5.826700942839671">
        <ele>163.0</ele>
        <time>2024-09-03T18:48:05Z</time>
      </trkpt>
      <trkpt lat="43.400601798356945" lon="-5.826716657847024">
        <ele>163.0</ele>
        <time>2024-09-03T18:48:06Z</time>
      </trkpt>
    </trkseg>
    <trkseg>
      <trkpt lat="43.39822175641629" lon="-5.8250026147457">
        <ele>167.30405972853967</ele>
        <time>2024-09-03T18:50:52Z</time>
      </trkpt>
      <trkpt lat="43.398206407822876" lon="-5.824997242738005">
        <ele>167.55986961881513</ele>
        <time>2024-09-03T18:50:53Z</time>
      </trkpt>
      <trkpt lat="43.39819105922946" lon="-5.824991870730309">
        <ele>167.8156795090906</ele>
        <time>2024-09-03T18:50:54Z</time>
      </trkpt>
    </trkseg>
    <trkseg>
      <trkpt lat="43.39807182611801" lon="-5.824990729748508">
        <ele>168.26641060774494</ele>
        <time>2024-09-03T18:51:02Z</time>
      </trkpt>
      <trkpt lat="43.39805736858793" lon="-5.824992714115383">
        <ele>168.4081510987652</ele>
        <time>2024-09-03T18:51:03Z</time>
      </trkpt>
      <trkpt lat="43.39804291105784" lon="-5.824994698482257">
        <ele>168.54989158978543</ele>
        <time>2024-09-03T18:51:04Z</time>
      </trkpt>
      <trkpt lat="43.39802845352776" lon="-5.8249966828491315">
        <ele>168.69163208080568</ele>
        <time>2024-09-03T18:51:05Z</time>
      </trkpt>
      <trkpt lat="43.39801399599767" lon="-5.824998667216006">
        <ele>168.83337257182592</ele>
        <time>2024-09-03T18:51:06Z</time>
      </trkpt>
      <trkpt lat="43.39799953846759" lon="-5.82500065158288">
        <ele>168.97511306284616</ele>
        <time>2024-09-03T18:51:07Z</time>
      </trkpt>
      <trkpt lat="43.3979839189788" lon="-5.825004600281064">
        <ele>169.0</ele>
        <time>2024-09-03T18:51:08Z</time>
      </trkpt>
      <trkpt lat="43.39796805202135" lon="-5.825008967333574">
        <ele>169.0</ele>
        <time>2024-09-03T18:51:09Z</time>
      </trkpt>
      <trkpt lat="43.39795218506389" lon="-5.825013334386084">
        <ele>169.0</ele>
        <time>2024-09-03T18:51:10Z</time>
      </trkpt>
      <trkpt lat="43.39793631810644" lon="-5.825017701438594">
        <ele>169.0</ele>
        <time>2024-09-03T18:51:11Z</time>
      </trkpt>
      <trkpt lat="43.397920451148984" lon="-5.825022068491105">
        <ele>169.0</ele>
        <time>2024-09-03T18:51:12Z</time>
      </trkpt>
      <trkpt lat="43.39790458419153" lon="-5.825026435543615">
        <ele>169.0</ele>
        <time>2024-09-03T18:51:13Z</time>
      </trkpt>
    </trkseg>
    <trkseg>
      <trkpt lat="43.39699376616458" lon="-5.825434016874721">
        <ele>172.0024106744857</ele>
        <time>2024-09-03T18:52:13Z</time>
      </trkpt>
      <trkpt lat="43.3969788408167" lon="-5.825435093961681">
        <ele>172.1562802401781</ele>
        <time>2024-09-03T18:52:14Z</time>
      </trkpt>
      <trkpt lat="43.39696391546883" lon="-5.825436171048641">
        <ele>172.31014980587045</ele>
        <time>2024-09-03T18:52:15Z</time>
      </trkpt>
      <trkpt lat="43.39694899012096" lon="-5.825437248135601">
        <ele>172.46401937156284</ele>
        <time>2024-09-03T18:52:16Z</time>
      </trkpt>
      <trkpt lat="43.396934064773085" lon="-5.82543832522256">
        <ele>172.61788893725523</ele>
        <time>2024-09-03T18:52:17Z</time>
      </trkpt>
      <trkpt lat="43.396919139425215" lon="-5.82543940230952">
        <ele>172.7717585029476</ele>
        <time>2024-09-03T18:52:18Z</time>
      </trkpt>
    </trkseg>
    <trkseg>
      <trkpt lat="43.394611025967606" lon="-5.825367750090431">
        <ele>181.0</ele>
        <time>2024-09-03T18:54:50Z</time>
      </trkpt>
      <trkpt lat="43.394595710660155" lon="-5.82536891195799">
        <ele>181.10754763696687</ele>
        <time>2024-09-03T18:54:51Z</time>
      </trkpt>
      <trkpt lat="43.394579928905785" lon="-5.825373051434549">
        <ele>181.3403931933552</ele>
        <time>2024-09-03T18:54:52Z</time>
      </trkpt>
      <trkpt lat="43.39456414715141" lon="-5.825377190911107">
        <ele>181.57323874974355</ele>
        <time>2024-09-03T18:54:53Z</time>
      </trkpt>
      <trkpt lat="43.39454836539703" lon="-5.825381330387665">
        <ele>181.80608430613188</ele>
        <time>2024-09-03T18:54:54Z</time>
      </trkpt>
    </trkseg>
    <trkseg>
      <trkpt lat="43.39208295922817" lon="-5.824811302832227">
        <ele>180.0</ele>
        <time>2024-09-03T18:58:34Z</time>
      </trkpt>
      <trkpt lat="43.392067338146795" lon="-5.824819802758499">
        <ele>179.943663796877</ele>
        <time>2024-09-03T18:58:35Z</time>
      </trkpt>
      <trkpt lat="43.39205117195235" lon="-5.824827761500382">
        <ele>179.6949531130619</ele>
        <time>2024-09-03T18:58:36Z</time>
      </trkpt>
      <trkpt lat="43.392035005757904" lon="-5.824835720242263">
        <ele>179.44624242924678</ele>
        <time>2024-09-03T18:58:37Z</time>
      </trkpt>
    </trkseg>
    <trkseg>
      <trkpt lat="43.391658912019" lon="-5.825017558014813">
        <ele>175.87263065528768</ele>
        <time>2024-09-03T18:59:01Z</time>
      </trkpt>
      <trkpt lat="43.39164359671748" lon="-5.82502458503551">
        <ele>175.81857664993095</ele>
        <time>2024-09-03T18:59:02Z</time>
      </trkpt>
    </trkseg>
    <trkseg>
      <trkpt lat="43.39152467792369" lon="-5.825082661038154">
        <ele>174.41024768371065</ele>
        <time>2024-09-03T18:59:10Z</time>
      </trkpt>
      <trkpt lat="43.39151192611734" lon="-5.825096903258818">
        <ele>174.61952513923623</ele>
        <time>2024-09-03T18:59:11Z</time>
      </trkpt>
      <trkpt lat="43.39149926827792" lon="-5.8251114789526985">
        <ele>174.84966767417956</ele>
        <time>2024-09-03T18:59:12Z</time>
      </trkpt>
    </trkseg>
    <trkseg>
      <trkpt lat="43.38866455507955" lon="-5.825342982797781">
        <ele>167.20241480008124</ele>
        <time>2024-09-03T19:02:16Z</time>
      </trkpt>
      <trkpt lat="43.38864995829805" lon="-5.825349138067087">
        <ele>167.3606931536698</ele>
        <time>2024-09-03T19:02:17Z</time>
      </trkpt>
      <trkpt lat="43.388635361516556" lon="-5.8253552933363935">
        <ele>167.51897150725839</ele>
        <time>2024-09-03T19:02:18Z</time>
      </trkpt>
      <trkpt lat="43.38862076473505" lon="-5.825361448605699">
        <ele>167.67724986084696</ele>
        <time>2024-09-03T19:02:19Z</time>
      </trkpt>
      <trkpt lat="43.388606167953554" lon="-5.825367603875006">
        <ele>167.8355282144355</ele>
        <time>2024-09-03T19:02:20Z</time>
      </trkpt>
    </trkseg>
    <trkseg>
      <trkpt lat="43.38611761254634" lon="-5.8274855099629255">
        <ele>180.07977188467873</ele>
        <time>2024-09-03T19:05:55Z</time>
      </trkpt>
      <trkpt lat="43.38610682092182" lon="-5.827494143262544">
        <ele>180.27598323962607</ele>
        <time>2024-09-03T19:05:56Z</time>
      </trkpt>
      <trkpt lat="43.3860960292973" lon="-5.827502776562161">
        <ele>180.47219459457338</ele>
        <time>2024-09-03T19:05:57Z</time>
      </trkpt>
      <trkpt lat="43.38608523767277" lon="-5.827511409861779">
        <ele>180.66840594952072</ele>
        <time>2024-09-03T19:05:58Z</time>
      </trkpt>
      <trkpt lat="43.386074446048255" lon="-5.827520043161396">
        <ele>180.86461730446803</ele>
        <time>2024-09-03T19:05:59Z</time>
      </trkpt>
    </trkseg>
    <trkseg>
      <trkpt lat="43.38461657059827" lon="-5.824234">
        <ele>172.0</ele>
        <time>2024-09-03T19:09:31Z</time>
      </trkpt>
      <trkpt lat="43.38459923705048" lon="-5.824234922415738">
        <ele>171.98462640435233</ele>
        <time>2024-09-03T19:09:32Z</time>
      </trkpt>
      <trkpt lat="43.38458166144764" lon="-5.824236772479196">
        <ele>171.9537920133994</ele>
        <time>2024-09-03T19:09:33Z</time>
      </trkpt>
      <trkpt lat="43.384564085844794" lon="-5.824238622542653">
        <ele>171.92295762244646</ele>
        <time>2024-09-03T19:09:34Z</time>
      </trkpt>
      <trkpt lat="43.38454394285121" lon="-5.824241512246171">
        <ele>171.7487753829477</ele>
        <time>2024-09-03T19:09:35Z</time>
      </trkpt>
      <trkpt lat="43.384516316942836" lon="-5.824247432083678">
        <ele>171.1567916322439</ele>
        <time>2024-09-03T19:09:36Z</time>
      </trkpt>
    </trkseg>
    <trkseg>
      <trkpt lat="43.38458189196958" lon="-5.8227015607064345">
        <ele>167.8058317390524</ele>
        <time>2024-09-03T19:11:11Z</time>
      </trkpt>
      <trkpt lat="43.3845856435882" lon="-5.822678345394315">
        <ele>167.69425647183886</ele>
        <time>2024-09-03T19:11:12Z</time>
      </trkpt>
      <trkpt lat="43.38458995082514" lon="-5.822651209801634">
        <ele>167.52196699450482</ele>
        <time>2024-09-03T19:11:13Z</time>
      </trkpt>
      <trkpt lat="43.38459425806207" lon="-5.822624074208955">
        <ele>167.34967751717082</ele>
        <time>2024-09-03T19:11:14Z</time>
      </trkpt>
      <trkpt lat="43.384598565299" lon="-5.822596938616274">
        <ele>167.17738803983679</ele>
        <time>2024-09-03T19:11:15Z</time>
      </trkpt>
    </trkseg>
    <trkseg>
      <trkpt lat="43.38461264640687" lon="-5.822231384998957">
        <ele>167.0</ele>
        <time>2024-09-03T19:11:30Z</time>
      </trkpt>
      <trkpt lat="43.38462673021301" lon="-5.8222098224368075">
        <ele>166.8776324907745</ele>
        <time>2024-09-03T19:11:31Z</time>
      </trkpt>
      <trkpt lat="43.38463968987758" lon="-5.822192150166932">
        <ele>166.6420022257635</ele>
        <time>2024-09-03T19:11:32Z</time>
      </trkpt>
      <trkpt lat="43.38465264954216" lon="-5.8221744778970566">
        <ele>166.4063719607525</ele>
        <time>2024-09-03T19:11:33Z</time>
      </trkpt>
      <trkpt lat="43.384665609206735" lon="-5.822156805627181">
        <ele>166.17074169574147</ele>
        <time>2024-09-03T19:11:34Z</time>
      </trkpt>
    </trkseg>
  </trk>
</gpx>