<?xml version="1.0" encoding="UTF-8"?>
<gpx xmlns="http://www.topografix.com/GPX/1/1" xmlns:xsi="http://www.w3.org/2001/XMLSchema-instance" xsi:schemaLocation="http://www.topografix.com/GPX/1/1 http://www.topografix.com/GPX/1/1/gpx.xsd" version="1.1" creator="gpx.py -- https://github.com/tkrajina/gpxpy">
  <wpt lat="43.388477" lon="-5.821879">
    <ele>160.0</ele>
    <time>2024-09-04T11:52:28Z</time>
    <name>ANOM:DZ_HAMPEL</name>
    <desc>Tramo #1 (295-296), dur=2s
Causas: DZ_HAMPEL
vh_max=8.72 km/h | grade_ext=20.7% | vz_ext=30.0 m/min
max|dx|=2.02 m/s, max|dy|=1.33 m/s, max|dz|=0.50 m/s</desc>
  </wpt>
  <wpt lat="43.399158" lon="-5.823231">
    <ele>156.0</ele>
    <time>2024-09-04T12:11:02Z</time>
    <name>ANOM:DZ_HAMPEL</name>
    <desc>Tramo #2 (1409-1415), dur=7s
Causas: DZ_HAMPEL
vh_max=6.42 km/h | grade_ext=8.4% | vz_ext=9.0 m/min
max|dx|=1.70 m/s, max|dy|=0.75 m/s, max|dz|=0.15 m/s</desc>
  </wpt>
  <wpt lat="43.400648" lon="-5.826646">
    <ele>163.0</ele>
    <time>2024-09-04T12:14:23Z</time>
    <name>ANOM:DZ_HAMPEL</name>
    <desc>Tramo #3 (1610-1614), dur=5s
Causas: DZ_HAMPEL
vh_max=7.06 km/h | grade_ext=0.5% | vz_ext=0.6 m/min
max|dx|=1.58 m/s, max|dy|=1.68 m/s, max|dz|=0.01 m/s</desc>
  </wpt>
  <wpt lat="43.398228" lon="-5.825004799999999">
    <ele>167.2</ele>
    <time>2024-09-04T12:17:20Z</time>
    <name>ANOM:DZ_HAMPEL</name>
    <desc>Tramo #4 (1787-1790), dur=4s
Causas: DZ_HAMPEL
vh_max=4.96 km/h | grade_ext=14.5% | vz_ext=12.0 m/min
max|dx|=0.34 m/s, max|dy|=1.33 m/s, max|dz|=0.20 m/s</desc>
  </wpt>
  <wpt lat="43.39806985714286" lon="-5.824991">
    <ele>168.28571428571428</ele>
    <time>2024-09-04T12:17:31Z</time>
    <name>ANOM:DZ_HAMPEL</name>
    <desc>Tramo #5 (1798-1802), dur=5s
Causas: DZ_HAMPEL
vh_max=5.86 km/h | grade_ext=8.8% | vz_ext=8.6 m/min
max|dx|=0.16 m/s, max|dy|=1.62 m/s, max|dz|=0.14 m/s</desc>
  </wpt>
  <wpt lat="43.394603" lon="-5.825367">
    <ele>181.0</ele>
    <time>2024-09-04T12:21:29Z</time>
    <name>ANOM:DZ_HAMPEL</name>
    <desc>Tramo #6 (2036-2040), dur=5s
Causas: DZ_HAMPEL
vh_max=6.75 km/h | grade_ext=13.0% | vz_ext=13.5 m/min
max|dx|=0.59 m/s, max|dy|=1.78 m/s, max|dz|=0.23 m/s</desc>
  </wpt>
  <wpt lat="43.394239" lon="-5.825574">
    <ele>184.0</ele>
    <time>2024-09-04T12:21:56Z</time>
    <name>ANOM:DZ_HAMPEL</name>
    <desc>Tramo #7 (2063-2068), dur=6s
Causas: DZ_HAMPEL
vh_max=6.24 km/h | grade_ext=9.6% | vz_ext=10.0 m/min
max|dx|=0.93 m/s, max|dy|=1.46 m/s, max|dz|=0.17 m/s</desc>
  </wpt>
  <wpt lat="43.392071" lon="-5.824818">
    <ele>180.0</ele>
    <time>2024-09-04T12:24:39Z</time>
    <name>ANOM:DZ_HAMPEL</name>
    <desc>Tramo #8 (2226-2229), dur=4s
Causas: DZ_HAMPEL
vh_max=5.53 km/h | grade_ext=-13.0% | vz_ext=-12.0 m/min
max|dx|=0.52 m/s, max|dy|=1.45 m/s, max|dz|=0.20 m/s</desc>
  </wpt>
  <wpt lat="43.392006" lon="-5.82485">
    <ele>179.0</ele>
    <time>2024-09-04T12:24:44Z</time>
    <name>ANOM:DZ_HAMPEL</name>
    <desc>Tramo #9 (2231-2234), dur=4s
Causas: DZ_HAMPEL
vh_max=7.69 km/h | grade_ext=0.0% | vz_ext=0.0 m/min
max|dx|=0.75 m/s, max|dy|=2.00 m/s, max|dz|=0.00 m/s</desc>
  </wpt>
  <wpt lat="43.391842000000004" lon="-5.824935">
    <ele>177.83333333333334</ele>
    <time>2024-09-04T12:24:54Z</time>
    <name>ANOM:DZ_HAMPEL</name>
    <desc>Tramo #10 (2241-2244), dur=4s
Causas: DZ_HAMPEL
vh_max=6.44 km/h | grade_ext=-9.3% | vz_ext=-10.0 m/min
max|dx|=0.65 m/s, max|dy|=1.67 m/s, max|dz|=0.17 m/s</desc>
  </wpt>
  <wpt lat="43.39168083333333" lon="-5.8250075">
    <ele>175.95</ele>
    <time>2024-09-04T12:25:05Z</time>
    <name>ANOM:DZ_HAMPEL</name>
    <desc>Tramo #11 (2252-2256), dur=5s
Causas: DZ_HAMPEL
vh_max=5.98 km/h | grade_ext=-3.0% | vz_ext=-3.0 m/min
max|dx|=0.53 m/s, max|dy|=1.58 m/s, max|dz|=0.05 m/s</desc>
  </wpt>
  <wpt lat="43.391524" lon="-5.825083">
    <ele>174.4</ele>
    <time>2024-09-04T12:25:16Z</time>
    <name>ANOM:DZ_HAMPEL</name>
    <desc>Tramo #12 (2263-2264), dur=2s
Causas: DZ_HAMPEL
vh_max=8.61 km/h | grade_ext=12.5% | vz_ext=18.0 m/min
max|dx|=1.54 m/s, max|dy|=1.83 m/s, max|dz|=0.30 m/s</desc>
  </wpt>
  <wpt lat="43.390738" lon="-5.825480000000001">
    <ele>168.7</ele>
    <time>2024-09-04T12:26:10Z</time>
    <name>ANOM:DZ_HAMPEL</name>
    <desc>Tramo #13 (2317-2321), dur=5s
Causas: DZ_HAMPEL
vh_max=8.57 km/h | grade_ext=-9.4% | vz_ext=-9.0 m/min
max|dx|=0.46 m/s, max|dy|=2.34 m/s, max|dz|=0.15 m/s</desc>
  </wpt>
  <wpt lat="43.388674" lon="-5.825339">
    <ele>167.1</ele>
    <time>2024-09-04T12:28:21Z</time>
    <name>ANOM:DZ_HAMPEL</name>
    <desc>Tramo #14 (2448-2452), dur=5s
Causas: DZ_HAMPEL
vh_max=6.95 km/h | grade_ext=9.3% | vz_ext=10.8 m/min
max|dx|=0.57 m/s, max|dy|=1.85 m/s, max|dz|=0.18 m/s</desc>
  </wpt>
  <wpt lat="43.386122" lon="-5.827482">
    <ele>180.0</ele>
    <time>2024-09-04T12:32:13Z</time>
    <name>ANOM:DZ_HAMPEL</name>
    <desc>Tramo #15 (2680-2683), dur=4s
Causas: DZ_HAMPEL
vh_max=6.37 km/h | grade_ext=14.1% | vz_ext=15.0 m/min
max|dx|=0.89 m/s, max|dy|=1.53 m/s, max|dz|=0.25 m/s</desc>
  </wpt>
  <wpt lat="43.384865" lon="-5.82499">
    <ele>174.0</ele>
    <time>2024-09-04T12:34:56Z</time>
    <name>ANOM:DZ_HAMPEL</name>
    <desc>Tramo #16 (2843-2850), dur=8s
Causas: DZ_HAMPEL
vh_max=7.89 km/h | grade_ext=-8.5% | vz_ext=-9.0 m/min
max|dx|=1.74 m/s, max|dy|=1.33 m/s, max|dz|=0.15 m/s</desc>
  </wpt>
  <wpt lat="43.38493359214792" lon="-5.824751568705735">
    <ele>173.49490184894898</ele>
    <time>2024-09-04T12:35:08Z</time>
    <name>ANOM:DZ_HAMPEL</name>
    <desc>Tramo #17 (2855-2857), dur=3s
Causas: DZ_HAMPEL
vh_max=4.89 km/h | grade_ext=-16.2% | vz_ext=-13.2 m/min
max|dx|=1.36 m/s, max|dy|=0.12 m/s, max|dz|=0.22 m/s</desc>
  </wpt>
  <wpt lat="43.384899" lon="-5.824566">
    <ele>173.0</ele>
    <time>2024-09-04T12:35:20Z</time>
    <name>ANOM:DZ_HAMPEL</name>
    <desc>Tramo #18 (2867-2868), dur=2s
Causas: DZ_HAMPEL
vh_max=7.95 km/h | grade_ext=-13.6% | vz_ext=-18.0 m/min
max|dx|=1.94 m/s, max|dy|=1.06 m/s, max|dz|=0.30 m/s</desc>
  </wpt>
  <wpt lat="43.3846082030966" lon="-5.824234">
    <ele>172.0</ele>
    <time>2024-09-04T12:35:52Z</time>
    <name>ANOM:DZ_HAMPEL</name>
    <desc>Tramo #19 (2899-2905), dur=7s
Causas: DZ_HAMPEL
vh_max=6.20 km/h | grade_ext=-19.0% | vz_ext=-19.7 m/min
max|dx|=0.67 m/s, max|dy|=1.72 m/s, max|dz|=0.33 m/s</desc>
  </wpt>
  <wpt lat="43.38458336895521" lon="-5.822692675582153">
    <ele>167.7852417914449</ele>
    <time>2024-09-04T12:37:26Z</time>
    <name>ANOM:DZ_HAMPEL</name>
    <desc>Tramo #20 (2993-2997), dur=5s
Causas: DZ_HAMPEL
vh_max=6.41 km/h | grade_ext=-7.7% | vz_ext=-8.2 m/min
max|dx|=1.74 m/s, max|dy|=0.38 m/s, max|dz|=0.14 m/s</desc>
  </wpt>
  <wpt lat="43.3846171567229" lon="-5.822223788677217">
    <ele>167.0</ele>
    <time>2024-09-04T12:37:47Z</time>
    <name>ANOM:DZ_HAMPEL</name>
    <desc>Tramo #21 (3014-3017), dur=4s
Causas: DZ_HAMPEL
vh_max=8.20 km/h | grade_ext=-11.6% | vz_ext=-15.9 m/min
max|dx|=1.64 m/s, max|dy|=1.62 m/s, max|dz|=0.26 m/s</desc>
  </wpt>
  <trk>
    <name>8_aligned_pattern_resampled_anomalies</name>
    <trkseg>
      <trkpt lat="43.388477" lon="-5.821879">
        <ele>160.0</ele>
        <time>2024-09-04T11:52:28Z</time>
      </trkpt>
      <trkpt lat="43.388465" lon="-5.821904">
        <ele>160.5</ele>
        <time>2024-09-04T11:52:29Z</time>
      </trkpt>
    </trkseg>
    <trkseg>
      <trkpt lat="43.399158" lon="-5.823231">
        <ele>156.0</ele>
        <time>2024-09-04T12:11:02Z</time>
      </trkpt>
      <trkpt lat="43.39916266666667" lon="-5.823252">
        <ele>156.13333333333333</ele>
        <time>2024-09-04T12:11:03Z</time>
      </trkpt>
      <trkpt lat="43.39916733333333" lon="-5.8232729999999995">
        <ele>156.26666666666668</ele>
        <time>2024-09-04T12:11:04Z</time>
      </trkpt>
      <trkpt lat="43.399172" lon="-5.823294">
        <ele>156.4</ele>
        <time>2024-09-04T12:11:05Z</time>
      </trkpt>
      <trkpt lat="43.399178750000004" lon="-5.823314">
        <ele>156.55</ele>
        <time>2024-09-04T12:11:06Z</time>
      </trkpt>
      <trkpt lat="43.3991855" lon="-5.823334">
        <ele>156.7</ele>
        <time>2024-09-04T12:11:07Z</time>
      </trkpt>
      <trkpt lat="43.39919225" lon="-5.823354">
        <ele>156.85</ele>
        <time>2024-09-04T12:11:08Z</time>
      </trkpt>
    </trkseg>
    <trkseg>
      <trkpt lat="43.400648" lon="-5.826646">
        <ele>163.0</ele>
        <time>2024-09-04T12:14:23Z</time>
      </trkpt>
      <trkpt lat="43.4006375" lon="-5.826665500000001">
        <ele>163.0</ele>
        <time>2024-09-04T12:14:24Z</time>
      </trkpt>
      <trkpt lat="43.400627" lon="-5.826685">
        <ele>163.0</ele>
        <time>2024-09-04T12:14:25Z</time>
      </trkpt>
      <trkpt lat="43.400617499999996" lon="-5.8266995">
        <ele>163.0</ele>
        <time>2024-09-04T12:14:26Z</time>
      </trkpt>
      <trkpt lat="43.400608" lon="-5.826714">
        <ele>163.0</ele>
        <time>2024-09-04T12:14:27Z</time>
      </trkpt>
    </trkseg>
    <trkseg>
      <trkpt lat="43.398228" lon="-5.825004799999999">
        <ele>167.2</ele>
        <time>2024-09-04T12:17:20Z</time>
      </trkpt>
      <trkpt lat="43.398216000000005" lon="-5.8250006">
        <ele>167.4</ele>
        <time>2024-09-04T12:17:21Z</time>
      </trkpt>
      <trkpt lat="43.398204" lon="-5.8249964">
        <ele>167.6</ele>
        <time>2024-09-04T12:17:22Z</time>
      </trkpt>
      <trkpt lat="43.398192" lon="-5.8249922000000005">
        <ele>167.8</ele>
        <time>2024-09-04T12:17:23Z</time>
      </trkpt>
    </trkseg>
    <trkseg>
      <trkpt lat="43.39806985714286" lon="-5.824991">
        <ele>168.28571428571428</ele>
        <time>2024-09-04T12:17:31Z</time>
      </trkpt>
      <trkpt lat="43.398055285714285" lon="-5.824993">
        <ele>168.42857142857142</ele>
        <time>2024-09-04T12:17:32Z</time>
      </trkpt>
      <trkpt lat="43.39804071428571" lon="-5.824995">
        <ele>168.57142857142858</ele>
        <time>2024-09-04T12:17:33Z</time>
      </trkpt>
      <trkpt lat="43.39802614285714" lon="-5.824997000000001">
        <ele>168.71428571428572</ele>
        <time>2024-09-04T12:17:34Z</time>
      </trkpt>
      <trkpt lat="43.39801157142857" lon="-5.824999">
        <ele>168.85714285714286</ele>
        <time>2024-09-04T12:17:35Z</time>
      </trkpt>
    </trkseg>
    <trkseg>
      <trkpt lat="43.394603" lon="-5.825367">
        <ele>181.0</ele>
        <time>2024-09-04T12:21:29Z</time>
      </trkpt>
      <trkpt lat="43.39458775" lon="-5.8253710000000005">
        <ele>181.225</ele>
        <time>2024-09-04T12:21:30Z</time>
      </trkpt>
      <trkpt lat="43.394572499999995" lon="-5.825375">
        <ele>181.45</ele>
        <time>2024-09-04T12:21:31Z</time>
      </trkpt>
      <trkpt lat="43.39455725" lon="-5.825379">
        <ele>181.675</ele>
        <time>2024-09-04T12:21:32Z</time>
      </trkpt>
      <trkpt lat="43.394542" lon="-5.825383">
        <ele>181.9</ele>
        <time>2024-09-04T12:21:33Z</time>
      </trkpt>
    </trkseg>
    <trkseg>
      <trkpt lat="43.394239" lon="-5.825574">
        <ele>184.0</ele>
        <time>2024-09-04T12:21:56Z</time>
      </trkpt>
      <trkpt lat="43.39422583333333" lon="-5.8255855">
        <ele>184.16666666666666</ele>
        <time>2024-09-04T12:21:57Z</time>
      </trkpt>
      <trkpt lat="43.39421266666667" lon="-5.825597">
        <ele>184.33333333333334</ele>
        <time>2024-09-04T12:21:58Z</time>
      </trkpt>
      <trkpt lat="43.3941995" lon="-5.8256084999999995">
        <ele>184.5</ele>
        <time>2024-09-04T12:21:59Z</time>
      </trkpt>
      <trkpt lat="43.39418633333333" lon="-5.82562">
        <ele>184.66666666666666</ele>
        <time>2024-09-04T12:22:00Z</time>
      </trkpt>
      <trkpt lat="43.39417316666667" lon="-5.8256315">
        <ele>184.83333333333334</ele>
        <time>2024-09-04T12:22:01Z</time>
      </trkpt>
    </trkseg>
    <trkseg>
      <trkpt lat="43.392071" lon="-5.824818">
        <ele>180.0</ele>
        <time>2024-09-04T12:24:39Z</time>
      </trkpt>
      <trkpt lat="43.392058" lon="-5.8248244">
        <ele>179.8</ele>
        <time>2024-09-04T12:24:40Z</time>
      </trkpt>
      <trkpt lat="43.392045" lon="-5.8248308">
        <ele>179.6</ele>
        <time>2024-09-04T12:24:41Z</time>
      </trkpt>
      <trkpt lat="43.392032" lon="-5.824837199999999">
        <ele>179.4</ele>
        <time>2024-09-04T12:24:42Z</time>
      </trkpt>
    </trkseg>
    <trkseg>
      <trkpt lat="43.392006" lon="-5.82485">
        <ele>179.0</ele>
        <time>2024-09-04T12:24:44Z</time>
      </trkpt>
      <trkpt lat="43.391988" lon="-5.824859249999999">
        <ele>179.0</ele>
        <time>2024-09-04T12:24:45Z</time>
      </trkpt>
      <trkpt lat="43.39197" lon="-5.8248685">
        <ele>179.0</ele>
        <time>2024-09-04T12:24:46Z</time>
      </trkpt>
      <trkpt lat="43.391952" lon="-5.824877750000001">
        <ele>179.0</ele>
        <time>2024-09-04T12:24:47Z</time>
      </trkpt>
    </trkseg>
    <trkseg>
      <trkpt lat="43.391842000000004" lon="-5.824935">
        <ele>177.83333333333334</ele>
        <time>2024-09-04T12:24:54Z</time>
      </trkpt>
      <trkpt lat="43.391827" lon="-5.824943">
        <ele>177.66666666666666</ele>
        <time>2024-09-04T12:24:55Z</time>
      </trkpt>
      <trkpt lat="43.391812" lon="-5.824951">
        <ele>177.5</ele>
        <time>2024-09-04T12:24:56Z</time>
      </trkpt>
      <trkpt lat="43.391797000000004" lon="-5.824959">
        <ele>177.33333333333334</ele>
        <time>2024-09-04T12:24:57Z</time>
      </trkpt>
    </trkseg>
    <trkseg>
      <trkpt lat="43.39168083333333" lon="-5.8250075">
        <ele>175.95</ele>
        <time>2024-09-04T12:25:05Z</time>
      </trkpt>
      <trkpt lat="43.391666666666666" lon="-5.825014">
        <ele>175.9</ele>
        <time>2024-09-04T12:25:06Z</time>
      </trkpt>
      <trkpt lat="43.3916525" lon="-5.825020500000001">
        <ele>175.85</ele>
        <time>2024-09-04T12:25:07Z</time>
      </trkpt>
      <trkpt lat="43.39163833333333" lon="-5.825027">
        <ele>175.79999999999998</ele>
        <time>2024-09-04T12:25:08Z</time>
      </trkpt>
      <trkpt lat="43.391624166666666" lon="-5.8250335">
        <ele>175.75</ele>
        <time>2024-09-04T12:25:09Z</time>
      </trkpt>
    </trkseg>
    <trkseg>
      <trkpt lat="43.391524" lon="-5.825083">
        <ele>174.4</ele>
        <time>2024-09-04T12:25:16Z</time>
      </trkpt>
      <trkpt lat="43.3915075" lon="-5.825102">
        <ele>174.7</ele>
        <time>2024-09-04T12:25:17Z</time>
      </trkpt>
    </trkseg>
    <trkseg>
      <trkpt lat="43.390738" lon="-5.825480000000001">
        <ele>168.7</ele>
        <time>2024-09-04T12:26:10Z</time>
      </trkpt>
      <trkpt lat="43.390724" lon="-5.8254845">
        <ele>168.55</ele>
        <time>2024-09-04T12:26:11Z</time>
      </trkpt>
      <trkpt lat="43.39071" lon="-5.825489">
        <ele>168.4</ele>
        <time>2024-09-04T12:26:12Z</time>
      </trkpt>
      <trkpt lat="43.390689" lon="-5.825494666666667">
        <ele>168.26666666666668</ele>
        <time>2024-09-04T12:26:13Z</time>
      </trkpt>
      <trkpt lat="43.390668" lon="-5.825500333333333">
        <ele>168.13333333333333</ele>
        <time>2024-09-04T12:26:14Z</time>
      </trkpt>
    </trkseg>
    <trkseg>
      <trkpt lat="43.388674" lon="-5.825339">
        <ele>167.1</ele>
        <time>2024-09-04T12:28:21Z</time>
      </trkpt>
      <trkpt lat="43.3886574" lon="-5.825346">
        <ele>167.28</ele>
        <time>2024-09-04T12:28:22Z</time>
      </trkpt>
      <trkpt lat="43.3886408" lon="-5.825353">
        <ele>167.46</ele>
        <time>2024-09-04T12:28:23Z</time>
      </trkpt>
      <trkpt lat="43.3886242" lon="-5.82536">
        <ele>167.64</ele>
        <time>2024-09-04T12:28:24Z</time>
      </trkpt>
      <trkpt lat="43.3886076" lon="-5.825367">
        <ele>167.82</ele>
        <time>2024-09-04T12:28:25Z</time>
      </trkpt>
    </trkseg>
    <trkseg>
      <trkpt lat="43.386122" lon="-5.827482">
        <ele>180.0</ele>
        <time>2024-09-04T12:32:13Z</time>
      </trkpt>
      <trkpt lat="43.38610825" lon="-5.827493">
        <ele>180.25</ele>
        <time>2024-09-04T12:32:14Z</time>
      </trkpt>
      <trkpt lat="43.3860945" lon="-5.827503999999999">
        <ele>180.5</ele>
        <time>2024-09-04T12:32:15Z</time>
      </trkpt>
      <trkpt lat="43.38608075" lon="-5.827515">
        <ele>180.75</ele>
        <time>2024-09-04T12:32:16Z</time>
      </trkpt>
    </trkseg>
    <trkseg>
      <trkpt lat="43.384865" lon="-5.82499">
        <ele>174.0</ele>
        <time>2024-09-04T12:34:56Z</time>
      </trkpt>
      <trkpt lat="43.384876999999996" lon="-5.8249685">
        <ele>174.0</ele>
        <time>2024-09-04T12:34:57Z</time>
      </trkpt>
      <trkpt lat="43.384889" lon="-5.824947">
        <ele>174.0</ele>
        <time>2024-09-04T12:34:58Z</time>
      </trkpt>
      <trkpt lat="43.384901" lon="-5.8249255">
        <ele>174.0</ele>
        <time>2024-09-04T12:34:59Z</time>
      </trkpt>
      <trkpt lat="43.384913" lon="-5.824904">
        <ele>174.0</ele>
        <time>2024-09-04T12:35:00Z</time>
      </trkpt>
      <trkpt lat="43.384916249999996" lon="-5.8248825">
        <ele>173.85</ele>
        <time>2024-09-04T12:35:01Z</time>
      </trkpt>
      <trkpt lat="43.384919499999995" lon="-5.824861">
        <ele>173.7</ele>
        <time>2024-09-04T12:35:02Z</time>
      </trkpt>
      <trkpt lat="43.38492275" lon="-5.8248394999999995">
        <ele>173.55</ele>
        <time>2024-09-04T12:35:03Z</time>
      </trkpt>
    </trkseg>
    <trkseg>
      <trkpt lat="43.38493359214792" lon="-5.824751568705735">
        <ele>173.49490184894898</ele>
        <time>2024-09-04T12:35:08Z</time>
      </trkpt>
      <trkpt lat="43.384934692888294" lon="-5.824734835122435">
        <ele>173.32677792677765</ele>
        <time>2024-09-04T12:35:09Z</time>
      </trkpt>
      <trkpt lat="43.38493557541476" lon="-5.824718067119667">
        <ele>173.10614631141448</ele>
        <time>2024-09-04T12:35:10Z</time>
      </trkpt>
    </trkseg>
    <trkseg>
      <trkpt lat="43.384899" lon="-5.824566">
        <ele>173.0</ele>
        <time>2024-09-04T12:35:20Z</time>
      </trkpt>
      <trkpt lat="43.3848895" lon="-5.824542">
        <ele>172.7</ele>
        <time>2024-09-04T12:35:21Z</time>
      </trkpt>
    </trkseg>
    <trkseg>
      <trkpt lat="43.3846082030966" lon="-5.824234">
        <ele>172.0</ele>
        <time>2024-09-04T12:35:52Z</time>
      </trkpt>
      <trkpt lat="43.38459277121241" lon="-5.824235603030273">
        <ele>171.97328282878874</ele>
        <time>2024-09-04T12:35:53Z</time>
      </trkpt>
      <trkpt lat="43.38457733991997" lon="-5.8242372273768455">
        <ele>171.94621038590955</ele>
        <time>2024-09-04T12:35:54Z</time>
      </trkpt>
      <trkpt lat="43.38456190862753" lon="-5.824238851723418">
        <ele>171.9191379430304</ele>
        <time>2024-09-04T12:35:55Z</time>
      </trkpt>
      <trkpt lat="43.38454651814293" lon="-5.824240960397943">
        <ele>171.8039602057</ele>
        <time>2024-09-04T12:35:56Z</time>
      </trkpt>
      <trkpt lat="43.3845312260865" lon="-5.8242442372671785">
        <ele>171.47627328215592</ele>
        <time>2024-09-04T12:35:57Z</time>
      </trkpt>
      <trkpt lat="43.38451593403007" lon="-5.824247514136414">
        <ele>171.14858635861182</ele>
        <time>2024-09-04T12:35:58Z</time>
      </trkpt>
    </trkseg>
    <trkseg>
      <trkpt lat="43.38458336895521" lon="-5.822692675582153">
        <ele>167.7852417914449</ele>
        <time>2024-09-04T12:37:26Z</time>
      </trkpt>
      <trkpt lat="43.38458678827825" lon="-5.822671133847007">
        <ele>167.64846886988468</ele>
        <time>2024-09-04T12:37:27Z</time>
      </trkpt>
      <trkpt lat="43.38459020760129" lon="-5.822649592111861">
        <ele>167.51169594832447</ele>
        <time>2024-09-04T12:37:28Z</time>
      </trkpt>
      <trkpt lat="43.38459362692433" lon="-5.822628050376715">
        <ele>167.37492302676424</ele>
        <time>2024-09-04T12:37:29Z</time>
      </trkpt>
      <trkpt lat="43.38459704624737" lon="-5.822606508641569">
        <ele>167.23815010520403</ele>
        <time>2024-09-04T12:37:30Z</time>
      </trkpt>
    </trkseg>
    <trkseg>
      <trkpt lat="43.3846171567229" lon="-5.822223788677217">
        <ele>167.0</ele>
        <time>2024-09-04T12:37:47Z</time>
      </trkpt>
      <trkpt lat="43.38463135598387" lon="-5.8222035145674464">
        <ele>166.79352756595736</ele>
        <time>2024-09-04T12:37:48Z</time>
      </trkpt>
      <trkpt lat="43.384645903989245" lon="-5.822183676378297">
        <ele>166.5290183773049</ele>
        <time>2024-09-04T12:37:49Z</time>
      </trkpt>
      <trkpt lat="43.38466045199463" lon="-5.822163838189149">
        <ele>166.26450918865245</ele>
        <time>2024-09-04T12:37:50Z</time>
      </trkpt>
    </trkseg>
  </trk>
</gpx>