<?xml version="1.0" encoding="UTF-8"?>
<gpx xmlns="http://www.topografix.com/GPX/1/1" xmlns:xsi="http://www.w3.org/2001/XMLSchema-instance" xsi:schemaLocation="http://www.topografix.com/GPX/1/1 http://www.topografix.com/GPX/1/1/gpx.xsd" version="1.1" creator="gpx.py -- https://github.com/tkrajina/gpxpy">
  <wpt lat="43.387905723963065" lon="-5.821152298617423">
    <ele>160.8950230429483</ele>
    <time>2024-09-04T11:51:19Z</time>
    <name>ANOM:DZ_HAMPEL</name>
    <desc>Tramo #1 (228-229), dur=2s
Causas: DZ_HAMPEL
vh_max=8.23 km/h | grade_ext=-14.4% | vz_ext=-19.7 m/min
max|dx|=1.59 m/s, max|dy|=1.64 m/s, max|dz|=0.33 m/s</desc>
  </wpt>
  <wpt lat="43.388473203374986" lon="-5.821870356619638">
    <ele>160.0</ele>
    <time>2024-09-04T11:52:27Z</time>
    <name>ANOM:DZ_HAMPEL</name>
    <desc>Tramo #2 (296-299), dur=4s
Causas: DZ_HAMPEL
vh_max=5.88 km/h | grade_ext=20.7% | vz_ext=20.2 m/min
max|dx|=1.43 m/s, max|dy|=0.90 m/s, max|dz|=0.34 m/s</desc>
  </wpt>
  <wpt lat="43.40064832380955" lon="-5.8266452218904785">
    <ele>162.99516702160543</ele>
    <time>2024-09-04T12:14:22Z</time>
    <name>ANOM:DZ_HAMPEL</name>
    <desc>Tramo #3 (1611-1615), dur=5s
Causas: DZ_HAMPEL
vh_max=5.14 km/h | grade_ext=0.4% | vz_ext=0.3 m/min
max|dx|=1.08 m/s, max|dy|=0.96 m/s, max|dz|=0.00 m/s</desc>
  </wpt>
  <wpt lat="43.39823719104145" lon="-5.825008016864508">
    <ele>167.04681597577073</ele>
    <time>2024-09-04T12:17:20Z</time>
    <name>ANOM:DZ_HAMPEL</name>
    <desc>Tramo #4 (1789-1792), dur=4s
Causas: DZ_HAMPEL
vh_max=6.41 km/h | grade_ext=14.5% | vz_ext=15.5 m/min
max|dx|=0.44 m/s, max|dy|=1.73 m/s, max|dz|=0.26 m/s</desc>
  </wpt>
  <wpt lat="43.394597101731335" lon="-5.825368547086863">
    <ele>181.08702363602737</ele>
    <time>2024-09-04T12:21:29Z</time>
    <name>ANOM:DZ_HAMPEL</name>
    <desc>Tramo #5 (2038-2041), dur=4s
Causas: DZ_HAMPEL
vh_max=6.15 km/h | grade_ext=13.0% | vz_ext=13.3 m/min
max|dx|=0.40 m/s, max|dy|=1.67 m/s, max|dz|=0.22 m/s</desc>
  </wpt>
  <wpt lat="43.392076426523" lon="-5.824814961147121">
    <ele>180.0</ele>
    <time>2024-09-04T12:24:39Z</time>
    <name>ANOM:DZ_HAMPEL</name>
    <desc>Tramo #6 (2228-2231), dur=4s
Causas: DZ_HAMPEL
vh_max=6.67 km/h | grade_ext=-13.0% | vz_ext=-14.5 m/min
max|dx|=0.64 m/s, max|dy|=1.75 m/s, max|dz|=0.24 m/s</desc>
  </wpt>
  <wpt lat="43.39168099860048" lon="-5.825007424171546">
    <ele>175.95058329579996</ele>
    <time>2024-09-04T12:25:05Z</time>
    <name>ANOM:DZ_HAMPEL</name>
    <desc>Tramo #7 (2254-2257), dur=4s
Causas: DZ_HAMPEL
vh_max=6.54 km/h | grade_ext=-3.0% | vz_ext=-3.3 m/min
max|dx|=0.57 m/s, max|dy|=1.72 m/s, max|dz|=0.05 m/s</desc>
  </wpt>
  <wpt lat="43.391516097775714" lon="-5.825092099530995">
    <ele>174.5436768051814</ele>
    <time>2024-09-04T12:25:16Z</time>
    <name>ANOM:DZ_HAMPEL</name>
    <desc>Tramo #8 (2265-2266), dur=2s
Causas: DZ_HAMPEL
vh_max=6.68 km/h | grade_ext=12.5% | vz_ext=14.0 m/min
max|dx|=1.19 m/s, max|dy|=1.44 m/s, max|dz|=0.23 m/s</desc>
  </wpt>
  <wpt lat="43.388674346833355" lon="-5.825338902886661">
    <ele>167.09953755552849</ele>
    <time>2024-09-04T12:28:20Z</time>
    <name>ANOM:DZ_HAMPEL</name>
    <desc>Tramo #9 (2449-2454), dur=6s
Causas: DZ_HAMPEL
vh_max=6.09 km/h | grade_ext=9.3% | vz_ext=9.5 m/min
max|dx|=0.60 m/s, max|dy|=1.62 m/s, max|dz|=0.16 m/s</desc>
  </wpt>
  <wpt lat="43.3861264802084" lon="-5.827488506041756">
    <ele>180.01168750015987</ele>
    <time>2024-09-04T12:32:13Z</time>
    <name>ANOM:DZ_HAMPEL</name>
    <desc>Tramo #10 (2682-2685), dur=4s
Causas: DZ_HAMPEL
vh_max=6.96 km/h | grade_ext=14.1% | vz_ext=16.4 m/min
max|dx|=0.97 m/s, max|dy|=1.67 m/s, max|dz|=0.27 m/s</desc>
  </wpt>
  <wpt lat="43.3847961817608" lon="-5.825049841947135">
    <ele>174.79789262847058</ele>
    <time>2024-09-04T12:34:51Z</time>
    <name>ANOM:DZ_HAMPEL</name>
    <desc>Tramo #11 (2840-2841), dur=2s
Causas: DZ_HAMPEL
vh_max=6.81 km/h | grade_ext=-8.8% | vz_ext=-10.0 m/min
max|dx|=1.01 m/s, max|dy|=1.60 m/s, max|dz|=0.17 m/s</desc>
  </wpt>
  <wpt lat="43.384550759385874" lon="-5.824240051560171">
    <ele>171.89484398290892</ele>
    <time>2024-09-04T12:35:54Z</time>
    <name>ANOM:DZ_HAMPEL</name>
    <desc>Tramo #12 (2903-2906), dur=4s
Causas: DZ_HAMPEL
vh_max=5.75 km/h | grade_ext=-19.0% | vz_ext=-15.0 m/min
max|dx|=0.64 m/s, max|dy|=1.46 m/s, max|dz|=0.25 m/s</desc>
  </wpt>
  <wpt lat="43.38431837573444" lon="-5.824098062357953">
    <ele>170.45248531120168</ele>
    <time>2024-09-04T12:36:17Z</time>
    <name>ANOM:DZ_HAMPEL</name>
    <desc>Tramo #13 (2926-2928), dur=3s
Causas: DZ_HAMPEL
vh_max=8.08 km/h | grade_ext=-4.1% | vz_ext=-5.5 m/min
max|dx|=2.18 m/s, max|dy|=0.51 m/s, max|dz|=0.09 m/s</desc>
  </wpt>
  <wpt lat="43.38458148791006" lon="-5.822703953164104">
    <ele>167.80795836809213</ele>
    <time>2024-09-04T12:37:22Z</time>
    <name>ANOM:DZ_HAMPEL</name>
    <desc>Tramo #14 (2991-2996), dur=6s
Causas: DZ_HAMPEL
vh_max=6.63 km/h | grade_ext=-7.7% | vz_ext=-8.5 m/min
max|dx|=1.80 m/s, max|dy|=0.40 m/s, max|dz|=0.14 m/s</desc>
  </wpt>
  <wpt lat="43.38461317893204" lon="-5.822230488114455">
    <ele>167.0</ele>
    <time>2024-09-04T12:37:45Z</time>
    <name>ANOM:DZ_HAMPEL</name>
    <desc>Tramo #15 (3014-3019), dur=6s
Causas: DZ_HAMPEL
vh_max=6.31 km/h | grade_ext=-11.6% | vz_ext=-11.7 m/min
max|dx|=1.32 m/s, max|dy|=1.19 m/s, max|dz|=0.19 m/s</desc>
  </wpt>
  <trk>
    <name>8_pattern_aligned_resampled_anomalies</name>
    <trkseg>
      <trkpt lat="43.387905723963065" lon="-5.821152298617423">
        <ele>160.8950230429483</ele>
        <time>2024-09-04T11:51:19Z</time>
      </trkpt>
      <trkpt lat="43.387920483257425" lon="-5.821171977676567">
        <ele>160.5670387238786</ele>
        <time>2024-09-04T11:51:20Z</time>
      </trkpt>
    </trkseg>
    <trkseg>
      <trkpt lat="43.388473203374986" lon="-5.821870356619638">
        <ele>160.0</ele>
        <time>2024-09-04T11:52:27Z</time>
      </trkpt>
      <trkpt lat="43.38847296762097" lon="-5.821887400789647">
        <ele>160.16801579293823</ele>
        <time>2024-09-04T11:52:28Z</time>
      </trkpt>
      <trkpt lat="43.38846487421224" lon="-5.82190426205783">
        <ele>160.50524115660207</ele>
        <time>2024-09-04T11:52:29Z</time>
      </trkpt>
      <trkpt lat="43.388456780803516" lon="-5.821921123326013">
        <ele>160.8424665202659</ele>
        <time>2024-09-04T11:52:30Z</time>
      </trkpt>
    </trkseg>
    <trkseg>
      <trkpt lat="43.40064832380955" lon="-5.8266452218904785">
        <ele>162.99516702160543</ele>
        <time>2024-09-04T12:14:22Z</time>
      </trkpt>
      <trkpt lat="43.400641225998484" lon="-5.826658580288529">
        <ele>163.0</ele>
        <time>2024-09-04T12:14:23Z</time>
      </trkpt>
      <trkpt lat="43.40063409663379" lon="-5.826671820537256">
        <ele>163.0</ele>
        <time>2024-09-04T12:14:24Z</time>
      </trkpt>
      <trkpt lat="43.40062696054734" lon="-5.826685060217216">
        <ele>163.0</ele>
        <time>2024-09-04T12:14:25Z</time>
      </trkpt>
      <trkpt lat="43.400618367069065" lon="-5.826698176578792">
        <ele>163.0</ele>
        <time>2024-09-04T12:14:26Z</time>
      </trkpt>
    </trkseg>
    <trkseg>
      <trkpt lat="43.39823719104145" lon="-5.825008016864508">
        <ele>167.04681597577073</ele>
        <time>2024-09-04T12:17:20Z</time>
      </trkpt>
      <trkpt lat="43.39822167536234" lon="-5.82500258637682">
        <ele>167.30541062761955</ele>
        <time>2024-09-04T12:17:21Z</time>
      </trkpt>
      <trkpt lat="43.398206159683234" lon="-5.824997155889132">
        <ele>167.5640052794684</ele>
        <time>2024-09-04T12:17:22Z</time>
      </trkpt>
      <trkpt lat="43.398190644004124" lon="-5.824991725401443">
        <ele>167.82259993131726</ele>
        <time>2024-09-04T12:17:23Z</time>
      </trkpt>
    </trkseg>
    <trkseg>
      <trkpt lat="43.394597101731335" lon="-5.825368547086863">
        <ele>181.08702363602737</ele>
        <time>2024-09-04T12:21:29Z</time>
      </trkpt>
      <trkpt lat="43.39458205950213" lon="-5.825372492589606">
        <ele>181.30895816534124</ele>
        <time>2024-09-04T12:21:30Z</time>
      </trkpt>
      <trkpt lat="43.39456701727292" lon="-5.825376438092349">
        <ele>181.53089269465508</ele>
        <time>2024-09-04T12:21:31Z</time>
      </trkpt>
      <trkpt lat="43.39455197504371" lon="-5.8253803835950935">
        <ele>181.75282722396892</ele>
        <time>2024-09-04T12:21:32Z</time>
      </trkpt>
    </trkseg>
    <trkseg>
      <trkpt lat="43.392076426523" lon="-5.824814961147121">
        <ele>180.0</ele>
        <time>2024-09-04T12:24:39Z</time>
      </trkpt>
      <trkpt lat="43.392061014445126" lon="-5.824822915965477">
        <ele>179.84637607882678</ele>
        <time>2024-09-04T12:24:40Z</time>
      </trkpt>
      <trkpt lat="43.39204531978498" lon="-5.824830642567395">
        <ele>179.60491976889733</ele>
        <time>2024-09-04T12:24:41Z</time>
      </trkpt>
      <trkpt lat="43.392029625124835" lon="-5.824838369169313">
        <ele>179.36346345896789</ele>
        <time>2024-09-04T12:24:42Z</time>
      </trkpt>
    </trkseg>
    <trkseg>
      <trkpt lat="43.39168099860048" lon="-5.825007424171546">
        <ele>175.95058329579996</ele>
        <time>2024-09-04T12:25:05Z</time>
      </trkpt>
      <trkpt lat="43.39166549899343" lon="-5.825014535755953">
        <ele>175.8958788003669</ele>
        <time>2024-09-04T12:25:06Z</time>
      </trkpt>
      <trkpt lat="43.391649999386395" lon="-5.825021647340359">
        <ele>175.8411743049338</ele>
        <time>2024-09-04T12:25:07Z</time>
      </trkpt>
      <trkpt lat="43.39163449977936" lon="-5.825028758924765">
        <ele>175.78646980950072</ele>
        <time>2024-09-04T12:25:08Z</time>
      </trkpt>
    </trkseg>
    <trkseg>
      <trkpt lat="43.391516097775714" lon="-5.825092099530995">
        <ele>174.5436768051814</ele>
        <time>2024-09-04T12:25:16Z</time>
      </trkpt>
      <trkpt lat="43.39150330249554" lon="-5.825106833489979">
        <ele>174.7763182628197</ele>
        <time>2024-09-04T12:25:17Z</time>
      </trkpt>
    </trkseg>
    <trkseg>
      <trkpt lat="43.388674346833355" lon="-5.825338902886661">
        <ele>167.09953755552849</ele>
        <time>2024-09-04T12:28:20Z</time>
      </trkpt>
      <trkpt lat="43.38865978929726" lon="-5.825344992465012">
        <ele>167.25409195746582</ele>
        <time>2024-09-04T12:28:21Z</time>
      </trkpt>
      <trkpt lat="43.38864523384871" lon="-5.825351130304759">
        <ele>167.4119221223878</ele>
        <time>2024-09-04T12:28:22Z</time>
      </trkpt>
      <trkpt lat="43.38863067840017" lon="-5.825357268144506">
        <ele>167.56975228730983</ele>
        <time>2024-09-04T12:28:23Z</time>
      </trkpt>
      <trkpt lat="43.388616122951625" lon="-5.825363405984254">
        <ele>167.72758245223181</ele>
        <time>2024-09-04T12:28:24Z</time>
      </trkpt>
      <trkpt lat="43.38860156750308" lon="-5.825369543824">
        <ele>167.88541261715383</ele>
        <time>2024-09-04T12:28:25Z</time>
      </trkpt>
    </trkseg>
    <trkseg>
      <trkpt lat="43.3861264802084" lon="-5.827488506041756">
        <ele>180.01168750015987</ele>
        <time>2024-09-04T12:32:13Z</time>
      </trkpt>
      <trkpt lat="43.38611384248367" lon="-5.827488526013067">
        <ele>180.14831847878986</ele>
        <time>2024-09-04T12:32:14Z</time>
      </trkpt>
      <trkpt lat="43.38609882134209" lon="-5.827500542926326">
        <ele>180.42143014377143</ele>
        <time>2024-09-04T12:32:15Z</time>
      </trkpt>
      <trkpt lat="43.38608380020052" lon="-5.827512559839585">
        <ele>180.694541808753</ele>
        <time>2024-09-04T12:32:16Z</time>
      </trkpt>
    </trkseg>
    <trkseg>
      <trkpt lat="43.3847961817608" lon="-5.825049841947135">
        <ele>174.79789262847058</ele>
        <time>2024-09-04T12:34:51Z</time>
      </trkpt>
      <trkpt lat="43.384810557021346" lon="-5.825037341720568">
        <ele>174.63122294091582</ele>
        <time>2024-09-04T12:34:52Z</time>
      </trkpt>
    </trkseg>
    <trkseg>
      <trkpt lat="43.384550759385874" lon="-5.824240051560171">
        <ele>171.89484398290892</ele>
        <time>2024-09-04T12:35:54Z</time>
      </trkpt>
      <trkpt lat="43.38453908135583" lon="-5.8242425539951785">
        <ele>171.6446004820802</ele>
        <time>2024-09-04T12:35:55Z</time>
      </trkpt>
      <trkpt lat="43.38452740332579" lon="-5.824245056430187">
        <ele>171.3943569812515</ele>
        <time>2024-09-04T12:35:56Z</time>
      </trkpt>
      <trkpt lat="43.384515725295756" lon="-5.824247558865196">
        <ele>171.14411348042276</ele>
        <time>2024-09-04T12:35:57Z</time>
      </trkpt>
    </trkseg>
    <trkseg>
      <trkpt lat="43.38431837573444" lon="-5.824098062357953">
        <ele>170.45248531120168</ele>
        <time>2024-09-04T12:36:17Z</time>
      </trkpt>
      <trkpt lat="43.384322982058066" lon="-5.824071038592701">
        <ele>170.36035883875195</ele>
        <time>2024-09-04T12:36:18Z</time>
      </trkpt>
      <trkpt lat="43.38432758838169" lon="-5.824044014827448">
        <ele>170.26823236630221</ele>
        <time>2024-09-04T12:36:19Z</time>
      </trkpt>
    </trkseg>
    <trkseg>
      <trkpt lat="43.38458148791006" lon="-5.822703953164104">
        <ele>167.80795836809213</ele>
        <time>2024-09-04T12:37:22Z</time>
      </trkpt>
      <trkpt lat="43.384585063348716" lon="-5.822682000903084">
        <ele>167.71746605132833</ele>
        <time>2024-09-04T12:37:23Z</time>
      </trkpt>
      <trkpt lat="43.38458859585101" lon="-5.822659746138666">
        <ele>167.57616595978354</ele>
        <time>2024-09-04T12:37:24Z</time>
      </trkpt>
      <trkpt lat="43.38459212835329" lon="-5.822637491374247">
        <ele>167.43486586823872</ele>
        <time>2024-09-04T12:37:25Z</time>
      </trkpt>
      <trkpt lat="43.38459566085558" lon="-5.822615236609829">
        <ele>167.29356577669392</ele>
        <time>2024-09-04T12:37:26Z</time>
      </trkpt>
      <trkpt lat="43.38459919335787" lon="-5.8225929818454105">
        <ele>167.15226568514913</ele>
        <time>2024-09-04T12:37:27Z</time>
      </trkpt>
    </trkseg>
    <trkseg>
      <trkpt lat="43.38461317893204" lon="-5.822230488114455">
        <ele>167.0</ele>
        <time>2024-09-04T12:37:45Z</time>
      </trkpt>
      <trkpt lat="43.384623556514775" lon="-5.822214150207121">
        <ele>166.93533609495077</ele>
        <time>2024-09-04T12:37:46Z</time>
      </trkpt>
      <trkpt lat="43.38463423587344" lon="-5.822199587445307">
        <ele>166.7411659374283</ele>
        <time>2024-09-04T12:37:47Z</time>
      </trkpt>
      <trkpt lat="43.3846449152321" lon="-5.822185024683493">
        <ele>166.54699577990579</ele>
        <time>2024-09-04T12:37:48Z</time>
      </trkpt>
      <trkpt lat="43.38465559459077" lon="-5.8221704619216785">
        <ele>166.3528256223833</ele>
        <time>2024-09-04T12:37:49Z</time>
      </trkpt>
      <trkpt lat="43.384666273949435" lon="-5.822155899159864">
        <ele>166.15865546486083</ele>
        <time>2024-09-04T12:37:50Z</time>
      </trkpt>
    </trkseg>
  </trk>
</gpx>