<?xml version="1.0" encoding="UTF-8"?>
<gpx xmlns="http://www.topografix.com/GPX/1/1" xmlns:xsi="http://www.w3.org/2001/XMLSchema-instance" xsi:schemaLocation="http://www.topografix.com/GPX/1/1 http://www.topografix.com/GPX/1/1/gpx.xsd" version="1.1" creator="gpx.py -- https://github.com/tkrajina/gpxpy">
  <wpt lat="43.385798" lon="-5.820955">
    <ele>165.0</ele>
    <time>2024-09-04T12:55:19Z</time>
    <name>ANOM:DZ_HAMPEL</name>
    <desc>Tramo #1 (52-58), dur=7s
Causas: DZ_HAMPEL
vh_max=5.24 km/h | grade_ext=-9.8% | vz_ext=-8.6 m/min
max|dx|=0.90 m/s, max|dy|=1.14 m/s, max|dz|=0.14 m/s</desc>
  </wpt>
  <wpt lat="43.38620987686973" lon="-5.820519366917979">
    <ele>164.0</ele>
    <time>2024-09-04T12:56:16Z</time>
    <name>ANOM:DZ_HAMPEL</name>
    <desc>Tramo #2 (109-110), dur=2s
Causas: DZ_HAMPEL
vh_max=5.41 km/h | grade_ext=6.5% | vz_ext=5.9 m/min
max|dx|=1.14 m/s, max|dy|=1.36 m/s, max|dz|=0.10 m/s</desc>
  </wpt>
  <wpt lat="43.387901" lon="-5.821146">
    <ele>161.0</ele>
    <time>2024-09-04T13:00:21Z</time>
    <name>ANOM:DZ_HAMPEL</name>
    <desc>Tramo #3 (354-359), dur=6s
Causas: DZ_HAMPEL
vh_max=6.69 km/h | grade_ext=-14.4% | vz_ext=-16.0 m/min
max|dx|=1.29 m/s, max|dy|=1.45 m/s, max|dz|=0.27 m/s</desc>
  </wpt>
  <wpt lat="43.388477" lon="-5.821879">
    <ele>160.0</ele>
    <time>2024-09-04T13:01:15Z</time>
    <name>ANOM:DZ_HAMPEL</name>
    <desc>Tramo #4 (408-410), dur=3s
Causas: DZ_HAMPEL
vh_max=5.81 km/h | grade_ext=20.7% | vz_ext=20.0 m/min
max|dx|=1.35 m/s, max|dy|=0.89 m/s, max|dz|=0.33 m/s</desc>
  </wpt>
  <wpt lat="43.399158" lon="-5.823231">
    <ele>156.0</ele>
    <time>2024-09-04T13:19:50Z</time>
    <name>ANOM:DZ_HAMPEL</name>
    <desc>Tramo #5 (1523-1529), dur=7s
Causas: DZ_HAMPEL
vh_max=6.42 km/h | grade_ext=8.4% | vz_ext=9.0 m/min
max|dx|=1.70 m/s, max|dy|=0.75 m/s, max|dz|=0.15 m/s</desc>
  </wpt>
  <wpt lat="43.4007345" lon="-5.826404500000001">
    <ele>161.0</ele>
    <time>2024-09-04T13:22:55Z</time>
    <name>ANOM:DZ_HAMPEL,GRADE_UP</name>
    <desc>Tramo #6 (1708-1713), dur=6s
Causas: DZ_HAMPEL,GRADE_UP
vh_max=4.79 km/h | grade_ext=44.1% | vz_ext=30.0 m/min
max|dx|=1.13 m/s, max|dy|=0.74 m/s, max|dz|=0.50 m/s</desc>
  </wpt>
  <wpt lat="43.400648" lon="-5.826646">
    <ele>163.0</ele>
    <time>2024-09-04T13:23:11Z</time>
    <name>ANOM:DZ_HAMPEL</name>
    <desc>Tramo #7 (1724-1728), dur=5s
Causas: DZ_HAMPEL
vh_max=11.36 km/h | grade_ext=0.0% | vz_ext=0.0 m/min
max|dx|=2.34 m/s, max|dy|=2.11 m/s, max|dz|=0.00 m/s</desc>
  </wpt>
  <wpt lat="43.397997" lon="-5.825001">
    <ele>169.0</ele>
    <time>2024-09-04T13:26:33Z</time>
    <name>ANOM:DZ_HAMPEL</name>
    <desc>Tramo #8 (1926-1932), dur=7s
Causas: DZ_HAMPEL
vh_max=6.36 km/h | grade_ext=0.0% | vz_ext=0.0 m/min
max|dx|=0.35 m/s, max|dy|=1.73 m/s, max|dz|=0.00 m/s</desc>
  </wpt>
  <wpt lat="43.394603" lon="-5.825367">
    <ele>181.0</ele>
    <time>2024-09-04T13:30:23Z</time>
    <name>ANOM:DZ_HAMPEL</name>
    <desc>Tramo #9 (2156-2159), dur=4s
Causas: DZ_HAMPEL
vh_max=6.21 km/h | grade_ext=13.0% | vz_ext=13.5 m/min
max|dx|=0.32 m/s, max|dy|=1.70 m/s, max|dz|=0.23 m/s</desc>
  </wpt>
  <wpt lat="43.394239" lon="-5.825574">
    <ele>184.0</ele>
    <time>2024-09-04T13:30:51Z</time>
    <name>ANOM:DZ_HAMPEL</name>
    <desc>Tramo #10 (2184-2189), dur=6s
Causas: DZ_HAMPEL
vh_max=6.24 km/h | grade_ext=9.6% | vz_ext=10.0 m/min
max|dx|=0.93 m/s, max|dy|=1.46 m/s, max|dz|=0.17 m/s</desc>
  </wpt>
  <wpt lat="43.392071" lon="-5.824818">
    <ele>180.0</ele>
    <time>2024-09-04T13:33:33Z</time>
    <name>ANOM:DZ_HAMPEL</name>
    <desc>Tramo #11 (2346-2349), dur=4s
Causas: DZ_HAMPEL
vh_max=6.91 km/h | grade_ext=-13.0% | vz_ext=-15.0 m/min
max|dx|=0.65 m/s, max|dy|=1.81 m/s, max|dz|=0.25 m/s</desc>
  </wpt>
  <wpt lat="43.391666666666666" lon="-5.825014">
    <ele>175.9</ele>
    <time>2024-09-04T13:34:00Z</time>
    <name>ANOM:DZ_HAMPEL</name>
    <desc>Tramo #12 (2373-2376), dur=4s
Causas: DZ_HAMPEL
vh_max=5.98 km/h | grade_ext=-3.0% | vz_ext=-3.0 m/min
max|dx|=0.53 m/s, max|dy|=1.58 m/s, max|dz|=0.05 m/s</desc>
  </wpt>
  <wpt lat="43.391524" lon="-5.825083">
    <ele>174.4</ele>
    <time>2024-09-04T13:34:10Z</time>
    <name>ANOM:DZ_HAMPEL</name>
    <desc>Tramo #13 (2383-2384), dur=2s
Causas: DZ_HAMPEL
vh_max=8.61 km/h | grade_ext=12.5% | vz_ext=18.0 m/min
max|dx|=1.54 m/s, max|dy|=1.83 m/s, max|dz|=0.30 m/s</desc>
  </wpt>
  <wpt lat="43.388674" lon="-5.825339">
    <ele>167.1</ele>
    <time>2024-09-04T13:37:15Z</time>
    <name>ANOM:DZ_HAMPEL</name>
    <desc>Tramo #14 (2568-2573), dur=6s
Causas: DZ_HAMPEL
vh_max=5.79 km/h | grade_ext=9.3% | vz_ext=9.0 m/min
max|dx|=0.47 m/s, max|dy|=1.54 m/s, max|dz|=0.15 m/s</desc>
  </wpt>
  <wpt lat="43.388267" lon="-5.825661">
    <ele>169.0</ele>
    <time>2024-09-04T13:37:47Z</time>
    <name>ANOM:DZ_HAMPEL</name>
    <desc>Tramo #15 (2600-2603), dur=4s
Causas: DZ_HAMPEL
vh_max=7.32 km/h | grade_ext=12.3% | vz_ext=15.0 m/min
max|dx|=1.88 m/s, max|dy|=0.78 m/s, max|dz|=0.25 m/s</desc>
  </wpt>
  <wpt lat="43.386122" lon="-5.827482">
    <ele>180.0</ele>
    <time>2024-09-04T13:40:56Z</time>
    <name>ANOM:DZ_HAMPEL</name>
    <desc>Tramo #16 (2789-2793), dur=5s
Causas: DZ_HAMPEL
vh_max=5.09 km/h | grade_ext=14.1% | vz_ext=12.0 m/min
max|dx|=0.71 m/s, max|dy|=1.22 m/s, max|dz|=0.20 m/s</desc>
  </wpt>
  <wpt lat="43.384796" lon="-5.82505">
    <ele>174.8</ele>
    <time>2024-09-04T13:43:39Z</time>
    <name>ANOM:DZ_HAMPEL</name>
    <desc>Tramo #17 (2952-2954), dur=3s
Causas: DZ_HAMPEL
vh_max=6.53 km/h | grade_ext=-8.8% | vz_ext=-9.6 m/min
max|dx|=0.97 m/s, max|dy|=1.53 m/s, max|dz|=0.16 m/s</desc>
  </wpt>
  <wpt lat="43.384865" lon="-5.82499">
    <ele>174.0</ele>
    <time>2024-09-04T13:43:44Z</time>
    <name>ANOM:DZ_HAMPEL</name>
    <desc>Tramo #18 (2957-2960), dur=4s
Causas: DZ_HAMPEL
vh_max=6.31 km/h | grade_ext=0.0% | vz_ext=0.0 m/min
max|dx|=1.39 m/s, max|dy|=1.07 m/s, max|dz|=0.00 m/s</desc>
  </wpt>
  <wpt lat="43.384913" lon="-5.824904">
    <ele>174.0</ele>
    <time>2024-09-04T13:43:49Z</time>
    <name>ANOM:DZ_HAMPEL</name>
    <desc>Tramo #19 (2962-2965), dur=4s
Causas: DZ_HAMPEL
vh_max=6.39 km/h | grade_ext=-8.5% | vz_ext=-9.0 m/min
max|dx|=1.74 m/s, max|dy|=0.36 m/s, max|dz|=0.15 m/s</desc>
  </wpt>
  <wpt lat="43.384934" lon="-5.824748">
    <ele>173.5</ele>
    <time>2024-09-04T13:43:56Z</time>
    <name>ANOM:DZ_HAMPEL,JERK</name>
    <desc>Tramo #20 (2969-2972), dur=4s
Causas: DZ_HAMPEL,JERK
vh_max=28.36 km/h | grade_ext=-16.2% | vz_ext=-15.0 m/min
max|dx|=7.84 m/s, max|dy|=0.78 m/s, max|dz|=0.25 m/s</desc>
  </wpt>
  <wpt lat="43.38455662247003" lon="-5.824239408161049">
    <ele>171.90986398250263</ele>
    <time>2024-09-04T13:44:43Z</time>
    <name>ANOM:DZ_HAMPEL</name>
    <desc>Tramo #21 (3016-3019), dur=4s
Causas: DZ_HAMPEL
vh_max=5.82 km/h | grade_ext=-19.0% | vz_ext=-18.5 m/min
max|dx|=0.73 m/s, max|dy|=1.60 m/s, max|dz|=0.31 m/s</desc>
  </wpt>
  <wpt lat="43.384331" lon="-5.824024">
    <ele>170.2</ele>
    <time>2024-09-04T13:45:13Z</time>
    <name>ANOM:DZ_HAMPEL</name>
    <desc>Tramo #22 (3046-3051), dur=6s
Causas: DZ_HAMPEL
vh_max=6.73 km/h | grade_ext=-1.8% | vz_ext=-2.0 m/min
max|dx|=1.83 m/s, max|dy|=0.37 m/s, max|dz|=0.03 m/s</desc>
  </wpt>
  <wpt lat="43.384584476062905" lon="-5.822685700803696">
    <ele>167.7409574837815</ele>
    <time>2024-09-04T13:46:20Z</time>
    <name>ANOM:DZ_HAMPEL</name>
    <desc>Tramo #23 (3113-3117), dur=5s
Causas: DZ_HAMPEL
vh_max=6.36 km/h | grade_ext=-7.7% | vz_ext=-8.1 m/min
max|dx|=1.73 m/s, max|dy|=0.38 m/s, max|dz|=0.14 m/s</desc>
  </wpt>
  <wpt lat="43.38462" lon="-5.822219">
    <ele>167.0</ele>
    <time>2024-09-04T13:46:41Z</time>
    <name>ANOM:DZ_HAMPEL</name>
    <desc>Tramo #24 (3134-3138), dur=5s
Causas: DZ_HAMPEL
vh_max=6.20 km/h | grade_ext=-11.6% | vz_ext=-12.0 m/min
max|dx|=1.21 m/s, max|dy|=1.22 m/s, max|dz|=0.20 m/s</desc>
  </wpt>
  <trk>
    <name>9_aligned_pattern_resampled_anomalies</name>
    <trkseg>
      <trkpt lat="43.385798" lon="-5.820955">
        <ele>165.0</ele>
        <time>2024-09-04T12:55:19Z</time>
      </trkpt>
      <trkpt lat="43.38580828571428" lon="-5.820943857142857">
        <ele>164.85714285714286</ele>
        <time>2024-09-04T12:55:20Z</time>
      </trkpt>
      <trkpt lat="43.38581857142857" lon="-5.820932714285714">
        <ele>164.71428571428572</ele>
        <time>2024-09-04T12:55:21Z</time>
      </trkpt>
      <trkpt lat="43.385828857142855" lon="-5.820921571428571">
        <ele>164.57142857142858</ele>
        <time>2024-09-04T12:55:22Z</time>
      </trkpt>
      <trkpt lat="43.385839142857144" lon="-5.820910428571429">
        <ele>164.42857142857142</ele>
        <time>2024-09-04T12:55:23Z</time>
      </trkpt>
      <trkpt lat="43.385849428571426" lon="-5.820899285714286">
        <ele>164.28571428571428</ele>
        <time>2024-09-04T12:55:24Z</time>
      </trkpt>
      <trkpt lat="43.385859714285715" lon="-5.820888142857143">
        <ele>164.14285714285714</ele>
        <time>2024-09-04T12:55:25Z</time>
      </trkpt>
    </trkseg>
    <trkseg>
      <trkpt lat="43.38620987686973" lon="-5.820519366917979">
        <ele>164.0</ele>
        <time>2024-09-04T12:56:16Z</time>
      </trkpt>
      <trkpt lat="43.386222117527346" lon="-5.82052681065038">
        <ele>164.00130585944947</ele>
        <time>2024-09-04T12:56:17Z</time>
      </trkpt>
    </trkseg>
    <trkseg>
      <trkpt lat="43.387901" lon="-5.821146">
        <ele>161.0</ele>
        <time>2024-09-04T13:00:21Z</time>
      </trkpt>
      <trkpt lat="43.387913" lon="-5.821162">
        <ele>160.73333333333332</ele>
        <time>2024-09-04T13:00:22Z</time>
      </trkpt>
      <trkpt lat="43.387925" lon="-5.821178">
        <ele>160.46666666666667</ele>
        <time>2024-09-04T13:00:23Z</time>
      </trkpt>
      <trkpt lat="43.387937" lon="-5.821194">
        <ele>160.2</ele>
        <time>2024-09-04T13:00:24Z</time>
      </trkpt>
      <trkpt lat="43.387950000000004" lon="-5.821195">
        <ele>160.13333333333333</ele>
        <time>2024-09-04T13:00:25Z</time>
      </trkpt>
      <trkpt lat="43.387963" lon="-5.821196">
        <ele>160.06666666666666</ele>
        <time>2024-09-04T13:00:26Z</time>
      </trkpt>
    </trkseg>
    <trkseg>
      <trkpt lat="43.388477" lon="-5.821879">
        <ele>160.0</ele>
        <time>2024-09-04T13:01:15Z</time>
      </trkpt>
      <trkpt lat="43.388469" lon="-5.821895666666666">
        <ele>160.33333333333334</ele>
        <time>2024-09-04T13:01:16Z</time>
      </trkpt>
      <trkpt lat="43.388461" lon="-5.821912333333334">
        <ele>160.66666666666666</ele>
        <time>2024-09-04T13:01:17Z</time>
      </trkpt>
    </trkseg>
    <trkseg>
      <trkpt lat="43.399158" lon="-5.823231">
        <ele>156.0</ele>
        <time>2024-09-04T13:19:50Z</time>
      </trkpt>
      <trkpt lat="43.39916266666667" lon="-5.823252">
        <ele>156.13333333333333</ele>
        <time>2024-09-04T13:19:51Z</time>
      </trkpt>
      <trkpt lat="43.39916733333333" lon="-5.8232729999999995">
        <ele>156.26666666666668</ele>
        <time>2024-09-04T13:19:52Z</time>
      </trkpt>
      <trkpt lat="43.399172" lon="-5.823294">
        <ele>156.4</ele>
        <time>2024-09-04T13:19:53Z</time>
      </trkpt>
      <trkpt lat="43.399178750000004" lon="-5.823314">
        <ele>156.55</ele>
        <time>2024-09-04T13:19:54Z</time>
      </trkpt>
      <trkpt lat="43.3991855" lon="-5.823334">
        <ele>156.7</ele>
        <time>2024-09-04T13:19:55Z</time>
      </trkpt>
      <trkpt lat="43.39919225" lon="-5.823354">
        <ele>156.85</ele>
        <time>2024-09-04T13:19:56Z</time>
      </trkpt>
    </trkseg>
    <trkseg>
      <trkpt lat="43.4007345" lon="-5.826404500000001">
        <ele>161.0</ele>
        <time>2024-09-04T13:22:55Z</time>
      </trkpt>
      <trkpt lat="43.400734" lon="-5.826416">
        <ele>161.0</ele>
        <time>2024-09-04T13:22:56Z</time>
      </trkpt>
      <trkpt lat="43.4007345" lon="-5.82643">
        <ele>161.5</ele>
        <time>2024-09-04T13:22:57Z</time>
      </trkpt>
      <trkpt lat="43.400735" lon="-5.826444">
        <ele>162.0</ele>
        <time>2024-09-04T13:22:58Z</time>
      </trkpt>
      <trkpt lat="43.40072833333333" lon="-5.826457666666667">
        <ele>162.0</ele>
        <time>2024-09-04T13:22:59Z</time>
      </trkpt>
      <trkpt lat="43.40072166666666" lon="-5.826471333333333">
        <ele>162.0</ele>
        <time>2024-09-04T13:23:00Z</time>
      </trkpt>
    </trkseg>
    <trkseg>
      <trkpt lat="43.400648" lon="-5.826646">
        <ele>163.0</ele>
        <time>2024-09-04T13:23:11Z</time>
      </trkpt>
      <trkpt lat="43.400641" lon="-5.826659">
        <ele>163.0</ele>
        <time>2024-09-04T13:23:12Z</time>
      </trkpt>
      <trkpt lat="43.400634" lon="-5.826672">
        <ele>163.0</ele>
        <time>2024-09-04T13:23:13Z</time>
      </trkpt>
      <trkpt lat="43.400627" lon="-5.826685">
        <ele>163.0</ele>
        <time>2024-09-04T13:23:14Z</time>
      </trkpt>
      <trkpt lat="43.400608" lon="-5.826714">
        <ele>163.0</ele>
        <time>2024-09-04T13:23:15Z</time>
      </trkpt>
    </trkseg>
    <trkseg>
      <trkpt lat="43.397997" lon="-5.825001">
        <ele>169.0</ele>
        <time>2024-09-04T13:26:33Z</time>
      </trkpt>
      <trkpt lat="43.39798142857143" lon="-5.825005285714286">
        <ele>169.0</ele>
        <time>2024-09-04T13:26:34Z</time>
      </trkpt>
      <trkpt lat="43.39796585714286" lon="-5.825009571428572">
        <ele>169.0</ele>
        <time>2024-09-04T13:26:35Z</time>
      </trkpt>
      <trkpt lat="43.39795028571429" lon="-5.825013857142857">
        <ele>169.0</ele>
        <time>2024-09-04T13:26:36Z</time>
      </trkpt>
      <trkpt lat="43.39793471428571" lon="-5.825018142857143">
        <ele>169.0</ele>
        <time>2024-09-04T13:26:37Z</time>
      </trkpt>
      <trkpt lat="43.39791914285714" lon="-5.825022428571429">
        <ele>169.0</ele>
        <time>2024-09-04T13:26:38Z</time>
      </trkpt>
      <trkpt lat="43.39790357142857" lon="-5.825026714285714">
        <ele>169.0</ele>
        <time>2024-09-04T13:26:39Z</time>
      </trkpt>
    </trkseg>
    <trkseg>
      <trkpt lat="43.394603" lon="-5.825367">
        <ele>181.0</ele>
        <time>2024-09-04T13:30:23Z</time>
      </trkpt>
      <trkpt lat="43.39458775" lon="-5.8253710000000005">
        <ele>181.225</ele>
        <time>2024-09-04T13:30:24Z</time>
      </trkpt>
      <trkpt lat="43.394572499999995" lon="-5.825375">
        <ele>181.45</ele>
        <time>2024-09-04T13:30:25Z</time>
      </trkpt>
      <trkpt lat="43.39455725" lon="-5.825379">
        <ele>181.675</ele>
        <time>2024-09-04T13:30:26Z</time>
      </trkpt>
    </trkseg>
    <trkseg>
      <trkpt lat="43.394239" lon="-5.825574">
        <ele>184.0</ele>
        <time>2024-09-04T13:30:51Z</time>
      </trkpt>
      <trkpt lat="43.39422583333333" lon="-5.8255855">
        <ele>184.16666666666666</ele>
        <time>2024-09-04T13:30:52Z</time>
      </trkpt>
      <trkpt lat="43.39421266666667" lon="-5.825597">
        <ele>184.33333333333334</ele>
        <time>2024-09-04T13:30:53Z</time>
      </trkpt>
      <trkpt lat="43.3941995" lon="-5.8256084999999995">
        <ele>184.5</ele>
        <time>2024-09-04T13:30:54Z</time>
      </trkpt>
      <trkpt lat="43.39418633333333" lon="-5.82562">
        <ele>184.66666666666666</ele>
        <time>2024-09-04T13:30:55Z</time>
      </trkpt>
      <trkpt lat="43.39417316666667" lon="-5.8256315">
        <ele>184.83333333333334</ele>
        <time>2024-09-04T13:30:56Z</time>
      </trkpt>
    </trkseg>
    <trkseg>
      <trkpt lat="43.392071" lon="-5.824818">
        <ele>180.0</ele>
        <time>2024-09-04T13:33:33Z</time>
      </trkpt>
      <trkpt lat="43.39205475" lon="-5.824826">
        <ele>179.75</ele>
        <time>2024-09-04T13:33:34Z</time>
      </trkpt>
      <trkpt lat="43.3920385" lon="-5.824833999999999">
        <ele>179.5</ele>
        <time>2024-09-04T13:33:35Z</time>
      </trkpt>
      <trkpt lat="43.392022250000004" lon="-5.824841999999999">
        <ele>179.25</ele>
        <time>2024-09-04T13:33:36Z</time>
      </trkpt>
    </trkseg>
    <trkseg>
      <trkpt lat="43.391666666666666" lon="-5.825014">
        <ele>175.9</ele>
        <time>2024-09-04T13:34:00Z</time>
      </trkpt>
      <trkpt lat="43.3916525" lon="-5.825020500000001">
        <ele>175.85</ele>
        <time>2024-09-04T13:34:01Z</time>
      </trkpt>
      <trkpt lat="43.39163833333333" lon="-5.825027">
        <ele>175.79999999999998</ele>
        <time>2024-09-04T13:34:02Z</time>
      </trkpt>
      <trkpt lat="43.391624166666666" lon="-5.8250335">
        <ele>175.75</ele>
        <time>2024-09-04T13:34:03Z</time>
      </trkpt>
    </trkseg>
    <trkseg>
      <trkpt lat="43.391524" lon="-5.825083">
        <ele>174.4</ele>
        <time>2024-09-04T13:34:10Z</time>
      </trkpt>
      <trkpt lat="43.3915075" lon="-5.825102">
        <ele>174.7</ele>
        <time>2024-09-04T13:34:11Z</time>
      </trkpt>
    </trkseg>
    <trkseg>
      <trkpt lat="43.388674" lon="-5.825339">
        <ele>167.1</ele>
        <time>2024-09-04T13:37:15Z</time>
      </trkpt>
      <trkpt lat="43.38866016666667" lon="-5.825344833333333">
        <ele>167.25</ele>
        <time>2024-09-04T13:37:16Z</time>
      </trkpt>
      <trkpt lat="43.388646333333334" lon="-5.825350666666666">
        <ele>167.4</ele>
        <time>2024-09-04T13:37:17Z</time>
      </trkpt>
      <trkpt lat="43.3886325" lon="-5.8253565">
        <ele>167.55</ele>
        <time>2024-09-04T13:37:18Z</time>
      </trkpt>
      <trkpt lat="43.388618666666666" lon="-5.8253623333333335">
        <ele>167.7</ele>
        <time>2024-09-04T13:37:19Z</time>
      </trkpt>
      <trkpt lat="43.38860483333333" lon="-5.825368166666666">
        <ele>167.85</ele>
        <time>2024-09-04T13:37:20Z</time>
      </trkpt>
    </trkseg>
    <trkseg>
      <trkpt lat="43.388267" lon="-5.825661">
        <ele>169.0</ele>
        <time>2024-09-04T13:37:47Z</time>
      </trkpt>
      <trkpt lat="43.38826" lon="-5.82568425">
        <ele>169.25</ele>
        <time>2024-09-04T13:37:48Z</time>
      </trkpt>
      <trkpt lat="43.388253" lon="-5.8257075">
        <ele>169.5</ele>
        <time>2024-09-04T13:37:49Z</time>
      </trkpt>
      <trkpt lat="43.388245999999995" lon="-5.82573075">
        <ele>169.75</ele>
        <time>2024-09-04T13:37:50Z</time>
      </trkpt>
    </trkseg>
    <trkseg>
      <trkpt lat="43.386122" lon="-5.827482">
        <ele>180.0</ele>
        <time>2024-09-04T13:40:56Z</time>
      </trkpt>
      <trkpt lat="43.386111" lon="-5.8274908">
        <ele>180.2</ele>
        <time>2024-09-04T13:40:57Z</time>
      </trkpt>
      <trkpt lat="43.3861" lon="-5.8274995999999994">
        <ele>180.4</ele>
        <time>2024-09-04T13:40:58Z</time>
      </trkpt>
      <trkpt lat="43.386089" lon="-5.8275084">
        <ele>180.6</ele>
        <time>2024-09-04T13:40:59Z</time>
      </trkpt>
      <trkpt lat="43.386078" lon="-5.8275172">
        <ele>180.8</ele>
        <time>2024-09-04T13:41:00Z</time>
      </trkpt>
    </trkseg>
    <trkseg>
      <trkpt lat="43.384796" lon="-5.82505">
        <ele>174.8</ele>
        <time>2024-09-04T13:43:39Z</time>
      </trkpt>
      <trkpt lat="43.3848098" lon="-5.825038">
        <ele>174.64000000000001</ele>
        <time>2024-09-04T13:43:40Z</time>
      </trkpt>
      <trkpt lat="43.3848236" lon="-5.825026">
        <ele>174.48000000000002</ele>
        <time>2024-09-04T13:43:41Z</time>
      </trkpt>
    </trkseg>
    <trkseg>
      <trkpt lat="43.384865" lon="-5.82499">
        <ele>174.0</ele>
        <time>2024-09-04T13:43:44Z</time>
      </trkpt>
      <trkpt lat="43.384874599999996" lon="-5.824972799999999">
        <ele>174.0</ele>
        <time>2024-09-04T13:43:45Z</time>
      </trkpt>
      <trkpt lat="43.384884199999995" lon="-5.8249556">
        <ele>174.0</ele>
        <time>2024-09-04T13:43:46Z</time>
      </trkpt>
      <trkpt lat="43.3848938" lon="-5.8249384">
        <ele>174.0</ele>
        <time>2024-09-04T13:43:47Z</time>
      </trkpt>
    </trkseg>
    <trkseg>
      <trkpt lat="43.384913" lon="-5.824904">
        <ele>174.0</ele>
        <time>2024-09-04T13:43:49Z</time>
      </trkpt>
      <trkpt lat="43.384916249999996" lon="-5.8248825">
        <ele>173.85</ele>
        <time>2024-09-04T13:43:50Z</time>
      </trkpt>
      <trkpt lat="43.384919499999995" lon="-5.824861">
        <ele>173.7</ele>
        <time>2024-09-04T13:43:51Z</time>
      </trkpt>
      <trkpt lat="43.38492275" lon="-5.8248394999999995">
        <ele>173.55</ele>
        <time>2024-09-04T13:43:52Z</time>
      </trkpt>
    </trkseg>
    <trkseg>
      <trkpt lat="43.384934" lon="-5.824748">
        <ele>173.5</ele>
        <time>2024-09-04T13:43:56Z</time>
      </trkpt>
      <trkpt lat="43.384935" lon="-5.824729">
        <ele>173.25</ele>
        <time>2024-09-04T13:43:57Z</time>
      </trkpt>
      <trkpt lat="43.384936" lon="-5.82471">
        <ele>173.0</ele>
        <time>2024-09-04T13:43:58Z</time>
      </trkpt>
      <trkpt lat="43.384929" lon="-5.824613">
        <ele>173.0</ele>
        <time>2024-09-04T13:43:59Z</time>
      </trkpt>
    </trkseg>
    <trkseg>
      <trkpt lat="43.38455662247003" lon="-5.824239408161049">
        <ele>171.90986398250263</ele>
        <time>2024-09-04T13:44:43Z</time>
      </trkpt>
      <trkpt lat="43.38454221118222" lon="-5.824241883318095">
        <ele>171.71166819048113</ele>
        <time>2024-09-04T13:44:44Z</time>
      </trkpt>
      <trkpt lat="43.384527850626974" lon="-5.824244960579934">
        <ele>171.40394200660722</ele>
        <time>2024-09-04T13:44:45Z</time>
      </trkpt>
      <trkpt lat="43.384513490071726" lon="-5.824248037841772">
        <ele>171.0962158227333</ele>
        <time>2024-09-04T13:44:46Z</time>
      </trkpt>
    </trkseg>
    <trkseg>
      <trkpt lat="43.384331" lon="-5.824024">
        <ele>170.2</ele>
        <time>2024-09-04T13:45:13Z</time>
      </trkpt>
      <trkpt lat="43.384334333333335" lon="-5.824001333333333">
        <ele>170.16666666666666</ele>
        <time>2024-09-04T13:45:14Z</time>
      </trkpt>
      <trkpt lat="43.38433766666667" lon="-5.823978666666666">
        <ele>170.13333333333333</ele>
        <time>2024-09-04T13:45:15Z</time>
      </trkpt>
      <trkpt lat="43.384341000000006" lon="-5.823956">
        <ele>170.1</ele>
        <time>2024-09-04T13:45:16Z</time>
      </trkpt>
      <trkpt lat="43.38434433333334" lon="-5.823933333333334">
        <ele>170.06666666666666</ele>
        <time>2024-09-04T13:45:17Z</time>
      </trkpt>
      <trkpt lat="43.38434766666667" lon="-5.8239106666666665">
        <ele>170.03333333333333</ele>
        <time>2024-09-04T13:45:18Z</time>
      </trkpt>
    </trkseg>
    <trkseg>
      <trkpt lat="43.384584476062905" lon="-5.822685700803696">
        <ele>167.7409574837815</ele>
        <time>2024-09-04T13:46:20Z</time>
      </trkpt>
      <trkpt lat="43.3845878667543" lon="-5.82266433944788">
        <ele>167.60532982781052</ele>
        <time>2024-09-04T13:46:21Z</time>
      </trkpt>
      <trkpt lat="43.384591257445706" lon="-5.822642978092065">
        <ele>167.46970217183957</ele>
        <time>2024-09-04T13:46:22Z</time>
      </trkpt>
      <trkpt lat="43.3845946481371" lon="-5.8226216167362495">
        <ele>167.33407451586862</ele>
        <time>2024-09-04T13:46:23Z</time>
      </trkpt>
      <trkpt lat="43.3845980388285" lon="-5.822600255380434">
        <ele>167.19844685989764</ele>
        <time>2024-09-04T13:46:24Z</time>
      </trkpt>
    </trkseg>
    <trkseg>
      <trkpt lat="43.38462" lon="-5.822219">
        <ele>167.0</ele>
        <time>2024-09-04T13:46:41Z</time>
      </trkpt>
      <trkpt lat="43.384631" lon="-5.822203999999999">
        <ele>166.8</ele>
        <time>2024-09-04T13:46:42Z</time>
      </trkpt>
      <trkpt lat="43.384642" lon="-5.822189">
        <ele>166.6</ele>
        <time>2024-09-04T13:46:43Z</time>
      </trkpt>
      <trkpt lat="43.384653" lon="-5.8221739999999995">
        <ele>166.4</ele>
        <time>2024-09-04T13:46:44Z</time>
      </trkpt>
      <trkpt lat="43.384664" lon="-5.822159">
        <ele>166.2</ele>
        <time>2024-09-04T13:46:45Z</time>
      </trkpt>
    </trkseg>
  </trk>
</gpx>