<?xml version="1.0" encoding="UTF-8"?>
<gpx xmlns="http://www.topografix.com/GPX/1/1" xmlns:xsi="http://www.w3.org/2001/XMLSchema-instance" xsi:schemaLocation="http://www.topografix.com/GPX/1/1 http://www.topografix.com/GPX/1/1/gpx.xsd" version="1.1" creator="gpx.py -- https://github.com/tkrajina/gpxpy">
  <trk>
    <name>12_pattern_elev_fixed.gpx</name>
    <trkseg>
      <trkpt lat="43.291441" lon="-5.982916">
        <ele>146.0</ele>
        <time>2024-09-07T14:23:59Z</time>
      </trkpt>
      <trkpt lat="43.291454" lon="-5.982901">
        <ele>146.0</ele>
        <time>2024-09-07T14:24:01Z</time>
      </trkpt>
      <trkpt lat="43.291609" lon="-5.982637">
        <ele>146.4</ele>
        <time>2024-09-07T14:24:12Z</time>
      </trkpt>
      <trkpt lat="43.291622" lon="-5.982604">
        <ele>146.0</ele>
        <time>2024-09-07T14:24:13Z</time>
      </trkpt>
      <trkpt lat="43.291682" lon="-5.982427">
        <ele>146.0</ele>
        <time>2024-09-07T14:24:17.889000Z</time>
      </trkpt>
      <trkpt lat="43.291903" lon="-5.982315">
        <ele>146.0</ele>
        <time>2024-09-07T14:24:26Z</time>
      </trkpt>
      <trkpt lat="43.292195" lon="-5.982101">
        <ele>146.0</ele>
        <time>2024-09-07T14:24:39Z</time>
      </trkpt>
      <trkpt lat="43.292202" lon="-5.982093">
        <ele>146.0</ele>
        <time>2024-09-07T14:24:52Z</time>
      </trkpt>
      <trkpt lat="43.292212" lon="-5.982088">
        <ele>146.0</ele>
        <time>2024-09-07T14:24:53Z</time>
      </trkpt>
      <trkpt lat="43.292227" lon="-5.982079">
        <ele>146.0</ele>
        <time>2024-09-07T14:24:54Z</time>
      </trkpt>
      <trkpt lat="43.292245" lon="-5.982066">
        <ele>146.0</ele>
        <time>2024-09-07T14:24:55Z</time>
      </trkpt>
      <trkpt lat="43.292264" lon="-5.98205">
        <ele>146.0</ele>
        <time>2024-09-07T14:24:56Z</time>
      </trkpt>
      <trkpt lat="43.292556" lon="-5.981885">
        <ele>146.0</ele>
        <time>2024-09-07T14:25:05.770000Z</time>
      </trkpt>
      <trkpt lat="43.292756" lon="-5.981851">
        <ele>146.0</ele>
        <time>2024-09-07T14:25:12Z</time>
      </trkpt>
      <trkpt lat="43.292962" lon="-5.981905">
        <ele>145.3</ele>
        <time>2024-09-07T14:25:17.376000Z</time>
      </trkpt>
      <trkpt lat="43.293194" lon="-5.982063">
        <ele>145.0</ele>
        <time>2024-09-07T14:25:24Z</time>
      </trkpt>
      <trkpt lat="43.293787" lon="-5.982736">
        <ele>144.0</ele>
        <time>2024-09-07T14:25:43Z</time>
      </trkpt>
      <trkpt lat="43.293988" lon="-5.983069">
        <ele>144.0</ele>
        <time>2024-09-07T14:25:50.970000Z</time>
      </trkpt>
      <trkpt lat="43.29415" lon="-5.983228">
        <ele>144.0</ele>
        <time>2024-09-07T14:25:56Z</time>
      </trkpt>
      <trkpt lat="43.29426" lon="-5.983346">
        <ele>143.0</ele>
        <time>2024-09-07T14:26:01Z</time>
      </trkpt>
      <trkpt lat="43.294281" lon="-5.98335">
        <ele>143.0</ele>
        <time>2024-09-07T14:26:02Z</time>
      </trkpt>
      <trkpt lat="43.2943" lon="-5.983341">
        <ele>143.0</ele>
        <time>2024-09-07T14:26:03Z</time>
      </trkpt>
      <trkpt lat="43.294316" lon="-5.983322">
        <ele>143.0</ele>
        <time>2024-09-07T14:26:04Z</time>
      </trkpt>
      <trkpt lat="43.294331" lon="-5.983304">
        <ele>143.0</ele>
        <time>2024-09-07T14:26:05Z</time>
      </trkpt>
      <trkpt lat="43.294346" lon="-5.983293">
        <ele>143.0</ele>
        <time>2024-09-07T14:26:06Z</time>
      </trkpt>
      <trkpt lat="43.29436" lon="-5.98329">
        <ele>143.0</ele>
        <time>2024-09-07T14:26:07Z</time>
      </trkpt>
      <trkpt lat="43.294368" lon="-5.983296">
        <ele>143.0</ele>
        <time>2024-09-07T14:26:08Z</time>
      </trkpt>
      <trkpt lat="43.294368" lon="-5.983308">
        <ele>143.0</ele>
        <time>2024-09-07T14:26:09Z</time>
      </trkpt>
      <trkpt lat="43.29436" lon="-5.983323">
        <ele>143.0</ele>
        <time>2024-09-07T14:26:10Z</time>
      </trkpt>
      <trkpt lat="43.294345" lon="-5.983339">
        <ele>143.0</ele>
        <time>2024-09-07T14:26:11Z</time>
      </trkpt>
      <trkpt lat="43.294327" lon="-5.983357">
        <ele>143.0</ele>
        <time>2024-09-07T14:26:12Z</time>
      </trkpt>
      <trkpt lat="43.294309" lon="-5.983377">
        <ele>143.0</ele>
        <time>2024-09-07T14:26:13Z</time>
      </trkpt>
      <trkpt lat="43.294291" lon="-5.983401">
        <ele>143.0</ele>
        <time>2024-09-07T14:26:14Z</time>
      </trkpt>
      <trkpt lat="43.294036" lon="-5.983667">
        <ele>145.0</ele>
        <time>2024-09-07T14:26:26Z</time>
      </trkpt>
      <trkpt lat="43.294016" lon="-5.983668">
        <ele>145.0</ele>
        <time>2024-09-07T14:26:27Z</time>
      </trkpt>
      <trkpt lat="43.294" lon="-5.983658">
        <ele>145.1</ele>
        <time>2024-09-07T14:26:28Z</time>
      </trkpt>
      <trkpt lat="43.293752" lon="-5.983392">
        <ele>145.6</ele>
        <time>2024-09-07T14:26:39Z</time>
      </trkpt>
      <trkpt lat="43.293239" lon="-5.983133">
        <ele>148.0</ele>
        <time>2024-09-07T14:26:55Z</time>
      </trkpt>
      <trkpt lat="43.292886" lon="-5.983173">
        <ele>148.0</ele>
        <time>2024-09-07T14:27:07Z</time>
      </trkpt>
      <trkpt lat="43.292671" lon="-5.983227">
        <ele>148.2</ele>
        <time>2024-09-07T14:27:15.462000Z</time>
      </trkpt>
      <trkpt lat="43.292446" lon="-5.983365">
        <ele>150.2</ele>
        <time>2024-09-07T14:27:25Z</time>
      </trkpt>
      <trkpt lat="43.292064" lon="-5.983717">
        <ele>149.4</ele>
        <time>2024-09-07T14:27:42Z</time>
      </trkpt>
      <trkpt lat="43.291706" lon="-5.984091">
        <ele>151.0</ele>
        <time>2024-09-07T14:27:58Z</time>
      </trkpt>
      <trkpt lat="43.291291" lon="-5.984368">
        <ele>150.0</ele>
        <time>2024-09-07T14:28:14Z</time>
      </trkpt>
      <trkpt lat="43.290974" lon="-5.984537">
        <ele>152.1</ele>
        <time>2024-09-07T14:28:24.360000Z</time>
      </trkpt>
      <trkpt lat="43.290708" lon="-5.984672">
        <ele>149.8</ele>
        <time>2024-09-07T14:28:33Z</time>
      </trkpt>
      <trkpt lat="43.290342" lon="-5.984989">
        <ele>150.9</ele>
        <time>2024-09-07T14:28:45Z</time>
      </trkpt>
      <trkpt lat="43.290244" lon="-5.985071">
        <ele>151.3</ele>
        <time>2024-09-07T14:28:48Z</time>
      </trkpt>
      <trkpt lat="43.290187" lon="-5.985131">
        <ele>152.7</ele>
        <time>2024-09-07T14:28:49Z</time>
      </trkpt>
      <trkpt lat="43.290129" lon="-5.985176">
        <ele>152.7</ele>
        <time>2024-09-07T14:28:51Z</time>
      </trkpt>
      <trkpt lat="43.289825" lon="-5.985263">
        <ele>153.0</ele>
        <time>2024-09-07T14:28:57.349000Z</time>
      </trkpt>
      <trkpt lat="43.289452" lon="-5.985231">
        <ele>150.9</ele>
        <time>2024-09-07T14:29:05Z</time>
      </trkpt>
      <trkpt lat="43.289414" lon="-5.985226">
        <ele>150.7</ele>
        <time>2024-09-07T14:29:06Z</time>
      </trkpt>
      <trkpt lat="43.289145" lon="-5.985259">
        <ele>152.5</ele>
        <time>2024-09-07T14:29:12Z</time>
      </trkpt>
      <trkpt lat="43.288964" lon="-5.985302">
        <ele>151.8</ele>
        <time>2024-09-07T14:29:16Z</time>
      </trkpt>
      <trkpt lat="43.288458" lon="-5.985398">
        <ele>153.7</ele>
        <time>2024-09-07T14:29:26Z</time>
      </trkpt>
      <trkpt lat="43.288413" lon="-5.985397">
        <ele>152.6</ele>
        <time>2024-09-07T14:29:27Z</time>
      </trkpt>
      <trkpt lat="43.288366" lon="-5.985392">
        <ele>151.6</ele>
        <time>2024-09-07T14:29:28Z</time>
      </trkpt>
      <trkpt lat="43.288325" lon="-5.985374">
        <ele>151.0</ele>
        <time>2024-09-07T14:29:29Z</time>
      </trkpt>
      <trkpt lat="43.28828" lon="-5.985357">
        <ele>151.2</ele>
        <time>2024-09-07T14:29:30Z</time>
      </trkpt>
      <trkpt lat="43.288241" lon="-5.985324">
        <ele>152.0</ele>
        <time>2024-09-07T14:29:31Z</time>
      </trkpt>
      <trkpt lat="43.288157" lon="-5.985256">
        <ele>153.0</ele>
        <time>2024-09-07T14:29:33Z</time>
      </trkpt>
      <trkpt lat="43.288119" lon="-5.985213">
        <ele>152.5</ele>
        <time>2024-09-07T14:29:34Z</time>
      </trkpt>
      <trkpt lat="43.287774" lon="-5.984788">
        <ele>152.3</ele>
        <time>2024-09-07T14:29:46Z</time>
      </trkpt>
      <trkpt lat="43.287465" lon="-5.984472">
        <ele>151.3</ele>
        <time>2024-09-07T14:29:57Z</time>
      </trkpt>
      <trkpt lat="43.287176" lon="-5.98424">
        <ele>153.0</ele>
        <time>2024-09-07T14:30:10Z</time>
      </trkpt>
      <trkpt lat="43.287098" lon="-5.984225">
        <ele>152.7</ele>
        <time>2024-09-07T14:30:11Z</time>
      </trkpt>
      <trkpt lat="43.287015" lon="-5.98418">
        <ele>151.0</ele>
        <time>2024-09-07T14:30:13Z</time>
      </trkpt>
      <trkpt lat="43.286967" lon="-5.984176">
        <ele>151.0</ele>
        <time>2024-09-07T14:30:14Z</time>
      </trkpt>
      <trkpt lat="43.28691" lon="-5.984169">
        <ele>150.7</ele>
        <time>2024-09-07T14:30:15Z</time>
      </trkpt>
      <trkpt lat="43.286715" lon="-5.984193">
        <ele>151.0</ele>
        <time>2024-09-07T14:30:19.732000Z</time>
      </trkpt>
      <trkpt lat="43.286507" lon="-5.984284">
        <ele>152.0</ele>
        <time>2024-09-07T14:30:25Z</time>
      </trkpt>
      <trkpt lat="43.286056" lon="-5.98463">
        <ele>152.3</ele>
        <time>2024-09-07T14:30:39Z</time>
      </trkpt>
      <trkpt lat="43.285636" lon="-5.984953">
        <ele>153.5</ele>
        <time>2024-09-07T14:30:52Z</time>
      </trkpt>
      <trkpt lat="43.285425" lon="-5.985189">
        <ele>153.2</ele>
        <time>2024-09-07T14:30:59.674000Z</time>
      </trkpt>
      <trkpt lat="43.285264" lon="-5.985404">
        <ele>153.0</ele>
        <time>2024-09-07T14:31:06Z</time>
      </trkpt>
      <trkpt lat="43.284891" lon="-5.986009">
        <ele>153.0</ele>
        <time>2024-09-07T14:31:21Z</time>
      </trkpt>
      <trkpt lat="43.284333" lon="-5.986869">
        <ele>153.0</ele>
        <time>2024-09-07T14:31:43Z</time>
      </trkpt>
      <trkpt lat="43.283845" lon="-5.987516">
        <ele>153.0</ele>
        <time>2024-09-07T14:31:59Z</time>
      </trkpt>
      <trkpt lat="43.283253" lon="-5.988313">
        <ele>154.0</ele>
        <time>2024-09-07T14:32:20Z</time>
      </trkpt>
      <trkpt lat="43.282976" lon="-5.988527">
        <ele>153.0</ele>
        <time>2024-09-07T14:32:32Z</time>
      </trkpt>
      <trkpt lat="43.282682" lon="-5.988477">
        <ele>154.0</ele>
        <time>2024-09-07T14:32:45Z</time>
      </trkpt>
      <trkpt lat="43.28245" lon="-5.988433">
        <ele>157.0</ele>
        <time>2024-09-07T14:32:55.218000Z</time>
      </trkpt>
      <trkpt lat="43.282293" lon="-5.988447">
        <ele>157.0</ele>
        <time>2024-09-07T14:33:02Z</time>
      </trkpt>
      <trkpt lat="43.281981" lon="-5.988898">
        <ele>157.5</ele>
        <time>2024-09-07T14:33:18Z</time>
      </trkpt>
      <trkpt lat="43.281759" lon="-5.98927">
        <ele>158.1</ele>
        <time>2024-09-07T14:33:30Z</time>
      </trkpt>
      <trkpt lat="43.28142" lon="-5.989778">
        <ele>159.0</ele>
        <time>2024-09-07T14:33:45Z</time>
      </trkpt>
      <trkpt lat="43.281181" lon="-5.990127">
        <ele>159.0</ele>
        <time>2024-09-07T14:33:55Z</time>
      </trkpt>
      <trkpt lat="43.280888" lon="-5.990525">
        <ele>160.0</ele>
        <time>2024-09-07T14:34:08Z</time>
      </trkpt>
      <trkpt lat="43.280619" lon="-5.990891">
        <ele>160.0</ele>
        <time>2024-09-07T14:34:20Z</time>
      </trkpt>
      <trkpt lat="43.280467" lon="-5.991025">
        <ele>159.0</ele>
        <time>2024-09-07T14:34:25.887000Z</time>
      </trkpt>
      <trkpt lat="43.28025" lon="-5.991061">
        <ele>159.0</ele>
        <time>2024-09-07T14:34:33Z</time>
      </trkpt>
      <trkpt lat="43.279863" lon="-5.990808">
        <ele>160.4</ele>
        <time>2024-09-07T14:34:47Z</time>
      </trkpt>
      <trkpt lat="43.279485" lon="-5.990541">
        <ele>161.1</ele>
        <time>2024-09-07T14:35:01Z</time>
      </trkpt>
      <trkpt lat="43.279294" lon="-5.990454">
        <ele>160.5</ele>
        <time>2024-09-07T14:35:08.049000Z</time>
      </trkpt>
      <trkpt lat="43.279095" lon="-5.99047">
        <ele>160.3</ele>
        <time>2024-09-07T14:35:15Z</time>
      </trkpt>
      <trkpt lat="43.278729" lon="-5.990507">
        <ele>160.1</ele>
        <time>2024-09-07T14:35:27Z</time>
      </trkpt>
      <trkpt lat="43.278698" lon="-5.99051">
        <ele>160.4</ele>
        <time>2024-09-07T14:35:28Z</time>
      </trkpt>
      <trkpt lat="43.278445" lon="-5.990522">
        <ele>163.5</ele>
        <time>2024-09-07T14:35:35.877000Z</time>
      </trkpt>
      <trkpt lat="43.278254" lon="-5.990593">
        <ele>163.0</ele>
        <time>2024-09-07T14:35:42Z</time>
      </trkpt>
      <trkpt lat="43.278" lon="-5.990829">
        <ele>163.0</ele>
        <time>2024-09-07T14:35:50.948000Z</time>
      </trkpt>
      <trkpt lat="43.277838" lon="-5.991077">
        <ele>162.8</ele>
        <time>2024-09-07T14:35:58Z</time>
      </trkpt>
      <trkpt lat="43.277542" lon="-5.991512">
        <ele>163.0</ele>
        <time>2024-09-07T14:36:12Z</time>
      </trkpt>
      <trkpt lat="43.277245" lon="-5.991984">
        <ele>163.0</ele>
        <time>2024-09-07T14:36:26Z</time>
      </trkpt>
      <trkpt lat="43.277003" lon="-5.992373">
        <ele>163.0</ele>
        <time>2024-09-07T14:36:35.796000Z</time>
      </trkpt>
      <trkpt lat="43.276912" lon="-5.992672">
        <ele>163.0</ele>
        <time>2024-09-07T14:36:42Z</time>
      </trkpt>
      <trkpt lat="43.276683" lon="-5.993258">
        <ele>163.0</ele>
        <time>2024-09-07T14:37:01Z</time>
      </trkpt>
      <trkpt lat="43.276334" lon="-5.993927">
        <ele>164.6</ele>
        <time>2024-09-07T14:37:19Z</time>
      </trkpt>
      <trkpt lat="43.275927" lon="-5.994572">
        <ele>165.0</ele>
        <time>2024-09-07T14:37:39Z</time>
      </trkpt>
      <trkpt lat="43.275695" lon="-5.994938">
        <ele>165.2</ele>
        <time>2024-09-07T14:37:49.736000Z</time>
      </trkpt>
      <trkpt lat="43.275537" lon="-5.995296">
        <ele>166.0</ele>
        <time>2024-09-07T14:37:59Z</time>
      </trkpt>
      <trkpt lat="43.275354" lon="-5.995679">
        <ele>166.0</ele>
        <time>2024-09-07T14:38:10Z</time>
      </trkpt>
      <trkpt lat="43.275025" lon="-5.996258">
        <ele>166.3</ele>
        <time>2024-09-07T14:38:28Z</time>
      </trkpt>
      <trkpt lat="43.274735" lon="-5.996811">
        <ele>167.0</ele>
        <time>2024-09-07T14:38:45Z</time>
      </trkpt>
      <trkpt lat="43.274443" lon="-5.997369">
        <ele>168.1</ele>
        <time>2024-09-07T14:39:04Z</time>
      </trkpt>
      <trkpt lat="43.274442" lon="-5.997388">
        <ele>168.0</ele>
        <time>2024-09-07T14:39:05Z</time>
      </trkpt>
      <trkpt lat="43.274436" lon="-5.997414">
        <ele>168.0</ele>
        <time>2024-09-07T14:39:06Z</time>
      </trkpt>
      <trkpt lat="43.274428" lon="-5.997469">
        <ele>167.8</ele>
        <time>2024-09-07T14:39:07Z</time>
      </trkpt>
      <trkpt lat="43.274424" lon="-5.9975">
        <ele>167.5</ele>
        <time>2024-09-07T14:39:08Z</time>
      </trkpt>
      <trkpt lat="43.274429" lon="-5.99753">
        <ele>167.0</ele>
        <time>2024-09-07T14:39:09Z</time>
      </trkpt>
      <trkpt lat="43.274435" lon="-5.997563">
        <ele>167.0</ele>
        <time>2024-09-07T14:39:10Z</time>
      </trkpt>
      <trkpt lat="43.274443" lon="-5.997604">
        <ele>167.0</ele>
        <time>2024-09-07T14:39:11Z</time>
      </trkpt>
      <trkpt lat="43.274679" lon="-5.998131">
        <ele>167.0</ele>
        <time>2024-09-07T14:39:23Z</time>
      </trkpt>
      <trkpt lat="43.274824" lon="-5.998736">
        <ele>167.0</ele>
        <time>2024-09-07T14:39:37Z</time>
      </trkpt>
      <trkpt lat="43.274726" lon="-5.999134">
        <ele>166.1</ele>
        <time>2024-09-07T14:39:48Z</time>
      </trkpt>
      <trkpt lat="43.274534" lon="-5.999678">
        <ele>166.6</ele>
        <time>2024-09-07T14:40:03Z</time>
      </trkpt>
      <trkpt lat="43.274246" lon="-6.000277">
        <ele>167.0</ele>
        <time>2024-09-07T14:40:19Z</time>
      </trkpt>
      <trkpt lat="43.27391" lon="-6.000799">
        <ele>167.0</ele>
        <time>2024-09-07T14:40:35Z</time>
      </trkpt>
      <trkpt lat="43.273819" lon="-6.000912">
        <ele>167.0</ele>
        <time>2024-09-07T14:40:38.637000Z</time>
      </trkpt>
      <trkpt lat="43.273856" lon="-6.001008">
        <ele>168.0</ele>
        <time>2024-09-07T14:40:41Z</time>
      </trkpt>
      <trkpt lat="43.273916" lon="-6.001163">
        <ele>172.0</ele>
        <time>2024-09-07T14:40:46Z</time>
      </trkpt>
      <trkpt lat="43.274024" lon="-6.001418">
        <ele>171.7</ele>
        <time>2024-09-07T14:40:54Z</time>
      </trkpt>
      <trkpt lat="43.273992" lon="-6.001429">
        <ele>171.0</ele>
        <time>2024-09-07T14:40:55Z</time>
      </trkpt>
      <trkpt lat="43.273948" lon="-6.001482">
        <ele>170.5</ele>
        <time>2024-09-07T14:40:57Z</time>
      </trkpt>
      <trkpt lat="43.273904" lon="-6.001488">
        <ele>171.0</ele>
        <time>2024-09-07T14:40:58Z</time>
      </trkpt>
      <trkpt lat="43.273648" lon="-6.001786">
        <ele>171.0</ele>
        <time>2024-09-07T14:41:11Z</time>
      </trkpt>
      <trkpt lat="43.273616" lon="-6.001883">
        <ele>172.0</ele>
        <time>2024-09-07T14:41:12Z</time>
      </trkpt>
      <trkpt lat="43.27361" lon="-6.001923">
        <ele>172.4</ele>
        <time>2024-09-07T14:41:13Z</time>
      </trkpt>
      <trkpt lat="43.273578" lon="-6.00203">
        <ele>173.0</ele>
        <time>2024-09-07T14:41:18Z</time>
      </trkpt>
      <trkpt lat="43.27355" lon="-6.00212">
        <ele>174.0</ele>
        <time>2024-09-07T14:41:19Z</time>
      </trkpt>
      <trkpt lat="43.273351" lon="-6.002386">
        <ele>175.7</ele>
        <time>2024-09-07T14:41:32Z</time>
      </trkpt>
      <trkpt lat="43.273135" lon="-6.002691">
        <ele>178.7</ele>
        <time>2024-09-07T14:41:44Z</time>
      </trkpt>
      <trkpt lat="43.272686" lon="-6.003016">
        <ele>177.9</ele>
        <time>2024-09-07T14:42:00Z</time>
      </trkpt>
      <trkpt lat="43.272322" lon="-6.00304">
        <ele>177.0</ele>
        <time>2024-09-07T14:42:12Z</time>
      </trkpt>
      <trkpt lat="43.272269" lon="-6.003023">
        <ele>177.0</ele>
        <time>2024-09-07T14:42:14Z</time>
      </trkpt>
      <trkpt lat="43.272245" lon="-6.003032">
        <ele>177.0</ele>
        <time>2024-09-07T14:42:15Z</time>
      </trkpt>
      <trkpt lat="43.272221" lon="-6.003036">
        <ele>177.0</ele>
        <time>2024-09-07T14:42:16Z</time>
      </trkpt>
      <trkpt lat="43.271891" lon="-6.003122">
        <ele>178.7</ele>
        <time>2024-09-07T14:42:28Z</time>
      </trkpt>
      <trkpt lat="43.271529" lon="-6.003128">
        <ele>177.0</ele>
        <time>2024-09-07T14:42:40Z</time>
      </trkpt>
      <trkpt lat="43.271487" lon="-6.003121">
        <ele>177.0</ele>
        <time>2024-09-07T14:42:41Z</time>
      </trkpt>
      <trkpt lat="43.271443" lon="-6.003108">
        <ele>177.0</ele>
        <time>2024-09-07T14:42:42Z</time>
      </trkpt>
      <trkpt lat="43.271088" lon="-6.003015">
        <ele>175.8</ele>
        <time>2024-09-07T14:42:49.459000Z</time>
      </trkpt>
      <trkpt lat="43.27079" lon="-6.002867">
        <ele>174.1</ele>
        <time>2024-09-07T14:42:56Z</time>
      </trkpt>
      <trkpt lat="43.270517" lon="-6.002774">
        <ele>175.8</ele>
        <time>2024-09-07T14:43:03.426000Z</time>
      </trkpt>
      <trkpt lat="43.270307" lon="-6.002749">
        <ele>176.4</ele>
        <time>2024-09-07T14:43:09Z</time>
      </trkpt>
      <trkpt lat="43.269754" lon="-6.002873">
        <ele>175.0</ele>
        <time>2024-09-07T14:43:20Z</time>
      </trkpt>
      <trkpt lat="43.269687" lon="-6.002858">
        <ele>175.0</ele>
        <time>2024-09-07T14:43:21Z</time>
      </trkpt>
      <trkpt lat="43.269619" lon="-6.002842">
        <ele>174.0</ele>
        <time>2024-09-07T14:43:22Z</time>
      </trkpt>
      <trkpt lat="43.269503" lon="-6.00274">
        <ele>174.0</ele>
        <time>2024-09-07T14:43:24Z</time>
      </trkpt>
      <trkpt lat="43.269058" lon="-6.002339">
        <ele>174.0</ele>
        <time>2024-09-07T14:43:36Z</time>
      </trkpt>
      <trkpt lat="43.268771" lon="-6.002095">
        <ele>176.2</ele>
        <time>2024-09-07T14:43:45Z</time>
      </trkpt>
      <trkpt lat="43.268741" lon="-6.002097">
        <ele>177.0</ele>
        <time>2024-09-07T14:43:46Z</time>
      </trkpt>
      <trkpt lat="43.268478" lon="-6.002137">
        <ele>178.5</ele>
        <time>2024-09-07T14:43:56Z</time>
      </trkpt>
      <trkpt lat="43.268007" lon="-6.002233">
        <ele>179.1</ele>
        <time>2024-09-07T14:44:13Z</time>
      </trkpt>
      <trkpt lat="43.26761" lon="-6.002282">
        <ele>180.9</ele>
        <time>2024-09-07T14:44:27Z</time>
      </trkpt>
      <trkpt lat="43.267262" lon="-6.002255">
        <ele>180.7</ele>
        <time>2024-09-07T14:44:39Z</time>
      </trkpt>
      <trkpt lat="43.266841" lon="-6.002153">
        <ele>182.5</ele>
        <time>2024-09-07T14:44:54Z</time>
      </trkpt>
      <trkpt lat="43.266463" lon="-6.002065">
        <ele>183.0</ele>
        <time>2024-09-07T14:45:10Z</time>
      </trkpt>
      <trkpt lat="43.26611" lon="-6.002098">
        <ele>182.4</ele>
        <time>2024-09-07T14:45:23Z</time>
      </trkpt>
      <trkpt lat="43.265992" lon="-6.002167">
        <ele>181.7</ele>
        <time>2024-09-07T14:45:28Z</time>
      </trkpt>
      <trkpt lat="43.265644" lon="-6.002317">
        <ele>184.0</ele>
        <time>2024-09-07T14:45:42Z</time>
      </trkpt>
      <trkpt lat="43.26548" lon="-6.002388">
        <ele>183.9</ele>
        <time>2024-09-07T14:45:48.064000Z</time>
      </trkpt>
      <trkpt lat="43.265057" lon="-6.002429">
        <ele>185.0</ele>
        <time>2024-09-07T14:46:03Z</time>
      </trkpt>
      <trkpt lat="43.264778" lon="-6.002478">
        <ele>184.6</ele>
        <time>2024-09-07T14:46:13Z</time>
      </trkpt>
      <trkpt lat="43.264413" lon="-6.002613">
        <ele>184.9</ele>
        <time>2024-09-07T14:46:24.841000Z</time>
      </trkpt>
      <trkpt lat="43.264145" lon="-6.002776">
        <ele>183.8</ele>
        <time>2024-09-07T14:46:34Z</time>
      </trkpt>
      <trkpt lat="43.263507" lon="-6.002989">
        <ele>185.8</ele>
        <time>2024-09-07T14:46:54Z</time>
      </trkpt>
      <trkpt lat="43.262932" lon="-6.003078">
        <ele>186.9</ele>
        <time>2024-09-07T14:47:14Z</time>
      </trkpt>
      <trkpt lat="43.262555" lon="-6.00313">
        <ele>188.9</ele>
        <time>2024-09-07T14:47:26Z</time>
      </trkpt>
      <trkpt lat="43.262089" lon="-6.003247">
        <ele>189.0</ele>
        <time>2024-09-07T14:47:41Z</time>
      </trkpt>
      <trkpt lat="43.261543" lon="-6.003492">
        <ele>189.4</ele>
        <time>2024-09-07T14:47:59Z</time>
      </trkpt>
      <trkpt lat="43.261069" lon="-6.00369">
        <ele>190.8</ele>
        <time>2024-09-07T14:48:16Z</time>
      </trkpt>
      <trkpt lat="43.260713" lon="-6.003858">
        <ele>189.8</ele>
        <time>2024-09-07T14:48:28Z</time>
      </trkpt>
      <trkpt lat="43.260274" lon="-6.004049">
        <ele>191.7</ele>
        <time>2024-09-07T14:48:43Z</time>
      </trkpt>
      <trkpt lat="43.259914" lon="-6.00427">
        <ele>192.0</ele>
        <time>2024-09-07T14:48:56Z</time>
      </trkpt>
      <trkpt lat="43.259519" lon="-6.004468">
        <ele>192.6</ele>
        <time>2024-09-07T14:49:09Z</time>
      </trkpt>
      <trkpt lat="43.259203" lon="-6.004575">
        <ele>194.0</ele>
        <time>2024-09-07T14:49:19Z</time>
      </trkpt>
      <trkpt lat="43.258836" lon="-6.004743">
        <ele>194.0</ele>
        <time>2024-09-07T14:49:31Z</time>
      </trkpt>
      <trkpt lat="43.258407" lon="-6.004927">
        <ele>195.0</ele>
        <time>2024-09-07T14:49:46Z</time>
      </trkpt>
      <trkpt lat="43.258376" lon="-6.004942">
        <ele>195.0</ele>
        <time>2024-09-07T14:49:47Z</time>
      </trkpt>
      <trkpt lat="43.258343" lon="-6.004947">
        <ele>195.0</ele>
        <time>2024-09-07T14:49:48Z</time>
      </trkpt>
      <trkpt lat="43.258312" lon="-6.004964">
        <ele>195.0</ele>
        <time>2024-09-07T14:49:49Z</time>
      </trkpt>
      <trkpt lat="43.258277" lon="-6.004979">
        <ele>195.0</ele>
        <time>2024-09-07T14:49:50Z</time>
      </trkpt>
      <trkpt lat="43.258245" lon="-6.004983">
        <ele>195.0</ele>
        <time>2024-09-07T14:49:51Z</time>
      </trkpt>
      <trkpt lat="43.258223" lon="-6.004992">
        <ele>195.0</ele>
        <time>2024-09-07T14:49:52Z</time>
      </trkpt>
      <trkpt lat="43.258191" lon="-6.005021">
        <ele>194.9</ele>
        <time>2024-09-07T14:49:53Z</time>
      </trkpt>
      <trkpt lat="43.258155" lon="-6.00504">
        <ele>194.8</ele>
        <time>2024-09-07T14:49:54Z</time>
      </trkpt>
      <trkpt lat="43.25813" lon="-6.005053">
        <ele>194.6</ele>
        <time>2024-09-07T14:49:55Z</time>
      </trkpt>
      <trkpt lat="43.258107" lon="-6.005074">
        <ele>194.8</ele>
        <time>2024-09-07T14:49:56Z</time>
      </trkpt>
      <trkpt lat="43.257612" lon="-6.005278">
        <ele>195.6</ele>
        <time>2024-09-07T14:50:14Z</time>
      </trkpt>
      <trkpt lat="43.257268" lon="-6.005443">
        <ele>196.2</ele>
        <time>2024-09-07T14:50:31Z</time>
      </trkpt>
      <trkpt lat="43.257081" lon="-6.005532">
        <ele>197.0</ele>
        <time>2024-09-07T14:50:39Z</time>
      </trkpt>
      <trkpt lat="43.257058" lon="-6.005541">
        <ele>196.7</ele>
        <time>2024-09-07T14:50:40Z</time>
      </trkpt>
      <trkpt lat="43.256574" lon="-6.005597">
        <ele>197.0</ele>
        <time>2024-09-07T14:50:58Z</time>
      </trkpt>
      <trkpt lat="43.256323" lon="-6.005605">
        <ele>198.0</ele>
        <time>2024-09-07T14:51:10Z</time>
      </trkpt>
      <trkpt lat="43.256318" lon="-6.005609">
        <ele>198.0</ele>
        <time>2024-09-07T14:51:24Z</time>
      </trkpt>
      <trkpt lat="43.256314" lon="-6.005621">
        <ele>197.9</ele>
        <time>2024-09-07T14:52:00Z</time>
      </trkpt>
      <trkpt lat="43.256316" lon="-6.005606">
        <ele>198.0</ele>
        <time>2024-09-07T14:52:29Z</time>
      </trkpt>
      <trkpt lat="43.25629" lon="-6.005596">
        <ele>198.0</ele>
        <time>2024-09-07T14:53:13Z</time>
      </trkpt>
      <trkpt lat="43.256253" lon="-6.0056">
        <ele>198.0</ele>
        <time>2024-09-07T14:53:16Z</time>
      </trkpt>
      <trkpt lat="43.256226" lon="-6.0056">
        <ele>198.0</ele>
        <time>2024-09-07T14:53:17Z</time>
      </trkpt>
      <trkpt lat="43.256198" lon="-6.005603">
        <ele>198.0</ele>
        <time>2024-09-07T14:53:18Z</time>
      </trkpt>
      <trkpt lat="43.256021" lon="-6.005576">
        <ele>198.0</ele>
        <time>2024-09-07T14:53:23.011000Z</time>
      </trkpt>
      <trkpt lat="43.255881" lon="-6.005857">
        <ele>197.0</ele>
        <time>2024-09-07T14:53:30Z</time>
      </trkpt>
      <trkpt lat="43.255393" lon="-6.006355">
        <ele>197.0</ele>
        <time>2024-09-07T14:53:47Z</time>
      </trkpt>
      <trkpt lat="43.254727" lon="-6.006954">
        <ele>195.0</ele>
        <time>2024-09-07T14:54:08Z</time>
      </trkpt>
      <trkpt lat="43.254024" lon="-6.007483">
        <ele>196.7</ele>
        <time>2024-09-07T14:54:29Z</time>
      </trkpt>
      <trkpt lat="43.253187" lon="-6.008013">
        <ele>195.9</ele>
        <time>2024-09-07T14:54:53Z</time>
      </trkpt>
      <trkpt lat="43.252978" lon="-6.008117">
        <ele>198.0</ele>
        <time>2024-09-07T14:54:58.764000Z</time>
      </trkpt>
      <trkpt lat="43.252817" lon="-6.008431">
        <ele>197.1</ele>
        <time>2024-09-07T14:55:06Z</time>
      </trkpt>
      <trkpt lat="43.252614" lon="-6.008862">
        <ele>197.8</ele>
        <time>2024-09-07T14:55:18Z</time>
      </trkpt>
      <trkpt lat="43.25238" lon="-6.009328">
        <ele>197.1</ele>
        <time>2024-09-07T14:55:29Z</time>
      </trkpt>
      <trkpt lat="43.252204" lon="-6.00966">
        <ele>196.2</ele>
        <time>2024-09-07T14:55:36Z</time>
      </trkpt>
      <trkpt lat="43.251627" lon="-6.010411">
        <ele>196.8</ele>
        <time>2024-09-07T14:55:55Z</time>
      </trkpt>
      <trkpt lat="43.251098" lon="-6.011129">
        <ele>195.9</ele>
        <time>2024-09-07T14:56:14Z</time>
      </trkpt>
      <trkpt lat="43.250952" lon="-6.01123">
        <ele>194.9</ele>
        <time>2024-09-07T14:56:18Z</time>
      </trkpt>
      <trkpt lat="43.250875" lon="-6.011263">
        <ele>195.9</ele>
        <time>2024-09-07T14:56:20Z</time>
      </trkpt>
      <trkpt lat="43.250836" lon="-6.011276">
        <ele>196.8</ele>
        <time>2024-09-07T14:56:21Z</time>
      </trkpt>
      <trkpt lat="43.250796" lon="-6.011281">
        <ele>197.2</ele>
        <time>2024-09-07T14:56:22Z</time>
      </trkpt>
      <trkpt lat="43.250756" lon="-6.011283">
        <ele>197.9</ele>
        <time>2024-09-07T14:56:23Z</time>
      </trkpt>
      <trkpt lat="43.250714" lon="-6.011285">
        <ele>197.8</ele>
        <time>2024-09-07T14:56:24Z</time>
      </trkpt>
      <trkpt lat="43.250674" lon="-6.011286">
        <ele>197.2</ele>
        <time>2024-09-07T14:56:25Z</time>
      </trkpt>
      <trkpt lat="43.250415" lon="-6.011249">
        <ele>198.0</ele>
        <time>2024-09-07T14:56:32.138000Z</time>
      </trkpt>
      <trkpt lat="43.25013" lon="-6.011303">
        <ele>197.9</ele>
        <time>2024-09-07T14:56:40Z</time>
      </trkpt>
      <trkpt lat="43.249782" lon="-6.01152">
        <ele>196.1</ele>
        <time>2024-09-07T14:56:50Z</time>
      </trkpt>
      <trkpt lat="43.24958" lon="-6.011614">
        <ele>197.7</ele>
        <time>2024-09-07T14:56:55Z</time>
      </trkpt>
      <trkpt lat="43.249502" lon="-6.011656">
        <ele>196.5</ele>
        <time>2024-09-07T14:56:57Z</time>
      </trkpt>
      <trkpt lat="43.249296" lon="-6.011829">
        <ele>198.0</ele>
        <time>2024-09-07T14:57:03.415000Z</time>
      </trkpt>
      <trkpt lat="43.24914" lon="-6.012024">
        <ele>198.0</ele>
        <time>2024-09-07T14:57:09Z</time>
      </trkpt>
      <trkpt lat="43.248971" lon="-6.012362">
        <ele>198.0</ele>
        <time>2024-09-07T14:57:17.593000Z</time>
      </trkpt>
      <trkpt lat="43.248851" lon="-6.012831">
        <ele>198.8</ele>
        <time>2024-09-07T14:57:28Z</time>
      </trkpt>
      <trkpt lat="43.248773" lon="-6.013203">
        <ele>197.6</ele>
        <time>2024-09-07T14:57:35.165000Z</time>
      </trkpt>
      <trkpt lat="43.248744" lon="-6.013569">
        <ele>196.9</ele>
        <time>2024-09-07T14:57:42Z</time>
      </trkpt>
      <trkpt lat="43.248741" lon="-6.014005">
        <ele>196.7</ele>
        <time>2024-09-07T14:57:50.654000Z</time>
      </trkpt>
      <trkpt lat="43.248756" lon="-6.014374">
        <ele>197.4</ele>
        <time>2024-09-07T14:57:58Z</time>
      </trkpt>
      <trkpt lat="43.248769" lon="-6.014545">
        <ele>197.8</ele>
        <time>2024-09-07T14:58:00Z</time>
      </trkpt>
      <trkpt lat="43.248757" lon="-6.015328">
        <ele>198.0</ele>
        <time>2024-09-07T14:58:15Z</time>
      </trkpt>
      <trkpt lat="43.248903" lon="-6.016115">
        <ele>197.8</ele>
        <time>2024-09-07T14:58:31Z</time>
      </trkpt>
      <trkpt lat="43.248981" lon="-6.01662">
        <ele>198.0</ele>
        <time>2024-09-07T14:58:46Z</time>
      </trkpt>
      <trkpt lat="43.249061" lon="-6.016972">
        <ele>196.8</ele>
        <time>2024-09-07T14:58:58Z</time>
      </trkpt>
      <trkpt lat="43.249103" lon="-6.017364">
        <ele>198.0</ele>
        <time>2024-09-07T14:59:10Z</time>
      </trkpt>
      <trkpt lat="43.249146" lon="-6.017898">
        <ele>198.8</ele>
        <time>2024-09-07T14:59:26Z</time>
      </trkpt>
      <trkpt lat="43.249157" lon="-6.01823">
        <ele>198.9</ele>
        <time>2024-09-07T14:59:38Z</time>
      </trkpt>
      <trkpt lat="43.249185" lon="-6.018646">
        <ele>198.0</ele>
        <time>2024-09-07T14:59:52Z</time>
      </trkpt>
      <trkpt lat="43.24921" lon="-6.019219">
        <ele>198.0</ele>
        <time>2024-09-07T15:00:07Z</time>
      </trkpt>
      <trkpt lat="43.249225" lon="-6.01973">
        <ele>198.0</ele>
        <time>2024-09-07T15:00:19Z</time>
      </trkpt>
      <trkpt lat="43.249255" lon="-6.020129">
        <ele>198.0</ele>
        <time>2024-09-07T15:00:27.706000Z</time>
      </trkpt>
      <trkpt lat="43.249366" lon="-6.020429">
        <ele>198.0</ele>
        <time>2024-09-07T15:00:35Z</time>
      </trkpt>
      <trkpt lat="43.249466" lon="-6.020824">
        <ele>198.0</ele>
        <time>2024-09-07T15:00:44.254000Z</time>
      </trkpt>
      <trkpt lat="43.24948" lon="-6.021129">
        <ele>198.0</ele>
        <time>2024-09-07T15:00:51Z</time>
      </trkpt>
      <trkpt lat="43.249449" lon="-6.021584">
        <ele>198.0</ele>
        <time>2024-09-07T15:01:00.610000Z</time>
      </trkpt>
      <trkpt lat="43.249485" lon="-6.021931">
        <ele>196.7</ele>
        <time>2024-09-07T15:01:08Z</time>
      </trkpt>
      <trkpt lat="43.249529" lon="-6.022559">
        <ele>197.1</ele>
        <time>2024-09-07T15:01:25Z</time>
      </trkpt>
      <trkpt lat="43.249572" lon="-6.022968">
        <ele>200.5</ele>
        <time>2024-09-07T15:01:38Z</time>
      </trkpt>
      <trkpt lat="43.249547" lon="-6.023417">
        <ele>199.6</ele>
        <time>2024-09-07T15:01:52Z</time>
      </trkpt>
      <trkpt lat="43.249426" lon="-6.023593">
        <ele>199.6</ele>
        <time>2024-09-07T15:01:58.073000Z</time>
      </trkpt>
      <trkpt lat="43.249258" lon="-6.023644">
        <ele>200.0</ele>
        <time>2024-09-07T15:02:04Z</time>
      </trkpt>
      <trkpt lat="43.248854" lon="-6.023698">
        <ele>201.0</ele>
        <time>2024-09-07T15:02:18Z</time>
      </trkpt>
      <trkpt lat="43.248327" lon="-6.023692">
        <ele>202.0</ele>
        <time>2024-09-07T15:02:36Z</time>
      </trkpt>
      <trkpt lat="43.247967" lon="-6.023736">
        <ele>202.4</ele>
        <time>2024-09-07T15:02:47Z</time>
      </trkpt>
      <trkpt lat="43.247758" lon="-6.023743">
        <ele>202.3</ele>
        <time>2024-09-07T15:02:53.864000Z</time>
      </trkpt>
      <trkpt lat="43.247577" lon="-6.023804">
        <ele>203.0</ele>
        <time>2024-09-07T15:03:00Z</time>
      </trkpt>
      <trkpt lat="43.247205" lon="-6.023967">
        <ele>202.6</ele>
        <time>2024-09-07T15:03:12Z</time>
      </trkpt>
      <trkpt lat="43.24685" lon="-6.024106">
        <ele>203.4</ele>
        <time>2024-09-07T15:03:23Z</time>
      </trkpt>
      <trkpt lat="43.246474" lon="-6.024309">
        <ele>203.9</ele>
        <time>2024-09-07T15:03:36Z</time>
      </trkpt>
      <trkpt lat="43.246303" lon="-6.024361">
        <ele>204.1</ele>
        <time>2024-09-07T15:03:41Z</time>
      </trkpt>
      <trkpt lat="43.24627" lon="-6.024382">
        <ele>204.0</ele>
        <time>2024-09-07T15:03:42Z</time>
      </trkpt>
      <trkpt lat="43.24624" lon="-6.024385">
        <ele>204.0</ele>
        <time>2024-09-07T15:03:43Z</time>
      </trkpt>
      <trkpt lat="43.246217" lon="-6.024398">
        <ele>204.0</ele>
        <time>2024-09-07T15:03:44Z</time>
      </trkpt>
      <trkpt lat="43.246184" lon="-6.024409">
        <ele>204.4</ele>
        <time>2024-09-07T15:03:45Z</time>
      </trkpt>
      <trkpt lat="43.246152" lon="-6.024406">
        <ele>204.6</ele>
        <time>2024-09-07T15:03:46Z</time>
      </trkpt>
      <trkpt lat="43.245772" lon="-6.024396">
        <ele>205.0</ele>
        <time>2024-09-07T15:03:58Z</time>
      </trkpt>
      <trkpt lat="43.245387" lon="-6.024282">
        <ele>206.0</ele>
        <time>2024-09-07T15:04:11Z</time>
      </trkpt>
      <trkpt lat="43.245136" lon="-6.024255">
        <ele>205.7</ele>
        <time>2024-09-07T15:04:21Z</time>
      </trkpt>
      <trkpt lat="43.244876" lon="-6.024255">
        <ele>206.2</ele>
        <time>2024-09-07T15:04:32.918000Z</time>
      </trkpt>
      <trkpt lat="43.244444" lon="-6.024345">
        <ele>207.1</ele>
        <time>2024-09-07T15:04:53Z</time>
      </trkpt>
      <trkpt lat="43.244259" lon="-6.024477">
        <ele>207.0</ele>
        <time>2024-09-07T15:05:03Z</time>
      </trkpt>
      <trkpt lat="43.243588" lon="-6.02494">
        <ele>207.0</ele>
        <time>2024-09-07T15:05:29Z</time>
      </trkpt>
      <trkpt lat="43.243276" lon="-6.025163">
        <ele>207.9</ele>
        <time>2024-09-07T15:05:41Z</time>
      </trkpt>
      <trkpt lat="43.24293" lon="-6.025454">
        <ele>209.0</ele>
        <time>2024-09-07T15:05:55Z</time>
      </trkpt>
      <trkpt lat="43.242664" lon="-6.025772">
        <ele>210.0</ele>
        <time>2024-09-07T15:06:07Z</time>
      </trkpt>
      <trkpt lat="43.24233" lon="-6.026266">
        <ele>211.0</ele>
        <time>2024-09-07T15:06:23Z</time>
      </trkpt>
      <trkpt lat="43.242047" lon="-6.026649">
        <ele>211.8</ele>
        <time>2024-09-07T15:06:36Z</time>
      </trkpt>
      <trkpt lat="43.241735" lon="-6.027024">
        <ele>212.0</ele>
        <time>2024-09-07T15:06:50Z</time>
      </trkpt>
      <trkpt lat="43.241507" lon="-6.027245">
        <ele>212.5</ele>
        <time>2024-09-07T15:06:59Z</time>
      </trkpt>
      <trkpt lat="43.24121" lon="-6.027472">
        <ele>214.0</ele>
        <time>2024-09-07T15:07:10Z</time>
      </trkpt>
      <trkpt lat="43.240971" lon="-6.027791">
        <ele>214.4</ele>
        <time>2024-09-07T15:07:21Z</time>
      </trkpt>
      <trkpt lat="43.240765" lon="-6.028261">
        <ele>215.0</ele>
        <time>2024-09-07T15:07:34Z</time>
      </trkpt>
      <trkpt lat="43.240578" lon="-6.028828">
        <ele>215.0</ele>
        <time>2024-09-07T15:07:48Z</time>
      </trkpt>
      <trkpt lat="43.240378" lon="-6.029362">
        <ele>215.0</ele>
        <time>2024-09-07T15:08:03Z</time>
      </trkpt>
      <trkpt lat="43.240224" lon="-6.029748">
        <ele>216.0</ele>
        <time>2024-09-07T15:08:12.686000Z</time>
      </trkpt>
      <trkpt lat="43.240057" lon="-6.030049">
        <ele>217.0</ele>
        <time>2024-09-07T15:08:21Z</time>
      </trkpt>
      <trkpt lat="43.239906" lon="-6.030265">
        <ele>217.0</ele>
        <time>2024-09-07T15:08:28.342000Z</time>
      </trkpt>
      <trkpt lat="43.239749" lon="-6.030345">
        <ele>218.0</ele>
        <time>2024-09-07T15:08:34Z</time>
      </trkpt>
      <trkpt lat="43.23931" lon="-6.030342">
        <ele>219.0</ele>
        <time>2024-09-07T15:08:48Z</time>
      </trkpt>
      <trkpt lat="43.238981" lon="-6.030326">
        <ele>219.0</ele>
        <time>2024-09-07T15:08:59Z</time>
      </trkpt>
      <trkpt lat="43.238643" lon="-6.030297">
        <ele>219.3</ele>
        <time>2024-09-07T15:09:11Z</time>
      </trkpt>
      <trkpt lat="43.238616" lon="-6.030278">
        <ele>220.0</ele>
        <time>2024-09-07T15:09:12Z</time>
      </trkpt>
      <trkpt lat="43.238591" lon="-6.030269">
        <ele>220.0</ele>
        <time>2024-09-07T15:09:13Z</time>
      </trkpt>
      <trkpt lat="43.238566" lon="-6.030254">
        <ele>220.0</ele>
        <time>2024-09-07T15:09:14Z</time>
      </trkpt>
      <trkpt lat="43.238537" lon="-6.030231">
        <ele>220.0</ele>
        <time>2024-09-07T15:09:15Z</time>
      </trkpt>
      <trkpt lat="43.238288" lon="-6.030062">
        <ele>221.3</ele>
        <time>2024-09-07T15:09:24Z</time>
      </trkpt>
      <trkpt lat="43.237938" lon="-6.030045">
        <ele>221.0</ele>
        <time>2024-09-07T15:09:36Z</time>
      </trkpt>
      <trkpt lat="43.237732" lon="-6.030163">
        <ele>221.0</ele>
        <time>2024-09-07T15:09:45Z</time>
      </trkpt>
      <trkpt lat="43.237419" lon="-6.030393">
        <ele>221.0</ele>
        <time>2024-09-07T15:09:56Z</time>
      </trkpt>
      <trkpt lat="43.236997" lon="-6.03063">
        <ele>222.1</ele>
        <time>2024-09-07T15:10:11Z</time>
      </trkpt>
      <trkpt lat="43.236685" lon="-6.030663">
        <ele>223.0</ele>
        <time>2024-09-07T15:10:22Z</time>
      </trkpt>
      <trkpt lat="43.236284" lon="-6.030674">
        <ele>224.0</ele>
        <time>2024-09-07T15:10:35Z</time>
      </trkpt>
      <trkpt lat="43.235845" lon="-6.030716">
        <ele>225.0</ele>
        <time>2024-09-07T15:10:49Z</time>
      </trkpt>
      <trkpt lat="43.235555" lon="-6.030814">
        <ele>226.0</ele>
        <time>2024-09-07T15:10:59Z</time>
      </trkpt>
      <trkpt lat="43.235159" lon="-6.031022">
        <ele>227.0</ele>
        <time>2024-09-07T15:11:13Z</time>
      </trkpt>
      <trkpt lat="43.234724" lon="-6.031284">
        <ele>227.9</ele>
        <time>2024-09-07T15:11:28Z</time>
      </trkpt>
      <trkpt lat="43.234561" lon="-6.031411">
        <ele>228.0</ele>
        <time>2024-09-07T15:11:34.192000Z</time>
      </trkpt>
      <trkpt lat="43.234431" lon="-6.03163">
        <ele>228.0</ele>
        <time>2024-09-07T15:11:41Z</time>
      </trkpt>
      <trkpt lat="43.234189" lon="-6.032026">
        <ele>228.0</ele>
        <time>2024-09-07T15:11:55Z</time>
      </trkpt>
      <trkpt lat="43.232037" lon="-6.033408">
        <ele>228.0</ele>
        <time>2024-09-07T15:13:15Z</time>
      </trkpt>
      <trkpt lat="43.231936" lon="-6.033512">
        <ele>229.0</ele>
        <time>2024-09-07T15:13:16Z</time>
      </trkpt>
      <trkpt lat="43.231648" lon="-6.033881">
        <ele>230.0</ele>
        <time>2024-09-07T15:13:28Z</time>
      </trkpt>
      <trkpt lat="43.230285" lon="-6.035511">
        <ele>236.0</ele>
        <time>2024-09-07T15:14:21Z</time>
      </trkpt>
      <trkpt lat="43.230188" lon="-6.035616">
        <ele>237.1</ele>
        <time>2024-09-07T15:14:24Z</time>
      </trkpt>
      <trkpt lat="43.229938" lon="-6.035945">
        <ele>240.0</ele>
        <time>2024-09-07T15:15:20.918000Z</time>
      </trkpt>
      <trkpt lat="43.22991" lon="-6.03598">
        <ele>239.8</ele>
        <time>2024-09-07T15:15:27Z</time>
      </trkpt>
      <trkpt lat="43.229677" lon="-6.036184">
        <ele>241.0</ele>
        <time>2024-09-07T15:15:41Z</time>
      </trkpt>
      <trkpt lat="43.229338" lon="-6.036466">
        <ele>242.0</ele>
        <time>2024-09-07T15:15:55Z</time>
      </trkpt>
      <trkpt lat="43.228985" lon="-6.036746">
        <ele>241.8</ele>
        <time>2024-09-07T15:16:10Z</time>
      </trkpt>
      <trkpt lat="43.228776" lon="-6.036916">
        <ele>244.0</ele>
        <time>2024-09-07T15:16:21Z</time>
      </trkpt>
      <trkpt lat="43.228633" lon="-6.037094">
        <ele>240.7</ele>
        <time>2024-09-07T15:18:24Z</time>
      </trkpt>
      <trkpt lat="43.228417" lon="-6.037361">
        <ele>244.0</ele>
        <time>2024-09-07T15:18:38Z</time>
      </trkpt>
      <trkpt lat="43.22833" lon="-6.037476">
        <ele>244.0</ele>
        <time>2024-09-07T15:18:48Z</time>
      </trkpt>
      <trkpt lat="43.228067" lon="-6.037863">
        <ele>244.2</ele>
        <time>2024-09-07T15:18:59Z</time>
      </trkpt>
      <trkpt lat="43.227834" lon="-6.038162">
        <ele>244.9</ele>
        <time>2024-09-07T15:19:07.942000Z</time>
      </trkpt>
      <trkpt lat="43.227537" lon="-6.03844">
        <ele>244.0</ele>
        <time>2024-09-07T15:19:18Z</time>
      </trkpt>
      <trkpt lat="43.226875" lon="-6.03849">
        <ele>244.0</ele>
        <time>2024-09-07T15:19:34Z</time>
      </trkpt>
      <trkpt lat="43.226521" lon="-6.038466">
        <ele>244.0</ele>
        <time>2024-09-07T15:19:42Z</time>
      </trkpt>
      <trkpt lat="43.226438" lon="-6.038448">
        <ele>244.0</ele>
        <time>2024-09-07T15:19:43Z</time>
      </trkpt>
      <trkpt lat="43.226186" lon="-6.038391">
        <ele>244.0</ele>
        <time>2024-09-07T15:19:49.264000Z</time>
      </trkpt>
      <trkpt lat="43.225871" lon="-6.038383">
        <ele>244.0</ele>
        <time>2024-09-07T15:19:57Z</time>
      </trkpt>
      <trkpt lat="43.225544" lon="-6.038427">
        <ele>244.0</ele>
        <time>2024-09-07T15:20:08Z</time>
      </trkpt>
      <trkpt lat="43.225246" lon="-6.03846">
        <ele>244.0</ele>
        <time>2024-09-07T15:20:17Z</time>
      </trkpt>
      <trkpt lat="43.225141" lon="-6.038532">
        <ele>243.6</ele>
        <time>2024-09-07T15:20:29Z</time>
      </trkpt>
      <trkpt lat="43.225128" lon="-6.038532">
        <ele>243.5</ele>
        <time>2024-09-07T15:20:43Z</time>
      </trkpt>
      <trkpt lat="43.225113" lon="-6.038543">
        <ele>243.1</ele>
        <time>2024-09-07T15:20:46Z</time>
      </trkpt>
      <trkpt lat="43.225101" lon="-6.038554">
        <ele>243.0</ele>
        <time>2024-09-07T15:20:47Z</time>
      </trkpt>
      <trkpt lat="43.225085" lon="-6.038562">
        <ele>243.3786557704938</ele>
        <time>2024-09-07T15:20:48Z</time>
      </trkpt>
      <trkpt lat="43.225073" lon="-6.038576">
        <ele>243.61609686510508</ele>
        <time>2024-09-07T15:20:49Z</time>
      </trkpt>
      <trkpt lat="43.225058" lon="-6.038588">
        <ele>244.0</ele>
        <time>2024-09-07T15:20:50Z</time>
      </trkpt>
      <trkpt lat="43.225042" lon="-6.038599">
        <ele>244.0</ele>
        <time>2024-09-07T15:20:51Z</time>
      </trkpt>
      <trkpt lat="43.225026" lon="-6.038612">
        <ele>244.0</ele>
        <time>2024-09-07T15:20:52Z</time>
      </trkpt>
      <trkpt lat="43.225004" lon="-6.038636">
        <ele>243.5</ele>
        <time>2024-09-07T15:21:11Z</time>
      </trkpt>
      <trkpt lat="43.224988" lon="-6.038632">
        <ele>243.6</ele>
        <time>2024-09-07T15:21:17Z</time>
      </trkpt>
      <trkpt lat="43.224975" lon="-6.038636">
        <ele>243.2</ele>
        <time>2024-09-07T15:21:18Z</time>
      </trkpt>
      <trkpt lat="43.224951" lon="-6.038645">
        <ele>242.7</ele>
        <time>2024-09-07T15:21:19Z</time>
      </trkpt>
      <trkpt lat="43.224926" lon="-6.038653">
        <ele>243.0</ele>
        <time>2024-09-07T15:21:20Z</time>
      </trkpt>
      <trkpt lat="43.224899" lon="-6.038662">
        <ele>243.0</ele>
        <time>2024-09-07T15:21:21Z</time>
      </trkpt>
      <trkpt lat="43.224871" lon="-6.038682">
        <ele>243.0</ele>
        <time>2024-09-07T15:21:22Z</time>
      </trkpt>
      <trkpt lat="43.224559" lon="-6.038867">
        <ele>243.0</ele>
        <time>2024-09-07T15:21:31Z</time>
      </trkpt>
      <trkpt lat="43.224016" lon="-6.039023">
        <ele>244.0</ele>
        <time>2024-09-07T15:21:45Z</time>
      </trkpt>
      <trkpt lat="43.223907" lon="-6.039064">
        <ele>244.0</ele>
        <time>2024-09-07T15:21:48.543000Z</time>
      </trkpt>
      <trkpt lat="43.223737" lon="-6.039123">
        <ele>244.0</ele>
        <time>2024-09-07T15:21:54.015000Z</time>
      </trkpt>
      <trkpt lat="43.22364" lon="-6.039296">
        <ele>245.0</ele>
        <time>2024-09-07T15:21:59Z</time>
      </trkpt>
      <trkpt lat="43.223536" lon="-6.039517">
        <ele>246.0</ele>
        <time>2024-09-07T15:22:31.203000Z</time>
      </trkpt>
      <trkpt lat="43.223487" lon="-6.039606">
        <ele>246.0</ele>
        <time>2024-09-07T15:22:44.759000Z</time>
      </trkpt>
      <trkpt lat="43.223415" lon="-6.039623">
        <ele>246.4</ele>
        <time>2024-09-07T15:22:57Z</time>
      </trkpt>
      <trkpt lat="43.223412" lon="-6.03962">
        <ele>246.3</ele>
        <time>2024-09-07T15:24:01Z</time>
      </trkpt>
      <trkpt lat="43.22341" lon="-6.039621">
        <ele>246.3</ele>
        <time>2024-09-07T15:24:57Z</time>
      </trkpt>
      <trkpt lat="43.223338" lon="-6.03961">
        <ele>246.7</ele>
        <time>2024-09-07T15:26:24Z</time>
      </trkpt>
      <trkpt lat="43.223312" lon="-6.039602">
        <ele>246.8</ele>
        <time>2024-09-07T15:26:25Z</time>
      </trkpt>
      <trkpt lat="43.223276" lon="-6.039569">
        <ele>246.7</ele>
        <time>2024-09-07T15:26:26Z</time>
      </trkpt>
      <trkpt lat="43.223122" lon="-6.039267">
        <ele>245.2</ele>
        <time>2024-09-07T15:26:37Z</time>
      </trkpt>
      <trkpt lat="43.222976" lon="-6.039159">
        <ele>245.1</ele>
        <time>2024-09-07T15:26:42.139000Z</time>
      </trkpt>
      <trkpt lat="43.222822" lon="-6.039117">
        <ele>244.9</ele>
        <time>2024-09-07T15:26:47Z</time>
      </trkpt>
      <trkpt lat="43.222188" lon="-6.039127">
        <ele>244.0</ele>
        <time>2024-09-07T15:27:03Z</time>
      </trkpt>
      <trkpt lat="43.222111" lon="-6.039127">
        <ele>244.0</ele>
        <time>2024-09-07T15:27:05Z</time>
      </trkpt>
      <trkpt lat="43.222062" lon="-6.03912">
        <ele>244.0</ele>
        <time>2024-09-07T15:27:06Z</time>
      </trkpt>
      <trkpt lat="43.22202" lon="-6.039119">
        <ele>244.0</ele>
        <time>2024-09-07T15:27:07Z</time>
      </trkpt>
      <trkpt lat="43.221575" lon="-6.039131">
        <ele>244.0</ele>
        <time>2024-09-07T15:27:20Z</time>
      </trkpt>
      <trkpt lat="43.221214" lon="-6.039146">
        <ele>244.0</ele>
        <time>2024-09-07T15:27:34Z</time>
      </trkpt>
      <trkpt lat="43.220988" lon="-6.03911">
        <ele>245.0</ele>
        <time>2024-09-07T15:27:39.233000Z</time>
      </trkpt>
      <trkpt lat="43.220572" lon="-6.039235">
        <ele>246.3</ele>
        <time>2024-09-07T15:27:49Z</time>
      </trkpt>
      <trkpt lat="43.220236" lon="-6.039289">
        <ele>244.6</ele>
        <time>2024-09-07T15:27:59Z</time>
      </trkpt>
      <trkpt lat="43.219797" lon="-6.039331">
        <ele>246.0</ele>
        <time>2024-09-07T15:28:12Z</time>
      </trkpt>
      <trkpt lat="43.219374" lon="-6.039345">
        <ele>247.0</ele>
        <time>2024-09-07T15:28:23Z</time>
      </trkpt>
      <trkpt lat="43.218942" lon="-6.039294">
        <ele>245.5</ele>
        <time>2024-09-07T15:28:35Z</time>
      </trkpt>
      <trkpt lat="43.218518" lon="-6.039214">
        <ele>248.4</ele>
        <time>2024-09-07T15:28:47Z</time>
      </trkpt>
      <trkpt lat="43.218001" lon="-6.039177">
        <ele>251.5</ele>
        <time>2024-09-07T15:29:02Z</time>
      </trkpt>
      <trkpt lat="43.217764" lon="-6.039303">
        <ele>252.6</ele>
        <time>2024-09-07T15:29:09.439000Z</time>
      </trkpt>
      <trkpt lat="43.217565" lon="-6.039528">
        <ele>251.4</ele>
        <time>2024-09-07T15:29:17Z</time>
      </trkpt>
      <trkpt lat="43.217456" lon="-6.039796">
        <ele>252.5</ele>
        <time>2024-09-07T15:29:23.532000Z</time>
      </trkpt>
      <trkpt lat="43.217389" lon="-6.040135">
        <ele>253.1</ele>
        <time>2024-09-07T15:29:31Z</time>
      </trkpt>
      <trkpt lat="43.217354" lon="-6.040553">
        <ele>253.5</ele>
        <time>2024-09-07T15:29:41Z</time>
      </trkpt>
      <trkpt lat="43.217312" lon="-6.040956">
        <ele>253.1</ele>
        <time>2024-09-07T15:29:52Z</time>
      </trkpt>
      <trkpt lat="43.217274" lon="-6.041337">
        <ele>253.4</ele>
        <time>2024-09-07T15:30:03Z</time>
      </trkpt>
      <trkpt lat="43.217243" lon="-6.041667">
        <ele>254.2</ele>
        <time>2024-09-07T15:30:13Z</time>
      </trkpt>
      <trkpt lat="43.217186" lon="-6.041965">
        <ele>254.6</ele>
        <time>2024-09-07T15:30:23Z</time>
      </trkpt>
      <trkpt lat="43.217171" lon="-6.042028">
        <ele>254.6</ele>
        <time>2024-09-07T15:30:24Z</time>
      </trkpt>
      <trkpt lat="43.217146" lon="-6.042127">
        <ele>255.0</ele>
        <time>2024-09-07T15:30:27Z</time>
      </trkpt>
      <trkpt lat="43.216984" lon="-6.042564">
        <ele>255.0</ele>
        <time>2024-09-07T15:30:40Z</time>
      </trkpt>
      <trkpt lat="43.21697" lon="-6.042604">
        <ele>255.0</ele>
        <time>2024-09-07T15:30:41Z</time>
      </trkpt>
      <trkpt lat="43.216953" lon="-6.042629">
        <ele>255.0</ele>
        <time>2024-09-07T15:30:42Z</time>
      </trkpt>
      <trkpt lat="43.216937" lon="-6.042655">
        <ele>255.7</ele>
        <time>2024-09-07T15:30:43Z</time>
      </trkpt>
      <trkpt lat="43.216753" lon="-6.043009">
        <ele>257.9</ele>
        <time>2024-09-07T15:30:55Z</time>
      </trkpt>
      <trkpt lat="43.216536" lon="-6.043339">
        <ele>258.4</ele>
        <time>2024-09-07T15:31:07Z</time>
      </trkpt>
      <trkpt lat="43.216278" lon="-6.043555">
        <ele>258.0</ele>
        <time>2024-09-07T15:31:18Z</time>
      </trkpt>
      <trkpt lat="43.216036" lon="-6.043649">
        <ele>259.0</ele>
        <time>2024-09-07T15:31:27Z</time>
      </trkpt>
      <trkpt lat="43.21577" lon="-6.043668">
        <ele>260.0</ele>
        <time>2024-09-07T15:31:37Z</time>
      </trkpt>
      <trkpt lat="43.215326" lon="-6.043534">
        <ele>260.0</ele>
        <time>2024-09-07T15:31:51Z</time>
      </trkpt>
      <trkpt lat="43.215057" lon="-6.043503">
        <ele>261.0</ele>
        <time>2024-09-07T15:32:01Z</time>
      </trkpt>
      <trkpt lat="43.214809" lon="-6.043604">
        <ele>262.0</ele>
        <time>2024-09-07T15:32:09Z</time>
      </trkpt>
      <trkpt lat="43.214786" lon="-6.043636">
        <ele>262.0000687945613</ele>
        <time>2024-09-07T15:32:10Z</time>
      </trkpt>
      <trkpt lat="43.214751" lon="-6.043645">
        <ele>262.0001943393499</ele>
        <time>2024-09-07T15:32:11Z</time>
      </trkpt>
      <trkpt lat="43.214731" lon="-6.043659">
        <ele>262.0</ele>
        <time>2024-09-07T15:32:12Z</time>
      </trkpt>
      <trkpt lat="43.214713" lon="-6.043687">
        <ele>262.0</ele>
        <time>2024-09-07T15:32:13Z</time>
      </trkpt>
      <trkpt lat="43.214694" lon="-6.043709">
        <ele>262.0</ele>
        <time>2024-09-07T15:32:14Z</time>
      </trkpt>
      <trkpt lat="43.214673" lon="-6.043733">
        <ele>262.4</ele>
        <time>2024-09-07T15:32:15Z</time>
      </trkpt>
      <trkpt lat="43.214655" lon="-6.043764">
        <ele>262.3</ele>
        <time>2024-09-07T15:32:16Z</time>
      </trkpt>
      <trkpt lat="43.214543" lon="-6.044126">
        <ele>262.0</ele>
        <time>2024-09-07T15:32:25Z</time>
      </trkpt>
      <trkpt lat="43.214433" lon="-6.044508">
        <ele>259.3</ele>
        <time>2024-09-07T15:32:36Z</time>
      </trkpt>
      <trkpt lat="43.214412" lon="-6.044583">
        <ele>259.8</ele>
        <time>2024-09-07T15:32:37Z</time>
      </trkpt>
      <trkpt lat="43.214336" lon="-6.044869">
        <ele>262.0</ele>
        <time>2024-09-07T15:32:44.842000Z</time>
      </trkpt>
      <trkpt lat="43.214333" lon="-6.044953">
        <ele>262.0</ele>
        <time>2024-09-07T15:32:47Z</time>
      </trkpt>
      <trkpt lat="43.214325" lon="-6.045289">
        <ele>263.0</ele>
        <time>2024-09-07T15:32:56Z</time>
      </trkpt>
      <trkpt lat="43.214391" lon="-6.045715">
        <ele>265.0</ele>
        <time>2024-09-07T15:33:07Z</time>
      </trkpt>
      <trkpt lat="43.214445" lon="-6.046028">
        <ele>265.2</ele>
        <time>2024-09-07T15:33:15Z</time>
      </trkpt>
      <trkpt lat="43.214461" lon="-6.046117">
        <ele>264.6</ele>
        <time>2024-09-07T15:33:16Z</time>
      </trkpt>
      <trkpt lat="43.214491" lon="-6.046321">
        <ele>265.4</ele>
        <time>2024-09-07T15:33:22Z</time>
      </trkpt>
      <trkpt lat="43.214503" lon="-6.046354">
        <ele>265.4</ele>
        <time>2024-09-07T15:33:23Z</time>
      </trkpt>
      <trkpt lat="43.214508" lon="-6.046393">
        <ele>265.1</ele>
        <time>2024-09-07T15:33:24Z</time>
      </trkpt>
      <trkpt lat="43.214513" lon="-6.046429">
        <ele>265.3</ele>
        <time>2024-09-07T15:33:25Z</time>
      </trkpt>
      <trkpt lat="43.214525" lon="-6.046461">
        <ele>265.3596219580583</ele>
        <time>2024-09-07T15:33:26Z</time>
      </trkpt>
      <trkpt lat="43.214527" lon="-6.046546">
        <ele>265.54572013311645</ele>
        <time>2024-09-07T15:33:27Z</time>
      </trkpt>
      <trkpt lat="43.214585" lon="-6.046925">
        <ele>264.1</ele>
        <time>2024-09-07T15:33:38Z</time>
      </trkpt>
      <trkpt lat="43.214643" lon="-6.047292">
        <ele>265.0</ele>
        <time>2024-09-07T15:33:49Z</time>
      </trkpt>
      <trkpt lat="43.214707" lon="-6.047771">
        <ele>266.0</ele>
        <time>2024-09-07T15:34:02Z</time>
      </trkpt>
      <trkpt lat="43.214722" lon="-6.048238">
        <ele>267.0</ele>
        <time>2024-09-07T15:34:15Z</time>
      </trkpt>
      <trkpt lat="43.214711" lon="-6.048455">
        <ele>267.8</ele>
        <time>2024-09-07T15:34:21Z</time>
      </trkpt>
      <trkpt lat="43.214699" lon="-6.048521">
        <ele>268.4</ele>
        <time>2024-09-07T15:34:22Z</time>
      </trkpt>
      <trkpt lat="43.214671" lon="-6.048628">
        <ele>268.0</ele>
        <time>2024-09-07T15:34:25Z</time>
      </trkpt>
      <trkpt lat="43.21449" lon="-6.049165">
        <ele>267.9</ele>
        <time>2024-09-07T15:34:40Z</time>
      </trkpt>
      <trkpt lat="43.214322" lon="-6.049646">
        <ele>267.7</ele>
        <time>2024-09-07T15:34:53Z</time>
      </trkpt>
      <trkpt lat="43.214197" lon="-6.049998">
        <ele>268.9</ele>
        <time>2024-09-07T15:35:04Z</time>
      </trkpt>
      <trkpt lat="43.214015" lon="-6.050465">
        <ele>268.8</ele>
        <time>2024-09-07T15:35:16Z</time>
      </trkpt>
      <trkpt lat="43.213834" lon="-6.050919">
        <ele>269.2</ele>
        <time>2024-09-07T15:35:26.882000Z</time>
      </trkpt>
      <trkpt lat="43.213741" lon="-6.051066">
        <ele>269.5</ele>
        <time>2024-09-07T15:35:31Z</time>
      </trkpt>
      <trkpt lat="43.213619" lon="-6.051235">
        <ele>270.0</ele>
        <time>2024-09-07T15:35:41Z</time>
      </trkpt>
      <trkpt lat="43.213579" lon="-6.051263">
        <ele>271.0</ele>
        <time>2024-09-07T15:35:43Z</time>
      </trkpt>
      <trkpt lat="43.213376" lon="-6.051445">
        <ele>271.0</ele>
        <time>2024-09-07T15:35:54Z</time>
      </trkpt>
      <trkpt lat="43.212787" lon="-6.051758">
        <ele>271.5</ele>
        <time>2024-09-07T15:36:10Z</time>
      </trkpt>
      <trkpt lat="43.212427" lon="-6.052024">
        <ele>272.0</ele>
        <time>2024-09-07T15:36:21Z</time>
      </trkpt>
      <trkpt lat="43.212299" lon="-6.052265">
        <ele>272.5</ele>
        <time>2024-09-07T15:36:25.287000Z</time>
      </trkpt>
      <trkpt lat="43.212231" lon="-6.052544">
        <ele>274.9</ele>
        <time>2024-09-07T15:36:29.533000Z</time>
      </trkpt>
      <trkpt lat="43.21225" lon="-6.052784">
        <ele>274.0</ele>
        <time>2024-09-07T15:36:33Z</time>
      </trkpt>
      <trkpt lat="43.212421" lon="-6.053117">
        <ele>274.0</ele>
        <time>2024-09-07T15:36:43Z</time>
      </trkpt>
      <trkpt lat="43.212436" lon="-6.053154">
        <ele>273.8</ele>
        <time>2024-09-07T15:36:52Z</time>
      </trkpt>
      <trkpt lat="43.212469" lon="-6.053197">
        <ele>274.5</ele>
        <time>2024-09-07T15:36:56Z</time>
      </trkpt>
      <trkpt lat="43.212481" lon="-6.053226">
        <ele>274.3</ele>
        <time>2024-09-07T15:36:57Z</time>
      </trkpt>
      <trkpt lat="43.212497" lon="-6.053264">
        <ele>274.1</ele>
        <time>2024-09-07T15:36:58Z</time>
      </trkpt>
      <trkpt lat="43.212522" lon="-6.053306">
        <ele>274.2</ele>
        <time>2024-09-07T15:36:59Z</time>
      </trkpt>
      <trkpt lat="43.212545" lon="-6.053351">
        <ele>274.2</ele>
        <time>2024-09-07T15:37:00Z</time>
      </trkpt>
      <trkpt lat="43.212559" lon="-6.05339">
        <ele>274.3</ele>
        <time>2024-09-07T15:37:01Z</time>
      </trkpt>
      <trkpt lat="43.212574" lon="-6.05343">
        <ele>274.2</ele>
        <time>2024-09-07T15:37:02Z</time>
      </trkpt>
      <trkpt lat="43.212766" lon="-6.053849">
        <ele>274.3</ele>
        <time>2024-09-07T15:37:14Z</time>
      </trkpt>
      <trkpt lat="43.212948" lon="-6.054481">
        <ele>274.0</ele>
        <time>2024-09-07T15:37:29Z</time>
      </trkpt>
      <trkpt lat="43.212983" lon="-6.054984">
        <ele>274.0</ele>
        <time>2024-09-07T15:37:41Z</time>
      </trkpt>
      <trkpt lat="43.212956" lon="-6.055255">
        <ele>275.0</ele>
        <time>2024-09-07T15:37:47.612000Z</time>
      </trkpt>
      <trkpt lat="43.212891" lon="-6.055414">
        <ele>275.0</ele>
        <time>2024-09-07T15:37:52Z</time>
      </trkpt>
      <trkpt lat="43.21278" lon="-6.055653">
        <ele>276.0</ele>
        <time>2024-09-07T15:37:58.386000Z</time>
      </trkpt>
      <trkpt lat="43.212633" lon="-6.055798">
        <ele>277.2</ele>
        <time>2024-09-07T15:38:04Z</time>
      </trkpt>
      <trkpt lat="43.212434" lon="-6.05588">
        <ele>278.0</ele>
        <time>2024-09-07T15:38:10.335000Z</time>
      </trkpt>
      <trkpt lat="43.212248" lon="-6.055889">
        <ele>278.0</ele>
        <time>2024-09-07T15:38:16Z</time>
      </trkpt>
      <trkpt lat="43.211831" lon="-6.055853">
        <ele>279.0</ele>
        <time>2024-09-07T15:38:28Z</time>
      </trkpt>
      <trkpt lat="43.211477" lon="-6.055737">
        <ele>279.0</ele>
        <time>2024-09-07T15:38:37.158000Z</time>
      </trkpt>
      <trkpt lat="43.211364" lon="-6.05572">
        <ele>279.0</ele>
        <time>2024-09-07T15:38:40Z</time>
      </trkpt>
      <trkpt lat="43.211037" lon="-6.055732">
        <ele>280.4</ele>
        <time>2024-09-07T15:38:51Z</time>
      </trkpt>
      <trkpt lat="43.210741" lon="-6.055848">
        <ele>281.5</ele>
        <time>2024-09-07T15:39:01Z</time>
      </trkpt>
      <trkpt lat="43.210715" lon="-6.055873">
        <ele>281.3</ele>
        <time>2024-09-07T15:39:02Z</time>
      </trkpt>
      <trkpt lat="43.210679" lon="-6.055905">
        <ele>281.2</ele>
        <time>2024-09-07T15:39:03Z</time>
      </trkpt>
      <trkpt lat="43.210641" lon="-6.055939">
        <ele>281.0</ele>
        <time>2024-09-07T15:39:04Z</time>
      </trkpt>
      <trkpt lat="43.21061" lon="-6.05596">
        <ele>281.7</ele>
        <time>2024-09-07T15:39:05Z</time>
      </trkpt>
      <trkpt lat="43.210435" lon="-6.056409">
        <ele>286.3</ele>
        <time>2024-09-07T15:39:19Z</time>
      </trkpt>
      <trkpt lat="43.210387" lon="-6.056587">
        <ele>286.8</ele>
        <time>2024-09-07T15:39:21.781000Z</time>
      </trkpt>
      <trkpt lat="43.210168" lon="-6.057129">
        <ele>285.0</ele>
        <time>2024-09-07T15:39:35Z</time>
      </trkpt>
      <trkpt lat="43.210152" lon="-6.057174">
        <ele>285.3</ele>
        <time>2024-09-07T15:39:36Z</time>
      </trkpt>
      <trkpt lat="43.210137" lon="-6.057214">
        <ele>284.5</ele>
        <time>2024-09-07T15:39:37Z</time>
      </trkpt>
      <trkpt lat="43.210126" lon="-6.057261">
        <ele>284.4</ele>
        <time>2024-09-07T15:39:38Z</time>
      </trkpt>
      <trkpt lat="43.210113" lon="-6.057322">
        <ele>284.9</ele>
        <time>2024-09-07T15:39:39Z</time>
      </trkpt>
      <trkpt lat="43.210106" lon="-6.057439">
        <ele>287.2</ele>
        <time>2024-09-07T15:39:40Z</time>
      </trkpt>
      <trkpt lat="43.210043" lon="-6.058003">
        <ele>284.6</ele>
        <time>2024-09-07T15:39:53Z</time>
      </trkpt>
      <trkpt lat="43.209981" lon="-6.058293">
        <ele>282.4</ele>
        <time>2024-09-07T15:40:00.171000Z</time>
      </trkpt>
      <trkpt lat="43.209912" lon="-6.058425">
        <ele>282.9</ele>
        <time>2024-09-07T15:40:04Z</time>
      </trkpt>
      <trkpt lat="43.209781" lon="-6.058631">
        <ele>285.4</ele>
        <time>2024-09-07T15:40:09.198000Z</time>
      </trkpt>
      <trkpt lat="43.209644" lon="-6.05874">
        <ele>285.0</ele>
        <time>2024-09-07T15:40:13.314000Z</time>
      </trkpt>
      <trkpt lat="43.209502" lon="-6.058747">
        <ele>286.0</ele>
        <time>2024-09-07T15:40:17Z</time>
      </trkpt>
      <trkpt lat="43.209281" lon="-6.058736">
        <ele>286.0</ele>
        <time>2024-09-07T15:40:23.085000Z</time>
      </trkpt>
      <trkpt lat="43.208995" lon="-6.058683">
        <ele>285.6</ele>
        <time>2024-09-07T15:40:31Z</time>
      </trkpt>
      <trkpt lat="43.208804" lon="-6.058615">
        <ele>286.0</ele>
        <time>2024-09-07T15:40:36.655000Z</time>
      </trkpt>
      <trkpt lat="43.208636" lon="-6.058461">
        <ele>286.0</ele>
        <time>2024-09-07T15:40:42.439000Z</time>
      </trkpt>
      <trkpt lat="43.208554" lon="-6.058333">
        <ele>286.0</ele>
        <time>2024-09-07T15:40:46Z</time>
      </trkpt>
      <trkpt lat="43.208139" lon="-6.057829">
        <ele>286.3</ele>
        <time>2024-09-07T15:41:03Z</time>
      </trkpt>
      <trkpt lat="43.20794" lon="-6.05761">
        <ele>288.1</ele>
        <time>2024-09-07T15:41:10.451000Z</time>
      </trkpt>
      <trkpt lat="43.207654" lon="-6.057518">
        <ele>287.6</ele>
        <time>2024-09-07T15:41:19Z</time>
      </trkpt>
      <trkpt lat="43.207286" lon="-6.057467">
        <ele>289.7</ele>
        <time>2024-09-07T15:41:32Z</time>
      </trkpt>
      <trkpt lat="43.206907" lon="-6.057239">
        <ele>290.0</ele>
        <time>2024-09-07T15:41:43Z</time>
      </trkpt>
      <trkpt lat="43.206372" lon="-6.056916">
        <ele>292.4</ele>
        <time>2024-09-07T15:42:01Z</time>
      </trkpt>
      <trkpt lat="43.205989" lon="-6.056652">
        <ele>293.0</ele>
        <time>2024-09-07T15:42:17Z</time>
      </trkpt>
      <trkpt lat="43.205529" lon="-6.056325">
        <ele>294.0</ele>
        <time>2024-09-07T15:42:29Z</time>
      </trkpt>
      <trkpt lat="43.205363" lon="-6.056235">
        <ele>295.0</ele>
        <time>2024-09-07T15:42:34.058000Z</time>
      </trkpt>
      <trkpt lat="43.20519" lon="-6.056209">
        <ele>296.3</ele>
        <time>2024-09-07T15:42:38.990000Z</time>
      </trkpt>
      <trkpt lat="43.20505" lon="-6.056231">
        <ele>296.0</ele>
        <time>2024-09-07T15:42:43Z</time>
      </trkpt>
      <trkpt lat="43.204852" lon="-6.056391">
        <ele>296.1</ele>
        <time>2024-09-07T15:42:49.574000Z</time>
      </trkpt>
      <trkpt lat="43.204683" lon="-6.056661">
        <ele>297.4</ele>
        <time>2024-09-07T15:42:57Z</time>
      </trkpt>
      <trkpt lat="43.204594" lon="-6.056849">
        <ele>297.6</ele>
        <time>2024-09-07T15:43:03Z</time>
      </trkpt>
      <trkpt lat="43.204229" lon="-6.057931">
        <ele>300.0</ele>
        <time>2024-09-07T15:43:35.668000Z</time>
      </trkpt>
      <trkpt lat="43.204046" lon="-6.05816">
        <ele>300.0</ele>
        <time>2024-09-07T15:43:45Z</time>
      </trkpt>
      <trkpt lat="43.20389" lon="-6.058416">
        <ele>300.0</ele>
        <time>2024-09-07T15:43:51.321000Z</time>
      </trkpt>
      <trkpt lat="43.203754" lon="-6.058775">
        <ele>299.7</ele>
        <time>2024-09-07T15:43:59Z</time>
      </trkpt>
      <trkpt lat="43.203608" lon="-6.059203">
        <ele>300.0</ele>
        <time>2024-09-07T15:44:10Z</time>
      </trkpt>
      <trkpt lat="43.203494" lon="-6.059525">
        <ele>301.5</ele>
        <time>2024-09-07T15:45:11Z</time>
      </trkpt>
      <trkpt lat="43.203373" lon="-6.059792">
        <ele>302.4</ele>
        <time>2024-09-07T15:45:17.312000Z</time>
      </trkpt>
      <trkpt lat="43.203225" lon="-6.059986">
        <ele>305.0</ele>
        <time>2024-09-07T15:45:23Z</time>
      </trkpt>
      <trkpt lat="43.202873" lon="-6.060249">
        <ele>303.0</ele>
        <time>2024-09-07T15:45:34Z</time>
      </trkpt>
      <trkpt lat="43.202565" lon="-6.060363">
        <ele>303.0</ele>
        <time>2024-09-07T15:45:44Z</time>
      </trkpt>
      <trkpt lat="43.202256" lon="-6.060501">
        <ele>304.0</ele>
        <time>2024-09-07T15:45:55Z</time>
      </trkpt>
      <trkpt lat="43.202143" lon="-6.060577">
        <ele>305.0</ele>
        <time>2024-09-07T15:45:59Z</time>
      </trkpt>
      <trkpt lat="43.202116" lon="-6.060582">
        <ele>305.0</ele>
        <time>2024-09-07T15:46:00Z</time>
      </trkpt>
      <trkpt lat="43.202095" lon="-6.060592">
        <ele>305.0</ele>
        <time>2024-09-07T15:46:01Z</time>
      </trkpt>
      <trkpt lat="43.202069" lon="-6.060611">
        <ele>305.0</ele>
        <time>2024-09-07T15:46:02Z</time>
      </trkpt>
      <trkpt lat="43.202039" lon="-6.06063">
        <ele>305.0</ele>
        <time>2024-09-07T15:46:03Z</time>
      </trkpt>
      <trkpt lat="43.202017" lon="-6.060655">
        <ele>305.0</ele>
        <time>2024-09-07T15:46:04Z</time>
      </trkpt>
      <trkpt lat="43.201743" lon="-6.060973">
        <ele>306.1</ele>
        <time>2024-09-07T15:46:16Z</time>
      </trkpt>
      <trkpt lat="43.201468" lon="-6.061329">
        <ele>307.0</ele>
        <time>2024-09-07T15:46:29Z</time>
      </trkpt>
      <trkpt lat="43.201185" lon="-6.061794">
        <ele>308.2</ele>
        <time>2024-09-07T15:46:43Z</time>
      </trkpt>
      <trkpt lat="43.200968" lon="-6.062205">
        <ele>310.3</ele>
        <time>2024-09-07T15:46:55Z</time>
      </trkpt>
      <trkpt lat="43.200783" lon="-6.062622">
        <ele>310.6</ele>
        <time>2024-09-07T15:47:05Z</time>
      </trkpt>
      <trkpt lat="43.200684" lon="-6.063046">
        <ele>311.0</ele>
        <time>2024-09-07T15:47:14Z</time>
      </trkpt>
      <trkpt lat="43.200719" lon="-6.063773">
        <ele>312.0</ele>
        <time>2024-09-07T15:47:34Z</time>
      </trkpt>
      <trkpt lat="43.200784" lon="-6.064225">
        <ele>313.0</ele>
        <time>2024-09-07T15:47:41.339000Z</time>
      </trkpt>
      <trkpt lat="43.200813" lon="-6.064515">
        <ele>313.0</ele>
        <time>2024-09-07T15:47:46Z</time>
      </trkpt>
      <trkpt lat="43.20081" lon="-6.06489">
        <ele>313.5</ele>
        <time>2024-09-07T15:47:55Z</time>
      </trkpt>
      <trkpt lat="43.200713" lon="-6.065745">
        <ele>316.0</ele>
        <time>2024-09-07T15:48:15Z</time>
      </trkpt>
      <trkpt lat="43.200636" lon="-6.066483">
        <ele>317.1</ele>
        <time>2024-09-07T15:48:32Z</time>
      </trkpt>
      <trkpt lat="43.200591" lon="-6.067003">
        <ele>320.0</ele>
        <time>2024-09-07T15:48:45Z</time>
      </trkpt>
      <trkpt lat="43.2005" lon="-6.067266">
        <ele>320.0</ele>
        <time>2024-09-07T15:48:50.869000Z</time>
      </trkpt>
      <trkpt lat="43.200333" lon="-6.067467">
        <ele>319.9</ele>
        <time>2024-09-07T15:48:57Z</time>
      </trkpt>
      <trkpt lat="43.200086" lon="-6.067589">
        <ele>320.0</ele>
        <time>2024-09-07T15:49:04.699000Z</time>
      </trkpt>
      <trkpt lat="43.199909" lon="-6.067619">
        <ele>323.0</ele>
        <time>2024-09-07T15:49:10Z</time>
      </trkpt>
      <trkpt lat="43.199371" lon="-6.06772">
        <ele>323.0</ele>
        <time>2024-09-07T15:49:29Z</time>
      </trkpt>
      <trkpt lat="43.199282" lon="-6.067722">
        <ele>323.5</ele>
        <time>2024-09-07T15:49:29.432000Z</time>
      </trkpt>
      <trkpt lat="43.199171" lon="-6.06777">
        <ele>323.0</ele>
        <time>2024-09-07T15:49:30Z</time>
      </trkpt>
      <trkpt lat="43.198797" lon="-6.068123">
        <ele>323.9</ele>
        <time>2024-09-07T15:49:43Z</time>
      </trkpt>
      <trkpt lat="43.198518" lon="-6.068216">
        <ele>325.0</ele>
        <time>2024-09-07T15:49:51.363000Z</time>
      </trkpt>
      <trkpt lat="43.198256" lon="-6.068203">
        <ele>325.1</ele>
        <time>2024-09-07T15:49:59Z</time>
      </trkpt>
      <trkpt lat="43.197871" lon="-6.067852">
        <ele>328.0</ele>
        <time>2024-09-07T15:50:13Z</time>
      </trkpt>
      <trkpt lat="43.197612" lon="-6.067609">
        <ele>328.7</ele>
        <time>2024-09-07T15:50:24Z</time>
      </trkpt>
      <trkpt lat="43.197556" lon="-6.067578">
        <ele>328.0</ele>
        <time>2024-09-07T15:50:25Z</time>
      </trkpt>
      <trkpt lat="43.19749" lon="-6.067517">
        <ele>330.5</ele>
        <time>2024-09-07T15:50:26Z</time>
      </trkpt>
      <trkpt lat="43.197025" lon="-6.067378">
        <ele>329.0</ele>
        <time>2024-09-07T15:50:42Z</time>
      </trkpt>
      <trkpt lat="43.196751" lon="-6.067304">
        <ele>329.0</ele>
        <time>2024-09-07T15:50:52Z</time>
      </trkpt>
      <trkpt lat="43.196125" lon="-6.068027">
        <ele>334.7</ele>
        <time>2024-09-07T15:51:21Z</time>
      </trkpt>
      <trkpt lat="43.196122" lon="-6.068148">
        <ele>333.0</ele>
        <time>2024-09-07T15:51:23Z</time>
      </trkpt>
      <trkpt lat="43.196062" lon="-6.068698">
        <ele>336.0</ele>
        <time>2024-09-07T15:51:35Z</time>
      </trkpt>
      <trkpt lat="43.195933" lon="-6.068987">
        <ele>338.0</ele>
        <time>2024-09-07T15:51:44Z</time>
      </trkpt>
      <trkpt lat="43.195643" lon="-6.069294">
        <ele>338.0</ele>
        <time>2024-09-07T15:52:40.335000Z</time>
      </trkpt>
      <trkpt lat="43.195625" lon="-6.069373">
        <ele>339.0</ele>
        <time>2024-09-07T15:52:50Z</time>
      </trkpt>
      <trkpt lat="43.195615" lon="-6.069418">
        <ele>339.0</ele>
        <time>2024-09-07T15:53:43Z</time>
      </trkpt>
      <trkpt lat="43.195618" lon="-6.069446">
        <ele>339.0</ele>
        <time>2024-09-07T15:53:48Z</time>
      </trkpt>
      <trkpt lat="43.195619" lon="-6.069505">
        <ele>339.0</ele>
        <time>2024-09-07T15:53:51Z</time>
      </trkpt>
      <trkpt lat="43.195607" lon="-6.069782">
        <ele>339.0</ele>
        <time>2024-09-07T15:53:56.338000Z</time>
      </trkpt>
      <trkpt lat="43.195527" lon="-6.069939">
        <ele>339.0</ele>
        <time>2024-09-07T15:54:00Z</time>
      </trkpt>
      <trkpt lat="43.195057" lon="-6.070107">
        <ele>338.0</ele>
        <time>2024-09-07T15:54:09.451000Z</time>
      </trkpt>
      <trkpt lat="43.194944" lon="-6.070197">
        <ele>339.0</ele>
        <time>2024-09-07T15:54:12Z</time>
      </trkpt>
      <trkpt lat="43.194688" lon="-6.070471">
        <ele>340.5</ele>
        <time>2024-09-07T15:54:22Z</time>
      </trkpt>
      <trkpt lat="43.19435" lon="-6.070811">
        <ele>341.1</ele>
        <time>2024-09-07T15:54:36Z</time>
      </trkpt>
      <trkpt lat="43.194044" lon="-6.071183">
        <ele>342.0</ele>
        <time>2024-09-07T15:54:47.141000Z</time>
      </trkpt>
      <trkpt lat="43.194013" lon="-6.07137">
        <ele>344.8</ele>
        <time>2024-09-07T15:54:51Z</time>
      </trkpt>
      <trkpt lat="43.194026" lon="-6.071753">
        <ele>344.0</ele>
        <time>2024-09-07T15:55:00Z</time>
      </trkpt>
      <trkpt lat="43.194028" lon="-6.072247">
        <ele>345.3</ele>
        <time>2024-09-07T15:55:12Z</time>
      </trkpt>
      <trkpt lat="43.194024" lon="-6.072579">
        <ele>346.4</ele>
        <time>2024-09-07T15:55:21Z</time>
      </trkpt>
      <trkpt lat="43.19396" lon="-6.073011">
        <ele>348.1</ele>
        <time>2024-09-07T15:55:32Z</time>
      </trkpt>
      <trkpt lat="43.193783" lon="-6.073684">
        <ele>348.0</ele>
        <time>2024-09-07T15:55:51Z</time>
      </trkpt>
      <trkpt lat="43.193621" lon="-6.073964">
        <ele>348.1</ele>
        <time>2024-09-07T15:55:58.130000Z</time>
      </trkpt>
      <trkpt lat="43.193488" lon="-6.074127">
        <ele>349.0</ele>
        <time>2024-09-07T15:56:03Z</time>
      </trkpt>
      <trkpt lat="43.193029" lon="-6.074499">
        <ele>350.7</ele>
        <time>2024-09-07T15:56:19Z</time>
      </trkpt>
      <trkpt lat="43.192864" lon="-6.074592">
        <ele>351.0</ele>
        <time>2024-09-07T15:56:24.520000Z</time>
      </trkpt>
      <trkpt lat="43.192656" lon="-6.074624">
        <ele>351.0</ele>
        <time>2024-09-07T15:56:31Z</time>
      </trkpt>
      <trkpt lat="43.192397" lon="-6.074602">
        <ele>352.0</ele>
        <time>2024-09-07T15:56:38.839000Z</time>
      </trkpt>
      <trkpt lat="43.192185" lon="-6.074456">
        <ele>352.0</ele>
        <time>2024-09-07T15:56:46Z</time>
      </trkpt>
      <trkpt lat="43.191983" lon="-6.074394">
        <ele>353.0</ele>
        <time>2024-09-07T15:56:52.689000Z</time>
      </trkpt>
      <trkpt lat="43.191725" lon="-6.07439">
        <ele>353.7</ele>
        <time>2024-09-07T15:57:01Z</time>
      </trkpt>
      <trkpt lat="43.191485" lon="-6.074599">
        <ele>354.0</ele>
        <time>2024-09-07T15:57:09.922000Z</time>
      </trkpt>
      <trkpt lat="43.191356" lon="-6.074852">
        <ele>356.1</ele>
        <time>2024-09-07T15:57:17Z</time>
      </trkpt>
      <trkpt lat="43.191241" lon="-6.075177">
        <ele>357.2</ele>
        <time>2024-09-07T15:57:25.562000Z</time>
      </trkpt>
      <trkpt lat="43.191191" lon="-6.075526">
        <ele>358.8</ele>
        <time>2024-09-07T15:57:34Z</time>
      </trkpt>
      <trkpt lat="43.191144" lon="-6.075947">
        <ele>356.9</ele>
        <time>2024-09-07T15:57:45Z</time>
      </trkpt>
      <trkpt lat="43.191079" lon="-6.076211">
        <ele>358.0</ele>
        <time>2024-09-07T15:57:51.464000Z</time>
      </trkpt>
      <trkpt lat="43.19099" lon="-6.076417">
        <ele>358.9</ele>
        <time>2024-09-07T15:57:57Z</time>
      </trkpt>
      <trkpt lat="43.190819" lon="-6.076587">
        <ele>359.0</ele>
        <time>2024-09-07T15:58:06Z</time>
      </trkpt>
      <trkpt lat="43.190798" lon="-6.076618">
        <ele>359.0</ele>
        <time>2024-09-07T15:58:07Z</time>
      </trkpt>
      <trkpt lat="43.190602" lon="-6.076835">
        <ele>359.0</ele>
        <time>2024-09-07T15:58:18Z</time>
      </trkpt>
      <trkpt lat="43.190583" lon="-6.076856">
        <ele>359.0</ele>
        <time>2024-09-07T15:58:19Z</time>
      </trkpt>
      <trkpt lat="43.190366" lon="-6.077077">
        <ele>360.0</ele>
        <time>2024-09-07T15:58:31Z</time>
      </trkpt>
      <trkpt lat="43.190109" lon="-6.077281">
        <ele>361.1</ele>
        <time>2024-09-07T15:58:42Z</time>
      </trkpt>
      <trkpt lat="43.189909" lon="-6.077335">
        <ele>359.4</ele>
        <time>2024-09-07T15:58:49.694000Z</time>
      </trkpt>
      <trkpt lat="43.189744" lon="-6.077305">
        <ele>361.0</ele>
        <time>2024-09-07T15:58:56Z</time>
      </trkpt>
      <trkpt lat="43.18927" lon="-6.077194">
        <ele>363.0</ele>
        <time>2024-09-07T15:59:14Z</time>
      </trkpt>
      <trkpt lat="43.189103" lon="-6.07718">
        <ele>363.0</ele>
        <time>2024-09-07T15:59:20.145000Z</time>
      </trkpt>
      <trkpt lat="43.188951" lon="-6.077239">
        <ele>364.0</ele>
        <time>2024-09-07T15:59:26Z</time>
      </trkpt>
      <trkpt lat="43.188772" lon="-6.077427">
        <ele>364.0</ele>
        <time>2024-09-07T15:59:38Z</time>
      </trkpt>
      <trkpt lat="43.188661" lon="-6.077789">
        <ele>365.4</ele>
        <time>2024-09-07T15:59:50Z</time>
      </trkpt>
      <trkpt lat="43.18859" lon="-6.078237">
        <ele>366.0</ele>
        <time>2024-09-07T16:00:04Z</time>
      </trkpt>
      <trkpt lat="43.188515" lon="-6.078469">
        <ele>367.0</ele>
        <time>2024-09-07T16:00:10.389000Z</time>
      </trkpt>
      <trkpt lat="43.188437" lon="-6.078617">
        <ele>367.2</ele>
        <time>2024-09-07T16:00:15Z</time>
      </trkpt>
      <trkpt lat="43.18822" lon="-6.078785">
        <ele>367.7</ele>
        <time>2024-09-07T16:00:25.946000Z</time>
      </trkpt>
      <trkpt lat="43.188129" lon="-6.078807">
        <ele>368.1</ele>
        <time>2024-09-07T16:00:30Z</time>
      </trkpt>
      <trkpt lat="43.187857" lon="-6.078819">
        <ele>368.0</ele>
        <time>2024-09-07T16:00:42Z</time>
      </trkpt>
      <trkpt lat="43.187592" lon="-6.07881">
        <ele>369.0</ele>
        <time>2024-09-07T16:00:53Z</time>
      </trkpt>
      <trkpt lat="43.187485" lon="-6.078794">
        <ele>369.0</ele>
        <time>2024-09-07T16:00:59Z</time>
      </trkpt>
      <trkpt lat="43.187465" lon="-6.078793">
        <ele>369.0</ele>
        <time>2024-09-07T16:01:00Z</time>
      </trkpt>
      <trkpt lat="43.187446" lon="-6.078796">
        <ele>369.0</ele>
        <time>2024-09-07T16:01:01Z</time>
      </trkpt>
      <trkpt lat="43.187427" lon="-6.078796">
        <ele>369.0</ele>
        <time>2024-09-07T16:01:02Z</time>
      </trkpt>
      <trkpt lat="43.187408" lon="-6.078803">
        <ele>369.0</ele>
        <time>2024-09-07T16:01:03Z</time>
      </trkpt>
      <trkpt lat="43.187388" lon="-6.078805">
        <ele>369.0</ele>
        <time>2024-09-07T16:01:04Z</time>
      </trkpt>
      <trkpt lat="43.187094" lon="-6.078844">
        <ele>369.7</ele>
        <time>2024-09-07T16:01:18Z</time>
      </trkpt>
      <trkpt lat="43.18683" lon="-6.078894">
        <ele>371.0</ele>
        <time>2024-09-07T16:01:30Z</time>
      </trkpt>
      <trkpt lat="43.186446" lon="-6.079281">
        <ele>372.1</ele>
        <time>2024-09-07T16:01:46Z</time>
      </trkpt>
      <trkpt lat="43.186272" lon="-6.079466">
        <ele>373.0</ele>
        <time>2024-09-07T16:01:54.101000Z</time>
      </trkpt>
      <trkpt lat="43.186129" lon="-6.079565">
        <ele>373.0</ele>
        <time>2024-09-07T16:02:00Z</time>
      </trkpt>
      <trkpt lat="43.185723" lon="-6.079886">
        <ele>375.0</ele>
        <time>2024-09-07T16:02:17Z</time>
      </trkpt>
      <trkpt lat="43.185207" lon="-6.080243">
        <ele>377.8</ele>
        <time>2024-09-07T16:04:48.199000Z</time>
      </trkpt>
      <trkpt lat="43.18491" lon="-6.080508">
        <ele>378.0</ele>
        <time>2024-09-07T16:06:21Z</time>
      </trkpt>
      <trkpt lat="43.184549" lon="-6.080812">
        <ele>378.0</ele>
        <time>2024-09-07T16:06:34Z</time>
      </trkpt>
      <trkpt lat="43.184336" lon="-6.081022">
        <ele>379.0</ele>
        <time>2024-09-07T16:06:42.162000Z</time>
      </trkpt>
      <trkpt lat="43.18037" lon="-6.082789">
        <ele>390.0</ele>
        <time>2024-09-07T16:08:52Z</time>
      </trkpt>
      <trkpt lat="43.179993" lon="-6.082611">
        <ele>391.0</ele>
        <time>2024-09-07T16:09:07Z</time>
      </trkpt>
      <trkpt lat="43.179573" lon="-6.082444">
        <ele>392.6</ele>
        <time>2024-09-07T16:09:26Z</time>
      </trkpt>
      <trkpt lat="43.17938" lon="-6.082406">
        <ele>391.9</ele>
        <time>2024-09-07T16:09:31.469000Z</time>
      </trkpt>
      <trkpt lat="43.179153" lon="-6.082435">
        <ele>393.1</ele>
        <time>2024-09-07T16:09:37.868000Z</time>
      </trkpt>
      <trkpt lat="43.178998" lon="-6.082567">
        <ele>393.0</ele>
        <time>2024-09-07T16:09:43Z</time>
      </trkpt>
      <trkpt lat="43.178657" lon="-6.083055">
        <ele>395.0</ele>
        <time>2024-09-07T16:09:59Z</time>
      </trkpt>
      <trkpt lat="43.17816" lon="-6.083385">
        <ele>395.0</ele>
        <time>2024-09-07T16:10:17Z</time>
      </trkpt>
      <trkpt lat="43.177851" lon="-6.083412">
        <ele>398.1</ele>
        <time>2024-09-07T16:10:26.087000Z</time>
      </trkpt>
      <trkpt lat="43.177656" lon="-6.083488">
        <ele>398.0</ele>
        <time>2024-09-07T16:10:32Z</time>
      </trkpt>
      <trkpt lat="43.177306" lon="-6.083801">
        <ele>399.0</ele>
        <time>2024-09-07T16:10:46Z</time>
      </trkpt>
      <trkpt lat="43.17708" lon="-6.084051">
        <ele>400.0</ele>
        <time>2024-09-07T16:10:58Z</time>
      </trkpt>
      <trkpt lat="43.176919" lon="-6.084675">
        <ele>403.6</ele>
        <time>2024-09-07T16:11:12Z</time>
      </trkpt>
      <trkpt lat="43.176865" lon="-6.08484">
        <ele>402.0</ele>
        <time>2024-09-07T16:11:16.304000Z</time>
      </trkpt>
      <trkpt lat="43.176848" lon="-6.085249">
        <ele>402.0</ele>
        <time>2024-09-07T16:11:26Z</time>
      </trkpt>
      <trkpt lat="43.176813" lon="-6.085745">
        <ele>403.0</ele>
        <time>2024-09-07T16:11:40Z</time>
      </trkpt>
      <trkpt lat="43.176786" lon="-6.086149">
        <ele>403.2</ele>
        <time>2024-09-07T16:11:46.977000Z</time>
      </trkpt>
      <trkpt lat="43.176766" lon="-6.086615">
        <ele>405.1</ele>
        <time>2024-09-07T16:11:55Z</time>
      </trkpt>
      <trkpt lat="43.176722" lon="-6.086758">
        <ele>405.0</ele>
        <time>2024-09-07T16:12:04Z</time>
      </trkpt>
      <trkpt lat="43.176701" lon="-6.086864">
        <ele>405.0</ele>
        <time>2024-09-07T16:12:07Z</time>
      </trkpt>
      <trkpt lat="43.176694" lon="-6.086907">
        <ele>405.0</ele>
        <time>2024-09-07T16:12:08Z</time>
      </trkpt>
      <trkpt lat="43.176516" lon="-6.087297">
        <ele>406.0</ele>
        <time>2024-09-07T16:12:18Z</time>
      </trkpt>
      <trkpt lat="43.176236" lon="-6.087533">
        <ele>407.0</ele>
        <time>2024-09-07T16:12:29Z</time>
      </trkpt>
      <trkpt lat="43.17574" lon="-6.087675">
        <ele>408.0</ele>
        <time>2024-09-07T16:12:46Z</time>
      </trkpt>
      <trkpt lat="43.175509" lon="-6.087819">
        <ele>409.0</ele>
        <time>2024-09-07T16:12:54.214000Z</time>
      </trkpt>
      <trkpt lat="43.175391" lon="-6.088002">
        <ele>409.3</ele>
        <time>2024-09-07T16:13:00Z</time>
      </trkpt>
      <trkpt lat="43.175238" lon="-6.088302">
        <ele>410.5</ele>
        <time>2024-09-07T16:13:11Z</time>
      </trkpt>
      <trkpt lat="43.175185" lon="-6.088422">
        <ele>411.0</ele>
        <time>2024-09-07T16:13:15Z</time>
      </trkpt>
      <trkpt lat="43.175113" lon="-6.088522">
        <ele>410.0</ele>
        <time>2024-09-07T16:13:19Z</time>
      </trkpt>
      <trkpt lat="43.175094" lon="-6.088546">
        <ele>410.6</ele>
        <time>2024-09-07T16:13:20Z</time>
      </trkpt>
      <trkpt lat="43.175075" lon="-6.088578">
        <ele>410.0</ele>
        <time>2024-09-07T16:13:21Z</time>
      </trkpt>
      <trkpt lat="43.175055" lon="-6.088616">
        <ele>410.5</ele>
        <time>2024-09-07T16:13:22Z</time>
      </trkpt>
      <trkpt lat="43.175036" lon="-6.088653">
        <ele>411.0</ele>
        <time>2024-09-07T16:13:23Z</time>
      </trkpt>
      <trkpt lat="43.175013" lon="-6.088684">
        <ele>411.0</ele>
        <time>2024-09-07T16:13:24Z</time>
      </trkpt>
      <trkpt lat="43.174999" lon="-6.088713">
        <ele>411.0</ele>
        <time>2024-09-07T16:13:25Z</time>
      </trkpt>
      <trkpt lat="43.174846" lon="-6.089062">
        <ele>412.1</ele>
        <time>2024-09-07T16:13:37Z</time>
      </trkpt>
      <trkpt lat="43.174747" lon="-6.089297">
        <ele>412.5</ele>
        <time>2024-09-07T16:13:44.925000Z</time>
      </trkpt>
      <trkpt lat="43.174731" lon="-6.089468">
        <ele>414.6</ele>
        <time>2024-09-07T16:13:50Z</time>
      </trkpt>
      <trkpt lat="43.174711" lon="-6.089685">
        <ele>413.0</ele>
        <time>2024-09-07T16:13:59Z</time>
      </trkpt>
      <trkpt lat="43.174717" lon="-6.089775">
        <ele>413.0</ele>
        <time>2024-09-07T16:14:03Z</time>
      </trkpt>
      <trkpt lat="43.174836" lon="-6.090371">
        <ele>414.0</ele>
        <time>2024-09-07T16:15:46Z</time>
      </trkpt>
      <trkpt lat="43.174847" lon="-6.090391">
        <ele>414.0</ele>
        <time>2024-09-07T16:15:47Z</time>
      </trkpt>
      <trkpt lat="43.17489" lon="-6.090746">
        <ele>415.0</ele>
        <time>2024-09-07T16:16:00Z</time>
      </trkpt>
      <trkpt lat="43.174856" lon="-6.091065">
        <ele>416.0</ele>
        <time>2024-09-07T16:16:10Z</time>
      </trkpt>
      <trkpt lat="43.174721" lon="-6.091584">
        <ele>417.0</ele>
        <time>2024-09-07T16:16:25Z</time>
      </trkpt>
      <trkpt lat="43.174524" lon="-6.092302">
        <ele>418.3</ele>
        <time>2024-09-07T16:16:46Z</time>
      </trkpt>
      <trkpt lat="43.174451" lon="-6.092592">
        <ele>419.0</ele>
        <time>2024-09-07T16:16:54.271000Z</time>
      </trkpt>
      <trkpt lat="43.174407" lon="-6.092872">
        <ele>418.9</ele>
        <time>2024-09-07T16:17:02Z</time>
      </trkpt>
      <trkpt lat="43.174439" lon="-6.093465">
        <ele>420.2</ele>
        <time>2024-09-07T16:17:16Z</time>
      </trkpt>
      <trkpt lat="43.174452" lon="-6.093894">
        <ele>422.5</ele>
        <time>2024-09-07T16:17:28Z</time>
      </trkpt>
      <trkpt lat="43.174369" lon="-6.094226">
        <ele>424.0</ele>
        <time>2024-09-07T16:17:38Z</time>
      </trkpt>
      <trkpt lat="43.174351" lon="-6.094243">
        <ele>423.5</ele>
        <time>2024-09-07T16:17:39Z</time>
      </trkpt>
      <trkpt lat="43.174328" lon="-6.094261">
        <ele>423.1</ele>
        <time>2024-09-07T16:17:40Z</time>
      </trkpt>
      <trkpt lat="43.174304" lon="-6.094281">
        <ele>422.3</ele>
        <time>2024-09-07T16:17:41Z</time>
      </trkpt>
      <trkpt lat="43.174278" lon="-6.094292">
        <ele>422.7</ele>
        <time>2024-09-07T16:17:42Z</time>
      </trkpt>
      <trkpt lat="43.174254" lon="-6.094317">
        <ele>422.7</ele>
        <time>2024-09-07T16:17:43Z</time>
      </trkpt>
      <trkpt lat="43.174234" lon="-6.094345">
        <ele>422.8</ele>
        <time>2024-09-07T16:17:44Z</time>
      </trkpt>
      <trkpt lat="43.174208" lon="-6.094364">
        <ele>422.7</ele>
        <time>2024-09-07T16:17:45Z</time>
      </trkpt>
      <trkpt lat="43.174183" lon="-6.094386">
        <ele>423.0</ele>
        <time>2024-09-07T16:17:46Z</time>
      </trkpt>
      <trkpt lat="43.174157" lon="-6.094406">
        <ele>423.1</ele>
        <time>2024-09-07T16:17:47Z</time>
      </trkpt>
      <trkpt lat="43.174128" lon="-6.094423">
        <ele>423.0</ele>
        <time>2024-09-07T16:17:48Z</time>
      </trkpt>
      <trkpt lat="43.174101" lon="-6.094439">
        <ele>423.1</ele>
        <time>2024-09-07T16:17:49Z</time>
      </trkpt>
      <trkpt lat="43.174071" lon="-6.094458">
        <ele>423.0</ele>
        <time>2024-09-07T16:17:50Z</time>
      </trkpt>
      <trkpt lat="43.174043" lon="-6.094482">
        <ele>423.0</ele>
        <time>2024-09-07T16:17:51Z</time>
      </trkpt>
      <trkpt lat="43.174015" lon="-6.094503">
        <ele>422.8</ele>
        <time>2024-09-07T16:17:52Z</time>
      </trkpt>
      <trkpt lat="43.173582" lon="-6.094865">
        <ele>424.0</ele>
        <time>2024-09-07T16:18:08Z</time>
      </trkpt>
      <trkpt lat="43.173385" lon="-6.095131">
        <ele>425.1</ele>
        <time>2024-09-07T16:18:17Z</time>
      </trkpt>
      <trkpt lat="43.173097" lon="-6.095441">
        <ele>426.0</ele>
        <time>2024-09-07T16:18:28Z</time>
      </trkpt>
      <trkpt lat="43.172826" lon="-6.095741">
        <ele>427.0</ele>
        <time>2024-09-07T16:18:41Z</time>
      </trkpt>
      <trkpt lat="43.172395" lon="-6.0962">
        <ele>428.6</ele>
        <time>2024-09-07T16:19:00Z</time>
      </trkpt>
      <trkpt lat="43.171991" lon="-6.096393">
        <ele>430.0</ele>
        <time>2024-09-07T16:19:15Z</time>
      </trkpt>
      <trkpt lat="43.171562" lon="-6.096561">
        <ele>432.2</ele>
        <time>2024-09-07T16:19:29Z</time>
      </trkpt>
      <trkpt lat="43.170986" lon="-6.096768">
        <ele>432.0</ele>
        <time>2024-09-07T16:19:45Z</time>
      </trkpt>
      <trkpt lat="43.170606" lon="-6.096944">
        <ele>432.9</ele>
        <time>2024-09-07T16:19:59Z</time>
      </trkpt>
      <trkpt lat="43.170371" lon="-6.097141">
        <ele>432.6</ele>
        <time>2024-09-07T16:20:10Z</time>
      </trkpt>
      <trkpt lat="43.170027" lon="-6.097407">
        <ele>433.0</ele>
        <time>2024-09-07T16:20:26Z</time>
      </trkpt>
    </trkseg>
  </trk>
</gpx>