<?xml version="1.0" encoding="UTF-8"?>
<gpx xmlns="http://www.topografix.com/GPX/1/1" xmlns:xsi="http://www.w3.org/2001/XMLSchema-instance" xsi:schemaLocation="http://www.topografix.com/GPX/1/1 http://www.topografix.com/GPX/1/1/gpx.xsd" version="1.1" creator="align_patterns_times.py">
  <trk>
    <name>Aligned Pattern Track - Pasada 13</name>
    <trkseg>
      <trkpt lat="43.170027" lon="-6.097407">
        <ele>433.0</ele>
        <time>2024-09-07T16:50:33Z</time>
      </trkpt>
      <trkpt lat="43.170371" lon="-6.097141">
        <ele>432.6</ele>
        <time>2024-09-07T16:50:47Z</time>
      </trkpt>
      <trkpt lat="43.170606" lon="-6.096944">
        <ele>432.9</ele>
        <time>2024-09-07T16:50:56Z</time>
      </trkpt>
      <trkpt lat="43.170986" lon="-6.096768">
        <ele>432.0</ele>
        <time>2024-09-07T16:51:09Z</time>
      </trkpt>
      <trkpt lat="43.171562" lon="-6.096561">
        <ele>432.2</ele>
        <time>2024-09-07T16:51:24Z</time>
      </trkpt>
      <trkpt lat="43.171991" lon="-6.096393">
        <ele>430.0</ele>
        <time>2024-09-07T16:51:35Z</time>
      </trkpt>
      <trkpt lat="43.172395" lon="-6.0962">
        <ele>428.6</ele>
        <time>2024-09-07T16:51:44Z</time>
      </trkpt>
      <trkpt lat="43.172826" lon="-6.095741">
        <ele>427.0</ele>
        <time>2024-09-07T16:52:02.188595Z</time>
      </trkpt>
      <trkpt lat="43.173097" lon="-6.095441">
        <ele>426.0</ele>
        <time>2024-09-07T16:52:13.796967Z</time>
      </trkpt>
      <trkpt lat="43.173385" lon="-6.095131">
        <ele>425.1</ele>
        <time>2024-09-07T16:52:26Z</time>
      </trkpt>
      <trkpt lat="43.173582" lon="-6.094865">
        <ele>424.0</ele>
        <time>2024-09-07T16:52:32Z</time>
      </trkpt>
      <trkpt lat="43.174015" lon="-6.094503">
        <ele>422.8</ele>
        <time>2024-09-07T16:52:46Z</time>
      </trkpt>
      <trkpt lat="43.174318" lon="-6.094297">
        <ele>423.0</ele>
        <time>2024-09-07T16:52:54Z</time>
      </trkpt>
      <trkpt lat="43.174392" lon="-6.094142">
        <ele>423.0</ele>
        <time>2024-09-07T16:52:57Z</time>
      </trkpt>
      <trkpt lat="43.174452" lon="-6.093894">
        <ele>422.5</ele>
        <time>2024-09-07T16:53:02Z</time>
      </trkpt>
      <trkpt lat="43.174439" lon="-6.093465">
        <ele>420.2</ele>
        <time>2024-09-07T16:53:10Z</time>
      </trkpt>
      <trkpt lat="43.174407" lon="-6.092872">
        <ele>418.9</ele>
        <time>2024-09-07T16:54:50Z</time>
      </trkpt>
      <trkpt lat="43.174451" lon="-6.092592">
        <ele>419.0</ele>
        <time>2024-09-07T16:54:55Z</time>
      </trkpt>
      <trkpt lat="43.174524" lon="-6.092302">
        <ele>418.3</ele>
        <time>2024-09-07T16:54:59Z</time>
      </trkpt>
      <trkpt lat="43.174721" lon="-6.091584">
        <ele>417.0</ele>
        <time>2024-09-07T16:55:11Z</time>
      </trkpt>
      <trkpt lat="43.174856" lon="-6.091065">
        <ele>416.0</ele>
        <time>2024-09-07T16:55:20Z</time>
      </trkpt>
      <trkpt lat="43.17489" lon="-6.090746">
        <ele>415.0</ele>
        <time>2024-09-07T16:55:24Z</time>
      </trkpt>
      <trkpt lat="43.174847" lon="-6.090391">
        <ele>414.0</ele>
        <time>2024-09-07T16:55:29.609519Z</time>
      </trkpt>
      <trkpt lat="43.174836" lon="-6.090371">
        <ele>414.0</ele>
        <time>2024-09-07T16:55:30Z</time>
      </trkpt>
      <trkpt lat="43.174717" lon="-6.089775">
        <ele>413.0</ele>
        <time>2024-09-07T16:55:40Z</time>
      </trkpt>
      <trkpt lat="43.174711" lon="-6.089685">
        <ele>413.0</ele>
        <time>2024-09-07T16:55:42Z</time>
      </trkpt>
      <trkpt lat="43.174731" lon="-6.089468">
        <ele>414.6</ele>
        <time>2024-09-07T16:55:45Z</time>
      </trkpt>
      <trkpt lat="43.174747" lon="-6.089297">
        <ele>412.5</ele>
        <time>2024-09-07T16:55:47Z</time>
      </trkpt>
      <trkpt lat="43.174846" lon="-6.089062">
        <ele>412.1</ele>
        <time>2024-09-07T16:55:50Z</time>
      </trkpt>
      <trkpt lat="43.175055" lon="-6.088616">
        <ele>410.5</ele>
        <time>2024-09-07T16:55:58Z</time>
      </trkpt>
      <trkpt lat="43.175166" lon="-6.088396">
        <ele>410.0</ele>
        <time>2024-09-07T16:56:02Z</time>
      </trkpt>
      <trkpt lat="43.17523" lon="-6.088276">
        <ele>410.0</ele>
        <time>2024-09-07T16:56:04Z</time>
      </trkpt>
      <trkpt lat="43.175391" lon="-6.088002">
        <ele>409.3</ele>
        <time>2024-09-07T16:56:09Z</time>
      </trkpt>
      <trkpt lat="43.175509" lon="-6.087819">
        <ele>409.0</ele>
        <time>2024-09-07T16:56:13Z</time>
      </trkpt>
      <trkpt lat="43.17574" lon="-6.087675">
        <ele>408.0</ele>
        <time>2024-09-07T16:56:17Z</time>
      </trkpt>
      <trkpt lat="43.176236" lon="-6.087533">
        <ele>407.0</ele>
        <time>2024-09-07T16:56:28Z</time>
      </trkpt>
      <trkpt lat="43.176516" lon="-6.087297">
        <ele>406.0</ele>
        <time>2024-09-07T16:56:34Z</time>
      </trkpt>
      <trkpt lat="43.176694" lon="-6.086907">
        <ele>405.0</ele>
        <time>2024-09-07T16:56:39Z</time>
      </trkpt>
      <trkpt lat="43.176701" lon="-6.086864">
        <ele>405.0</ele>
        <time>2024-09-07T16:56:40Z</time>
      </trkpt>
      <trkpt lat="43.176722" lon="-6.086758">
        <ele>405.0</ele>
        <time>2024-09-07T16:56:41Z</time>
      </trkpt>
      <trkpt lat="43.176766" lon="-6.086615">
        <ele>405.1</ele>
        <time>2024-09-07T16:56:44Z</time>
      </trkpt>
      <trkpt lat="43.176786" lon="-6.086149">
        <ele>403.2</ele>
        <time>2024-09-07T16:56:50Z</time>
      </trkpt>
      <trkpt lat="43.176813" lon="-6.085745">
        <ele>403.0</ele>
        <time>2024-09-07T16:56:56Z</time>
      </trkpt>
      <trkpt lat="43.176848" lon="-6.085249">
        <ele>402.0</ele>
        <time>2024-09-07T16:57:04Z</time>
      </trkpt>
      <trkpt lat="43.176865" lon="-6.08484">
        <ele>402.0</ele>
        <time>2024-09-07T16:57:10Z</time>
      </trkpt>
      <trkpt lat="43.17708" lon="-6.084051">
        <ele>400.0</ele>
        <time>2024-09-07T16:57:23Z</time>
      </trkpt>
      <trkpt lat="43.177306" lon="-6.083801">
        <ele>399.0</ele>
        <time>2024-09-07T16:57:29Z</time>
      </trkpt>
      <trkpt lat="43.177656" lon="-6.083488">
        <ele>398.0</ele>
        <time>2024-09-07T16:57:37Z</time>
      </trkpt>
      <trkpt lat="43.177851" lon="-6.083412">
        <ele>398.1</ele>
        <time>2024-09-07T16:57:41Z</time>
      </trkpt>
      <trkpt lat="43.17816" lon="-6.083385">
        <ele>395.0</ele>
        <time>2024-09-07T16:57:47Z</time>
      </trkpt>
      <trkpt lat="43.178657" lon="-6.083055">
        <ele>395.0</ele>
        <time>2024-09-07T16:57:58Z</time>
      </trkpt>
      <trkpt lat="43.178998" lon="-6.082567">
        <ele>393.0</ele>
        <time>2024-09-07T16:58:10Z</time>
      </trkpt>
      <trkpt lat="43.179153" lon="-6.082435">
        <ele>393.1</ele>
        <time>2024-09-07T16:58:14Z</time>
      </trkpt>
      <trkpt lat="43.17938" lon="-6.082406">
        <ele>391.9</ele>
        <time>2024-09-07T16:58:20Z</time>
      </trkpt>
      <trkpt lat="43.179573" lon="-6.082444">
        <ele>392.6</ele>
        <time>2024-09-07T16:58:24Z</time>
      </trkpt>
      <trkpt lat="43.179993" lon="-6.082611">
        <ele>391.0</ele>
        <time>2024-09-07T16:58:34Z</time>
      </trkpt>
      <trkpt lat="43.18037" lon="-6.082789">
        <ele>390.0</ele>
        <time>2024-09-07T16:58:44Z</time>
      </trkpt>
      <trkpt lat="43.184336" lon="-6.081022">
        <ele>379.0</ele>
        <time>2024-09-07T17:00:07.122320Z</time>
      </trkpt>
      <trkpt lat="43.184549" lon="-6.080812">
        <ele>378.0</ele>
        <time>2024-09-07T17:00:12.351335Z</time>
      </trkpt>
      <trkpt lat="43.18491" lon="-6.080508">
        <ele>378.0</ele>
        <time>2024-09-07T17:00:20.795459Z</time>
      </trkpt>
      <trkpt lat="43.185207" lon="-6.080243">
        <ele>377.8</ele>
        <time>2024-09-07T17:00:27.858239Z</time>
      </trkpt>
      <trkpt lat="43.185723" lon="-6.079886">
        <ele>375.0</ele>
        <time>2024-09-07T17:00:39.378416Z</time>
      </trkpt>
      <trkpt lat="43.186129" lon="-6.079565">
        <ele>373.0</ele>
        <time>2024-09-07T17:00:48.719763Z</time>
      </trkpt>
      <trkpt lat="43.186272" lon="-6.079466">
        <ele>373.0</ele>
        <time>2024-09-07T17:00:51.912781Z</time>
      </trkpt>
      <trkpt lat="43.186446" lon="-6.079281">
        <ele>372.1</ele>
        <time>2024-09-07T17:00:56.301304Z</time>
      </trkpt>
      <trkpt lat="43.18683" lon="-6.078894">
        <ele>371.0</ele>
        <time>2024-09-07T17:01:05.799995Z</time>
      </trkpt>
      <trkpt lat="43.187094" lon="-6.078844">
        <ele>369.7</ele>
        <time>2024-09-07T17:01:11.112295Z</time>
      </trkpt>
      <trkpt lat="43.187388" lon="-6.078805">
        <ele>369.0</ele>
        <time>2024-09-07T17:01:17Z</time>
      </trkpt>
      <trkpt lat="43.187592" lon="-6.07881">
        <ele>369.0</ele>
        <time>2024-09-07T17:01:22Z</time>
      </trkpt>
      <trkpt lat="43.187857" lon="-6.078819">
        <ele>368.0</ele>
        <time>2024-09-07T17:01:29Z</time>
      </trkpt>
      <trkpt lat="43.188129" lon="-6.078807">
        <ele>368.1</ele>
        <time>2024-09-07T17:01:35Z</time>
      </trkpt>
      <trkpt lat="43.18822" lon="-6.078785">
        <ele>367.7</ele>
        <time>2024-09-07T17:01:37Z</time>
      </trkpt>
      <trkpt lat="43.188437" lon="-6.078617">
        <ele>367.2</ele>
        <time>2024-09-07T17:01:41Z</time>
      </trkpt>
      <trkpt lat="43.188515" lon="-6.078469">
        <ele>367.0</ele>
        <time>2024-09-07T17:01:44Z</time>
      </trkpt>
      <trkpt lat="43.18859" lon="-6.078237">
        <ele>366.0</ele>
        <time>2024-09-07T17:01:48Z</time>
      </trkpt>
      <trkpt lat="43.188661" lon="-6.077789">
        <ele>365.4</ele>
        <time>2024-09-07T17:01:53Z</time>
      </trkpt>
      <trkpt lat="43.188772" lon="-6.077427">
        <ele>364.0</ele>
        <time>2024-09-07T17:01:57Z</time>
      </trkpt>
      <trkpt lat="43.188951" lon="-6.077239">
        <ele>364.0</ele>
        <time>2024-09-07T17:02:01Z</time>
      </trkpt>
      <trkpt lat="43.189103" lon="-6.07718">
        <ele>363.0</ele>
        <time>2024-09-07T17:02:04Z</time>
      </trkpt>
      <trkpt lat="43.18927" lon="-6.077194">
        <ele>363.0</ele>
        <time>2024-09-07T17:02:07Z</time>
      </trkpt>
      <trkpt lat="43.189744" lon="-6.077305">
        <ele>361.0</ele>
        <time>2024-09-07T17:02:14Z</time>
      </trkpt>
      <trkpt lat="43.189909" lon="-6.077335">
        <ele>359.4</ele>
        <time>2024-09-07T17:02:17Z</time>
      </trkpt>
      <trkpt lat="43.190109" lon="-6.077281">
        <ele>361.1</ele>
        <time>2024-09-07T17:02:20Z</time>
      </trkpt>
      <trkpt lat="43.190366" lon="-6.077077">
        <ele>360.0</ele>
        <time>2024-09-07T17:02:25Z</time>
      </trkpt>
      <trkpt lat="43.190583" lon="-6.076856">
        <ele>359.0</ele>
        <time>2024-09-07T17:02:30.503167Z</time>
      </trkpt>
      <trkpt lat="43.190602" lon="-6.076835">
        <ele>359.0</ele>
        <time>2024-09-07T17:02:31Z</time>
      </trkpt>
      <trkpt lat="43.190819" lon="-6.076587">
        <ele>359.0</ele>
        <time>2024-09-07T17:02:37Z</time>
      </trkpt>
      <trkpt lat="43.19099" lon="-6.076417">
        <ele>358.9</ele>
        <time>2024-09-07T17:02:41Z</time>
      </trkpt>
      <trkpt lat="43.191079" lon="-6.076211">
        <ele>358.0</ele>
        <time>2024-09-07T17:02:45Z</time>
      </trkpt>
      <trkpt lat="43.191144" lon="-6.075947">
        <ele>356.9</ele>
        <time>2024-09-07T17:02:49Z</time>
      </trkpt>
      <trkpt lat="43.191191" lon="-6.075526">
        <ele>358.8</ele>
        <time>2024-09-07T17:02:56Z</time>
      </trkpt>
      <trkpt lat="43.191241" lon="-6.075177">
        <ele>357.2</ele>
        <time>2024-09-07T17:03:02Z</time>
      </trkpt>
      <trkpt lat="43.191356" lon="-6.074852">
        <ele>356.1</ele>
        <time>2024-09-07T17:03:07Z</time>
      </trkpt>
      <trkpt lat="43.191485" lon="-6.074599">
        <ele>354.0</ele>
        <time>2024-09-07T17:03:11Z</time>
      </trkpt>
      <trkpt lat="43.191725" lon="-6.07439">
        <ele>353.7</ele>
        <time>2024-09-07T17:03:17Z</time>
      </trkpt>
      <trkpt lat="43.191983" lon="-6.074394">
        <ele>353.0</ele>
        <time>2024-09-07T17:03:21Z</time>
      </trkpt>
      <trkpt lat="43.192185" lon="-6.074456">
        <ele>352.0</ele>
        <time>2024-09-07T17:03:24.727828Z</time>
      </trkpt>
      <trkpt lat="43.192397" lon="-6.074602">
        <ele>352.0</ele>
        <time>2024-09-07T17:03:29Z</time>
      </trkpt>
      <trkpt lat="43.192656" lon="-6.074624">
        <ele>351.0</ele>
        <time>2024-09-07T17:03:33Z</time>
      </trkpt>
      <trkpt lat="43.192864" lon="-6.074592">
        <ele>351.0</ele>
        <time>2024-09-07T17:03:37Z</time>
      </trkpt>
      <trkpt lat="43.193029" lon="-6.074499">
        <ele>350.7</ele>
        <time>2024-09-07T17:03:40Z</time>
      </trkpt>
      <trkpt lat="43.193488" lon="-6.074127">
        <ele>349.0</ele>
        <time>2024-09-07T17:03:50Z</time>
      </trkpt>
      <trkpt lat="43.193621" lon="-6.073964">
        <ele>348.1</ele>
        <time>2024-09-07T17:03:54Z</time>
      </trkpt>
      <trkpt lat="43.193783" lon="-6.073684">
        <ele>348.0</ele>
        <time>2024-09-07T17:03:59Z</time>
      </trkpt>
      <trkpt lat="43.19396" lon="-6.073011">
        <ele>348.1</ele>
        <time>2024-09-07T17:04:15Z</time>
      </trkpt>
      <trkpt lat="43.194024" lon="-6.072579">
        <ele>346.4</ele>
        <time>2024-09-07T17:04:22Z</time>
      </trkpt>
      <trkpt lat="43.194028" lon="-6.072247">
        <ele>345.3</ele>
        <time>2024-09-07T17:04:26Z</time>
      </trkpt>
      <trkpt lat="43.194026" lon="-6.071753">
        <ele>344.0</ele>
        <time>2024-09-07T17:04:33Z</time>
      </trkpt>
      <trkpt lat="43.194013" lon="-6.07137">
        <ele>343.0</ele>
        <time>2024-09-07T17:04:38Z</time>
      </trkpt>
      <trkpt lat="43.194044" lon="-6.071183">
        <ele>342.0</ele>
        <time>2024-09-07T17:04:41Z</time>
      </trkpt>
      <trkpt lat="43.19435" lon="-6.070811">
        <ele>341.1</ele>
        <time>2024-09-07T17:04:48Z</time>
      </trkpt>
      <trkpt lat="43.194688" lon="-6.070471">
        <ele>340.5</ele>
        <time>2024-09-07T17:04:54Z</time>
      </trkpt>
      <trkpt lat="43.19497" lon="-6.070156">
        <ele>339.0</ele>
        <time>2024-09-07T17:04:59Z</time>
      </trkpt>
      <trkpt lat="43.195057" lon="-6.070107">
        <ele>339.0</ele>
        <time>2024-09-07T17:05:00Z</time>
      </trkpt>
      <trkpt lat="43.195527" lon="-6.069939">
        <ele>339.0</ele>
        <time>2024-09-07T17:05:09Z</time>
      </trkpt>
      <trkpt lat="43.195607" lon="-6.069782">
        <ele>339.0</ele>
        <time>2024-09-07T17:05:12Z</time>
      </trkpt>
      <trkpt lat="43.195619" lon="-6.069505">
        <ele>339.0</ele>
        <time>2024-09-07T17:05:19Z</time>
      </trkpt>
      <trkpt lat="43.195618" lon="-6.069446">
        <ele>339.0</ele>
        <time>2024-09-07T17:05:20Z</time>
      </trkpt>
      <trkpt lat="43.195615" lon="-6.069418">
        <ele>339.0</ele>
        <time>2024-09-07T17:05:21Z</time>
      </trkpt>
      <trkpt lat="43.195625" lon="-6.069373">
        <ele>339.0</ele>
        <time>2024-09-07T17:05:22Z</time>
      </trkpt>
      <trkpt lat="43.195643" lon="-6.069294">
        <ele>338.0</ele>
        <time>2024-09-07T17:05:25Z</time>
      </trkpt>
      <trkpt lat="43.195933" lon="-6.068987">
        <ele>338.0</ele>
        <time>2024-09-07T17:05:53Z</time>
      </trkpt>
      <trkpt lat="43.196062" lon="-6.068698">
        <ele>336.0</ele>
        <time>2024-09-07T17:05:59Z</time>
      </trkpt>
      <trkpt lat="43.196122" lon="-6.068148">
        <ele>333.0</ele>
        <time>2024-09-07T17:06:05Z</time>
      </trkpt>
      <trkpt lat="43.196127" lon="-6.068062">
        <ele>333.1</ele>
        <time>2024-09-07T17:06:06Z</time>
      </trkpt>
      <trkpt lat="43.196339" lon="-6.06761">
        <ele>331.0</ele>
        <time>2024-09-07T17:06:13.983827Z</time>
      </trkpt>
      <trkpt lat="43.196564" lon="-6.067362">
        <ele>330.0</ele>
        <time>2024-09-07T17:06:19.865172Z</time>
      </trkpt>
      <trkpt lat="43.196751" lon="-6.067304">
        <ele>329.0</ele>
        <time>2024-09-07T17:06:23.771714Z</time>
      </trkpt>
      <trkpt lat="43.197025" lon="-6.067378">
        <ele>329.0</ele>
        <time>2024-09-07T17:06:29.461979Z</time>
      </trkpt>
      <trkpt lat="43.197505" lon="-6.067524">
        <ele>330.0</ele>
        <time>2024-09-07T17:06:39.480123Z</time>
      </trkpt>
      <trkpt lat="43.198256" lon="-6.068203">
        <ele>325.1</ele>
        <time>2024-09-07T17:06:57.807543Z</time>
      </trkpt>
      <trkpt lat="43.198518" lon="-6.068216">
        <ele>325.0</ele>
        <time>2024-09-07T17:07:03.149603Z</time>
      </trkpt>
      <trkpt lat="43.198797" lon="-6.068123">
        <ele>323.9</ele>
        <time>2024-09-07T17:07:09Z</time>
      </trkpt>
      <trkpt lat="43.199171" lon="-6.06777">
        <ele>323.0</ele>
        <time>2024-09-07T17:07:18.300331Z</time>
      </trkpt>
      <trkpt lat="43.199282" lon="-6.067722">
        <ele>323.5</ele>
        <time>2024-09-07T17:07:20.684627Z</time>
      </trkpt>
      <trkpt lat="43.199371" lon="-6.06772">
        <ele>323.0</ele>
        <time>2024-09-07T17:07:22.508158Z</time>
      </trkpt>
      <trkpt lat="43.199909" lon="-6.067619">
        <ele>323.0</ele>
        <time>2024-09-07T17:07:33.632552Z</time>
      </trkpt>
      <trkpt lat="43.200086" lon="-6.067589">
        <ele>320.0</ele>
        <time>2024-09-07T17:07:37.286211Z</time>
      </trkpt>
      <trkpt lat="43.200333" lon="-6.067467">
        <ele>319.9</ele>
        <time>2024-09-07T17:07:42.664349Z</time>
      </trkpt>
      <trkpt lat="43.2005" lon="-6.067266">
        <ele>320.0</ele>
        <time>2024-09-07T17:07:47.215717Z</time>
      </trkpt>
      <trkpt lat="43.200591" lon="-6.067003">
        <ele>320.0</ele>
        <time>2024-09-07T17:07:51.563289Z</time>
      </trkpt>
      <trkpt lat="43.200636" lon="-6.066483">
        <ele>317.1</ele>
        <time>2024-09-07T17:07:59.383377Z</time>
      </trkpt>
      <trkpt lat="43.200713" lon="-6.065745">
        <ele>316.0</ele>
        <time>2024-09-07T17:08:10.516803Z</time>
      </trkpt>
      <trkpt lat="43.200787" lon="-6.064883">
        <ele>314.0</ele>
        <time>2024-09-07T17:08:23.478639Z</time>
      </trkpt>
      <trkpt lat="43.200813" lon="-6.064515">
        <ele>313.0</ele>
        <time>2024-09-07T17:08:29Z</time>
      </trkpt>
      <trkpt lat="43.200784" lon="-6.064225">
        <ele>313.0</ele>
        <time>2024-09-07T17:08:34Z</time>
      </trkpt>
      <trkpt lat="43.200719" lon="-6.063773">
        <ele>312.0</ele>
        <time>2024-09-07T17:08:41Z</time>
      </trkpt>
      <trkpt lat="43.200684" lon="-6.063046">
        <ele>311.0</ele>
        <time>2024-09-07T17:08:50.931258Z</time>
      </trkpt>
      <trkpt lat="43.200783" lon="-6.062622">
        <ele>310.6</ele>
        <time>2024-09-07T17:08:57Z</time>
      </trkpt>
      <trkpt lat="43.200968" lon="-6.062205">
        <ele>310.3</ele>
        <time>2024-09-07T17:09:04Z</time>
      </trkpt>
      <trkpt lat="43.201185" lon="-6.061794">
        <ele>308.2</ele>
        <time>2024-09-07T17:09:10.334134Z</time>
      </trkpt>
      <trkpt lat="43.201468" lon="-6.061329">
        <ele>307.0</ele>
        <time>2024-09-07T17:09:17.894902Z</time>
      </trkpt>
      <trkpt lat="43.201743" lon="-6.060973">
        <ele>306.1</ele>
        <time>2024-09-07T17:09:24.369091Z</time>
      </trkpt>
      <trkpt lat="43.202025" lon="-6.060683">
        <ele>305.0</ele>
        <time>2024-09-07T17:09:30.403662Z</time>
      </trkpt>
      <trkpt lat="43.202143" lon="-6.060577">
        <ele>305.0</ele>
        <time>2024-09-07T17:09:32.818735Z</time>
      </trkpt>
      <trkpt lat="43.202256" lon="-6.060501">
        <ele>304.0</ele>
        <time>2024-09-07T17:09:34.973586Z</time>
      </trkpt>
      <trkpt lat="43.202565" lon="-6.060363">
        <ele>303.0</ele>
        <time>2024-09-07T17:09:40.537720Z</time>
      </trkpt>
      <trkpt lat="43.202873" lon="-6.060249">
        <ele>303.0</ele>
        <time>2024-09-07T17:09:46Z</time>
      </trkpt>
      <trkpt lat="43.203225" lon="-6.059986">
        <ele>305.0</ele>
        <time>2024-09-07T17:09:52Z</time>
      </trkpt>
      <trkpt lat="43.203373" lon="-6.059792">
        <ele>302.4</ele>
        <time>2024-09-07T17:09:56.246175Z</time>
      </trkpt>
      <trkpt lat="43.203494" lon="-6.059525">
        <ele>301.5</ele>
        <time>2024-09-07T17:10:01Z</time>
      </trkpt>
      <trkpt lat="43.203608" lon="-6.059203">
        <ele>300.0</ele>
        <time>2024-09-07T17:10:08Z</time>
      </trkpt>
      <trkpt lat="43.203754" lon="-6.058775">
        <ele>299.7</ele>
        <time>2024-09-07T17:10:44Z</time>
      </trkpt>
      <trkpt lat="43.20389" lon="-6.058416">
        <ele>300.0</ele>
        <time>2024-09-07T17:10:52Z</time>
      </trkpt>
      <trkpt lat="43.204046" lon="-6.05816">
        <ele>300.0</ele>
        <time>2024-09-07T17:10:56Z</time>
      </trkpt>
      <trkpt lat="43.204229" lon="-6.057931">
        <ele>300.0</ele>
        <time>2024-09-07T17:11:00Z</time>
      </trkpt>
      <trkpt lat="43.204594" lon="-6.056849">
        <ele>297.6</ele>
        <time>2024-09-07T17:11:16.834710Z</time>
      </trkpt>
      <trkpt lat="43.204683" lon="-6.056661">
        <ele>297.4</ele>
        <time>2024-09-07T17:11:20Z</time>
      </trkpt>
      <trkpt lat="43.204852" lon="-6.056391">
        <ele>296.1</ele>
        <time>2024-09-07T17:11:24Z</time>
      </trkpt>
      <trkpt lat="43.20505" lon="-6.056231">
        <ele>296.0</ele>
        <time>2024-09-07T17:11:27Z</time>
      </trkpt>
      <trkpt lat="43.20519" lon="-6.056209">
        <ele>296.3</ele>
        <time>2024-09-07T17:11:30Z</time>
      </trkpt>
      <trkpt lat="43.205363" lon="-6.056235">
        <ele>295.0</ele>
        <time>2024-09-07T17:11:34Z</time>
      </trkpt>
      <trkpt lat="43.205529" lon="-6.056325">
        <ele>294.0</ele>
        <time>2024-09-07T17:11:37Z</time>
      </trkpt>
      <trkpt lat="43.205989" lon="-6.056652">
        <ele>293.0</ele>
        <time>2024-09-07T17:11:46.850472Z</time>
      </trkpt>
      <trkpt lat="43.206372" lon="-6.056916">
        <ele>292.4</ele>
        <time>2024-09-07T17:11:55Z</time>
      </trkpt>
      <trkpt lat="43.206907" lon="-6.057239">
        <ele>290.0</ele>
        <time>2024-09-07T17:12:04Z</time>
      </trkpt>
      <trkpt lat="43.207286" lon="-6.057467">
        <ele>289.7</ele>
        <time>2024-09-07T17:12:11.920706Z</time>
      </trkpt>
      <trkpt lat="43.207654" lon="-6.057518">
        <ele>287.6</ele>
        <time>2024-09-07T17:12:19Z</time>
      </trkpt>
      <trkpt lat="43.20794" lon="-6.05761">
        <ele>288.1</ele>
        <time>2024-09-07T17:12:25Z</time>
      </trkpt>
      <trkpt lat="43.208139" lon="-6.057829">
        <ele>286.3</ele>
        <time>2024-09-07T17:12:29Z</time>
      </trkpt>
      <trkpt lat="43.208554" lon="-6.058333">
        <ele>286.0</ele>
        <time>2024-09-07T17:12:40Z</time>
      </trkpt>
      <trkpt lat="43.208636" lon="-6.058461">
        <ele>286.0</ele>
        <time>2024-09-07T17:12:42Z</time>
      </trkpt>
      <trkpt lat="43.208804" lon="-6.058615">
        <ele>286.0</ele>
        <time>2024-09-07T17:12:46Z</time>
      </trkpt>
      <trkpt lat="43.208995" lon="-6.058683">
        <ele>285.6</ele>
        <time>2024-09-07T17:12:49Z</time>
      </trkpt>
      <trkpt lat="43.209281" lon="-6.058736">
        <ele>286.0</ele>
        <time>2024-09-07T17:12:54Z</time>
      </trkpt>
      <trkpt lat="43.209502" lon="-6.058747">
        <ele>286.0</ele>
        <time>2024-09-07T17:12:57Z</time>
      </trkpt>
      <trkpt lat="43.209644" lon="-6.05874">
        <ele>285.0</ele>
        <time>2024-09-07T17:12:59Z</time>
      </trkpt>
      <trkpt lat="43.209781" lon="-6.058631">
        <ele>285.4</ele>
        <time>2024-09-07T17:13:02Z</time>
      </trkpt>
      <trkpt lat="43.209912" lon="-6.058425">
        <ele>282.9</ele>
        <time>2024-09-07T17:13:06Z</time>
      </trkpt>
      <trkpt lat="43.209981" lon="-6.058293">
        <ele>282.4</ele>
        <time>2024-09-07T17:13:08Z</time>
      </trkpt>
      <trkpt lat="43.210043" lon="-6.058003">
        <ele>284.6</ele>
        <time>2024-09-07T17:13:11Z</time>
      </trkpt>
      <trkpt lat="43.210106" lon="-6.057439">
        <ele>284.0</ele>
        <time>2024-09-07T17:13:18Z</time>
      </trkpt>
      <trkpt lat="43.210113" lon="-6.057322">
        <ele>284.0</ele>
        <time>2024-09-07T17:13:20Z</time>
      </trkpt>
      <trkpt lat="43.21016" lon="-6.057091">
        <ele>283.0</ele>
        <time>2024-09-07T17:13:23Z</time>
      </trkpt>
      <trkpt lat="43.210309" lon="-6.056575">
        <ele>281.7</ele>
        <time>2024-09-07T17:13:31Z</time>
      </trkpt>
      <trkpt lat="43.210368" lon="-6.056394">
        <ele>279.3</ele>
        <time>2024-09-07T17:13:33Z</time>
      </trkpt>
      <trkpt lat="43.21051" lon="-6.055982">
        <ele>281.3</ele>
        <time>2024-09-07T17:13:39Z</time>
      </trkpt>
      <trkpt lat="43.210584" lon="-6.055877">
        <ele>280.5</ele>
        <time>2024-09-07T17:13:41Z</time>
      </trkpt>
      <trkpt lat="43.210643" lon="-6.055799">
        <ele>280.0</ele>
        <time>2024-09-07T17:13:42Z</time>
      </trkpt>
      <trkpt lat="43.210726" lon="-6.055714">
        <ele>279.2</ele>
        <time>2024-09-07T17:13:44Z</time>
      </trkpt>
      <trkpt lat="43.210769" lon="-6.055679">
        <ele>278.0</ele>
        <time>2024-09-07T17:13:45Z</time>
      </trkpt>
      <trkpt lat="43.211025" lon="-6.055645">
        <ele>276.8</ele>
        <time>2024-09-07T17:13:50Z</time>
      </trkpt>
      <trkpt lat="43.211187" lon="-6.055661">
        <ele>276.8</ele>
        <time>2024-09-07T17:13:53Z</time>
      </trkpt>
      <trkpt lat="43.211364" lon="-6.05572">
        <ele>279.0</ele>
        <time>2024-09-07T17:13:58Z</time>
      </trkpt>
      <trkpt lat="43.211477" lon="-6.055737">
        <ele>279.0</ele>
        <time>2024-09-07T17:14:00Z</time>
      </trkpt>
      <trkpt lat="43.211831" lon="-6.055853">
        <ele>279.0</ele>
        <time>2024-09-07T17:14:09Z</time>
      </trkpt>
      <trkpt lat="43.212248" lon="-6.055889">
        <ele>278.0</ele>
        <time>2024-09-07T17:14:19Z</time>
      </trkpt>
      <trkpt lat="43.212434" lon="-6.05588">
        <ele>278.0</ele>
        <time>2024-09-07T17:14:23Z</time>
      </trkpt>
      <trkpt lat="43.212633" lon="-6.055798">
        <ele>277.2</ele>
        <time>2024-09-07T17:14:26Z</time>
      </trkpt>
      <trkpt lat="43.21278" lon="-6.055653">
        <ele>276.0</ele>
        <time>2024-09-07T17:14:30Z</time>
      </trkpt>
      <trkpt lat="43.212891" lon="-6.055414">
        <ele>275.0</ele>
        <time>2024-09-07T17:14:35Z</time>
      </trkpt>
      <trkpt lat="43.212956" lon="-6.055255">
        <ele>275.0</ele>
        <time>2024-09-07T17:14:38Z</time>
      </trkpt>
      <trkpt lat="43.212983" lon="-6.054984">
        <ele>274.0</ele>
        <time>2024-09-07T17:14:42Z</time>
      </trkpt>
      <trkpt lat="43.212948" lon="-6.054481">
        <ele>274.0</ele>
        <time>2024-09-07T17:14:50Z</time>
      </trkpt>
      <trkpt lat="43.212766" lon="-6.053849">
        <ele>274.3</ele>
        <time>2024-09-07T17:14:59Z</time>
      </trkpt>
      <trkpt lat="43.212574" lon="-6.05343">
        <ele>274.2</ele>
        <time>2024-09-07T17:15:05Z</time>
      </trkpt>
      <trkpt lat="43.212559" lon="-6.05339">
        <ele>274.3</ele>
        <time>2024-09-07T17:15:06Z</time>
      </trkpt>
      <trkpt lat="43.212545" lon="-6.053351">
        <ele>274.2</ele>
        <time>2024-09-07T17:15:06.441644Z</time>
      </trkpt>
      <trkpt lat="43.212522" lon="-6.053306">
        <ele>274.2</ele>
        <time>2024-09-07T17:15:07Z</time>
      </trkpt>
      <trkpt lat="43.212497" lon="-6.053264">
        <ele>274.1</ele>
        <time>2024-09-07T17:15:08Z</time>
      </trkpt>
      <trkpt lat="43.212481" lon="-6.053226">
        <ele>274.3</ele>
        <time>2024-09-07T17:15:08.568218Z</time>
      </trkpt>
      <trkpt lat="43.212469" lon="-6.053197">
        <ele>274.5</ele>
        <time>2024-09-07T17:15:09Z</time>
      </trkpt>
      <trkpt lat="43.212436" lon="-6.053154">
        <ele>273.8</ele>
        <time>2024-09-07T17:15:10Z</time>
      </trkpt>
      <trkpt lat="43.212421" lon="-6.053117">
        <ele>274.0</ele>
        <time>2024-09-07T17:15:10.564903Z</time>
      </trkpt>
      <trkpt lat="43.21225" lon="-6.052784">
        <ele>274.0</ele>
        <time>2024-09-07T17:15:16Z</time>
      </trkpt>
      <trkpt lat="43.212231" lon="-6.052544">
        <ele>274.9</ele>
        <time>2024-09-07T17:15:18.704394Z</time>
      </trkpt>
      <trkpt lat="43.212299" lon="-6.052265">
        <ele>272.5</ele>
        <time>2024-09-07T17:15:22Z</time>
      </trkpt>
      <trkpt lat="43.212427" lon="-6.052024">
        <ele>272.0</ele>
        <time>2024-09-07T17:15:25.123566Z</time>
      </trkpt>
      <trkpt lat="43.212787" lon="-6.051758">
        <ele>271.5</ele>
        <time>2024-09-07T17:15:31Z</time>
      </trkpt>
      <trkpt lat="43.213376" lon="-6.051445">
        <ele>271.0</ele>
        <time>2024-09-07T17:15:41.435682Z</time>
      </trkpt>
      <trkpt lat="43.213579" lon="-6.051263">
        <ele>271.0</ele>
        <time>2024-09-07T17:15:45.442107Z</time>
      </trkpt>
      <trkpt lat="43.213619" lon="-6.051235">
        <ele>270.0</ele>
        <time>2024-09-07T17:15:46.184012Z</time>
      </trkpt>
      <trkpt lat="43.213741" lon="-6.051066">
        <ele>269.5</ele>
        <time>2024-09-07T17:15:49.048260Z</time>
      </trkpt>
      <trkpt lat="43.213834" lon="-6.050919">
        <ele>269.2</ele>
        <time>2024-09-07T17:15:51.392183Z</time>
      </trkpt>
      <trkpt lat="43.214015" lon="-6.050465">
        <ele>268.8</ele>
        <time>2024-09-07T17:15:57.623325Z</time>
      </trkpt>
      <trkpt lat="43.214197" lon="-6.049998">
        <ele>268.9</ele>
        <time>2024-09-07T17:16:04Z</time>
      </trkpt>
      <trkpt lat="43.214322" lon="-6.049646">
        <ele>267.7</ele>
        <time>2024-09-07T17:16:09Z</time>
      </trkpt>
      <trkpt lat="43.21449" lon="-6.049165">
        <ele>267.9</ele>
        <time>2024-09-07T17:16:16Z</time>
      </trkpt>
      <trkpt lat="43.214671" lon="-6.048628">
        <ele>268.0</ele>
        <time>2024-09-07T17:16:23Z</time>
      </trkpt>
      <trkpt lat="43.214699" lon="-6.048521">
        <ele>268.4</ele>
        <time>2024-09-07T17:16:24Z</time>
      </trkpt>
      <trkpt lat="43.214711" lon="-6.048455">
        <ele>267.8</ele>
        <time>2024-09-07T17:16:25Z</time>
      </trkpt>
      <trkpt lat="43.214722" lon="-6.048238">
        <ele>267.0</ele>
        <time>2024-09-07T17:16:28Z</time>
      </trkpt>
      <trkpt lat="43.214707" lon="-6.047771">
        <ele>266.0</ele>
        <time>2024-09-07T17:16:34Z</time>
      </trkpt>
      <trkpt lat="43.214643" lon="-6.047292">
        <ele>265.0</ele>
        <time>2024-09-07T17:16:41Z</time>
      </trkpt>
      <trkpt lat="43.214585" lon="-6.046925">
        <ele>264.1</ele>
        <time>2024-09-07T17:16:46Z</time>
      </trkpt>
      <trkpt lat="43.214527" lon="-6.046546">
        <ele>264.4</ele>
        <time>2024-09-07T17:16:52Z</time>
      </trkpt>
      <trkpt lat="43.214525" lon="-6.046461">
        <ele>266.0</ele>
        <time>2024-09-07T17:16:53.405319Z</time>
      </trkpt>
      <trkpt lat="43.214513" lon="-6.046429">
        <ele>265.3</ele>
        <time>2024-09-07T17:16:54Z</time>
      </trkpt>
      <trkpt lat="43.214508" lon="-6.046393">
        <ele>265.1</ele>
        <time>2024-09-07T17:16:55Z</time>
      </trkpt>
      <trkpt lat="43.214503" lon="-6.046354">
        <ele>265.4</ele>
        <time>2024-09-07T17:16:55.517777Z</time>
      </trkpt>
      <trkpt lat="43.214491" lon="-6.046321">
        <ele>265.4</ele>
        <time>2024-09-07T17:16:56Z</time>
      </trkpt>
      <trkpt lat="43.214461" lon="-6.046117">
        <ele>264.6</ele>
        <time>2024-09-07T17:16:59Z</time>
      </trkpt>
      <trkpt lat="43.214445" lon="-6.046028">
        <ele>265.2</ele>
        <time>2024-09-07T17:17:00.443355Z</time>
      </trkpt>
      <trkpt lat="43.214391" lon="-6.045715">
        <ele>265.0</ele>
        <time>2024-09-07T17:17:05.507908Z</time>
      </trkpt>
      <trkpt lat="43.214325" lon="-6.045289">
        <ele>263.0</ele>
        <time>2024-09-07T17:17:12.365393Z</time>
      </trkpt>
      <trkpt lat="43.214333" lon="-6.044953">
        <ele>262.0</ele>
        <time>2024-09-07T17:17:17.658717Z</time>
      </trkpt>
      <trkpt lat="43.214336" lon="-6.044869">
        <ele>262.0</ele>
        <time>2024-09-07T17:17:18.982929Z</time>
      </trkpt>
      <trkpt lat="43.214412" lon="-6.044583">
        <ele>259.8</ele>
        <time>2024-09-07T17:17:23.776159Z</time>
      </trkpt>
      <trkpt lat="43.214433" lon="-6.044508">
        <ele>259.3</ele>
        <time>2024-09-07T17:17:25.041229Z</time>
      </trkpt>
      <trkpt lat="43.214543" lon="-6.044126">
        <ele>262.0</ele>
        <time>2024-09-07T17:17:31.508491Z</time>
      </trkpt>
      <trkpt lat="43.214655" lon="-6.043764">
        <ele>262.3</ele>
        <time>2024-09-07T17:17:37.700708Z</time>
      </trkpt>
      <trkpt lat="43.214673" lon="-6.043733">
        <ele>262.4</ele>
        <time>2024-09-07T17:17:38.324794Z</time>
      </trkpt>
      <trkpt lat="43.214694" lon="-6.043709">
        <ele>262.0</ele>
        <time>2024-09-07T17:17:38.915257Z</time>
      </trkpt>
      <trkpt lat="43.214713" lon="-6.043687">
        <ele>262.0</ele>
        <time>2024-09-07T17:17:39.452375Z</time>
      </trkpt>
      <trkpt lat="43.214731" lon="-6.043659">
        <ele>262.0</ele>
        <time>2024-09-07T17:17:40.040254Z</time>
      </trkpt>
      <trkpt lat="43.214751" lon="-6.043645">
        <ele>262.0</ele>
        <time>2024-09-07T17:17:40.525331Z</time>
      </trkpt>
      <trkpt lat="43.214786" lon="-6.043636">
        <ele>262.9</ele>
        <time>2024-09-07T17:17:41.294664Z</time>
      </trkpt>
      <trkpt lat="43.214809" lon="-6.043604">
        <ele>262.0</ele>
        <time>2024-09-07T17:17:42.002328Z</time>
      </trkpt>
      <trkpt lat="43.215057" lon="-6.043503">
        <ele>261.0</ele>
        <time>2024-09-07T17:17:47.591346Z</time>
      </trkpt>
      <trkpt lat="43.215326" lon="-6.043534">
        <ele>260.0</ele>
        <time>2024-09-07T17:17:53.423505Z</time>
      </trkpt>
      <trkpt lat="43.21577" lon="-6.043668">
        <ele>260.0</ele>
        <time>2024-09-07T17:18:03.245336Z</time>
      </trkpt>
      <trkpt lat="43.216036" lon="-6.043649">
        <ele>259.0</ele>
        <time>2024-09-07T17:18:09Z</time>
      </trkpt>
      <trkpt lat="43.216278" lon="-6.043555">
        <ele>258.0</ele>
        <time>2024-09-07T17:18:14Z</time>
      </trkpt>
      <trkpt lat="43.216536" lon="-6.043339">
        <ele>258.4</ele>
        <time>2024-09-07T17:18:21.240168Z</time>
      </trkpt>
      <trkpt lat="43.216753" lon="-6.043009">
        <ele>257.9</ele>
        <time>2024-09-07T17:18:29Z</time>
      </trkpt>
      <trkpt lat="43.216937" lon="-6.042655">
        <ele>255.7</ele>
        <time>2024-09-07T17:18:37Z</time>
      </trkpt>
      <trkpt lat="43.216953" lon="-6.042629">
        <ele>255.0</ele>
        <time>2024-09-07T17:18:37.498804Z</time>
      </trkpt>
      <trkpt lat="43.21697" lon="-6.042604">
        <ele>255.0</ele>
        <time>2024-09-07T17:18:38Z</time>
      </trkpt>
      <trkpt lat="43.216984" lon="-6.042564">
        <ele>255.0</ele>
        <time>2024-09-07T17:18:38.580960Z</time>
      </trkpt>
      <trkpt lat="43.217146" lon="-6.042127">
        <ele>255.0</ele>
        <time>2024-09-07T17:18:45Z</time>
      </trkpt>
      <trkpt lat="43.217171" lon="-6.042028">
        <ele>254.6</ele>
        <time>2024-09-07T17:18:47Z</time>
      </trkpt>
      <trkpt lat="43.217186" lon="-6.041965">
        <ele>254.6</ele>
        <time>2024-09-07T17:18:47.708145Z</time>
      </trkpt>
      <trkpt lat="43.217243" lon="-6.041667">
        <ele>254.2</ele>
        <time>2024-09-07T17:18:51Z</time>
      </trkpt>
      <trkpt lat="43.217274" lon="-6.041337">
        <ele>253.4</ele>
        <time>2024-09-07T17:18:55Z</time>
      </trkpt>
      <trkpt lat="43.217312" lon="-6.040956">
        <ele>253.1</ele>
        <time>2024-09-07T17:19:00Z</time>
      </trkpt>
      <trkpt lat="43.217354" lon="-6.040553">
        <ele>253.5</ele>
        <time>2024-09-07T17:19:06Z</time>
      </trkpt>
      <trkpt lat="43.217389" lon="-6.040135">
        <ele>253.1</ele>
        <time>2024-09-07T17:19:13Z</time>
      </trkpt>
      <trkpt lat="43.217456" lon="-6.039796">
        <ele>252.5</ele>
        <time>2024-09-07T17:19:19Z</time>
      </trkpt>
      <trkpt lat="43.217565" lon="-6.039528">
        <ele>251.4</ele>
        <time>2024-09-07T17:19:24Z</time>
      </trkpt>
      <trkpt lat="43.217764" lon="-6.039303">
        <ele>252.6</ele>
        <time>2024-09-07T17:19:29Z</time>
      </trkpt>
      <trkpt lat="43.218001" lon="-6.039177">
        <ele>251.5</ele>
        <time>2024-09-07T17:19:33Z</time>
      </trkpt>
      <trkpt lat="43.218518" lon="-6.039214">
        <ele>248.4</ele>
        <time>2024-09-07T17:19:44Z</time>
      </trkpt>
      <trkpt lat="43.218942" lon="-6.039294">
        <ele>245.5</ele>
        <time>2024-09-07T17:19:53Z</time>
      </trkpt>
      <trkpt lat="43.219374" lon="-6.039345">
        <ele>247.0</ele>
        <time>2024-09-07T17:20:03.122243Z</time>
      </trkpt>
      <trkpt lat="43.219797" lon="-6.039331">
        <ele>246.0</ele>
        <time>2024-09-07T17:20:13Z</time>
      </trkpt>
      <trkpt lat="43.220236" lon="-6.039289">
        <ele>244.6</ele>
        <time>2024-09-07T17:20:23Z</time>
      </trkpt>
      <trkpt lat="43.220572" lon="-6.039235">
        <ele>246.3</ele>
        <time>2024-09-07T17:20:32Z</time>
      </trkpt>
      <trkpt lat="43.220988" lon="-6.03911">
        <ele>245.0</ele>
        <time>2024-09-07T17:20:42Z</time>
      </trkpt>
      <trkpt lat="43.221214" lon="-6.039146">
        <ele>244.0</ele>
        <time>2024-09-07T17:20:48Z</time>
      </trkpt>
      <trkpt lat="43.221575" lon="-6.039131">
        <ele>244.0</ele>
        <time>2024-09-07T17:20:56Z</time>
      </trkpt>
      <trkpt lat="43.22202" lon="-6.039119">
        <ele>244.0</ele>
        <time>2024-09-07T17:21:07.618085Z</time>
      </trkpt>
      <trkpt lat="43.222062" lon="-6.03912">
        <ele>244.0</ele>
        <time>2024-09-07T17:21:08.714577Z</time>
      </trkpt>
      <trkpt lat="43.222111" lon="-6.039127">
        <ele>244.0</ele>
        <time>2024-09-07T17:21:10.000537Z</time>
      </trkpt>
      <trkpt lat="43.222188" lon="-6.039127">
        <ele>244.0</ele>
        <time>2024-09-07T17:21:12.010469Z</time>
      </trkpt>
      <trkpt lat="43.222822" lon="-6.039117">
        <ele>244.9</ele>
        <time>2024-09-07T17:21:28.560876Z</time>
      </trkpt>
      <trkpt lat="43.222976" lon="-6.039159">
        <ele>245.1</ele>
        <time>2024-09-07T17:21:32.659355Z</time>
      </trkpt>
      <trkpt lat="43.223122" lon="-6.039267">
        <ele>245.2</ele>
        <time>2024-09-07T17:21:36.988799Z</time>
      </trkpt>
      <trkpt lat="43.223276" lon="-6.039569">
        <ele>246.7</ele>
        <time>2024-09-07T17:21:44Z</time>
      </trkpt>
      <trkpt lat="43.223312" lon="-6.039602">
        <ele>246.8</ele>
        <time>2024-09-07T17:21:45Z</time>
      </trkpt>
      <trkpt lat="43.223338" lon="-6.03961">
        <ele>246.7</ele>
        <time>2024-09-07T17:21:46Z</time>
      </trkpt>
      <trkpt lat="43.22341" lon="-6.039621">
        <ele>246.3</ele>
        <time>2024-09-07T17:21:46.971456Z</time>
      </trkpt>
      <trkpt lat="43.223412" lon="-6.03962">
        <ele>246.3</ele>
        <time>2024-09-07T17:21:47Z</time>
      </trkpt>
      <trkpt lat="43.223415" lon="-6.039623">
        <ele>246.4</ele>
        <time>2024-09-07T17:21:47.048352Z</time>
      </trkpt>
      <trkpt lat="43.223487" lon="-6.039606">
        <ele>246.0</ele>
        <time>2024-09-07T17:21:48Z</time>
      </trkpt>
      <trkpt lat="43.223536" lon="-6.039517">
        <ele>246.0</ele>
        <time>2024-09-07T17:21:50Z</time>
      </trkpt>
      <trkpt lat="43.22364" lon="-6.039296">
        <ele>245.0</ele>
        <time>2024-09-07T17:21:53Z</time>
      </trkpt>
      <trkpt lat="43.223737" lon="-6.039123">
        <ele>244.0</ele>
        <time>2024-09-07T17:21:56Z</time>
      </trkpt>
      <trkpt lat="43.223907" lon="-6.039064">
        <ele>244.0</ele>
        <time>2024-09-07T17:22:00Z</time>
      </trkpt>
      <trkpt lat="43.224016" lon="-6.039023">
        <ele>244.0</ele>
        <time>2024-09-07T17:22:02Z</time>
      </trkpt>
      <trkpt lat="43.224559" lon="-6.038867">
        <ele>243.0</ele>
        <time>2024-09-07T17:22:16Z</time>
      </trkpt>
      <trkpt lat="43.224871" lon="-6.038682">
        <ele>243.0</ele>
        <time>2024-09-07T17:22:25Z</time>
      </trkpt>
      <trkpt lat="43.224899" lon="-6.038662">
        <ele>243.0</ele>
        <time>2024-09-07T17:22:26Z</time>
      </trkpt>
      <trkpt lat="43.224926" lon="-6.038653">
        <ele>243.0</ele>
        <time>2024-09-07T17:22:27Z</time>
      </trkpt>
      <trkpt lat="43.224951" lon="-6.038645">
        <ele>242.7</ele>
        <time>2024-09-07T17:22:27.507822Z</time>
      </trkpt>
      <trkpt lat="43.224975" lon="-6.038636">
        <ele>243.2</ele>
        <time>2024-09-07T17:22:28Z</time>
      </trkpt>
      <trkpt lat="43.224988" lon="-6.038632">
        <ele>243.6</ele>
        <time>2024-09-07T17:22:28.450305Z</time>
      </trkpt>
      <trkpt lat="43.225004" lon="-6.038636">
        <ele>243.5</ele>
        <time>2024-09-07T17:22:29Z</time>
      </trkpt>
      <trkpt lat="43.225026" lon="-6.038612">
        <ele>244.0</ele>
        <time>2024-09-07T17:22:30Z</time>
      </trkpt>
      <trkpt lat="43.225042" lon="-6.038599">
        <ele>244.0</ele>
        <time>2024-09-07T17:22:30.509571Z</time>
      </trkpt>
      <trkpt lat="43.225058" lon="-6.038588">
        <ele>244.0</ele>
        <time>2024-09-07T17:22:31Z</time>
      </trkpt>
      <trkpt lat="43.225073" lon="-6.038576">
        <ele>244.0</ele>
        <time>2024-09-07T17:22:34Z</time>
      </trkpt>
      <trkpt lat="43.225085" lon="-6.038562">
        <ele>243.5</ele>
        <time>2024-09-07T17:22:35Z</time>
      </trkpt>
      <trkpt lat="43.225101" lon="-6.038554">
        <ele>243.0</ele>
        <time>2024-09-07T17:22:36Z</time>
      </trkpt>
      <trkpt lat="43.225113" lon="-6.038543">
        <ele>243.1</ele>
        <time>2024-09-07T17:22:37Z</time>
      </trkpt>
      <trkpt lat="43.225128" lon="-6.038532">
        <ele>243.5</ele>
        <time>2024-09-07T17:22:39Z</time>
      </trkpt>
      <trkpt lat="43.225141" lon="-6.038532">
        <ele>243.6</ele>
        <time>2024-09-07T17:22:43Z</time>
      </trkpt>
      <trkpt lat="43.225246" lon="-6.03846">
        <ele>244.0</ele>
        <time>2024-09-07T17:23:54Z</time>
      </trkpt>
      <trkpt lat="43.225544" lon="-6.038427">
        <ele>244.0</ele>
        <time>2024-09-07T17:24:07Z</time>
      </trkpt>
      <trkpt lat="43.225871" lon="-6.038383">
        <ele>244.0</ele>
        <time>2024-09-07T17:24:16Z</time>
      </trkpt>
      <trkpt lat="43.226186" lon="-6.038391">
        <ele>244.0</ele>
        <time>2024-09-07T17:24:23Z</time>
      </trkpt>
      <trkpt lat="43.226438" lon="-6.038448">
        <ele>244.0</ele>
        <time>2024-09-07T17:24:30Z</time>
      </trkpt>
      <trkpt lat="43.226521" lon="-6.038466">
        <ele>244.0</ele>
        <time>2024-09-07T17:24:32Z</time>
      </trkpt>
      <trkpt lat="43.226875" lon="-6.03849">
        <ele>244.0</ele>
        <time>2024-09-07T17:24:40Z</time>
      </trkpt>
      <trkpt lat="43.227537" lon="-6.03844">
        <ele>244.0</ele>
        <time>2024-09-07T17:24:55Z</time>
      </trkpt>
      <trkpt lat="43.227834" lon="-6.038162">
        <ele>244.9</ele>
        <time>2024-09-07T17:25:04Z</time>
      </trkpt>
      <trkpt lat="43.228067" lon="-6.037863">
        <ele>244.2</ele>
        <time>2024-09-07T17:25:11Z</time>
      </trkpt>
      <trkpt lat="43.22833" lon="-6.037476">
        <ele>244.0</ele>
        <time>2024-09-07T17:25:21Z</time>
      </trkpt>
      <trkpt lat="43.228417" lon="-6.037361">
        <ele>244.0</ele>
        <time>2024-09-07T17:25:24Z</time>
      </trkpt>
      <trkpt lat="43.228633" lon="-6.037094">
        <ele>240.7</ele>
        <time>2024-09-07T17:25:35Z</time>
      </trkpt>
      <trkpt lat="43.228776" lon="-6.036916">
        <ele>244.0</ele>
        <time>2024-09-07T17:25:42Z</time>
      </trkpt>
      <trkpt lat="43.228985" lon="-6.036746">
        <ele>241.8</ele>
        <time>2024-09-07T17:25:48Z</time>
      </trkpt>
      <trkpt lat="43.229338" lon="-6.036466">
        <ele>242.0</ele>
        <time>2024-09-07T17:25:57.056165Z</time>
      </trkpt>
      <trkpt lat="43.229677" lon="-6.036184">
        <ele>241.0</ele>
        <time>2024-09-07T17:26:05.861190Z</time>
      </trkpt>
      <trkpt lat="43.22991" lon="-6.03598">
        <ele>239.8</ele>
        <time>2024-09-07T17:26:12Z</time>
      </trkpt>
      <trkpt lat="43.229938" lon="-6.035945">
        <ele>240.0</ele>
        <time>2024-09-07T17:26:13Z</time>
      </trkpt>
      <trkpt lat="43.230188" lon="-6.035616">
        <ele>237.1</ele>
        <time>2024-09-07T17:26:21Z</time>
      </trkpt>
      <trkpt lat="43.230285" lon="-6.035511">
        <ele>236.0</ele>
        <time>2024-09-07T17:26:24Z</time>
      </trkpt>
      <trkpt lat="43.231648" lon="-6.033881">
        <ele>230.0</ele>
        <time>2024-09-07T17:26:58.911549Z</time>
      </trkpt>
      <trkpt lat="43.231936" lon="-6.033512">
        <ele>229.0</ele>
        <time>2024-09-07T17:27:06.519963Z</time>
      </trkpt>
      <trkpt lat="43.232037" lon="-6.033408">
        <ele>228.0</ele>
        <time>2024-09-07T17:27:08.958299Z</time>
      </trkpt>
      <trkpt lat="43.234189" lon="-6.032026">
        <ele>228.0</ele>
        <time>2024-09-07T17:27:54.840471Z</time>
      </trkpt>
      <trkpt lat="43.234431" lon="-6.03163">
        <ele>228.0</ele>
        <time>2024-09-07T17:28:02.112495Z</time>
      </trkpt>
      <trkpt lat="43.234561" lon="-6.031411">
        <ele>228.0</ele>
        <time>2024-09-07T17:28:06.086968Z</time>
      </trkpt>
      <trkpt lat="43.234724" lon="-6.031284">
        <ele>227.9</ele>
        <time>2024-09-07T17:28:09.706519Z</time>
      </trkpt>
      <trkpt lat="43.235159" lon="-6.031022">
        <ele>227.0</ele>
        <time>2024-09-07T17:28:18.880174Z</time>
      </trkpt>
      <trkpt lat="43.235555" lon="-6.030814">
        <ele>226.0</ele>
        <time>2024-09-07T17:28:27.068310Z</time>
      </trkpt>
      <trkpt lat="43.235845" lon="-6.030716">
        <ele>225.0</ele>
        <time>2024-09-07T17:28:32.835859Z</time>
      </trkpt>
      <trkpt lat="43.236284" lon="-6.030674">
        <ele>224.0</ele>
        <time>2024-09-07T17:28:41.334152Z</time>
      </trkpt>
      <trkpt lat="43.236685" lon="-6.030663">
        <ele>223.0</ele>
        <time>2024-09-07T17:28:49.079588Z</time>
      </trkpt>
      <trkpt lat="43.236997" lon="-6.03063">
        <ele>222.1</ele>
        <time>2024-09-07T17:28:55.122621Z</time>
      </trkpt>
      <trkpt lat="43.237419" lon="-6.030393">
        <ele>221.0</ele>
        <time>2024-09-07T17:29:03.927784Z</time>
      </trkpt>
      <trkpt lat="43.237732" lon="-6.030163">
        <ele>221.0</ele>
        <time>2024-09-07T17:29:10.783897Z</time>
      </trkpt>
      <trkpt lat="43.237938" lon="-6.030045">
        <ele>221.0</ele>
        <time>2024-09-07T17:29:15.094546Z</time>
      </trkpt>
      <trkpt lat="43.238288" lon="-6.030062">
        <ele>221.3</ele>
        <time>2024-09-07T17:29:21.857782Z</time>
      </trkpt>
      <trkpt lat="43.238537" lon="-6.030231">
        <ele>220.0</ele>
        <time>2024-09-07T17:29:27.222023Z</time>
      </trkpt>
      <trkpt lat="43.238566" lon="-6.030254">
        <ele>220.0</ele>
        <time>2024-09-07T17:29:27.868813Z</time>
      </trkpt>
      <trkpt lat="43.238591" lon="-6.030269">
        <ele>220.0</ele>
        <time>2024-09-07T17:29:28.395705Z</time>
      </trkpt>
      <trkpt lat="43.238616" lon="-6.030278">
        <ele>220.0</ele>
        <time>2024-09-07T17:29:28.894819Z</time>
      </trkpt>
      <trkpt lat="43.238614" lon="-6.030234">
        <ele>219.3</ele>
        <time>2024-09-07T17:29:29.515038Z</time>
      </trkpt>
      <trkpt lat="43.238984" lon="-6.030263">
        <ele>219.0</ele>
        <time>2024-09-07T17:29:36.671912Z</time>
      </trkpt>
      <trkpt lat="43.239329" lon="-6.030251">
        <ele>219.0</ele>
        <time>2024-09-07T17:29:43.336500Z</time>
      </trkpt>
      <trkpt lat="43.239749" lon="-6.030345">
        <ele>218.0</ele>
        <time>2024-09-07T17:29:51.554407Z</time>
      </trkpt>
      <trkpt lat="43.239906" lon="-6.030265">
        <ele>217.0</ele>
        <time>2024-09-07T17:29:54.788454Z</time>
      </trkpt>
      <trkpt lat="43.240057" lon="-6.030049">
        <ele>217.0</ele>
        <time>2024-09-07T17:29:59Z</time>
      </trkpt>
      <trkpt lat="43.240224" lon="-6.029748">
        <ele>216.0</ele>
        <time>2024-09-07T17:30:04Z</time>
      </trkpt>
      <trkpt lat="43.240378" lon="-6.029362">
        <ele>215.0</ele>
        <time>2024-09-07T17:30:11Z</time>
      </trkpt>
      <trkpt lat="43.240578" lon="-6.028828">
        <ele>215.0</ele>
        <time>2024-09-07T17:30:19Z</time>
      </trkpt>
      <trkpt lat="43.240765" lon="-6.028261">
        <ele>215.0</ele>
        <time>2024-09-07T17:30:28Z</time>
      </trkpt>
      <trkpt lat="43.240971" lon="-6.027791">
        <ele>214.4</ele>
        <time>2024-09-07T17:30:36Z</time>
      </trkpt>
      <trkpt lat="43.24121" lon="-6.027472">
        <ele>214.0</ele>
        <time>2024-09-07T17:30:42Z</time>
      </trkpt>
      <trkpt lat="43.241507" lon="-6.027245">
        <ele>212.5</ele>
        <time>2024-09-07T17:30:48.637645Z</time>
      </trkpt>
      <trkpt lat="43.241735" lon="-6.027024">
        <ele>212.0</ele>
        <time>2024-09-07T17:30:54.087649Z</time>
      </trkpt>
      <trkpt lat="43.242047" lon="-6.026649">
        <ele>211.8</ele>
        <time>2024-09-07T17:31:02.185059Z</time>
      </trkpt>
      <trkpt lat="43.24233" lon="-6.026266">
        <ele>211.0</ele>
        <time>2024-09-07T17:31:09.944939Z</time>
      </trkpt>
      <trkpt lat="43.242664" lon="-6.025772">
        <ele>210.0</ele>
        <time>2024-09-07T17:31:19.531862Z</time>
      </trkpt>
      <trkpt lat="43.24293" lon="-6.025454">
        <ele>209.0</ele>
        <time>2024-09-07T17:31:26.419366Z</time>
      </trkpt>
      <trkpt lat="43.243276" lon="-6.025163">
        <ele>207.9</ele>
        <time>2024-09-07T17:31:34.342630Z</time>
      </trkpt>
      <trkpt lat="43.243588" lon="-6.02494">
        <ele>207.0</ele>
        <time>2024-09-07T17:31:41.211140Z</time>
      </trkpt>
      <trkpt lat="43.244259" lon="-6.024477">
        <ele>207.0</ele>
        <time>2024-09-07T17:31:55.875314Z</time>
      </trkpt>
      <trkpt lat="43.244444" lon="-6.024345">
        <ele>207.1</ele>
        <time>2024-09-07T17:31:59.946481Z</time>
      </trkpt>
      <trkpt lat="43.244876" lon="-6.024255">
        <ele>206.2</ele>
        <time>2024-09-07T17:32:08.478450Z</time>
      </trkpt>
      <trkpt lat="43.245136" lon="-6.024255">
        <ele>205.7</ele>
        <time>2024-09-07T17:32:13.555303Z</time>
      </trkpt>
      <trkpt lat="43.245387" lon="-6.024282">
        <ele>206.0</ele>
        <time>2024-09-07T17:32:18.471442Z</time>
      </trkpt>
      <trkpt lat="43.245772" lon="-6.024396">
        <ele>205.0</ele>
        <time>2024-09-07T17:32:26.161969Z</time>
      </trkpt>
      <trkpt lat="43.246152" lon="-6.024406">
        <ele>204.6</ele>
        <time>2024-09-07T17:32:33.583348Z</time>
      </trkpt>
      <trkpt lat="43.246184" lon="-6.024409">
        <ele>204.4</ele>
        <time>2024-09-07T17:32:34.209647Z</time>
      </trkpt>
      <trkpt lat="43.246217" lon="-6.024398">
        <ele>204.0</ele>
        <time>2024-09-07T17:32:34.872739Z</time>
      </trkpt>
      <trkpt lat="43.24624" lon="-6.024385">
        <ele>204.0</ele>
        <time>2024-09-07T17:32:35.358420Z</time>
      </trkpt>
      <trkpt lat="43.24627" lon="-6.024382">
        <ele>204.0</ele>
        <time>2024-09-07T17:32:35.945763Z</time>
      </trkpt>
      <trkpt lat="43.246303" lon="-6.024361">
        <ele>204.1</ele>
        <time>2024-09-07T17:32:36.655994Z</time>
      </trkpt>
      <trkpt lat="43.246474" lon="-6.024309">
        <ele>203.9</ele>
        <time>2024-09-07T17:32:40.075935Z</time>
      </trkpt>
      <trkpt lat="43.24685" lon="-6.024106">
        <ele>203.4</ele>
        <time>2024-09-07T17:32:47.965182Z</time>
      </trkpt>
      <trkpt lat="43.247205" lon="-6.023967">
        <ele>202.6</ele>
        <time>2024-09-07T17:32:55.173457Z</time>
      </trkpt>
      <trkpt lat="43.247577" lon="-6.023804">
        <ele>203.0</ele>
        <time>2024-09-07T17:33:02.798261Z</time>
      </trkpt>
      <trkpt lat="43.247758" lon="-6.023743">
        <ele>202.3</ele>
        <time>2024-09-07T17:33:06.437465Z</time>
      </trkpt>
      <trkpt lat="43.247967" lon="-6.023736">
        <ele>202.4</ele>
        <time>2024-09-07T17:33:10.519688Z</time>
      </trkpt>
      <trkpt lat="43.248327" lon="-6.023692">
        <ele>202.0</ele>
        <time>2024-09-07T17:33:17.576979Z</time>
      </trkpt>
      <trkpt lat="43.248854" lon="-6.023698">
        <ele>201.0</ele>
        <time>2024-09-07T17:33:27.867724Z</time>
      </trkpt>
      <trkpt lat="43.249258" lon="-6.023644">
        <ele>200.0</ele>
        <time>2024-09-07T17:33:35.793671Z</time>
      </trkpt>
      <trkpt lat="43.249426" lon="-6.023593">
        <ele>199.6</ele>
        <time>2024-09-07T17:33:39.153335Z</time>
      </trkpt>
      <trkpt lat="43.249547" lon="-6.023417">
        <ele>199.6</ele>
        <time>2024-09-07T17:33:42.595450Z</time>
      </trkpt>
      <trkpt lat="43.249572" lon="-6.022968">
        <ele>200.5</ele>
        <time>2024-09-07T17:33:49Z</time>
      </trkpt>
      <trkpt lat="43.249529" lon="-6.022559">
        <ele>197.1</ele>
        <time>2024-09-07T17:33:55Z</time>
      </trkpt>
      <trkpt lat="43.249485" lon="-6.021931">
        <ele>196.7</ele>
        <time>2024-09-07T17:34:02.878309Z</time>
      </trkpt>
      <trkpt lat="43.249449" lon="-6.021584">
        <ele>198.0</ele>
        <time>2024-09-07T17:34:07.255187Z</time>
      </trkpt>
      <trkpt lat="43.24948" lon="-6.021129">
        <ele>198.0</ele>
        <time>2024-09-07T17:34:12.961778Z</time>
      </trkpt>
      <trkpt lat="43.249466" lon="-6.020824">
        <ele>198.0</ele>
        <time>2024-09-07T17:34:16.778004Z</time>
      </trkpt>
      <trkpt lat="43.249366" lon="-6.020429">
        <ele>198.0</ele>
        <time>2024-09-07T17:34:22Z</time>
      </trkpt>
      <trkpt lat="43.249255" lon="-6.020129">
        <ele>198.0</ele>
        <time>2024-09-07T17:34:26Z</time>
      </trkpt>
      <trkpt lat="43.249225" lon="-6.01973">
        <ele>198.0</ele>
        <time>2024-09-07T17:34:32Z</time>
      </trkpt>
      <trkpt lat="43.24921" lon="-6.019219">
        <ele>198.0</ele>
        <time>2024-09-07T17:34:39Z</time>
      </trkpt>
      <trkpt lat="43.249185" lon="-6.018646">
        <ele>198.0</ele>
        <time>2024-09-07T17:34:47Z</time>
      </trkpt>
      <trkpt lat="43.249157" lon="-6.01823">
        <ele>198.9</ele>
        <time>2024-09-07T17:34:56Z</time>
      </trkpt>
      <trkpt lat="43.249146" lon="-6.017898">
        <ele>198.8</ele>
        <time>2024-09-07T17:35:03Z</time>
      </trkpt>
      <trkpt lat="43.249103" lon="-6.017364">
        <ele>198.0</ele>
        <time>2024-09-07T17:35:14Z</time>
      </trkpt>
      <trkpt lat="43.249061" lon="-6.016972">
        <ele>196.8</ele>
        <time>2024-09-07T17:35:21Z</time>
      </trkpt>
      <trkpt lat="43.248981" lon="-6.01662">
        <ele>198.0</ele>
        <time>2024-09-07T17:35:27Z</time>
      </trkpt>
      <trkpt lat="43.248903" lon="-6.016115">
        <ele>197.8</ele>
        <time>2024-09-07T17:35:36Z</time>
      </trkpt>
      <trkpt lat="43.248757" lon="-6.015328">
        <ele>198.0</ele>
        <time>2024-09-07T17:35:49Z</time>
      </trkpt>
      <trkpt lat="43.248769" lon="-6.014545">
        <ele>197.8</ele>
        <time>2024-09-07T17:36:02Z</time>
      </trkpt>
      <trkpt lat="43.248756" lon="-6.014374">
        <ele>197.4</ele>
        <time>2024-09-07T17:36:05Z</time>
      </trkpt>
      <trkpt lat="43.248741" lon="-6.014005">
        <ele>196.7</ele>
        <time>2024-09-07T17:36:11Z</time>
      </trkpt>
      <trkpt lat="43.248744" lon="-6.013569">
        <ele>196.9</ele>
        <time>2024-09-07T17:36:17Z</time>
      </trkpt>
      <trkpt lat="43.248773" lon="-6.013203">
        <ele>197.6</ele>
        <time>2024-09-07T17:36:23Z</time>
      </trkpt>
      <trkpt lat="43.248851" lon="-6.012831">
        <ele>198.8</ele>
        <time>2024-09-07T17:36:29Z</time>
      </trkpt>
      <trkpt lat="43.248971" lon="-6.012362">
        <ele>198.0</ele>
        <time>2024-09-07T17:36:36Z</time>
      </trkpt>
      <trkpt lat="43.24914" lon="-6.012024">
        <ele>198.0</ele>
        <time>2024-09-07T17:36:42Z</time>
      </trkpt>
      <trkpt lat="43.249296" lon="-6.011829">
        <ele>198.0</ele>
        <time>2024-09-07T17:36:46Z</time>
      </trkpt>
      <trkpt lat="43.249502" lon="-6.011656">
        <ele>196.5</ele>
        <time>2024-09-07T17:36:51Z</time>
      </trkpt>
      <trkpt lat="43.24958" lon="-6.011614">
        <ele>197.7</ele>
        <time>2024-09-07T17:36:53Z</time>
      </trkpt>
      <trkpt lat="43.249782" lon="-6.01152">
        <ele>196.1</ele>
        <time>2024-09-07T17:36:58Z</time>
      </trkpt>
      <trkpt lat="43.25013" lon="-6.011303">
        <ele>197.9</ele>
        <time>2024-09-07T17:37:07.449387Z</time>
      </trkpt>
      <trkpt lat="43.250415" lon="-6.011249">
        <ele>198.0</ele>
        <time>2024-09-07T17:37:14.562197Z</time>
      </trkpt>
      <trkpt lat="43.250674" lon="-6.011286">
        <ele>197.2</ele>
        <time>2024-09-07T17:37:21Z</time>
      </trkpt>
      <trkpt lat="43.250714" lon="-6.011285">
        <ele>197.8</ele>
        <time>2024-09-07T17:37:22Z</time>
      </trkpt>
      <trkpt lat="43.250756" lon="-6.011283">
        <ele>197.9</ele>
        <time>2024-09-07T17:37:23Z</time>
      </trkpt>
      <trkpt lat="43.250796" lon="-6.011281">
        <ele>197.2</ele>
        <time>2024-09-07T17:37:24Z</time>
      </trkpt>
      <trkpt lat="43.250836" lon="-6.011276">
        <ele>196.8</ele>
        <time>2024-09-07T17:37:25Z</time>
      </trkpt>
      <trkpt lat="43.250875" lon="-6.011263">
        <ele>195.9</ele>
        <time>2024-09-07T17:37:26Z</time>
      </trkpt>
      <trkpt lat="43.250952" lon="-6.01123">
        <ele>194.9</ele>
        <time>2024-09-07T17:37:28Z</time>
      </trkpt>
      <trkpt lat="43.251098" lon="-6.011129">
        <ele>195.9</ele>
        <time>2024-09-07T17:37:31Z</time>
      </trkpt>
      <trkpt lat="43.251627" lon="-6.010411">
        <ele>196.8</ele>
        <time>2024-09-07T17:37:49Z</time>
      </trkpt>
      <trkpt lat="43.252204" lon="-6.00966">
        <ele>196.2</ele>
        <time>2024-09-07T17:38:08Z</time>
      </trkpt>
      <trkpt lat="43.25238" lon="-6.009328">
        <ele>197.1</ele>
        <time>2024-09-07T17:38:14Z</time>
      </trkpt>
      <trkpt lat="43.252614" lon="-6.008862">
        <ele>197.8</ele>
        <time>2024-09-07T17:38:24Z</time>
      </trkpt>
      <trkpt lat="43.252817" lon="-6.008431">
        <ele>197.1</ele>
        <time>2024-09-07T17:38:35Z</time>
      </trkpt>
      <trkpt lat="43.252978" lon="-6.008117">
        <ele>198.0</ele>
        <time>2024-09-07T17:38:42Z</time>
      </trkpt>
      <trkpt lat="43.253187" lon="-6.008013">
        <ele>195.9</ele>
        <time>2024-09-07T17:38:47Z</time>
      </trkpt>
      <trkpt lat="43.254024" lon="-6.007483">
        <ele>196.7</ele>
        <time>2024-09-07T17:39:08Z</time>
      </trkpt>
      <trkpt lat="43.254727" lon="-6.006954">
        <ele>195.0</ele>
        <time>2024-09-07T17:39:25Z</time>
      </trkpt>
      <trkpt lat="43.255393" lon="-6.006355">
        <ele>197.0</ele>
        <time>2024-09-07T17:39:40Z</time>
      </trkpt>
      <trkpt lat="43.255881" lon="-6.005857">
        <ele>197.0</ele>
        <time>2024-09-07T17:39:50Z</time>
      </trkpt>
      <trkpt lat="43.256021" lon="-6.005576">
        <ele>198.0</ele>
        <time>2024-09-07T17:39:55Z</time>
      </trkpt>
      <trkpt lat="43.256198" lon="-6.005603">
        <ele>198.0</ele>
        <time>2024-09-07T17:39:58Z</time>
      </trkpt>
      <trkpt lat="43.256226" lon="-6.0056">
        <ele>198.0</ele>
        <time>2024-09-07T17:39:58.509849Z</time>
      </trkpt>
      <trkpt lat="43.256253" lon="-6.0056">
        <ele>198.0</ele>
        <time>2024-09-07T17:39:59Z</time>
      </trkpt>
      <trkpt lat="43.25629" lon="-6.005596">
        <ele>198.0</ele>
        <time>2024-09-07T17:40:00Z</time>
      </trkpt>
      <trkpt lat="43.256316" lon="-6.005606">
        <ele>198.0</ele>
        <time>2024-09-07T17:40:00.443257Z</time>
      </trkpt>
      <trkpt lat="43.256314" lon="-6.005621">
        <ele>197.9</ele>
        <time>2024-09-07T17:40:00.625578Z</time>
      </trkpt>
      <trkpt lat="43.256318" lon="-6.005609">
        <ele>198.0</ele>
        <time>2024-09-07T17:40:00.783364Z</time>
      </trkpt>
      <trkpt lat="43.256323" lon="-6.005605">
        <ele>198.0</ele>
        <time>2024-09-07T17:40:00.878362Z</time>
      </trkpt>
      <trkpt lat="43.256574" lon="-6.005597">
        <ele>197.0</ele>
        <time>2024-09-07T17:40:05Z</time>
      </trkpt>
      <trkpt lat="43.257058" lon="-6.005541">
        <ele>196.7</ele>
        <time>2024-09-07T17:40:13.577652Z</time>
      </trkpt>
      <trkpt lat="43.257081" lon="-6.005532">
        <ele>197.0</ele>
        <time>2024-09-07T17:40:14Z</time>
      </trkpt>
      <trkpt lat="43.257268" lon="-6.005443">
        <ele>196.2</ele>
        <time>2024-09-07T17:40:18Z</time>
      </trkpt>
      <trkpt lat="43.257612" lon="-6.005278">
        <ele>195.6</ele>
        <time>2024-09-07T17:40:25Z</time>
      </trkpt>
      <trkpt lat="43.258107" lon="-6.005074">
        <ele>194.8</ele>
        <time>2024-09-07T17:40:36Z</time>
      </trkpt>
      <trkpt lat="43.25813" lon="-6.005053">
        <ele>194.6</ele>
        <time>2024-09-07T17:40:37Z</time>
      </trkpt>
      <trkpt lat="43.258155" lon="-6.00504">
        <ele>194.8</ele>
        <time>2024-09-07T17:40:37.409380Z</time>
      </trkpt>
      <trkpt lat="43.258191" lon="-6.005021">
        <ele>194.9</ele>
        <time>2024-09-07T17:40:38Z</time>
      </trkpt>
      <trkpt lat="43.258223" lon="-6.004992">
        <ele>195.0</ele>
        <time>2024-09-07T17:40:39Z</time>
      </trkpt>
      <trkpt lat="43.258245" lon="-6.004983">
        <ele>195.0</ele>
        <time>2024-09-07T17:40:39.416709Z</time>
      </trkpt>
      <trkpt lat="43.258277" lon="-6.004979">
        <ele>195.0</ele>
        <time>2024-09-07T17:40:40Z</time>
      </trkpt>
      <trkpt lat="43.258312" lon="-6.004964">
        <ele>195.0</ele>
        <time>2024-09-07T17:40:41Z</time>
      </trkpt>
      <trkpt lat="43.258343" lon="-6.004947">
        <ele>195.0</ele>
        <time>2024-09-07T17:40:41.501356Z</time>
      </trkpt>
      <trkpt lat="43.258376" lon="-6.004942">
        <ele>195.0</ele>
        <time>2024-09-07T17:40:42Z</time>
      </trkpt>
      <trkpt lat="43.258407" lon="-6.004927">
        <ele>195.0</ele>
        <time>2024-09-07T17:40:43Z</time>
      </trkpt>
      <trkpt lat="43.258836" lon="-6.004743">
        <ele>194.0</ele>
        <time>2024-09-07T17:40:52Z</time>
      </trkpt>
      <trkpt lat="43.259203" lon="-6.004575">
        <ele>194.0</ele>
        <time>2024-09-07T17:41:00Z</time>
      </trkpt>
      <trkpt lat="43.259519" lon="-6.004468">
        <ele>192.6</ele>
        <time>2024-09-07T17:41:06Z</time>
      </trkpt>
      <trkpt lat="43.259914" lon="-6.00427">
        <ele>192.0</ele>
        <time>2024-09-07T17:41:13Z</time>
      </trkpt>
      <trkpt lat="43.260274" lon="-6.004049">
        <ele>191.7</ele>
        <time>2024-09-07T17:41:20Z</time>
      </trkpt>
      <trkpt lat="43.260713" lon="-6.003858">
        <ele>189.8</ele>
        <time>2024-09-07T17:41:28.415543Z</time>
      </trkpt>
      <trkpt lat="43.261069" lon="-6.00369">
        <ele>190.8</ele>
        <time>2024-09-07T17:41:35.294704Z</time>
      </trkpt>
      <trkpt lat="43.261543" lon="-6.003492">
        <ele>189.4</ele>
        <time>2024-09-07T17:41:44.348708Z</time>
      </trkpt>
      <trkpt lat="43.262089" lon="-6.003247">
        <ele>189.0</ele>
        <time>2024-09-07T17:41:54.845756Z</time>
      </trkpt>
      <trkpt lat="43.262555" lon="-6.00313">
        <ele>188.9</ele>
        <time>2024-09-07T17:42:03.502818Z</time>
      </trkpt>
      <trkpt lat="43.262932" lon="-6.003078">
        <ele>186.9</ele>
        <time>2024-09-07T17:42:10.426950Z</time>
      </trkpt>
      <trkpt lat="43.263507" lon="-6.002989">
        <ele>185.8</ele>
        <time>2024-09-07T17:42:21.001294Z</time>
      </trkpt>
      <trkpt lat="43.264145" lon="-6.002776">
        <ele>183.8</ele>
        <time>2024-09-07T17:42:33Z</time>
      </trkpt>
      <trkpt lat="43.264413" lon="-6.002613">
        <ele>184.9</ele>
        <time>2024-09-07T17:42:39.155242Z</time>
      </trkpt>
      <trkpt lat="43.264778" lon="-6.002478">
        <ele>184.6</ele>
        <time>2024-09-07T17:42:47.093325Z</time>
      </trkpt>
      <trkpt lat="43.265057" lon="-6.002429">
        <ele>185.0</ele>
        <time>2024-09-07T17:42:53Z</time>
      </trkpt>
      <trkpt lat="43.26548" lon="-6.002388">
        <ele>183.9</ele>
        <time>2024-09-07T17:43:02Z</time>
      </trkpt>
      <trkpt lat="43.265644" lon="-6.002317">
        <ele>184.0</ele>
        <time>2024-09-07T17:43:05.203985Z</time>
      </trkpt>
      <trkpt lat="43.265992" lon="-6.002167">
        <ele>181.7</ele>
        <time>2024-09-07T17:43:12Z</time>
      </trkpt>
      <trkpt lat="43.26611" lon="-6.002098">
        <ele>182.4</ele>
        <time>2024-09-07T17:43:14.230038Z</time>
      </trkpt>
      <trkpt lat="43.266463" lon="-6.002065">
        <ele>183.0</ele>
        <time>2024-09-07T17:43:20.382201Z</time>
      </trkpt>
      <trkpt lat="43.266841" lon="-6.002153">
        <ele>182.5</ele>
        <time>2024-09-07T17:43:27.048631Z</time>
      </trkpt>
      <trkpt lat="43.267262" lon="-6.002255">
        <ele>180.7</ele>
        <time>2024-09-07T17:43:34.482019Z</time>
      </trkpt>
      <trkpt lat="43.26761" lon="-6.002282">
        <ele>180.9</ele>
        <time>2024-09-07T17:43:40.542687Z</time>
      </trkpt>
      <trkpt lat="43.268007" lon="-6.002233">
        <ele>179.1</ele>
        <time>2024-09-07T17:43:47.473539Z</time>
      </trkpt>
      <trkpt lat="43.268478" lon="-6.002137">
        <ele>178.5</ele>
        <time>2024-09-07T17:43:55.752984Z</time>
      </trkpt>
      <trkpt lat="43.268741" lon="-6.002097">
        <ele>177.0</ele>
        <time>2024-09-07T17:44:00.353981Z</time>
      </trkpt>
      <trkpt lat="43.268771" lon="-6.002095">
        <ele>176.2</ele>
        <time>2024-09-07T17:44:00.876235Z</time>
      </trkpt>
      <trkpt lat="43.269058" lon="-6.002339">
        <ele>174.0</ele>
        <time>2024-09-07T17:44:06.745412Z</time>
      </trkpt>
      <trkpt lat="43.269503" lon="-6.00274">
        <ele>174.0</ele>
        <time>2024-09-07T17:44:16Z</time>
      </trkpt>
      <trkpt lat="43.269619" lon="-6.002842">
        <ele>174.0</ele>
        <time>2024-09-07T17:44:18.144603Z</time>
      </trkpt>
      <trkpt lat="43.269687" lon="-6.002858">
        <ele>175.0</ele>
        <time>2024-09-07T17:44:19.218793Z</time>
      </trkpt>
      <trkpt lat="43.269754" lon="-6.002873">
        <ele>175.0</ele>
        <time>2024-09-07T17:44:20.275756Z</time>
      </trkpt>
      <trkpt lat="43.270307" lon="-6.002749">
        <ele>176.4</ele>
        <time>2024-09-07T17:44:29Z</time>
      </trkpt>
      <trkpt lat="43.270517" lon="-6.002774">
        <ele>175.8</ele>
        <time>2024-09-07T17:44:34Z</time>
      </trkpt>
      <trkpt lat="43.27079" lon="-6.002867">
        <ele>174.1</ele>
        <time>2024-09-07T17:44:41Z</time>
      </trkpt>
      <trkpt lat="43.271088" lon="-6.003015">
        <ele>175.8</ele>
        <time>2024-09-07T17:44:47Z</time>
      </trkpt>
      <trkpt lat="43.271443" lon="-6.003108">
        <ele>177.0</ele>
        <time>2024-09-07T17:44:55Z</time>
      </trkpt>
      <trkpt lat="43.271487" lon="-6.003121">
        <ele>177.0</ele>
        <time>2024-09-07T17:44:56Z</time>
      </trkpt>
      <trkpt lat="43.271529" lon="-6.003128">
        <ele>177.0</ele>
        <time>2024-09-07T17:44:57Z</time>
      </trkpt>
      <trkpt lat="43.271891" lon="-6.003122">
        <ele>178.7</ele>
        <time>2024-09-07T17:45:06Z</time>
      </trkpt>
      <trkpt lat="43.272221" lon="-6.003036">
        <ele>177.0</ele>
        <time>2024-09-07T17:45:16Z</time>
      </trkpt>
      <trkpt lat="43.272245" lon="-6.003032">
        <ele>177.0</ele>
        <time>2024-09-07T17:45:17Z</time>
      </trkpt>
      <trkpt lat="43.272269" lon="-6.003023">
        <ele>177.0</ele>
        <time>2024-09-07T17:45:18Z</time>
      </trkpt>
      <trkpt lat="43.272322" lon="-6.00304">
        <ele>177.0</ele>
        <time>2024-09-07T17:45:19Z</time>
      </trkpt>
      <trkpt lat="43.272686" lon="-6.003016">
        <ele>177.9</ele>
        <time>2024-09-07T17:45:29Z</time>
      </trkpt>
      <trkpt lat="43.273135" lon="-6.002691">
        <ele>178.7</ele>
        <time>2024-09-07T17:45:43Z</time>
      </trkpt>
      <trkpt lat="43.273351" lon="-6.002386">
        <ele>175.7</ele>
        <time>2024-09-07T17:45:51Z</time>
      </trkpt>
      <trkpt lat="43.27355" lon="-6.00212">
        <ele>174.0</ele>
        <time>2024-09-07T17:45:57Z</time>
      </trkpt>
      <trkpt lat="43.273578" lon="-6.00203">
        <ele>173.0</ele>
        <time>2024-09-07T17:45:58Z</time>
      </trkpt>
      <trkpt lat="43.27361" lon="-6.001923">
        <ele>172.4</ele>
        <time>2024-09-07T17:46:00Z</time>
      </trkpt>
      <trkpt lat="43.273616" lon="-6.001883">
        <ele>172.0</ele>
        <time>2024-09-07T17:46:01Z</time>
      </trkpt>
      <trkpt lat="43.273648" lon="-6.001786">
        <ele>171.0</ele>
        <time>2024-09-07T17:46:02Z</time>
      </trkpt>
      <trkpt lat="43.273904" lon="-6.001488">
        <ele>171.0</ele>
        <time>2024-09-07T17:46:07.301467Z</time>
      </trkpt>
      <trkpt lat="43.273948" lon="-6.001482">
        <ele>170.5</ele>
        <time>2024-09-07T17:46:08Z</time>
      </trkpt>
      <trkpt lat="43.273992" lon="-6.001429">
        <ele>171.0</ele>
        <time>2024-09-07T17:46:09Z</time>
      </trkpt>
      <trkpt lat="43.274024" lon="-6.001418">
        <ele>171.7</ele>
        <time>2024-09-07T17:46:10Z</time>
      </trkpt>
      <trkpt lat="43.273916" lon="-6.001163">
        <ele>172.0</ele>
        <time>2024-09-07T17:46:25Z</time>
      </trkpt>
      <trkpt lat="43.273856" lon="-6.001008">
        <ele>168.0</ele>
        <time>2024-09-07T17:46:29Z</time>
      </trkpt>
      <trkpt lat="43.273819" lon="-6.000912">
        <ele>167.0</ele>
        <time>2024-09-07T17:46:30Z</time>
      </trkpt>
      <trkpt lat="43.27391" lon="-6.000799">
        <ele>167.0</ele>
        <time>2024-09-07T17:46:32Z</time>
      </trkpt>
      <trkpt lat="43.274246" lon="-6.000277">
        <ele>167.0</ele>
        <time>2024-09-07T17:46:46Z</time>
      </trkpt>
      <trkpt lat="43.274534" lon="-5.999678">
        <ele>166.6</ele>
        <time>2024-09-07T17:47:03Z</time>
      </trkpt>
      <trkpt lat="43.274726" lon="-5.999134">
        <ele>166.1</ele>
        <time>2024-09-07T17:49:21Z</time>
      </trkpt>
      <trkpt lat="43.274824" lon="-5.998736">
        <ele>167.0</ele>
        <time>2024-09-07T17:49:31Z</time>
      </trkpt>
      <trkpt lat="43.274679" lon="-5.998131">
        <ele>167.0</ele>
        <time>2024-09-07T17:49:42Z</time>
      </trkpt>
      <trkpt lat="43.274443" lon="-5.997604">
        <ele>167.0</ele>
        <time>2024-09-07T17:49:51Z</time>
      </trkpt>
      <trkpt lat="43.274435" lon="-5.997563">
        <ele>167.0</ele>
        <time>2024-09-07T17:49:52Z</time>
      </trkpt>
      <trkpt lat="43.274429" lon="-5.99753">
        <ele>167.0</ele>
        <time>2024-09-07T17:49:53Z</time>
      </trkpt>
      <trkpt lat="43.274424" lon="-5.9975">
        <ele>167.5</ele>
        <time>2024-09-07T17:49:54Z</time>
      </trkpt>
      <trkpt lat="43.274428" lon="-5.997469">
        <ele>167.8</ele>
        <time>2024-09-07T17:49:55Z</time>
      </trkpt>
      <trkpt lat="43.274436" lon="-5.997414">
        <ele>168.0</ele>
        <time>2024-09-07T17:49:56Z</time>
      </trkpt>
      <trkpt lat="43.274442" lon="-5.997388">
        <ele>168.0</ele>
        <time>2024-09-07T17:49:56.588778Z</time>
      </trkpt>
      <trkpt lat="43.274443" lon="-5.997369">
        <ele>168.1</ele>
        <time>2024-09-07T17:49:57Z</time>
      </trkpt>
      <trkpt lat="43.274735" lon="-5.996811">
        <ele>167.0</ele>
        <time>2024-09-07T17:50:08Z</time>
      </trkpt>
      <trkpt lat="43.275025" lon="-5.996258">
        <ele>166.3</ele>
        <time>2024-09-07T17:50:21Z</time>
      </trkpt>
      <trkpt lat="43.275354" lon="-5.995679">
        <ele>166.0</ele>
        <time>2024-09-07T17:50:34Z</time>
      </trkpt>
      <trkpt lat="43.275537" lon="-5.995296">
        <ele>166.0</ele>
        <time>2024-09-07T17:50:42Z</time>
      </trkpt>
      <trkpt lat="43.275695" lon="-5.994938">
        <ele>165.2</ele>
        <time>2024-09-07T17:50:49Z</time>
      </trkpt>
      <trkpt lat="43.275927" lon="-5.994572">
        <ele>165.0</ele>
        <time>2024-09-07T17:50:56Z</time>
      </trkpt>
      <trkpt lat="43.276334" lon="-5.993927">
        <ele>164.6</ele>
        <time>2024-09-07T17:51:11Z</time>
      </trkpt>
      <trkpt lat="43.276683" lon="-5.993258">
        <ele>163.0</ele>
        <time>2024-09-07T17:51:24Z</time>
      </trkpt>
      <trkpt lat="43.276912" lon="-5.992672">
        <ele>163.0</ele>
        <time>2024-09-07T17:51:33Z</time>
      </trkpt>
      <trkpt lat="43.277003" lon="-5.992373">
        <ele>163.0</ele>
        <time>2024-09-07T17:51:38Z</time>
      </trkpt>
      <trkpt lat="43.277245" lon="-5.991984">
        <ele>163.0</ele>
        <time>2024-09-07T17:51:45Z</time>
      </trkpt>
      <trkpt lat="43.277542" lon="-5.991512">
        <ele>163.0</ele>
        <time>2024-09-07T17:51:53Z</time>
      </trkpt>
      <trkpt lat="43.277838" lon="-5.991077">
        <ele>162.8</ele>
        <time>2024-09-07T17:52:01Z</time>
      </trkpt>
      <trkpt lat="43.278" lon="-5.990829">
        <ele>163.0</ele>
        <time>2024-09-07T17:52:05Z</time>
      </trkpt>
      <trkpt lat="43.278254" lon="-5.990593">
        <ele>163.0</ele>
        <time>2024-09-07T17:52:10Z</time>
      </trkpt>
      <trkpt lat="43.278445" lon="-5.990522">
        <ele>163.5</ele>
        <time>2024-09-07T17:52:14Z</time>
      </trkpt>
      <trkpt lat="43.278698" lon="-5.99051">
        <ele>160.4</ele>
        <time>2024-09-07T17:52:18Z</time>
      </trkpt>
      <trkpt lat="43.278729" lon="-5.990507">
        <ele>160.1</ele>
        <time>2024-09-07T17:52:18.584338Z</time>
      </trkpt>
      <trkpt lat="43.279095" lon="-5.99047">
        <ele>160.3</ele>
        <time>2024-09-07T17:52:25.484853Z</time>
      </trkpt>
      <trkpt lat="43.279294" lon="-5.990454">
        <ele>160.5</ele>
        <time>2024-09-07T17:52:29.233057Z</time>
      </trkpt>
      <trkpt lat="43.279485" lon="-5.990541">
        <ele>161.1</ele>
        <time>2024-09-07T17:52:33.016747Z</time>
      </trkpt>
      <trkpt lat="43.279863" lon="-5.990808">
        <ele>160.4</ele>
        <time>2024-09-07T17:52:41.008971Z</time>
      </trkpt>
      <trkpt lat="43.28025" lon="-5.991061">
        <ele>159.0</ele>
        <time>2024-09-07T17:52:49.067851Z</time>
      </trkpt>
      <trkpt lat="43.280467" lon="-5.991025">
        <ele>159.0</ele>
        <time>2024-09-07T17:52:53.177755Z</time>
      </trkpt>
      <trkpt lat="43.280619" lon="-5.990891">
        <ele>160.0</ele>
        <time>2024-09-07T17:52:56.573796Z</time>
      </trkpt>
      <trkpt lat="43.280888" lon="-5.990525">
        <ele>160.0</ele>
        <time>2024-09-07T17:53:03.693068Z</time>
      </trkpt>
      <trkpt lat="43.281181" lon="-5.990127">
        <ele>159.0</ele>
        <time>2024-09-07T17:53:11.441199Z</time>
      </trkpt>
      <trkpt lat="43.28142" lon="-5.989778">
        <ele>159.0</ele>
        <time>2024-09-07T17:53:18Z</time>
      </trkpt>
      <trkpt lat="43.281759" lon="-5.98927">
        <ele>158.1</ele>
        <time>2024-09-07T17:53:26Z</time>
      </trkpt>
      <trkpt lat="43.281981" lon="-5.988898">
        <ele>157.5</ele>
        <time>2024-09-07T17:53:32Z</time>
      </trkpt>
      <trkpt lat="43.282293" lon="-5.988447">
        <ele>157.0</ele>
        <time>2024-09-07T17:53:40Z</time>
      </trkpt>
      <trkpt lat="43.28245" lon="-5.988433">
        <ele>157.0</ele>
        <time>2024-09-07T17:53:44Z</time>
      </trkpt>
      <trkpt lat="43.282682" lon="-5.988477">
        <ele>154.0</ele>
        <time>2024-09-07T17:53:49Z</time>
      </trkpt>
      <trkpt lat="43.282976" lon="-5.988527">
        <ele>153.0</ele>
        <time>2024-09-07T17:53:55Z</time>
      </trkpt>
      <trkpt lat="43.283253" lon="-5.988338">
        <ele>154.0</ele>
        <time>2024-09-07T17:54:00Z</time>
      </trkpt>
      <trkpt lat="43.283282" lon="-5.988291">
        <ele>154.0</ele>
        <time>2024-09-07T17:54:01Z</time>
      </trkpt>
      <trkpt lat="43.283845" lon="-5.987516">
        <ele>153.0</ele>
        <time>2024-09-07T17:54:15Z</time>
      </trkpt>
      <trkpt lat="43.284333" lon="-5.986869">
        <ele>153.0</ele>
        <time>2024-09-07T17:54:29Z</time>
      </trkpt>
      <trkpt lat="43.284891" lon="-5.986009">
        <ele>153.0</ele>
        <time>2024-09-07T17:54:47Z</time>
      </trkpt>
      <trkpt lat="43.285264" lon="-5.985404">
        <ele>153.0</ele>
        <time>2024-09-07T17:55:00Z</time>
      </trkpt>
      <trkpt lat="43.285425" lon="-5.985189">
        <ele>153.2</ele>
        <time>2024-09-07T17:55:05Z</time>
      </trkpt>
      <trkpt lat="43.285636" lon="-5.984953">
        <ele>153.5</ele>
        <time>2024-09-07T17:55:11Z</time>
      </trkpt>
      <trkpt lat="43.286056" lon="-5.98463">
        <ele>152.3</ele>
        <time>2024-09-07T17:55:21Z</time>
      </trkpt>
      <trkpt lat="43.286507" lon="-5.984284">
        <ele>152.0</ele>
        <time>2024-09-07T17:55:31Z</time>
      </trkpt>
      <trkpt lat="43.286715" lon="-5.984193">
        <ele>151.0</ele>
        <time>2024-09-07T17:55:37Z</time>
      </trkpt>
      <trkpt lat="43.28691" lon="-5.984169">
        <ele>150.7</ele>
        <time>2024-09-07T17:55:42.015826Z</time>
      </trkpt>
      <trkpt lat="43.286967" lon="-5.984176">
        <ele>151.0</ele>
        <time>2024-09-07T17:55:43.481965Z</time>
      </trkpt>
      <trkpt lat="43.287015" lon="-5.98418">
        <ele>151.0</ele>
        <time>2024-09-07T17:55:44.713965Z</time>
      </trkpt>
      <trkpt lat="43.287098" lon="-5.984225">
        <ele>152.7</ele>
        <time>2024-09-07T17:55:47Z</time>
      </trkpt>
      <trkpt lat="43.287238" lon="-5.984256">
        <ele>153.0</ele>
        <time>2024-09-07T17:56:02Z</time>
      </trkpt>
      <trkpt lat="43.287465" lon="-5.984472">
        <ele>153.0</ele>
        <time>2024-09-07T17:56:18Z</time>
      </trkpt>
      <trkpt lat="43.287774" lon="-5.984788">
        <ele>152.3</ele>
        <time>2024-09-07T17:56:25Z</time>
      </trkpt>
      <trkpt lat="43.288119" lon="-5.985213">
        <ele>152.5</ele>
        <time>2024-09-07T17:56:34Z</time>
      </trkpt>
      <trkpt lat="43.288157" lon="-5.985256">
        <ele>153.0</ele>
        <time>2024-09-07T17:56:34.671044Z</time>
      </trkpt>
      <trkpt lat="43.288241" lon="-5.985324">
        <ele>152.0</ele>
        <time>2024-09-07T17:56:36Z</time>
      </trkpt>
      <trkpt lat="43.28828" lon="-5.985357">
        <ele>151.2</ele>
        <time>2024-09-07T17:56:37Z</time>
      </trkpt>
      <trkpt lat="43.288325" lon="-5.985374">
        <ele>151.0</ele>
        <time>2024-09-07T17:56:37.520219Z</time>
      </trkpt>
      <trkpt lat="43.288366" lon="-5.985392">
        <ele>151.6</ele>
        <time>2024-09-07T17:56:38Z</time>
      </trkpt>
      <trkpt lat="43.288413" lon="-5.985397">
        <ele>152.6</ele>
        <time>2024-09-07T17:56:39Z</time>
      </trkpt>
      <trkpt lat="43.288458" lon="-5.985398">
        <ele>153.7</ele>
        <time>2024-09-07T17:56:40Z</time>
      </trkpt>
      <trkpt lat="43.288964" lon="-5.985302">
        <ele>151.8</ele>
        <time>2024-09-07T17:56:48.148817Z</time>
      </trkpt>
      <trkpt lat="43.289145" lon="-5.985259">
        <ele>152.5</ele>
        <time>2024-09-07T17:56:51.079160Z</time>
      </trkpt>
      <trkpt lat="43.289414" lon="-5.985226">
        <ele>150.7</ele>
        <time>2024-09-07T17:56:55.387585Z</time>
      </trkpt>
      <trkpt lat="43.289452" lon="-5.985231">
        <ele>150.9</ele>
        <time>2024-09-07T17:56:55.996572Z</time>
      </trkpt>
      <trkpt lat="43.289825" lon="-5.985263">
        <ele>153.0</ele>
        <time>2024-09-07T17:57:01.958622Z</time>
      </trkpt>
      <trkpt lat="43.289974" lon="-5.985251">
        <ele>153.0</ele>
        <time>2024-09-07T17:57:04.339696Z</time>
      </trkpt>
      <trkpt lat="43.290129" lon="-5.985176">
        <ele>152.7</ele>
        <time>2024-09-07T17:57:06.961293Z</time>
      </trkpt>
      <trkpt lat="43.290187" lon="-5.985131">
        <ele>152.7</ele>
        <time>2024-09-07T17:57:08.023921Z</time>
      </trkpt>
      <trkpt lat="43.290244" lon="-5.985071">
        <ele>151.3</ele>
        <time>2024-09-07T17:57:09.169469Z</time>
      </trkpt>
      <trkpt lat="43.290342" lon="-5.984989">
        <ele>150.9</ele>
        <time>2024-09-07T17:57:11Z</time>
      </trkpt>
      <trkpt lat="43.290717" lon="-5.984702">
        <ele>149.8</ele>
        <time>2024-09-07T17:57:18Z</time>
      </trkpt>
      <trkpt lat="43.290977" lon="-5.984553">
        <ele>152.1</ele>
        <time>2024-09-07T17:57:22Z</time>
      </trkpt>
      <trkpt lat="43.291302" lon="-5.984393">
        <ele>150.0</ele>
        <time>2024-09-07T17:57:27Z</time>
      </trkpt>
      <trkpt lat="43.291706" lon="-5.984091">
        <ele>151.0</ele>
        <time>2024-09-07T17:57:34Z</time>
      </trkpt>
      <trkpt lat="43.292064" lon="-5.983717">
        <ele>149.4</ele>
        <time>2024-09-07T17:57:40Z</time>
      </trkpt>
      <trkpt lat="43.292446" lon="-5.983365">
        <ele>150.2</ele>
        <time>2024-09-07T17:57:47Z</time>
      </trkpt>
      <trkpt lat="43.292671" lon="-5.983227">
        <ele>148.2</ele>
        <time>2024-09-07T17:57:50Z</time>
      </trkpt>
      <trkpt lat="43.292886" lon="-5.983173">
        <ele>148.0</ele>
        <time>2024-09-07T17:57:53Z</time>
      </trkpt>
      <trkpt lat="43.293337" lon="-5.983173">
        <ele>148.0</ele>
        <time>2024-09-07T17:58:06.073702Z</time>
      </trkpt>
      <trkpt lat="43.293736" lon="-5.983421">
        <ele>145.6</ele>
        <time>2024-09-07T17:58:18.768561Z</time>
      </trkpt>
      <trkpt lat="43.294" lon="-5.983658">
        <ele>145.1</ele>
        <time>2024-09-07T17:58:27.910304Z</time>
      </trkpt>
      <trkpt lat="43.294016" lon="-5.983668">
        <ele>145.0</ele>
        <time>2024-09-07T17:58:28.419851Z</time>
      </trkpt>
      <trkpt lat="43.294036" lon="-5.983667">
        <ele>145.0</ele>
        <time>2024-09-07T17:58:29Z</time>
      </trkpt>
      <trkpt lat="43.294291" lon="-5.983401">
        <ele>143.0</ele>
        <time>2024-09-07T17:58:38Z</time>
      </trkpt>
      <trkpt lat="43.294309" lon="-5.983377">
        <ele>143.0</ele>
        <time>2024-09-07T17:58:38.520039Z</time>
      </trkpt>
      <trkpt lat="43.294327" lon="-5.983357">
        <ele>143.0</ele>
        <time>2024-09-07T17:58:39Z</time>
      </trkpt>
      <trkpt lat="43.294345" lon="-5.983339">
        <ele>143.0</ele>
        <time>2024-09-07T17:58:39.214462Z</time>
      </trkpt>
      <trkpt lat="43.29436" lon="-5.983323">
        <ele>143.0</ele>
        <time>2024-09-07T17:58:39.397394Z</time>
      </trkpt>
      <trkpt lat="43.294368" lon="-5.983308">
        <ele>143.0</ele>
        <time>2024-09-07T17:58:39.527778Z</time>
      </trkpt>
      <trkpt lat="43.294368" lon="-5.983296">
        <ele>143.0</ele>
        <time>2024-09-07T17:58:39.611915Z</time>
      </trkpt>
      <trkpt lat="43.29436" lon="-5.98329">
        <ele>143.0</ele>
        <time>2024-09-07T17:58:39.699714Z</time>
      </trkpt>
      <trkpt lat="43.294346" lon="-5.983293">
        <ele>143.0</ele>
        <time>2024-09-07T17:58:39.836208Z</time>
      </trkpt>
      <trkpt lat="43.294331" lon="-5.983304">
        <ele>143.0</ele>
        <time>2024-09-07T17:58:40Z</time>
      </trkpt>
      <trkpt lat="43.294316" lon="-5.983322">
        <ele>143.0</ele>
        <time>2024-09-07T17:58:40.662269Z</time>
      </trkpt>
      <trkpt lat="43.2943" lon="-5.983341">
        <ele>143.0</ele>
        <time>2024-09-07T17:58:41.365514Z</time>
      </trkpt>
      <trkpt lat="43.294281" lon="-5.98335">
        <ele>143.0</ele>
        <time>2024-09-07T17:58:42.033825Z</time>
      </trkpt>
      <trkpt lat="43.29426" lon="-5.983346">
        <ele>143.0</ele>
        <time>2024-09-07T17:58:42.738825Z</time>
      </trkpt>
      <trkpt lat="43.29415" lon="-5.983228">
        <ele>144.0</ele>
        <time>2024-09-07T17:58:47.379586Z</time>
      </trkpt>
      <trkpt lat="43.293988" lon="-5.983069">
        <ele>144.0</ele>
        <time>2024-09-07T17:58:54Z</time>
      </trkpt>
      <trkpt lat="43.293774" lon="-5.982695">
        <ele>144.0</ele>
        <time>2024-09-07T17:59:02Z</time>
      </trkpt>
      <trkpt lat="43.293179" lon="-5.982075">
        <ele>145.0</ele>
        <time>2024-09-07T17:59:17Z</time>
      </trkpt>
      <trkpt lat="43.293086" lon="-5.981985">
        <ele>145.0</ele>
        <time>2024-09-07T17:59:20Z</time>
      </trkpt>
      <trkpt lat="43.292962" lon="-5.981905">
        <ele>145.3</ele>
        <time>2024-09-07T17:59:22Z</time>
      </trkpt>
      <trkpt lat="43.292873" lon="-5.98187">
        <ele>145.0</ele>
        <time>2024-09-07T17:59:24Z</time>
      </trkpt>
      <trkpt lat="43.292722" lon="-5.981838">
        <ele>146.0</ele>
        <time>2024-09-07T17:59:28Z</time>
      </trkpt>
      <trkpt lat="43.292556" lon="-5.981867">
        <ele>146.0</ele>
        <time>2024-09-07T17:59:31Z</time>
      </trkpt>
      <trkpt lat="43.292264" lon="-5.98205">
        <ele>146.0</ele>
        <time>2024-09-07T17:59:38Z</time>
      </trkpt>
      <trkpt lat="43.292245" lon="-5.982066">
        <ele>146.0</ele>
        <time>2024-09-07T17:59:38.522871Z</time>
      </trkpt>
      <trkpt lat="43.292227" lon="-5.982079">
        <ele>146.0</ele>
        <time>2024-09-07T17:59:39Z</time>
      </trkpt>
      <trkpt lat="43.292212" lon="-5.982088">
        <ele>146.0</ele>
        <time>2024-09-07T17:59:39.453220Z</time>
      </trkpt>
      <trkpt lat="43.292202" lon="-5.982093">
        <ele>146.0</ele>
        <time>2024-09-07T17:59:39.747880Z</time>
      </trkpt>
      <trkpt lat="43.292195" lon="-5.982101">
        <ele>146.0</ele>
        <time>2024-09-07T17:59:40Z</time>
      </trkpt>
      <trkpt lat="43.291903" lon="-5.982315">
        <ele>146.0</ele>
        <time>2024-09-07T17:59:48Z</time>
      </trkpt>
      <trkpt lat="43.291682" lon="-5.982427">
        <ele>146.0</ele>
        <time>2024-09-07T17:59:54Z</time>
      </trkpt>
      <trkpt lat="43.291622" lon="-5.982604">
        <ele>146.0</ele>
        <time>2024-09-07T17:59:58Z</time>
      </trkpt>
      <trkpt lat="43.291609" lon="-5.982637">
        <ele>146.4</ele>
        <time>2024-09-07T17:59:58.796874Z</time>
      </trkpt>
      <trkpt lat="43.291454" lon="-5.982901">
        <ele>146.0</ele>
        <time>2024-09-07T18:00:06Z</time>
      </trkpt>
      <trkpt lat="43.291441" lon="-5.982916">
        <ele>146.0</ele>
        <time>2024-09-07T18:00:06.495319Z</time>
      </trkpt>
    </trkseg>
  </trk>
</gpx>