<?xml version="1.0" encoding="UTF-8"?>
<gpx xmlns="http://www.topografix.com/GPX/1/1" xmlns:xsi="http://www.w3.org/2001/XMLSchema-instance" xsi:schemaLocation="http://www.topografix.com/GPX/1/1 http://www.topografix.com/GPX/1/1/gpx.xsd" version="1.1" creator="gpx.py -- https://github.com/tkrajina/gpxpy">
  <trk>
    <name>14_pattern_elev_fixed.gpx</name>
    <trkseg>
      <trkpt lat="43.325587" lon="-4.260856">
        <ele>217.0</ele>
        <time>2024-10-03T18:08:36.039000Z</time>
      </trkpt>
      <trkpt lat="43.325548" lon="-4.26093">
        <ele>216.8</ele>
        <time>2024-10-03T18:08:36.780000Z</time>
      </trkpt>
      <trkpt lat="43.325513" lon="-4.260987">
        <ele>216.0</ele>
        <time>2024-10-03T18:08:37.390000Z</time>
      </trkpt>
      <trkpt lat="43.325473" lon="-4.26102">
        <ele>216.0</ele>
        <time>2024-10-03T18:08:37.909000Z</time>
      </trkpt>
      <trkpt lat="43.325423" lon="-4.261047">
        <ele>216.0</ele>
        <time>2024-10-03T18:08:38.499000Z</time>
      </trkpt>
      <trkpt lat="43.325375" lon="-4.261072">
        <ele>215.0</ele>
        <time>2024-10-03T18:08:39.085000Z</time>
      </trkpt>
      <trkpt lat="43.325325" lon="-4.261092">
        <ele>215.0</ele>
        <time>2024-10-03T18:08:39.664000Z</time>
      </trkpt>
      <trkpt lat="43.325274" lon="-4.261093">
        <ele>215.0</ele>
        <time>2024-10-03T18:08:40.232000Z</time>
      </trkpt>
      <trkpt lat="43.32521" lon="-4.261085">
        <ele>214.0</ele>
        <time>2024-10-03T18:08:40.950000Z</time>
      </trkpt>
      <trkpt lat="43.325175" lon="-4.261078">
        <ele>214.0</ele>
        <time>2024-10-03T18:08:41.346000Z</time>
      </trkpt>
      <trkpt lat="43.325139" lon="-4.26107">
        <ele>214.0</ele>
        <time>2024-10-03T18:08:41.750000Z</time>
      </trkpt>
      <trkpt lat="43.3251" lon="-4.261062">
        <ele>214.0</ele>
        <time>2024-10-03T18:08:42.184000Z</time>
      </trkpt>
      <trkpt lat="43.325059" lon="-4.261054">
        <ele>213.0</ele>
        <time>2024-10-03T18:08:42.657000Z</time>
      </trkpt>
      <trkpt lat="43.325009" lon="-4.261053">
        <ele>213.0</ele>
        <time>2024-10-03T18:08:43.219000Z</time>
      </trkpt>
      <trkpt lat="43.324967" lon="-4.261043">
        <ele>213.0</ele>
        <time>2024-10-03T18:08:43.690000Z</time>
      </trkpt>
      <trkpt lat="43.324937" lon="-4.26101">
        <ele>213.0</ele>
        <time>2024-10-03T18:08:44.119000Z</time>
      </trkpt>
      <trkpt lat="43.3249" lon="-4.260978">
        <ele>213.0</ele>
        <time>2024-10-03T18:08:44.599000Z</time>
      </trkpt>
      <trkpt lat="43.324834" lon="-4.260936">
        <ele>212.0</ele>
        <time>2024-10-03T18:08:45.415000Z</time>
      </trkpt>
      <trkpt lat="43.324758" lon="-4.260809">
        <ele>212.0</ele>
        <time>2024-10-03T18:08:46.748000Z</time>
      </trkpt>
      <trkpt lat="43.324809" lon="-4.260917">
        <ele>212.0</ele>
        <time>2024-10-03T18:08:47.789000Z</time>
      </trkpt>
      <trkpt lat="43.32476" lon="-4.261007">
        <ele>213.0</ele>
        <time>2024-10-03T18:08:48.704000Z</time>
      </trkpt>
      <trkpt lat="43.3247" lon="-4.261129">
        <ele>214.0</ele>
        <time>2024-10-03T18:08:49.904000Z</time>
      </trkpt>
      <trkpt lat="43.324656" lon="-4.26125">
        <ele>214.8</ele>
        <time>2024-10-03T18:08:51.004000Z</time>
      </trkpt>
      <trkpt lat="43.324612" lon="-4.261356">
        <ele>215.0</ele>
        <time>2024-10-03T18:08:51.988000Z</time>
      </trkpt>
      <trkpt lat="43.324581" lon="-4.261477">
        <ele>216.0</ele>
        <time>2024-10-03T18:08:53.028000Z</time>
      </trkpt>
      <trkpt lat="43.324549" lon="-4.2616">
        <ele>217.1</ele>
        <time>2024-10-03T18:08:54.093000Z</time>
      </trkpt>
      <trkpt lat="43.324521" lon="-4.261718">
        <ele>219.0</ele>
        <time>2024-10-03T18:08:55.117000Z</time>
      </trkpt>
      <trkpt lat="43.324496" lon="-4.261754">
        <ele>219.0</ele>
        <time>2024-10-03T18:08:55.512000Z</time>
      </trkpt>
      <trkpt lat="43.324434" lon="-4.261786">
        <ele>220.0</ele>
        <time>2024-10-03T18:08:56.260000Z</time>
      </trkpt>
      <trkpt lat="43.324368" lon="-4.26182">
        <ele>221.0</ele>
        <time>2024-10-03T18:08:57.049000Z</time>
      </trkpt>
      <trkpt lat="43.324299" lon="-4.261858">
        <ele>222.0</ele>
        <time>2024-10-03T18:08:57.879000Z</time>
      </trkpt>
      <trkpt lat="43.32423" lon="-4.261908">
        <ele>223.5</ele>
        <time>2024-10-03T18:08:58.761000Z</time>
      </trkpt>
      <trkpt lat="43.324166" lon="-4.261964">
        <ele>225.0</ele>
        <time>2024-10-03T18:08:59.622000Z</time>
      </trkpt>
      <trkpt lat="43.324098" lon="-4.262007">
        <ele>225.6</ele>
        <time>2024-10-03T18:09:00.456000Z</time>
      </trkpt>
      <trkpt lat="43.324056" lon="-4.262033">
        <ele>226.0</ele>
        <time>2024-10-03T18:09:00.970000Z</time>
      </trkpt>
      <trkpt lat="43.324019" lon="-4.262024">
        <ele>226.0</ele>
        <time>2024-10-03T18:09:01.388000Z</time>
      </trkpt>
      <trkpt lat="43.323942" lon="-4.261993">
        <ele>226.0</ele>
        <time>2024-10-03T18:09:02.278000Z</time>
      </trkpt>
      <trkpt lat="43.323873" lon="-4.261968">
        <ele>226.0</ele>
        <time>2024-10-03T18:09:03.075000Z</time>
      </trkpt>
      <trkpt lat="43.323823" lon="-4.261922">
        <ele>227.0</ele>
        <time>2024-10-03T18:09:03.750000Z</time>
      </trkpt>
      <trkpt lat="43.323761" lon="-4.261883">
        <ele>227.4</ele>
        <time>2024-10-03T18:09:04.503000Z</time>
      </trkpt>
      <trkpt lat="43.323683" lon="-4.261849">
        <ele>228.5</ele>
        <time>2024-10-03T18:09:05.420000Z</time>
      </trkpt>
      <trkpt lat="43.323619" lon="-4.26183">
        <ele>229.0</ele>
        <time>2024-10-03T18:09:06.151000Z</time>
      </trkpt>
      <trkpt lat="43.323554" lon="-4.261816">
        <ele>229.4</ele>
        <time>2024-10-03T18:09:06.884000Z</time>
      </trkpt>
      <trkpt lat="43.323488" lon="-4.261805">
        <ele>230.0</ele>
        <time>2024-10-03T18:09:07.627000Z</time>
      </trkpt>
      <trkpt lat="43.32344" lon="-4.261816">
        <ele>230.0</ele>
        <time>2024-10-03T18:09:08.169000Z</time>
      </trkpt>
      <trkpt lat="43.323371" lon="-4.26182">
        <ele>229.0</ele>
        <time>2024-10-03T18:09:08.939000Z</time>
      </trkpt>
      <trkpt lat="43.323327" lon="-4.261866">
        <ele>229.0</ele>
        <time>2024-10-03T18:09:09.560000Z</time>
      </trkpt>
      <trkpt lat="43.323275" lon="-4.26194">
        <ele>229.0</ele>
        <time>2024-10-03T18:09:10.391000Z</time>
      </trkpt>
      <trkpt lat="43.323225" lon="-4.26203">
        <ele>228.0</ele>
        <time>2024-10-03T18:09:11.312000Z</time>
      </trkpt>
      <trkpt lat="43.323188" lon="-4.262117">
        <ele>227.8</ele>
        <time>2024-10-03T18:09:12.128000Z</time>
      </trkpt>
      <trkpt lat="43.323139" lon="-4.2622">
        <ele>227.0</ele>
        <time>2024-10-03T18:09:12.993000Z</time>
      </trkpt>
      <trkpt lat="43.323088" lon="-4.262251">
        <ele>226.0</ele>
        <time>2024-10-03T18:09:13.699000Z</time>
      </trkpt>
      <trkpt lat="43.32303" lon="-4.262317">
        <ele>225.0</ele>
        <time>2024-10-03T18:09:14.547000Z</time>
      </trkpt>
      <trkpt lat="43.322969" lon="-4.262396">
        <ele>224.0</ele>
        <time>2024-10-03T18:09:15.480000Z</time>
      </trkpt>
      <trkpt lat="43.322906" lon="-4.262475">
        <ele>223.0</ele>
        <time>2024-10-03T18:09:16.436000Z</time>
      </trkpt>
      <trkpt lat="43.322843" lon="-4.26256">
        <ele>222.0</ele>
        <time>2024-10-03T18:09:17.429000Z</time>
      </trkpt>
      <trkpt lat="43.322762" lon="-4.262665">
        <ele>220.0</ele>
        <time>2024-10-03T18:09:18.678000Z</time>
      </trkpt>
      <trkpt lat="43.322698" lon="-4.262735">
        <ele>219.0</ele>
        <time>2024-10-03T18:09:19.593000Z</time>
      </trkpt>
      <trkpt lat="43.322649" lon="-4.262807">
        <ele>218.0</ele>
        <time>2024-10-03T18:09:20.396000Z</time>
      </trkpt>
      <trkpt lat="43.322579" lon="-4.262912">
        <ele>216.0</ele>
        <time>2024-10-03T18:09:21.570000Z</time>
      </trkpt>
      <trkpt lat="43.322517" lon="-4.262993">
        <ele>215.1</ele>
        <time>2024-10-03T18:09:22.518000Z</time>
      </trkpt>
      <trkpt lat="43.322459" lon="-4.263083">
        <ele>214.0</ele>
        <time>2024-10-03T18:09:23.500000Z</time>
      </trkpt>
      <trkpt lat="43.322404" lon="-4.263197">
        <ele>212.0</ele>
        <time>2024-10-03T18:09:24.627000Z</time>
      </trkpt>
      <trkpt lat="43.322344" lon="-4.263334">
        <ele>209.8</ele>
        <time>2024-10-03T18:09:25.933000Z</time>
      </trkpt>
      <trkpt lat="43.322302" lon="-4.263465">
        <ele>208.3</ele>
        <time>2024-10-03T18:09:27.102000Z</time>
      </trkpt>
      <trkpt lat="43.322276" lon="-4.263569">
        <ele>207.0</ele>
        <time>2024-10-03T18:09:28.002000Z</time>
      </trkpt>
      <trkpt lat="43.322273" lon="-4.26366">
        <ele>206.0</ele>
        <time>2024-10-03T18:09:28.745000Z</time>
      </trkpt>
      <trkpt lat="43.322291" lon="-4.263777">
        <ele>205.0</ele>
        <time>2024-10-03T18:09:29.717000Z</time>
      </trkpt>
      <trkpt lat="43.322309" lon="-4.263878">
        <ele>204.0</ele>
        <time>2024-10-03T18:09:30.570000Z</time>
      </trkpt>
      <trkpt lat="43.322322" lon="-4.26398">
        <ele>204.0</ele>
        <time>2024-10-03T18:09:31.404000Z</time>
      </trkpt>
      <trkpt lat="43.322315" lon="-4.264116">
        <ele>203.9</ele>
        <time>2024-10-03T18:09:32.508000Z</time>
      </trkpt>
      <trkpt lat="43.322314" lon="-4.264187">
        <ele>202.6</ele>
        <time>2024-10-03T18:09:33.101000Z</time>
      </trkpt>
      <trkpt lat="43.322345" lon="-4.264318">
        <ele>201.1</ele>
        <time>2024-10-03T18:09:34.223000Z</time>
      </trkpt>
      <trkpt lat="43.322406" lon="-4.264464">
        <ele>199.3</ele>
        <time>2024-10-03T18:09:35.593000Z</time>
      </trkpt>
      <trkpt lat="43.322456" lon="-4.264583">
        <ele>198.9</ele>
        <time>2024-10-03T18:09:36.705000Z</time>
      </trkpt>
      <trkpt lat="43.32255" lon="-4.264846">
        <ele>196.0</ele>
        <time>2024-10-03T18:09:39.096000Z</time>
      </trkpt>
      <trkpt lat="43.322603" lon="-4.265036">
        <ele>194.0</ele>
        <time>2024-10-03T18:09:40.757000Z</time>
      </trkpt>
      <trkpt lat="43.322652" lon="-4.265251">
        <ele>191.0</ele>
        <time>2024-10-03T18:09:42.598000Z</time>
      </trkpt>
      <trkpt lat="43.322717" lon="-4.26543">
        <ele>189.0</ele>
        <time>2024-10-03T18:09:44.232000Z</time>
      </trkpt>
      <trkpt lat="43.322776" lon="-4.26555">
        <ele>187.4</ele>
        <time>2024-10-03T18:09:45.413000Z</time>
      </trkpt>
      <trkpt lat="43.322843" lon="-4.265639">
        <ele>186.2</ele>
        <time>2024-10-03T18:09:46.458000Z</time>
      </trkpt>
      <trkpt lat="43.322898" lon="-4.265726">
        <ele>185.0</ele>
        <time>2024-10-03T18:09:47.396000Z</time>
      </trkpt>
      <trkpt lat="43.32295" lon="-4.265845">
        <ele>183.1</ele>
        <time>2024-10-03T18:09:48.532000Z</time>
      </trkpt>
      <trkpt lat="43.322969" lon="-4.265967">
        <ele>183.0</ele>
        <time>2024-10-03T18:09:49.550000Z</time>
      </trkpt>
      <trkpt lat="43.322936" lon="-4.26605">
        <ele>182.0</ele>
        <time>2024-10-03T18:09:50.320000Z</time>
      </trkpt>
      <trkpt lat="43.322891" lon="-4.266129">
        <ele>181.0</ele>
        <time>2024-10-03T18:09:51.138000Z</time>
      </trkpt>
      <trkpt lat="43.322844" lon="-4.26618">
        <ele>180.03608227638415</ele>
        <time>2024-10-03T18:09:51.809000Z</time>
      </trkpt>
      <trkpt lat="43.322772" lon="-4.266232">
        <ele>178.72680636563337</ele>
        <time>2024-10-03T18:09:52.724000Z</time>
      </trkpt>
      <trkpt lat="43.322714" lon="-4.266273">
        <ele>177.6769129366224</ele>
        <time>2024-10-03T18:09:53.453000Z</time>
      </trkpt>
      <trkpt lat="43.32266" lon="-4.266291">
        <ele>176.78243854749547</ele>
        <time>2024-10-03T18:09:54.075000Z</time>
      </trkpt>
      <trkpt lat="43.322603" lon="-4.266312">
        <ele>175.83247897312563</ele>
        <time>2024-10-03T18:09:54.737000Z</time>
      </trkpt>
      <trkpt lat="43.322532" lon="-4.266317">
        <ele>174.68803503170946</ele>
        <time>2024-10-03T18:09:55.527000Z</time>
      </trkpt>
      <trkpt lat="43.322459" lon="-4.266327">
        <ele>173.50707373574443</ele>
        <time>2024-10-03T18:09:56.354000Z</time>
      </trkpt>
      <trkpt lat="43.322391" lon="-4.266305">
        <ele>172.38251279527634</ele>
        <time>2024-10-03T18:09:57.138000Z</time>
      </trkpt>
      <trkpt lat="43.322308" lon="-4.266272">
        <ele>170.99162900007195</ele>
        <time>2024-10-03T18:09:58.098000Z</time>
      </trkpt>
      <trkpt lat="43.322233" lon="-4.266226">
        <ele>169.66956754064725</ele>
        <time>2024-10-03T18:09:59.040000Z</time>
      </trkpt>
      <trkpt lat="43.322191" lon="-4.266222">
        <ele>168.99183844010003</ele>
        <time>2024-10-03T18:09:59.519000Z</time>
      </trkpt>
      <trkpt lat="43.322153" lon="-4.266237">
        <ele>168.35539991521165</ele>
        <time>2024-10-03T18:09:59.962000Z</time>
      </trkpt>
      <trkpt lat="43.322138" lon="-4.266274">
        <ele>167.85936636836504</ele>
        <time>2024-10-03T18:10:00.303000Z</time>
      </trkpt>
      <trkpt lat="43.322133" lon="-4.266339">
        <ele>167.09393226562634</ele>
        <time>2024-10-03T18:10:00.841000Z</time>
      </trkpt>
      <trkpt lat="43.322156" lon="-4.266424">
        <ele>166.0319003441635</ele>
        <time>2024-10-03T18:10:01.592000Z</time>
      </trkpt>
      <trkpt lat="43.3222" lon="-4.266545">
        <ele>164.44774700921658</ele>
        <time>2024-10-03T18:10:02.693000Z</time>
      </trkpt>
      <trkpt lat="43.322255" lon="-4.266676">
        <ele>162.67649479202288</ele>
        <time>2024-10-03T18:10:03.939000Z</time>
      </trkpt>
      <trkpt lat="43.322316" lon="-4.266821">
        <ele>160.71496490585707</ele>
        <time>2024-10-03T18:10:05.298000Z</time>
      </trkpt>
      <trkpt lat="43.322382" lon="-4.266948">
        <ele>158.887200611463</ele>
        <time>2024-10-03T18:10:06.585000Z</time>
      </trkpt>
      <trkpt lat="43.322424" lon="-4.267005">
        <ele>157.9371026969866</ele>
        <time>2024-10-03T18:10:07.250000Z</time>
      </trkpt>
      <trkpt lat="43.322483" lon="-4.267065">
        <ele>156.75567785113122</ele>
        <time>2024-10-03T18:10:08.074000Z</time>
      </trkpt>
      <trkpt lat="43.322477" lon="-4.267129">
        <ele>156.0</ele>
        <time>2024-10-03T18:10:08.607000Z</time>
      </trkpt>
      <trkpt lat="43.322457" lon="-4.267151">
        <ele>156.0</ele>
        <time>2024-10-03T18:10:08.888000Z</time>
      </trkpt>
      <trkpt lat="43.322422" lon="-4.26717">
        <ele>156.0</ele>
        <time>2024-10-03T18:10:09.310000Z</time>
      </trkpt>
      <trkpt lat="43.322387" lon="-4.26716">
        <ele>156.0</ele>
        <time>2024-10-03T18:10:09.705000Z</time>
      </trkpt>
      <trkpt lat="43.322327" lon="-4.267141">
        <ele>156.0</ele>
        <time>2024-10-03T18:10:10.389000Z</time>
      </trkpt>
      <trkpt lat="43.322268" lon="-4.267115">
        <ele>155.0</ele>
        <time>2024-10-03T18:10:11.084000Z</time>
      </trkpt>
      <trkpt lat="43.322217" lon="-4.267082">
        <ele>155.0</ele>
        <time>2024-10-03T18:10:11.712000Z</time>
      </trkpt>
      <trkpt lat="43.322167" lon="-4.267032">
        <ele>154.0</ele>
        <time>2024-10-03T18:10:12.406000Z</time>
      </trkpt>
      <trkpt lat="43.3221" lon="-4.266973">
        <ele>153.0</ele>
        <time>2024-10-03T18:10:13.293000Z</time>
      </trkpt>
      <trkpt lat="43.322068" lon="-4.266937">
        <ele>153.0</ele>
        <time>2024-10-03T18:10:13.758000Z</time>
      </trkpt>
      <trkpt lat="43.322043" lon="-4.266954">
        <ele>152.3</ele>
        <time>2024-10-03T18:10:14.068000Z</time>
      </trkpt>
      <trkpt lat="43.322024" lon="-4.266977">
        <ele>152.0</ele>
        <time>2024-10-03T18:10:14.352000Z</time>
      </trkpt>
      <trkpt lat="43.322042" lon="-4.267071">
        <ele>151.0</ele>
        <time>2024-10-03T18:10:15.147000Z</time>
      </trkpt>
      <trkpt lat="43.322003" lon="-4.266979">
        <ele>152.0</ele>
        <time>2024-10-03T18:10:16.018000Z</time>
      </trkpt>
      <trkpt lat="43.321959" lon="-4.266878">
        <ele>152.0</ele>
        <time>2024-10-03T18:10:16.966000Z</time>
      </trkpt>
      <trkpt lat="43.321922" lon="-4.266779">
        <ele>152.0</ele>
        <time>2024-10-03T18:10:17.861000Z</time>
      </trkpt>
      <trkpt lat="43.321878" lon="-4.266654">
        <ele>152.9</ele>
        <time>2024-10-03T18:10:18.994000Z</time>
      </trkpt>
      <trkpt lat="43.321835" lon="-4.266529">
        <ele>153.0</ele>
        <time>2024-10-03T18:10:20.114000Z</time>
      </trkpt>
      <trkpt lat="43.321795" lon="-4.266403">
        <ele>153.0</ele>
        <time>2024-10-03T18:10:21.221000Z</time>
      </trkpt>
      <trkpt lat="43.321771" lon="-4.266275">
        <ele>153.0</ele>
        <time>2024-10-03T18:10:22.293000Z</time>
      </trkpt>
      <trkpt lat="43.321758" lon="-4.266186">
        <ele>153.9</ele>
        <time>2024-10-03T18:10:23.034000Z</time>
      </trkpt>
      <trkpt lat="43.321741" lon="-4.266127">
        <ele>153.3</ele>
        <time>2024-10-03T18:10:23.554000Z</time>
      </trkpt>
      <trkpt lat="43.321685" lon="-4.266055">
        <ele>153.0</ele>
        <time>2024-10-03T18:10:24.402000Z</time>
      </trkpt>
      <trkpt lat="43.32161" lon="-4.26597">
        <ele>153.7</ele>
        <time>2024-10-03T18:10:25.488000Z</time>
      </trkpt>
      <trkpt lat="43.321519" lon="-4.265876">
        <ele>154.0</ele>
        <time>2024-10-03T18:10:26.750000Z</time>
      </trkpt>
      <trkpt lat="43.321424" lon="-4.265804">
        <ele>154.0</ele>
        <time>2024-10-03T18:10:27.960000Z</time>
      </trkpt>
      <trkpt lat="43.321376" lon="-4.26578">
        <ele>154.0</ele>
        <time>2024-10-03T18:10:28.528000Z</time>
      </trkpt>
      <trkpt lat="43.321325" lon="-4.265749">
        <ele>154.0</ele>
        <time>2024-10-03T18:10:29.147000Z</time>
      </trkpt>
      <trkpt lat="43.3214" lon="-4.265807">
        <ele>154.0</ele>
        <time>2024-10-03T18:10:30.102000Z</time>
      </trkpt>
      <trkpt lat="43.321479" lon="-4.26586">
        <ele>154.0</ele>
        <time>2024-10-03T18:10:31.079000Z</time>
      </trkpt>
      <trkpt lat="43.321557" lon="-4.265932">
        <ele>153.6</ele>
        <time>2024-10-03T18:10:32.124000Z</time>
      </trkpt>
      <trkpt lat="43.321634" lon="-4.266011">
        <ele>153.9</ele>
        <time>2024-10-03T18:10:33.192000Z</time>
      </trkpt>
      <trkpt lat="43.321721" lon="-4.266116">
        <ele>153.0</ele>
        <time>2024-10-03T18:10:34.484000Z</time>
      </trkpt>
      <trkpt lat="43.32175" lon="-4.266201">
        <ele>153.5</ele>
        <time>2024-10-03T18:10:35.249000Z</time>
      </trkpt>
      <trkpt lat="43.321776" lon="-4.266349">
        <ele>153.0</ele>
        <time>2024-10-03T18:10:36.479000Z</time>
      </trkpt>
      <trkpt lat="43.321849" lon="-4.266588">
        <ele>153.0</ele>
        <time>2024-10-03T18:10:38.579000Z</time>
      </trkpt>
      <trkpt lat="43.321944" lon="-4.266863">
        <ele>152.0</ele>
        <time>2024-10-03T18:10:41.040000Z</time>
      </trkpt>
      <trkpt lat="43.32201" lon="-4.266897">
        <ele>152.1</ele>
        <time>2024-10-03T18:10:41.818000Z</time>
      </trkpt>
      <trkpt lat="43.322068" lon="-4.266937">
        <ele>153.0</ele>
        <time>2024-10-03T18:10:42.546000Z</time>
      </trkpt>
      <trkpt lat="43.322133" lon="-4.266986">
        <ele>153.3</ele>
        <time>2024-10-03T18:10:43.370000Z</time>
      </trkpt>
      <trkpt lat="43.322218" lon="-4.267063">
        <ele>155.0</ele>
        <time>2024-10-03T18:10:44.513000Z</time>
      </trkpt>
      <trkpt lat="43.322286" lon="-4.267111">
        <ele>155.0</ele>
        <time>2024-10-03T18:10:45.365000Z</time>
      </trkpt>
      <trkpt lat="43.32236" lon="-4.267136">
        <ele>156.0</ele>
        <time>2024-10-03T18:10:46.217000Z</time>
      </trkpt>
      <trkpt lat="43.322418" lon="-4.267158">
        <ele>156.0</ele>
        <time>2024-10-03T18:10:46.892000Z</time>
      </trkpt>
      <trkpt lat="43.322457" lon="-4.267151">
        <ele>156.0</ele>
        <time>2024-10-03T18:10:47.328000Z</time>
      </trkpt>
      <trkpt lat="43.322471" lon="-4.267102">
        <ele>156.4</ele>
        <time>2024-10-03T18:10:47.752000Z</time>
      </trkpt>
      <trkpt lat="43.322469" lon="-4.267076">
        <ele>157.0</ele>
        <time>2024-10-03T18:10:47.978000Z</time>
      </trkpt>
      <trkpt lat="43.322447" lon="-4.267043">
        <ele>157.0</ele>
        <time>2024-10-03T18:10:48.340000Z</time>
      </trkpt>
      <trkpt lat="43.322415" lon="-4.267018">
        <ele>158.0</ele>
        <time>2024-10-03T18:10:48.756000Z</time>
      </trkpt>
      <trkpt lat="43.322391" lon="-4.266975">
        <ele>158.7</ele>
        <time>2024-10-03T18:10:49.202000Z</time>
      </trkpt>
      <trkpt lat="43.322343" lon="-4.266892">
        <ele>160.9</ele>
        <time>2024-10-03T18:10:50.087000Z</time>
      </trkpt>
      <trkpt lat="43.322295" lon="-4.266794">
        <ele>162.0</ele>
        <time>2024-10-03T18:10:51.046000Z</time>
      </trkpt>
      <trkpt lat="43.322255" lon="-4.266699">
        <ele>163.0</ele>
        <time>2024-10-03T18:10:51.941000Z</time>
      </trkpt>
      <trkpt lat="43.322213" lon="-4.266592">
        <ele>165.0</ele>
        <time>2024-10-03T18:10:52.947000Z</time>
      </trkpt>
      <trkpt lat="43.32217" lon="-4.266485">
        <ele>166.0</ele>
        <time>2024-10-03T18:10:53.940000Z</time>
      </trkpt>
      <trkpt lat="43.322132" lon="-4.26637">
        <ele>167.0</ele>
        <time>2024-10-03T18:10:54.966000Z</time>
      </trkpt>
      <trkpt lat="43.322129" lon="-4.266304">
        <ele>168.0</ele>
        <time>2024-10-03T18:10:55.512000Z</time>
      </trkpt>
      <trkpt lat="43.322139" lon="-4.266236">
        <ele>169.0</ele>
        <time>2024-10-03T18:10:56.077000Z</time>
      </trkpt>
      <trkpt lat="43.322164" lon="-4.266217">
        <ele>169.5</ele>
        <time>2024-10-03T18:10:56.396000Z</time>
      </trkpt>
      <trkpt lat="43.322198" lon="-4.266206">
        <ele>170.2</ele>
        <time>2024-10-03T18:10:56.800000Z</time>
      </trkpt>
      <trkpt lat="43.322232" lon="-4.266208">
        <ele>170.87132377786332</ele>
        <time>2024-10-03T18:10:57.187000Z</time>
      </trkpt>
      <trkpt lat="43.322306" lon="-4.266259">
        <ele>172.50605907440405</ele>
        <time>2024-10-03T18:10:58.123000Z</time>
      </trkpt>
      <trkpt lat="43.322385" lon="-4.266288">
        <ele>174.0</ele>
        <time>2024-10-03T18:10:59.034000Z</time>
      </trkpt>
      <trkpt lat="43.322454" lon="-4.266313">
        <ele>175.0</ele>
        <time>2024-10-03T18:10:59.836000Z</time>
      </trkpt>
      <trkpt lat="43.322529" lon="-4.266332">
        <ele>176.0</ele>
        <time>2024-10-03T18:11:00.693000Z</time>
      </trkpt>
      <trkpt lat="43.322615" lon="-4.266322">
        <ele>177.1</ele>
        <time>2024-10-03T18:11:01.661000Z</time>
      </trkpt>
      <trkpt lat="43.322705" lon="-4.266284">
        <ele>178.0</ele>
        <time>2024-10-03T18:11:02.711000Z</time>
      </trkpt>
      <trkpt lat="43.322739" lon="-4.266267">
        <ele>179.0</ele>
        <time>2024-10-03T18:11:03.120000Z</time>
      </trkpt>
      <trkpt lat="43.322782" lon="-4.266237">
        <ele>179.0</ele>
        <time>2024-10-03T18:11:03.663000Z</time>
      </trkpt>
      <trkpt lat="43.322826" lon="-4.266208">
        <ele>180.0</ele>
        <time>2024-10-03T18:11:04.213000Z</time>
      </trkpt>
      <trkpt lat="43.322853" lon="-4.266182">
        <ele>180.0</ele>
        <time>2024-10-03T18:11:04.582000Z</time>
      </trkpt>
      <trkpt lat="43.322894" lon="-4.26614">
        <ele>181.0</ele>
        <time>2024-10-03T18:11:05.152000Z</time>
      </trkpt>
      <trkpt lat="43.322925" lon="-4.26609">
        <ele>181.6</ele>
        <time>2024-10-03T18:11:05.686000Z</time>
      </trkpt>
      <trkpt lat="43.32295" lon="-4.266043">
        <ele>182.0</ele>
        <time>2024-10-03T18:11:06.162000Z</time>
      </trkpt>
      <trkpt lat="43.322973" lon="-4.265994">
        <ele>183.0</ele>
        <time>2024-10-03T18:11:06.650000Z</time>
      </trkpt>
      <trkpt lat="43.322974" lon="-4.265934">
        <ele>183.0</ele>
        <time>2024-10-03T18:11:07.134000Z</time>
      </trkpt>
      <trkpt lat="43.322963" lon="-4.265866">
        <ele>183.0</ele>
        <time>2024-10-03T18:11:07.697000Z</time>
      </trkpt>
      <trkpt lat="43.322936" lon="-4.265794">
        <ele>184.0</ele>
        <time>2024-10-03T18:11:08.353000Z</time>
      </trkpt>
      <trkpt lat="43.322903" lon="-4.265725">
        <ele>185.0</ele>
        <time>2024-10-03T18:11:09.036000Z</time>
      </trkpt>
      <trkpt lat="43.322859" lon="-4.265653">
        <ele>186.0</ele>
        <time>2024-10-03T18:11:09.801000Z</time>
      </trkpt>
      <trkpt lat="43.32281" lon="-4.265581">
        <ele>187.0</ele>
        <time>2024-10-03T18:11:10.606000Z</time>
      </trkpt>
      <trkpt lat="43.322755" lon="-4.265518">
        <ele>188.0</ele>
        <time>2024-10-03T18:11:11.408000Z</time>
      </trkpt>
      <trkpt lat="43.322719" lon="-4.265451">
        <ele>189.0</ele>
        <time>2024-10-03T18:11:12.086000Z</time>
      </trkpt>
      <trkpt lat="43.3227" lon="-4.265406">
        <ele>189.3</ele>
        <time>2024-10-03T18:11:12.517000Z</time>
      </trkpt>
      <trkpt lat="43.322669" lon="-4.265317">
        <ele>191.0</ele>
        <time>2024-10-03T18:11:13.328000Z</time>
      </trkpt>
      <trkpt lat="43.322646" lon="-4.265244">
        <ele>191.3</ele>
        <time>2024-10-03T18:11:13.971000Z</time>
      </trkpt>
      <trkpt lat="43.322616" lon="-4.265127">
        <ele>193.0</ele>
        <time>2024-10-03T18:11:14.991000Z</time>
      </trkpt>
      <trkpt lat="43.322593" lon="-4.265024">
        <ele>194.0</ele>
        <time>2024-10-03T18:11:15.865000Z</time>
      </trkpt>
      <trkpt lat="43.322562" lon="-4.264918">
        <ele>195.0</ele>
        <time>2024-10-03T18:11:16.798000Z</time>
      </trkpt>
      <trkpt lat="43.322542" lon="-4.26485">
        <ele>195.5</ele>
        <time>2024-10-03T18:11:17.390000Z</time>
      </trkpt>
      <trkpt lat="43.322516" lon="-4.264778">
        <ele>196.0</ele>
        <time>2024-10-03T18:11:18.043000Z</time>
      </trkpt>
      <trkpt lat="43.322478" lon="-4.264669">
        <ele>198.0</ele>
        <time>2024-10-03T18:11:19.043000Z</time>
      </trkpt>
      <trkpt lat="43.32243" lon="-4.264545">
        <ele>199.0</ele>
        <time>2024-10-03T18:11:20.182000Z</time>
      </trkpt>
      <trkpt lat="43.322425" lon="-4.264531">
        <ele>199.0</ele>
        <time>2024-10-03T18:11:20.309000Z</time>
      </trkpt>
      <trkpt lat="43.322411" lon="-4.264494">
        <ele>199.1</ele>
        <time>2024-10-03T18:11:20.650000Z</time>
      </trkpt>
      <trkpt lat="43.322392" lon="-4.264448">
        <ele>200.0</ele>
        <time>2024-10-03T18:11:21.082000Z</time>
      </trkpt>
      <trkpt lat="43.322374" lon="-4.264408">
        <ele>200.0</ele>
        <time>2024-10-03T18:11:21.463000Z</time>
      </trkpt>
      <trkpt lat="43.322357" lon="-4.264367">
        <ele>201.0</ele>
        <time>2024-10-03T18:11:21.859000Z</time>
      </trkpt>
      <trkpt lat="43.32235" lon="-4.264349">
        <ele>201.0</ele>
        <time>2024-10-03T18:11:22.025000Z</time>
      </trkpt>
      <trkpt lat="43.322343" lon="-4.264332">
        <ele>201.0</ele>
        <time>2024-10-03T18:11:22.183000Z</time>
      </trkpt>
      <trkpt lat="43.322339" lon="-4.264309">
        <ele>201.0</ele>
        <time>2024-10-03T18:11:22.369000Z</time>
      </trkpt>
      <trkpt lat="43.322327" lon="-4.264261">
        <ele>201.6</ele>
        <time>2024-10-03T18:11:22.786000Z</time>
      </trkpt>
      <trkpt lat="43.322314" lon="-4.264202">
        <ele>202.5</ele>
        <time>2024-10-03T18:11:23.292000Z</time>
      </trkpt>
      <trkpt lat="43.322311" lon="-4.264179">
        <ele>202.4</ele>
        <time>2024-10-03T18:11:23.484000Z</time>
      </trkpt>
      <trkpt lat="43.322311" lon="-4.264133">
        <ele>202.90067633608788</ele>
        <time>2024-10-03T18:11:23.864000Z</time>
      </trkpt>
      <trkpt lat="43.322314" lon="-4.264071">
        <ele>203.43534941151734</ele>
        <time>2024-10-03T18:11:24.383000Z</time>
      </trkpt>
      <trkpt lat="43.322317" lon="-4.264004">
        <ele>204.6</ele>
        <time>2024-10-03T18:11:24.925000Z</time>
      </trkpt>
      <trkpt lat="43.322318" lon="-4.263975">
        <ele>203.7</ele>
        <time>2024-10-03T18:11:25.182000Z</time>
      </trkpt>
      <trkpt lat="43.322312" lon="-4.26393">
        <ele>203.3</ele>
        <time>2024-10-03T18:11:25.552000Z</time>
      </trkpt>
      <trkpt lat="43.322307" lon="-4.263886">
        <ele>204.0</ele>
        <time>2024-10-03T18:11:25.916000Z</time>
      </trkpt>
      <trkpt lat="43.322296" lon="-4.263829">
        <ele>205.0</ele>
        <time>2024-10-03T18:11:26.407000Z</time>
      </trkpt>
      <trkpt lat="43.322286" lon="-4.263771">
        <ele>205.0</ele>
        <time>2024-10-03T18:11:26.891000Z</time>
      </trkpt>
      <trkpt lat="43.322268" lon="-4.263781">
        <ele>205.3</ele>
        <time>2024-10-03T18:11:27.113000Z</time>
      </trkpt>
      <trkpt lat="43.322231" lon="-4.2638">
        <ele>206.0</ele>
        <time>2024-10-03T18:11:27.548000Z</time>
      </trkpt>
      <trkpt lat="43.322182" lon="-4.263817">
        <ele>205.0</ele>
        <time>2024-10-03T18:11:28.120000Z</time>
      </trkpt>
      <trkpt lat="43.322125" lon="-4.26384">
        <ele>205.0</ele>
        <time>2024-10-03T18:11:28.783000Z</time>
      </trkpt>
      <trkpt lat="43.322071" lon="-4.263853">
        <ele>205.0</ele>
        <time>2024-10-03T18:11:29.397000Z</time>
      </trkpt>
      <trkpt lat="43.322018" lon="-4.263844">
        <ele>204.2</ele>
        <time>2024-10-03T18:11:29.989000Z</time>
      </trkpt>
      <trkpt lat="43.321983" lon="-4.263816">
        <ele>205.0</ele>
        <time>2024-10-03T18:11:30.455000Z</time>
      </trkpt>
      <trkpt lat="43.321967" lon="-4.263771">
        <ele>205.0</ele>
        <time>2024-10-03T18:11:30.855000Z</time>
      </trkpt>
      <trkpt lat="43.321965" lon="-4.263689">
        <ele>205.0</ele>
        <time>2024-10-03T18:11:31.515000Z</time>
      </trkpt>
      <trkpt lat="43.32196" lon="-4.263578">
        <ele>205.0</ele>
        <time>2024-10-03T18:11:32.420000Z</time>
      </trkpt>
      <trkpt lat="43.32196" lon="-4.263525">
        <ele>205.0</ele>
        <time>2024-10-03T18:11:32.843000Z</time>
      </trkpt>
      <trkpt lat="43.32196" lon="-4.263468">
        <ele>204.4</ele>
        <time>2024-10-03T18:11:33.308000Z</time>
      </trkpt>
      <trkpt lat="43.321957" lon="-4.263408">
        <ele>204.0</ele>
        <time>2024-10-03T18:11:33.795000Z</time>
      </trkpt>
      <trkpt lat="43.321932" lon="-4.263401">
        <ele>204.0</ele>
        <time>2024-10-03T18:11:34.079000Z</time>
      </trkpt>
      <trkpt lat="43.321848" lon="-4.263391">
        <ele>203.6</ele>
        <time>2024-10-03T18:11:35.008000Z</time>
      </trkpt>
      <trkpt lat="43.32183" lon="-4.263389">
        <ele>203.1</ele>
        <time>2024-10-03T18:11:35.220000Z</time>
      </trkpt>
      <trkpt lat="43.321807" lon="-4.263386">
        <ele>203.0</ele>
        <time>2024-10-03T18:11:35.479000Z</time>
      </trkpt>
      <trkpt lat="43.321782" lon="-4.263381">
        <ele>202.43817166513332</ele>
        <time>2024-10-03T18:11:35.769000Z</time>
      </trkpt>
      <trkpt lat="43.321752" lon="-4.26336">
        <ele>201.764247055922</ele>
        <time>2024-10-03T18:11:36.158000Z</time>
      </trkpt>
      <trkpt lat="43.321717" lon="-4.263348">
        <ele>200.9</ele>
        <time>2024-10-03T18:11:36.557000Z</time>
      </trkpt>
      <trkpt lat="43.321682" lon="-4.263336">
        <ele>200.0</ele>
        <time>2024-10-03T18:11:36.968000Z</time>
      </trkpt>
      <trkpt lat="43.321646" lon="-4.263325">
        <ele>200.1</ele>
        <time>2024-10-03T18:11:37.374000Z</time>
      </trkpt>
      <trkpt lat="43.321611" lon="-4.263313">
        <ele>200.7</ele>
        <time>2024-10-03T18:11:37.779000Z</time>
      </trkpt>
      <trkpt lat="43.321576" lon="-4.263299">
        <ele>200.1</ele>
        <time>2024-10-03T18:11:38.188000Z</time>
      </trkpt>
      <trkpt lat="43.321544" lon="-4.263275">
        <ele>200.0</ele>
        <time>2024-10-03T18:11:38.594000Z</time>
      </trkpt>
      <trkpt lat="43.321505" lon="-4.263265">
        <ele>199.9</ele>
        <time>2024-10-03T18:11:39.038000Z</time>
      </trkpt>
      <trkpt lat="43.321466" lon="-4.263256">
        <ele>199.5</ele>
        <time>2024-10-03T18:11:39.483000Z</time>
      </trkpt>
      <trkpt lat="43.321417" lon="-4.263248">
        <ele>199.2</ele>
        <time>2024-10-03T18:11:40.029000Z</time>
      </trkpt>
      <trkpt lat="43.32137" lon="-4.263238">
        <ele>198.9</ele>
        <time>2024-10-03T18:11:40.559000Z</time>
      </trkpt>
      <trkpt lat="43.321324" lon="-4.263225">
        <ele>198.0</ele>
        <time>2024-10-03T18:11:41.086000Z</time>
      </trkpt>
      <trkpt lat="43.321278" lon="-4.263211">
        <ele>197.0</ele>
        <time>2024-10-03T18:11:41.615000Z</time>
      </trkpt>
      <trkpt lat="43.321241" lon="-4.2632">
        <ele>197.0</ele>
        <time>2024-10-03T18:11:42.038000Z</time>
      </trkpt>
      <trkpt lat="43.321196" lon="-4.263191">
        <ele>197.0</ele>
        <time>2024-10-03T18:11:42.549000Z</time>
      </trkpt>
      <trkpt lat="43.321173" lon="-4.263192">
        <ele>196.1</ele>
        <time>2024-10-03T18:11:42.820000Z</time>
      </trkpt>
      <trkpt lat="43.321144" lon="-4.263207">
        <ele>196.0</ele>
        <time>2024-10-03T18:11:43.165000Z</time>
      </trkpt>
      <trkpt lat="43.321109" lon="-4.263216">
        <ele>195.3</ele>
        <time>2024-10-03T18:11:43.557000Z</time>
      </trkpt>
      <trkpt lat="43.321074" lon="-4.263229">
        <ele>195.0</ele>
        <time>2024-10-03T18:11:43.965000Z</time>
      </trkpt>
      <trkpt lat="43.321038" lon="-4.263242">
        <ele>194.4</ele>
        <time>2024-10-03T18:11:44.380000Z</time>
      </trkpt>
      <trkpt lat="43.321005" lon="-4.263261">
        <ele>194.3</ele>
        <time>2024-10-03T18:11:44.781000Z</time>
      </trkpt>
      <trkpt lat="43.320973" lon="-4.263285">
        <ele>194.0</ele>
        <time>2024-10-03T18:11:45.190000Z</time>
      </trkpt>
      <trkpt lat="43.320941" lon="-4.263309">
        <ele>193.1</ele>
        <time>2024-10-03T18:11:45.611000Z</time>
      </trkpt>
      <trkpt lat="43.32093" lon="-4.263347">
        <ele>193.2</ele>
        <time>2024-10-03T18:11:45.939000Z</time>
      </trkpt>
      <trkpt lat="43.320928" lon="-4.2634">
        <ele>193.0</ele>
        <time>2024-10-03T18:11:46.365000Z</time>
      </trkpt>
      <trkpt lat="43.320932" lon="-4.263468">
        <ele>192.2</ele>
        <time>2024-10-03T18:11:46.922000Z</time>
      </trkpt>
      <trkpt lat="43.320934" lon="-4.263524">
        <ele>191.1</ele>
        <time>2024-10-03T18:11:47.388000Z</time>
      </trkpt>
      <trkpt lat="43.320945" lon="-4.263587">
        <ele>190.1</ele>
        <time>2024-10-03T18:11:47.925000Z</time>
      </trkpt>
      <trkpt lat="43.32098" lon="-4.26371">
        <ele>189.2</ele>
        <time>2024-10-03T18:11:48.995000Z</time>
      </trkpt>
      <trkpt lat="43.321044" lon="-4.263837">
        <ele>188.5</ele>
        <time>2024-10-03T18:11:50.246000Z</time>
      </trkpt>
      <trkpt lat="43.321101" lon="-4.26389">
        <ele>188.0</ele>
        <time>2024-10-03T18:11:51.012000Z</time>
      </trkpt>
      <trkpt lat="43.321142" lon="-4.263944">
        <ele>187.0</ele>
        <time>2024-10-03T18:11:51.658000Z</time>
      </trkpt>
      <trkpt lat="43.321169" lon="-4.263986">
        <ele>186.7</ele>
        <time>2024-10-03T18:11:52.106000Z</time>
      </trkpt>
      <trkpt lat="43.321182" lon="-4.26403">
        <ele>186.25013596456617</ele>
        <time>2024-10-03T18:11:52.508000Z</time>
      </trkpt>
      <trkpt lat="43.321185" lon="-4.26412">
        <ele>185.39669657790978</ele>
        <time>2024-10-03T18:11:53.237000Z</time>
      </trkpt>
      <trkpt lat="43.3212" lon="-4.264308">
        <ele>183.60514577045484</ele>
        <time>2024-10-03T18:11:54.771000Z</time>
      </trkpt>
      <trkpt lat="43.321204" lon="-4.264393">
        <ele>182.79828157860834</ele>
        <time>2024-10-03T18:11:55.466000Z</time>
      </trkpt>
      <trkpt lat="43.321152" lon="-4.264424">
        <ele>182.06022786405325</ele>
        <time>2024-10-03T18:11:56.100000Z</time>
      </trkpt>
      <trkpt lat="43.321133" lon="-4.264345">
        <ele>181.27204557086083</ele>
        <time>2024-10-03T18:11:56.771000Z</time>
      </trkpt>
      <trkpt lat="43.32112" lon="-4.264288">
        <ele>180.70618662978217</ele>
        <time>2024-10-03T18:11:57.264000Z</time>
      </trkpt>
      <trkpt lat="43.321108" lon="-4.264233">
        <ele>180.1622589934983</ele>
        <time>2024-10-03T18:11:57.735000Z</time>
      </trkpt>
      <trkpt lat="43.321092" lon="-4.264191">
        <ele>179.78736512795726</ele>
        <time>2024-10-03T18:11:58.122000Z</time>
      </trkpt>
      <trkpt lat="43.321047" lon="-4.264158">
        <ele>179.2329718979874</ele>
        <time>2024-10-03T18:11:58.707000Z</time>
      </trkpt>
      <trkpt lat="43.321018" lon="-4.264142">
        <ele>178.89330505408822</ele>
        <time>2024-10-03T18:11:59.071000Z</time>
      </trkpt>
      <trkpt lat="43.320996" lon="-4.264128">
        <ele>178.6297877864819</ele>
        <time>2024-10-03T18:11:59.343000Z</time>
      </trkpt>
      <trkpt lat="43.320962" lon="-4.264112">
        <ele>178.23915788872634</ele>
        <time>2024-10-03T18:11:59.748000Z</time>
      </trkpt>
      <trkpt lat="43.320934" lon="-4.264104">
        <ele>177.92829843986243</ele>
        <time>2024-10-03T18:12:00.061000Z</time>
      </trkpt>
      <trkpt lat="43.320913" lon="-4.264093">
        <ele>177.68402149747138</ele>
        <time>2024-10-03T18:12:00.317000Z</time>
      </trkpt>
      <trkpt lat="43.320893" lon="-4.264081">
        <ele>177.446818869742</ele>
        <time>2024-10-03T18:12:00.561000Z</time>
      </trkpt>
      <trkpt lat="43.320873" lon="-4.264066">
        <ele>177.19917032156576</ele>
        <time>2024-10-03T18:12:00.814000Z</time>
      </trkpt>
      <trkpt lat="43.320842" lon="-4.264045">
        <ele>176.8235116046087</ele>
        <time>2024-10-03T18:12:01.211000Z</time>
      </trkpt>
      <trkpt lat="43.320819" lon="-4.264031">
        <ele>176.55009209324263</ele>
        <time>2024-10-03T18:12:01.501000Z</time>
      </trkpt>
      <trkpt lat="43.320798" lon="-4.26402">
        <ele>176.30581515092376</ele>
        <time>2024-10-03T18:12:01.762000Z</time>
      </trkpt>
      <trkpt lat="43.320769" lon="-4.264008">
        <ele>175.9766184017406</ele>
        <time>2024-10-03T18:12:02.148000Z</time>
      </trkpt>
      <trkpt lat="43.320729" lon="-4.26399">
        <ele>175.51912146223088</ele>
        <time>2024-10-03T18:12:02.623000Z</time>
      </trkpt>
      <trkpt lat="43.320682" lon="-4.263969">
        <ele>174.9819303919909</ele>
        <time>2024-10-03T18:12:03.187000Z</time>
      </trkpt>
      <trkpt lat="43.320591" lon="-4.26394">
        <ele>173.96654406974073</ele>
        <time>2024-10-03T18:12:04.239000Z</time>
      </trkpt>
      <trkpt lat="43.320571" lon="-4.263936">
        <ele>173.74685887794936</ele>
        <time>2024-10-03T18:12:04.470000Z</time>
      </trkpt>
      <trkpt lat="43.320509" lon="-4.263875">
        <ele>172.91809839037126</ele>
        <time>2024-10-03T18:12:05.327000Z</time>
      </trkpt>
      <trkpt lat="43.320471" lon="-4.263851">
        <ele>172.51390834864864</ele>
        <time>2024-10-03T18:12:05.808000Z</time>
      </trkpt>
      <trkpt lat="43.32043" lon="-4.263817">
        <ele>172.05110949259333</ele>
        <time>2024-10-03T18:12:06.341000Z</time>
      </trkpt>
      <trkpt lat="43.320386" lon="-4.263787">
        <ele>171.57640091277767</ele>
        <time>2024-10-03T18:12:06.888000Z</time>
      </trkpt>
      <trkpt lat="43.320321" lon="-4.263725">
        <ele>170.8117299864282</ele>
        <time>2024-10-03T18:12:07.770000Z</time>
      </trkpt>
      <trkpt lat="43.320264" lon="-4.263673">
        <ele>170.15052750717186</ele>
        <time>2024-10-03T18:12:08.544000Z</time>
      </trkpt>
      <trkpt lat="43.320224" lon="-4.263617">
        <ele>169.59871136153657</ele>
        <time>2024-10-03T18:12:09.180000Z</time>
      </trkpt>
      <trkpt lat="43.320197" lon="-4.263553">
        <ele>169.07852448054246</ele>
        <time>2024-10-03T18:12:09.781000Z</time>
      </trkpt>
      <trkpt lat="43.320197" lon="-4.263436">
        <ele>168.25588142838703</ele>
        <time>2024-10-03T18:12:10.732000Z</time>
      </trkpt>
      <trkpt lat="43.32022" lon="-4.263335">
        <ele>167.51175560901055</ele>
        <time>2024-10-03T18:12:11.584000Z</time>
      </trkpt>
      <trkpt lat="43.320237" lon="-4.263189">
        <ele>166.4721430729626</ele>
        <time>2024-10-03T18:12:12.807000Z</time>
      </trkpt>
      <trkpt lat="43.32022" lon="-4.263072">
        <ele>165.63325150498832</ele>
        <time>2024-10-03T18:12:13.824000Z</time>
      </trkpt>
      <trkpt lat="43.320167" lon="-4.262986">
        <ele>164.8407597441779</ele>
        <time>2024-10-03T18:12:14.781000Z</time>
      </trkpt>
      <trkpt lat="43.32009" lon="-4.262838">
        <ele>163.56141061746345</ele>
        <time>2024-10-03T18:12:16.256000Z</time>
      </trkpt>
      <trkpt lat="43.320052" lon="-4.262752">
        <ele>162.85392974729967</ele>
        <time>2024-10-03T18:12:17.064000Z</time>
      </trkpt>
      <trkpt lat="43.320016" lon="-4.262677">
        <ele>162.22214595985105</ele>
        <time>2024-10-03T18:12:17.828000Z</time>
      </trkpt>
      <trkpt lat="43.319947" lon="-4.262643">
        <ele>161.51369222127283</ele>
        <time>2024-10-03T18:12:18.661000Z</time>
      </trkpt>
      <trkpt lat="43.319897" lon="-4.262632">
        <ele>161.0242803238397</ele>
        <time>2024-10-03T18:12:19.231000Z</time>
      </trkpt>
      <trkpt lat="43.319833" lon="-4.262593">
        <ele>160.34764973416176</ele>
        <time>2024-10-03T18:12:20.011000Z</time>
      </trkpt>
      <trkpt lat="43.319761" lon="-4.262569">
        <ele>159.63158504875392</ele>
        <time>2024-10-03T18:12:20.838000Z</time>
      </trkpt>
      <trkpt lat="43.319702" lon="-4.262444">
        <ele>158.5839040434656</ele>
        <time>2024-10-03T18:12:22.049000Z</time>
      </trkpt>
      <trkpt lat="43.319606" lon="-4.262374">
        <ele>157.53358479996945</ele>
        <time>2024-10-03T18:12:23.263000Z</time>
      </trkpt>
      <trkpt lat="43.319554" lon="-4.262298">
        <ele>156.8</ele>
        <time>2024-10-03T18:12:24.108000Z</time>
      </trkpt>
      <trkpt lat="43.319476" lon="-4.262233">
        <ele>156.0</ele>
        <time>2024-10-03T18:12:25.127000Z</time>
      </trkpt>
      <trkpt lat="43.319402" lon="-4.262166">
        <ele>155.6</ele>
        <time>2024-10-03T18:12:26.112000Z</time>
      </trkpt>
      <trkpt lat="43.319299" lon="-4.262092">
        <ele>155.0</ele>
        <time>2024-10-03T18:12:27.404000Z</time>
      </trkpt>
      <trkpt lat="43.319223" lon="-4.262067">
        <ele>154.9</ele>
        <time>2024-10-03T18:12:28.275000Z</time>
      </trkpt>
      <trkpt lat="43.319138" lon="-4.262036">
        <ele>154.0</ele>
        <time>2024-10-03T18:12:29.251000Z</time>
      </trkpt>
      <trkpt lat="43.319054" lon="-4.261977">
        <ele>154.0</ele>
        <time>2024-10-03T18:12:30.300000Z</time>
      </trkpt>
      <trkpt lat="43.318947" lon="-4.261897">
        <ele>153.0</ele>
        <time>2024-10-03T18:12:31.653000Z</time>
      </trkpt>
      <trkpt lat="43.318807" lon="-4.261783">
        <ele>151.4</ele>
        <time>2024-10-03T18:12:33.472000Z</time>
      </trkpt>
      <trkpt lat="43.318752" lon="-4.261716">
        <ele>151.0</ele>
        <time>2024-10-03T18:12:34.296000Z</time>
      </trkpt>
      <trkpt lat="43.318663" lon="-4.261608">
        <ele>150.0</ele>
        <time>2024-10-03T18:12:35.619000Z</time>
      </trkpt>
      <trkpt lat="43.318597" lon="-4.261517">
        <ele>149.0</ele>
        <time>2024-10-03T18:12:36.664000Z</time>
      </trkpt>
      <trkpt lat="43.318499" lon="-4.261378">
        <ele>148.0</ele>
        <time>2024-10-03T18:12:38.232000Z</time>
      </trkpt>
      <trkpt lat="43.318395" lon="-4.261208">
        <ele>147.0</ele>
        <time>2024-10-03T18:12:40.025000Z</time>
      </trkpt>
      <trkpt lat="43.318325" lon="-4.261098">
        <ele>146.5</ele>
        <time>2024-10-03T18:12:41.212000Z</time>
      </trkpt>
      <trkpt lat="43.318297" lon="-4.260985">
        <ele>146.0</ele>
        <time>2024-10-03T18:12:42.179000Z</time>
      </trkpt>
      <trkpt lat="43.318317" lon="-4.260949">
        <ele>145.7</ele>
        <time>2024-10-03T18:12:42.548000Z</time>
      </trkpt>
      <trkpt lat="43.318416" lon="-4.260886">
        <ele>145.0</ele>
        <time>2024-10-03T18:12:43.765000Z</time>
      </trkpt>
      <trkpt lat="43.318449" lon="-4.260868">
        <ele>145.0</ele>
        <time>2024-10-03T18:12:44.159000Z</time>
      </trkpt>
      <trkpt lat="43.318485" lon="-4.260859">
        <ele>145.0</ele>
        <time>2024-10-03T18:12:44.568000Z</time>
      </trkpt>
      <trkpt lat="43.318526" lon="-4.260848">
        <ele>145.0</ele>
        <time>2024-10-03T18:12:45.023000Z</time>
      </trkpt>
      <trkpt lat="43.31856" lon="-4.26083">
        <ele>145.0</ele>
        <time>2024-10-03T18:12:45.429000Z</time>
      </trkpt>
      <trkpt lat="43.318596" lon="-4.260812">
        <ele>146.0</ele>
        <time>2024-10-03T18:12:45.872000Z</time>
      </trkpt>
      <trkpt lat="43.318635" lon="-4.260793">
        <ele>146.0</ele>
        <time>2024-10-03T18:12:46.328000Z</time>
      </trkpt>
      <trkpt lat="43.318664" lon="-4.260766">
        <ele>146.0</ele>
        <time>2024-10-03T18:12:46.723000Z</time>
      </trkpt>
      <trkpt lat="43.318684" lon="-4.260719">
        <ele>147.0</ele>
        <time>2024-10-03T18:12:47.169000Z</time>
      </trkpt>
      <trkpt lat="43.318701" lon="-4.260694">
        <ele>147.0</ele>
        <time>2024-10-03T18:12:47.446000Z</time>
      </trkpt>
      <trkpt lat="43.318726" lon="-4.260658">
        <ele>147.2</ele>
        <time>2024-10-03T18:12:47.852000Z</time>
      </trkpt>
      <trkpt lat="43.318759" lon="-4.260626">
        <ele>148.0</ele>
        <time>2024-10-03T18:12:48.310000Z</time>
      </trkpt>
      <trkpt lat="43.318799" lon="-4.260596">
        <ele>148.0</ele>
        <time>2024-10-03T18:12:48.815000Z</time>
      </trkpt>
      <trkpt lat="43.318795" lon="-4.260565">
        <ele>148.0</ele>
        <time>2024-10-03T18:12:49.070000Z</time>
      </trkpt>
      <trkpt lat="43.318773" lon="-4.260556">
        <ele>148.31381498104378</ele>
        <time>2024-10-03T18:12:49.317000Z</time>
      </trkpt>
      <trkpt lat="43.318807" lon="-4.260543">
        <ele>148.79630061274764</ele>
        <time>2024-10-03T18:12:49.708000Z</time>
      </trkpt>
      <trkpt lat="43.318871" lon="-4.260498">
        <ele>149.77911159893787</ele>
        <time>2024-10-03T18:12:50.504000Z</time>
      </trkpt>
      <trkpt lat="43.318915" lon="-4.260454">
        <ele>150.52300299979422</ele>
        <time>2024-10-03T18:12:51.121000Z</time>
      </trkpt>
      <trkpt lat="43.318943" lon="-4.260443">
        <ele>150.9211379695763</ele>
        <time>2024-10-03T18:12:51.456000Z</time>
      </trkpt>
      <trkpt lat="43.318962" lon="-4.26041">
        <ele>151.33970456169106</ele>
        <time>2024-10-03T18:12:51.810000Z</time>
      </trkpt>
      <trkpt lat="43.318973" lon="-4.260352">
        <ele>151.9358382950982</ele>
        <time>2024-10-03T18:12:52.295000Z</time>
      </trkpt>
      <trkpt lat="43.318985" lon="-4.26029">
        <ele>152.57392521365531</ele>
        <time>2024-10-03T18:12:52.820000Z</time>
      </trkpt>
      <trkpt lat="43.319039" lon="-4.260064">
        <ele>154.93979916185648</ele>
        <time>2024-10-03T18:12:54.757000Z</time>
      </trkpt>
      <trkpt lat="43.319058" lon="-4.260035">
        <ele>155.32795692144384</ele>
        <time>2024-10-03T18:12:55.084000Z</time>
      </trkpt>
      <trkpt lat="43.319087" lon="-4.26">
        <ele>155.85556532990717</ele>
        <time>2024-10-03T18:12:55.548000Z</time>
      </trkpt>
      <trkpt lat="43.319106" lon="-4.259965">
        <ele>156.28990479980095</ele>
        <time>2024-10-03T18:12:55.914000Z</time>
      </trkpt>
      <trkpt lat="43.319109" lon="-4.259923">
        <ele>156.70963418630973</ele>
        <time>2024-10-03T18:12:56.258000Z</time>
      </trkpt>
      <trkpt lat="43.319117" lon="-4.259894">
        <ele>157.01810182562605</ele>
        <time>2024-10-03T18:12:56.529000Z</time>
      </trkpt>
      <trkpt lat="43.319122" lon="-4.259866">
        <ele>157.3048495322925</ele>
        <time>2024-10-03T18:12:56.763000Z</time>
      </trkpt>
      <trkpt lat="43.31911" lon="-4.259835">
        <ele>157.65409972461057</ele>
        <time>2024-10-03T18:12:57.062000Z</time>
      </trkpt>
      <trkpt lat="43.319134" lon="-4.259771">
        <ele>158.37022122487127</ele>
        <time>2024-10-03T18:12:57.649000Z</time>
      </trkpt>
      <trkpt lat="43.31916" lon="-4.259716">
        <ele>159.02258689916187</ele>
        <time>2024-10-03T18:12:58.183000Z</time>
      </trkpt>
      <trkpt lat="43.319185" lon="-4.259663">
        <ele>159.65082415784613</ele>
        <time>2024-10-03T18:12:58.695000Z</time>
      </trkpt>
      <trkpt lat="43.319217" lon="-4.259598">
        <ele>160.4314193777419</ele>
        <time>2024-10-03T18:12:59.331000Z</time>
      </trkpt>
      <trkpt lat="43.319249" lon="-4.259418">
        <ele>162.27433286125378</ele>
        <time>2024-10-03T18:13:00.839000Z</time>
      </trkpt>
      <trkpt lat="43.319264" lon="-4.259355">
        <ele>162.93362022800244</ele>
        <time>2024-10-03T18:13:01.405000Z</time>
      </trkpt>
      <trkpt lat="43.31927" lon="-4.259275">
        <ele>163.56798569434292</ele>
        <time>2024-10-03T18:13:02.071000Z</time>
      </trkpt>
      <trkpt lat="43.319269" lon="-4.259208">
        <ele>164.09657678127792</ele>
        <time>2024-10-03T18:13:02.616000Z</time>
      </trkpt>
      <trkpt lat="43.319288" lon="-4.259157">
        <ele>164.54853590292478</ele>
        <time>2024-10-03T18:13:03.076000Z</time>
      </trkpt>
      <trkpt lat="43.319319" lon="-4.259084">
        <ele>165.21526963805672</ele>
        <time>2024-10-03T18:13:03.775000Z</time>
      </trkpt>
      <trkpt lat="43.31934" lon="-4.259049">
        <ele>165.57312726069722</ele>
        <time>2024-10-03T18:13:04.145000Z</time>
      </trkpt>
      <trkpt lat="43.319399" lon="-4.258969">
        <ele>166.47170062551425</ele>
        <time>2024-10-03T18:13:05.071000Z</time>
      </trkpt>
      <trkpt lat="43.319447" lon="-4.258945">
        <ele>167.02551349420602</ele>
        <time>2024-10-03T18:13:05.636000Z</time>
      </trkpt>
      <trkpt lat="43.319504" lon="-4.258905">
        <ele>167.7194287790789</ele>
        <time>2024-10-03T18:13:06.343000Z</time>
      </trkpt>
      <trkpt lat="43.319541" lon="-4.258892">
        <ele>168.1335089110378</ele>
        <time>2024-10-03T18:13:06.770000Z</time>
      </trkpt>
      <trkpt lat="43.319686" lon="-4.258795">
        <ele>169.88199984296102</ele>
        <time>2024-10-03T18:13:08.636000Z</time>
      </trkpt>
      <trkpt lat="43.319811" lon="-4.258848">
        <ele>171.30035597738663</ele>
        <time>2024-10-03T18:13:10.185000Z</time>
      </trkpt>
      <trkpt lat="43.31984" lon="-4.258942">
        <ele>172.1057255148245</ele>
        <time>2024-10-03T18:13:11.062000Z</time>
      </trkpt>
      <trkpt lat="43.319895" lon="-4.259">
        <ele>172.85734642918374</ele>
        <time>2024-10-03T18:13:11.862000Z</time>
      </trkpt>
      <trkpt lat="43.320015" lon="-4.258917">
        <ele>174.31390408713798</ele>
        <time>2024-10-03T18:13:13.368000Z</time>
      </trkpt>
      <trkpt lat="43.320061" lon="-4.258816">
        <ele>175.2538202962842</ele>
        <time>2024-10-03T18:13:14.339000Z</time>
      </trkpt>
      <trkpt lat="43.320096" lon="-4.258685">
        <ele>176.35460174938314</ele>
        <time>2024-10-03T18:13:15.467000Z</time>
      </trkpt>
      <trkpt lat="43.320113" lon="-4.258538">
        <ele>177.5286623116849</ele>
        <time>2024-10-03T18:13:16.677000Z</time>
      </trkpt>
      <trkpt lat="43.320114" lon="-4.258477">
        <ele>178.00993778011912</ele>
        <time>2024-10-03T18:13:17.169000Z</time>
      </trkpt>
      <trkpt lat="43.320118" lon="-4.25833">
        <ele>179.1702492519005</ele>
        <time>2024-10-03T18:13:18.376000Z</time>
      </trkpt>
      <trkpt lat="43.320124" lon="-4.258141">
        <ele>180.66245458109034</ele>
        <time>2024-10-03T18:13:19.949000Z</time>
      </trkpt>
      <trkpt lat="43.320127" lon="-4.258322">
        <ele>182.09050951624704</ele>
        <time>2024-10-03T18:13:21.468000Z</time>
      </trkpt>
      <trkpt lat="43.320126" lon="-4.258433">
        <ele>182.96611792714225</ele>
        <time>2024-10-03T18:13:22.379000Z</time>
      </trkpt>
      <trkpt lat="43.320128" lon="-4.258526">
        <ele>183.7</ele>
        <time>2024-10-03T18:13:23.131000Z</time>
      </trkpt>
      <trkpt lat="43.320109" lon="-4.25865">
        <ele>184.7</ele>
        <time>2024-10-03T18:13:24.166000Z</time>
      </trkpt>
      <trkpt lat="43.320104" lon="-4.258813">
        <ele>185.8</ele>
        <time>2024-10-03T18:13:25.492000Z</time>
      </trkpt>
      <trkpt lat="43.320123" lon="-4.25887">
        <ele>186.6</ele>
        <time>2024-10-03T18:13:26Z</time>
      </trkpt>
      <trkpt lat="43.320151" lon="-4.258972">
        <ele>186.0</ele>
        <time>2024-10-03T18:13:26.880000Z</time>
      </trkpt>
      <trkpt lat="43.320185" lon="-4.259035">
        <ele>184.5</ele>
        <time>2024-10-03T18:13:27.537000Z</time>
      </trkpt>
      <trkpt lat="43.32014" lon="-4.259104">
        <ele>184.0</ele>
        <time>2024-10-03T18:13:28.287000Z</time>
      </trkpt>
      <trkpt lat="43.320079" lon="-4.259193">
        <ele>184.0</ele>
        <time>2024-10-03T18:13:29.271000Z</time>
      </trkpt>
      <trkpt lat="43.320035" lon="-4.259289">
        <ele>183.0</ele>
        <time>2024-10-03T18:13:30.198000Z</time>
      </trkpt>
      <trkpt lat="43.320047" lon="-4.259374">
        <ele>182.23709984987568</ele>
        <time>2024-10-03T18:13:30.929000Z</time>
      </trkpt>
      <trkpt lat="43.320071" lon="-4.259446">
        <ele>181.53928771942248</ele>
        <time>2024-10-03T18:13:31.597000Z</time>
      </trkpt>
      <trkpt lat="43.319939" lon="-4.259368">
        <ele>181.0</ele>
        <time>2024-10-03T18:13:33.203000Z</time>
      </trkpt>
      <trkpt lat="43.319789" lon="-4.259429">
        <ele>179.4</ele>
        <time>2024-10-03T18:13:34.956000Z</time>
      </trkpt>
      <trkpt lat="43.319732" lon="-4.259471">
        <ele>179.0</ele>
        <time>2024-10-03T18:13:35.673000Z</time>
      </trkpt>
      <trkpt lat="43.319696" lon="-4.259517">
        <ele>178.0</ele>
        <time>2024-10-03T18:13:36.225000Z</time>
      </trkpt>
      <trkpt lat="43.319686" lon="-4.259703">
        <ele>176.0</ele>
        <time>2024-10-03T18:13:37.750000Z</time>
      </trkpt>
      <trkpt lat="43.319745" lon="-4.259857">
        <ele>174.0</ele>
        <time>2024-10-03T18:13:39.169000Z</time>
      </trkpt>
      <trkpt lat="43.319843" lon="-4.259953">
        <ele>173.0</ele>
        <time>2024-10-03T18:13:40.505000Z</time>
      </trkpt>
      <trkpt lat="43.319771" lon="-4.259969">
        <ele>171.4</ele>
        <time>2024-10-03T18:13:41.327000Z</time>
      </trkpt>
      <trkpt lat="43.319736" lon="-4.260006">
        <ele>170.4180827104917</ele>
        <time>2024-10-03T18:13:41.847000Z</time>
      </trkpt>
      <trkpt lat="43.319732" lon="-4.260018">
        <ele>170.20453533546382</ele>
        <time>2024-10-03T18:13:41.968000Z</time>
      </trkpt>
      <trkpt lat="43.319685" lon="-4.260032">
        <ele>169.0</ele>
        <time>2024-10-03T18:13:42.503000Z</time>
      </trkpt>
      <trkpt lat="43.319642" lon="-4.260009">
        <ele>169.6</ele>
        <time>2024-10-03T18:13:43.012000Z</time>
      </trkpt>
      <trkpt lat="43.319601" lon="-4.260022">
        <ele>169.0</ele>
        <time>2024-10-03T18:13:43.479000Z</time>
      </trkpt>
      <trkpt lat="43.319562" lon="-4.260039">
        <ele>168.09011808471524</ele>
        <time>2024-10-03T18:13:43.954000Z</time>
      </trkpt>
      <trkpt lat="43.319532" lon="-4.260046">
        <ele>167.62052090050148</ele>
        <time>2024-10-03T18:13:44.295000Z</time>
      </trkpt>
      <trkpt lat="43.319499" lon="-4.260057">
        <ele>167.19705388735267</ele>
        <time>2024-10-03T18:13:44.670000Z</time>
      </trkpt>
      <trkpt lat="43.319404" lon="-4.260104">
        <ele>165.937921969771</ele>
        <time>2024-10-03T18:13:45.808000Z</time>
      </trkpt>
      <trkpt lat="43.319373" lon="-4.260125">
        <ele>165.50692932820976</ele>
        <time>2024-10-03T18:13:46.202000Z</time>
      </trkpt>
      <trkpt lat="43.319323" lon="-4.260136">
        <ele>164.87544815224987</ele>
        <time>2024-10-03T18:13:46.779000Z</time>
      </trkpt>
      <trkpt lat="43.319291" lon="-4.260121">
        <ele>164.4538145253886</ele>
        <time>2024-10-03T18:13:47.155000Z</time>
      </trkpt>
      <trkpt lat="43.319244" lon="-4.260166">
        <ele>163.73951867536078</ele>
        <time>2024-10-03T18:13:47.802000Z</time>
      </trkpt>
      <trkpt lat="43.319188" lon="-4.260245">
        <ele>162.73882670473003</ele>
        <time>2024-10-03T18:13:48.731000Z</time>
      </trkpt>
      <trkpt lat="43.319132" lon="-4.260228">
        <ele>162.02362828167054</ele>
        <time>2024-10-03T18:13:49.383000Z</time>
      </trkpt>
      <trkpt lat="43.319097" lon="-4.260216">
        <ele>161.57377435358424</ele>
        <time>2024-10-03T18:13:49.796000Z</time>
      </trkpt>
      <trkpt lat="43.31904" lon="-4.260312">
        <ele>160.44957947302305</ele>
        <time>2024-10-03T18:13:50.834000Z</time>
      </trkpt>
      <trkpt lat="43.319018" lon="-4.260365">
        <ele>159.89598527612867</ele>
        <time>2024-10-03T18:13:51.351000Z</time>
      </trkpt>
      <trkpt lat="43.31899" lon="-4.260429">
        <ele>159.2184534155811</ele>
        <time>2024-10-03T18:13:51.967000Z</time>
      </trkpt>
      <trkpt lat="43.318948" lon="-4.260475">
        <ele>158.5487518832869</ele>
        <time>2024-10-03T18:13:52.576000Z</time>
      </trkpt>
      <trkpt lat="43.318911" lon="-4.260524">
        <ele>157.908029661961</ele>
        <time>2024-10-03T18:13:53.152000Z</time>
      </trkpt>
      <trkpt lat="43.31888" lon="-4.26059">
        <ele>158.25947141330255</ele>
        <time>2024-10-03T18:13:53.793000Z</time>
      </trkpt>
      <trkpt lat="43.318851" lon="-4.260646">
        <ele>158.56697612267322</ele>
        <time>2024-10-03T18:13:54.348000Z</time>
      </trkpt>
      <trkpt lat="43.318831" lon="-4.260679">
        <ele>158.75911856831735</ele>
        <time>2024-10-03T18:13:54.711000Z</time>
      </trkpt>
      <trkpt lat="43.31874" lon="-4.260712">
        <ele>159.33785522771768</ele>
        <time>2024-10-03T18:13:55.757000Z</time>
      </trkpt>
      <trkpt lat="43.318817" lon="-4.260609">
        <ele>159.99854303087923</ele>
        <time>2024-10-03T18:13:56.954000Z</time>
      </trkpt>
      <trkpt lat="43.31883" lon="-4.260542">
        <ele>160.30874241330258</ele>
        <time>2024-10-03T18:13:57.513000Z</time>
      </trkpt>
      <trkpt lat="43.318892" lon="-4.260488">
        <ele>160.76008928550553</ele>
        <time>2024-10-03T18:13:58.340000Z</time>
      </trkpt>
      <trkpt lat="43.318923" lon="-4.260454">
        <ele>161.00396125825716</ele>
        <time>2024-10-03T18:13:58.784000Z</time>
      </trkpt>
      <trkpt lat="43.318967" lon="-4.26042">
        <ele>161.31435268979433</ele>
        <time>2024-10-03T18:13:59.361000Z</time>
      </trkpt>
      <trkpt lat="43.31904" lon="-4.260341">
        <ele>161.88567398494783</ele>
        <time>2024-10-03T18:14:00.434000Z</time>
      </trkpt>
      <trkpt lat="43.319071" lon="-4.260294">
        <ele>162.1694801975344</ele>
        <time>2024-10-03T18:14:00.976000Z</time>
      </trkpt>
      <trkpt lat="43.319168" lon="-4.260195">
        <ele>162.91240272603866</ele>
        <time>2024-10-03T18:14:02.365000Z</time>
      </trkpt>
      <trkpt lat="43.319211" lon="-4.260123">
        <ele>163.3291286574918</ele>
        <time>2024-10-03T18:14:03.159000Z</time>
      </trkpt>
      <trkpt lat="43.319213" lon="-4.259961">
        <ele>164.66125209203992</ele>
        <time>2024-10-03T18:14:04.489000Z</time>
      </trkpt>
      <trkpt lat="43.319204" lon="-4.259904">
        <ele>165.14080645774237</ele>
        <time>2024-10-03T18:14:04.956000Z</time>
      </trkpt>
      <trkpt lat="43.31924" lon="-4.259809">
        <ele>166.02149695990371</ele>
        <time>2024-10-03T18:14:05.828000Z</time>
      </trkpt>
      <trkpt lat="43.319267" lon="-4.259729">
        <ele>166.74658012287617</ele>
        <time>2024-10-03T18:14:06.541000Z</time>
      </trkpt>
      <trkpt lat="43.31927" lon="-4.259622">
        <ele>167.62696589610238</ele>
        <time>2024-10-03T18:14:07.408000Z</time>
      </trkpt>
      <trkpt lat="43.319237" lon="-4.259434">
        <ele>169.21702454036887</ele>
        <time>2024-10-03T18:14:08.983000Z</time>
      </trkpt>
      <trkpt lat="43.319282" lon="-4.259253">
        <ele>170.78967843700207</ele>
        <time>2024-10-03T18:14:10.595000Z</time>
      </trkpt>
      <trkpt lat="43.319355" lon="-4.25901">
        <ele>172.951226731968</ele>
        <time>2024-10-03T18:14:12.719000Z</time>
      </trkpt>
      <trkpt lat="43.319506" lon="-4.258919">
        <ele>174.81462460031486</ele>
        <time>2024-10-03T18:14:14.551000Z</time>
      </trkpt>
      <trkpt lat="43.319699" lon="-4.258789">
        <ele>177.24369555860244</ele>
        <time>2024-10-03T18:14:17Z</time>
      </trkpt>
      <trkpt lat="43.319805" lon="-4.258835">
        <ele>178.49998427733624</ele>
        <time>2024-10-03T18:14:18.321000Z</time>
      </trkpt>
      <trkpt lat="43.31983" lon="-4.258935">
        <ele>179.36935992258708</ele>
        <time>2024-10-03T18:14:19.212000Z</time>
      </trkpt>
      <trkpt lat="43.319907" lon="-4.259011">
        <ele>180.44070647763786</ele>
        <time>2024-10-03T18:14:20.301000Z</time>
      </trkpt>
      <trkpt lat="43.320043" lon="-4.258879">
        <ele>182.32230245898856</ele>
        <time>2024-10-03T18:14:22.164000Z</time>
      </trkpt>
      <trkpt lat="43.320097" lon="-4.258764">
        <ele>183.44767223159658</ele>
        <time>2024-10-03T18:14:23.290000Z</time>
      </trkpt>
      <trkpt lat="43.320107" lon="-4.258871">
        <ele>184.33463499417638</ele>
        <time>2024-10-03T18:14:24.167000Z</time>
      </trkpt>
      <trkpt lat="43.320233" lon="-4.258872">
        <ele>185.75870637512702</ele>
        <time>2024-10-03T18:14:25.572000Z</time>
      </trkpt>
      <trkpt lat="43.320266" lon="-4.258907">
        <ele>186.2297799749036</ele>
        <time>2024-10-03T18:14:26.032000Z</time>
      </trkpt>
      <trkpt lat="43.320258" lon="-4.258817">
        <ele>186.97524546811812</ele>
        <time>2024-10-03T18:14:26.771000Z</time>
      </trkpt>
      <trkpt lat="43.320371" lon="-4.258256">
        <ele>191.7612198670968</ele>
        <time>2024-10-03T18:14:31.522000Z</time>
      </trkpt>
      <trkpt lat="43.320466" lon="-4.258054">
        <ele>193.73886289666072</ele>
        <time>2024-10-03T18:14:33.481000Z</time>
      </trkpt>
      <trkpt lat="43.320606" lon="-4.257702">
        <ele>197.03723480721635</ele>
        <time>2024-10-03T18:14:36.733000Z</time>
      </trkpt>
      <trkpt lat="43.320415" lon="-4.257534">
        <ele>199.6</ele>
        <time>2024-10-03T18:14:39.261000Z</time>
      </trkpt>
      <trkpt lat="43.320373" lon="-4.25759">
        <ele>198.1</ele>
        <time>2024-10-03T18:14:39.920000Z</time>
      </trkpt>
      <trkpt lat="43.320415" lon="-4.25756">
        <ele>199.0</ele>
        <time>2024-10-03T18:14:40.453000Z</time>
      </trkpt>
      <trkpt lat="43.320547" lon="-4.257672">
        <ele>199.0</ele>
        <time>2024-10-03T18:14:42.175000Z</time>
      </trkpt>
      <trkpt lat="43.320621" lon="-4.257719">
        <ele>198.3</ele>
        <time>2024-10-03T18:14:43.091000Z</time>
      </trkpt>
      <trkpt lat="43.320715" lon="-4.257727">
        <ele>198.0</ele>
        <time>2024-10-03T18:14:44.132000Z</time>
      </trkpt>
      <trkpt lat="43.320798" lon="-4.257707">
        <ele>197.0</ele>
        <time>2024-10-03T18:14:45.073000Z</time>
      </trkpt>
      <trkpt lat="43.320999" lon="-4.257727">
        <ele>196.0</ele>
        <time>2024-10-03T18:14:47.322000Z</time>
      </trkpt>
      <trkpt lat="43.321168" lon="-4.257714">
        <ele>195.9</ele>
        <time>2024-10-03T18:14:49.206000Z</time>
      </trkpt>
      <trkpt lat="43.321313" lon="-4.25775">
        <ele>195.0</ele>
        <time>2024-10-03T18:14:50.841000Z</time>
      </trkpt>
      <trkpt lat="43.321449" lon="-4.257779">
        <ele>195.0</ele>
        <time>2024-10-03T18:14:52.370000Z</time>
      </trkpt>
      <trkpt lat="43.321559" lon="-4.257803">
        <ele>195.0</ele>
        <time>2024-10-03T18:14:53.615000Z</time>
      </trkpt>
      <trkpt lat="43.321642" lon="-4.25782">
        <ele>195.0</ele>
        <time>2024-10-03T18:14:54.542000Z</time>
      </trkpt>
      <trkpt lat="43.321687" lon="-4.257845">
        <ele>195.0</ele>
        <time>2024-10-03T18:14:55.080000Z</time>
      </trkpt>
      <trkpt lat="43.321772" lon="-4.257871">
        <ele>195.1</ele>
        <time>2024-10-03T18:14:56.057000Z</time>
      </trkpt>
      <trkpt lat="43.321902" lon="-4.257918">
        <ele>195.9</ele>
        <time>2024-10-03T18:14:57.551000Z</time>
      </trkpt>
      <trkpt lat="43.321982" lon="-4.25796">
        <ele>196.0</ele>
        <time>2024-10-03T18:14:58.499000Z</time>
      </trkpt>
      <trkpt lat="43.3221" lon="-4.258008">
        <ele>196.0</ele>
        <time>2024-10-03T18:14:59.873000Z</time>
      </trkpt>
      <trkpt lat="43.32217" lon="-4.25802">
        <ele>196.6</ele>
        <time>2024-10-03T18:15:00.659000Z</time>
      </trkpt>
      <trkpt lat="43.322241" lon="-4.258046">
        <ele>197.0</ele>
        <time>2024-10-03T18:15:01.473000Z</time>
      </trkpt>
      <trkpt lat="43.322356" lon="-4.258133">
        <ele>197.0</ele>
        <time>2024-10-03T18:15:02.929000Z</time>
      </trkpt>
      <trkpt lat="43.32246" lon="-4.258233">
        <ele>197.0</ele>
        <time>2024-10-03T18:15:04.348000Z</time>
      </trkpt>
      <trkpt lat="43.322558" lon="-4.258335">
        <ele>198.0</ele>
        <time>2024-10-03T18:15:05.711000Z</time>
      </trkpt>
      <trkpt lat="43.322648" lon="-4.258448">
        <ele>198.0</ele>
        <time>2024-10-03T18:15:07.073000Z</time>
      </trkpt>
      <trkpt lat="43.322734" lon="-4.258567">
        <ele>198.8</ele>
        <time>2024-10-03T18:15:08.428000Z</time>
      </trkpt>
      <trkpt lat="43.322823" lon="-4.258683">
        <ele>199.0</ele>
        <time>2024-10-03T18:15:09.792000Z</time>
      </trkpt>
      <trkpt lat="43.322912" lon="-4.258799">
        <ele>199.5</ele>
        <time>2024-10-03T18:15:11.160000Z</time>
      </trkpt>
      <trkpt lat="43.323001" lon="-4.258916">
        <ele>200.0</ele>
        <time>2024-10-03T18:15:12.531000Z</time>
      </trkpt>
      <trkpt lat="43.323201" lon="-4.259178">
        <ele>201.0</ele>
        <time>2024-10-03T18:15:15.599000Z</time>
      </trkpt>
      <trkpt lat="43.32333" lon="-4.259342">
        <ele>202.0</ele>
        <time>2024-10-03T18:15:17.556000Z</time>
      </trkpt>
      <trkpt lat="43.323459" lon="-4.259495">
        <ele>202.0</ele>
        <time>2024-10-03T18:15:19.455000Z</time>
      </trkpt>
      <trkpt lat="43.32364" lon="-4.259666">
        <ele>203.0</ele>
        <time>2024-10-03T18:15:21.896000Z</time>
      </trkpt>
      <trkpt lat="43.323749" lon="-4.259789">
        <ele>204.0</ele>
        <time>2024-10-03T18:15:23.471000Z</time>
      </trkpt>
      <trkpt lat="43.323987" lon="-4.26">
        <ele>206.0</ele>
        <time>2024-10-03T18:15:26.628000Z</time>
      </trkpt>
      <trkpt lat="43.324092" lon="-4.260086">
        <ele>206.9</ele>
        <time>2024-10-03T18:15:27.987000Z</time>
      </trkpt>
      <trkpt lat="43.324173" lon="-4.260137">
        <ele>207.0</ele>
        <time>2024-10-03T18:15:28.981000Z</time>
      </trkpt>
      <trkpt lat="43.324254" lon="-4.260193">
        <ele>208.0</ele>
        <time>2024-10-03T18:15:29.996000Z</time>
      </trkpt>
      <trkpt lat="43.32433" lon="-4.260263">
        <ele>208.8</ele>
        <time>2024-10-03T18:15:31.017000Z</time>
      </trkpt>
      <trkpt lat="43.324416" lon="-4.260344">
        <ele>210.0</ele>
        <time>2024-10-03T18:15:32.178000Z</time>
      </trkpt>
      <trkpt lat="43.324495" lon="-4.260408">
        <ele>210.0</ele>
        <time>2024-10-03T18:15:33.202000Z</time>
      </trkpt>
      <trkpt lat="43.324582" lon="-4.260468">
        <ele>210.0</ele>
        <time>2024-10-03T18:15:34.279000Z</time>
      </trkpt>
      <trkpt lat="43.324674" lon="-4.260534">
        <ele>211.0</ele>
        <time>2024-10-03T18:15:35.435000Z</time>
      </trkpt>
      <trkpt lat="43.324816" lon="-4.260734">
        <ele>212.0</ele>
        <time>2024-10-03T18:15:37.699000Z</time>
      </trkpt>
      <trkpt lat="43.324883" lon="-4.26083">
        <ele>212.0</ele>
        <time>2024-10-03T18:15:38.778000Z</time>
      </trkpt>
      <trkpt lat="43.324932" lon="-4.26089">
        <ele>212.0</ele>
        <time>2024-10-03T18:15:39.512000Z</time>
      </trkpt>
      <trkpt lat="43.325029" lon="-4.260946">
        <ele>213.0</ele>
        <time>2024-10-03T18:15:40.678000Z</time>
      </trkpt>
      <trkpt lat="43.325135" lon="-4.260991">
        <ele>213.3</ele>
        <time>2024-10-03T18:15:41.918000Z</time>
      </trkpt>
      <trkpt lat="43.325244" lon="-4.260996">
        <ele>214.0</ele>
        <time>2024-10-03T18:15:43.131000Z</time>
      </trkpt>
      <trkpt lat="43.325329" lon="-4.260985">
        <ele>215.0</ele>
        <time>2024-10-03T18:15:44.090000Z</time>
      </trkpt>
      <trkpt lat="43.325417" lon="-4.260962">
        <ele>215.0</ele>
        <time>2024-10-03T18:15:45.077000Z</time>
      </trkpt>
      <trkpt lat="43.325495" lon="-4.26092">
        <ele>216.0</ele>
        <time>2024-10-03T18:15:46.016000Z</time>
      </trkpt>
      <trkpt lat="43.325557" lon="-4.260865">
        <ele>217.0</ele>
        <time>2024-10-03T18:15:46.843000Z</time>
      </trkpt>
      <trkpt lat="43.325577" lon="-4.260836">
        <ele>217.0</ele>
        <time>2024-10-03T18:15:47.167000Z</time>
      </trkpt>
    </trkseg>
  </trk>
</gpx>