<?xml version="1.0" encoding="UTF-8"?>
<gpx xmlns="http://www.topografix.com/GPX/1/1" xmlns:xsi="http://www.w3.org/2001/XMLSchema-instance" xsi:schemaLocation="http://www.topografix.com/GPX/1/1 http://www.topografix.com/GPX/1/1/gpx.xsd" version="1.1" creator="gpx.py -- https://github.com/tkrajina/gpxpy">
  <trk>
    <name>14_pattern_aligned</name>
    <trkseg>
      <trkpt lat="43.325587" lon="-4.260856">
        <ele>217.0</ele>
        <time>2024-09-08T08:51:58.157025Z</time>
      </trkpt>
      <trkpt lat="43.325548" lon="-4.26093">
        <ele>216.8</ele>
        <time>2024-09-08T08:53:30.081662Z</time>
      </trkpt>
      <trkpt lat="43.325513" lon="-4.260987">
        <ele>216.0</ele>
        <time>2024-09-08T08:54:45.117876Z</time>
      </trkpt>
      <trkpt lat="43.325473" lon="-4.26102">
        <ele>216.0</ele>
        <time>2024-09-08T08:56:43.815694Z</time>
      </trkpt>
      <trkpt lat="43.325423" lon="-4.261047">
        <ele>216.0</ele>
        <time>2024-09-08T08:58:47.747205Z</time>
      </trkpt>
      <trkpt lat="43.325375" lon="-4.261072">
        <ele>215.0</ele>
        <time>2024-09-08T08:58:50.551332Z</time>
      </trkpt>
      <trkpt lat="43.325325" lon="-4.261092">
        <ele>215.0</ele>
        <time>2024-09-08T08:58:53.485497Z</time>
      </trkpt>
      <trkpt lat="43.325274" lon="-4.261093">
        <ele>215.0</ele>
        <time>2024-09-08T08:58:56.529986Z</time>
      </trkpt>
      <trkpt lat="43.32521" lon="-4.261085">
        <ele>214.0</ele>
        <time>2024-09-08T08:58:59.899395Z</time>
      </trkpt>
      <trkpt lat="43.325175" lon="-4.261078">
        <ele>214.0</ele>
        <time>2024-09-08T08:59:01.503218Z</time>
      </trkpt>
      <trkpt lat="43.325139" lon="-4.26107">
        <ele>214.0</ele>
        <time>2024-09-08T08:59:03.115308Z</time>
      </trkpt>
      <trkpt lat="43.3251" lon="-4.261062">
        <ele>214.0</ele>
        <time>2024-09-08T08:59:04.825484Z</time>
      </trkpt>
      <trkpt lat="43.325059" lon="-4.261054">
        <ele>213.0</ele>
        <time>2024-09-08T08:59:06.307977Z</time>
      </trkpt>
      <trkpt lat="43.325009" lon="-4.261053">
        <ele>213.0</ele>
        <time>2024-09-08T08:59:08.400043Z</time>
      </trkpt>
      <trkpt lat="43.324967" lon="-4.261043">
        <ele>213.0</ele>
        <time>2024-09-08T08:59:10.735441Z</time>
      </trkpt>
      <trkpt lat="43.324937" lon="-4.26101">
        <ele>213.0</ele>
        <time>2024-09-08T08:59:12.505442Z</time>
      </trkpt>
      <trkpt lat="43.3249" lon="-4.260978">
        <ele>213.0</ele>
        <time>2024-09-08T08:59:13.964800Z</time>
      </trkpt>
      <trkpt lat="43.324834" lon="-4.260936">
        <ele>212.0</ele>
        <time>2024-09-08T08:59:17.735971Z</time>
      </trkpt>
      <trkpt lat="43.324758" lon="-4.260809">
        <ele>212.0</ele>
        <time>2024-09-08T08:59:33.247622Z</time>
      </trkpt>
      <trkpt lat="43.324809" lon="-4.260917">
        <ele>212.0</ele>
        <time>2024-09-08T08:59:43.962520Z</time>
      </trkpt>
      <trkpt lat="43.32476" lon="-4.261007">
        <ele>213.0</ele>
        <time>2024-09-08T08:59:46.831793Z</time>
      </trkpt>
      <trkpt lat="43.3247" lon="-4.261129">
        <ele>214.0</ele>
        <time>2024-09-08T08:59:51.503789Z</time>
      </trkpt>
      <trkpt lat="43.324656" lon="-4.26125">
        <ele>214.8</ele>
        <time>2024-09-08T08:59:56.039439Z</time>
      </trkpt>
      <trkpt lat="43.324612" lon="-4.261356">
        <ele>215.0</ele>
        <time>2024-09-08T09:00:00.067883Z</time>
      </trkpt>
      <trkpt lat="43.324581" lon="-4.261477">
        <ele>216.0</ele>
        <time>2024-09-08T09:00:04.641347Z</time>
      </trkpt>
      <trkpt lat="43.324549" lon="-4.2616">
        <ele>217.1</ele>
        <time>2024-09-08T09:00:10.136859Z</time>
      </trkpt>
      <trkpt lat="43.324521" lon="-4.261718">
        <ele>219.0</ele>
        <time>2024-09-08T09:00:15.735441Z</time>
      </trkpt>
      <trkpt lat="43.324496" lon="-4.261754">
        <ele>219.0</ele>
        <time>2024-09-08T09:00:17.735441Z</time>
      </trkpt>
      <trkpt lat="43.324434" lon="-4.261786">
        <ele>220.0</ele>
        <time>2024-09-08T09:00:20.681531Z</time>
      </trkpt>
      <trkpt lat="43.324368" lon="-4.26182">
        <ele>221.0</ele>
        <time>2024-09-08T09:00:23.871960Z</time>
      </trkpt>
      <trkpt lat="43.324299" lon="-4.261858">
        <ele>222.0</ele>
        <time>2024-09-08T09:00:27.613633Z</time>
      </trkpt>
      <trkpt lat="43.32423" lon="-4.261908">
        <ele>223.5</ele>
        <time>2024-09-08T09:00:31.564936Z</time>
      </trkpt>
      <trkpt lat="43.324166" lon="-4.261964">
        <ele>225.0</ele>
        <time>2024-09-08T09:00:35.066352Z</time>
      </trkpt>
      <trkpt lat="43.324098" lon="-4.262007">
        <ele>225.6</ele>
        <time>2024-09-08T09:00:38.306522Z</time>
      </trkpt>
      <trkpt lat="43.324056" lon="-4.262033">
        <ele>226.0</ele>
        <time>2024-09-08T09:00:40.310646Z</time>
      </trkpt>
      <trkpt lat="43.324019" lon="-4.262024">
        <ele>226.0</ele>
        <time>2024-09-08T09:00:42.072043Z</time>
      </trkpt>
      <trkpt lat="43.323942" lon="-4.261993">
        <ele>226.0</ele>
        <time>2024-09-08T09:00:45.140995Z</time>
      </trkpt>
      <trkpt lat="43.323873" lon="-4.261968">
        <ele>226.0</ele>
        <time>2024-09-08T09:00:48.014345Z</time>
      </trkpt>
      <trkpt lat="43.323823" lon="-4.261922">
        <ele>227.0</ele>
        <time>2024-09-08T09:00:50.503982Z</time>
      </trkpt>
      <trkpt lat="43.323761" lon="-4.261883">
        <ele>227.4</ele>
        <time>2024-09-08T09:00:53.311506Z</time>
      </trkpt>
      <trkpt lat="43.323683" lon="-4.261849">
        <ele>228.5</ele>
        <time>2024-09-08T09:00:57.046345Z</time>
      </trkpt>
      <trkpt lat="43.323619" lon="-4.26183">
        <ele>229.0</ele>
        <time>2024-09-08T09:01:00.041602Z</time>
      </trkpt>
      <trkpt lat="43.323554" lon="-4.261816">
        <ele>229.4</ele>
        <time>2024-09-08T09:01:03.029936Z</time>
      </trkpt>
      <trkpt lat="43.323488" lon="-4.261805">
        <ele>230.0</ele>
        <time>2024-09-08T09:01:06.094494Z</time>
      </trkpt>
      <trkpt lat="43.32344" lon="-4.261816">
        <ele>230.0</ele>
        <time>2024-09-08T09:01:08.296721Z</time>
      </trkpt>
      <trkpt lat="43.323371" lon="-4.26182">
        <ele>229.0</ele>
        <time>2024-09-08T09:01:11.413905Z</time>
      </trkpt>
      <trkpt lat="43.323327" lon="-4.261866">
        <ele>229.0</ele>
        <time>2024-09-08T09:01:13.671247Z</time>
      </trkpt>
      <trkpt lat="43.323275" lon="-4.26194">
        <ele>229.0</ele>
        <time>2024-09-08T09:01:16.825155Z</time>
      </trkpt>
      <trkpt lat="43.323225" lon="-4.26203">
        <ele>228.0</ele>
        <time>2024-09-08T09:01:20.525981Z</time>
      </trkpt>
      <trkpt lat="43.323188" lon="-4.262117">
        <ele>227.8</ele>
        <time>2024-09-08T09:01:23.735441Z</time>
      </trkpt>
      <trkpt lat="43.323139" lon="-4.2622">
        <ele>227.0</ele>
        <time>2024-09-08T09:01:27.041486Z</time>
      </trkpt>
      <trkpt lat="43.323088" lon="-4.262251">
        <ele>226.0</ele>
        <time>2024-09-08T09:01:29.832565Z</time>
      </trkpt>
      <trkpt lat="43.32303" lon="-4.262317">
        <ele>225.0</ele>
        <time>2024-09-08T09:01:33.296520Z</time>
      </trkpt>
      <trkpt lat="43.322969" lon="-4.262396">
        <ele>224.0</ele>
        <time>2024-09-08T09:01:36.955134Z</time>
      </trkpt>
      <trkpt lat="43.322906" lon="-4.262475">
        <ele>223.0</ele>
        <time>2024-09-08T09:01:40.597059Z</time>
      </trkpt>
      <trkpt lat="43.322843" lon="-4.26256">
        <ele>222.0</ele>
        <time>2024-09-08T09:01:44.331040Z</time>
      </trkpt>
      <trkpt lat="43.322762" lon="-4.262665">
        <ele>220.0</ele>
        <time>2024-09-08T09:01:48.996763Z</time>
      </trkpt>
      <trkpt lat="43.322698" lon="-4.262735">
        <ele>219.0</ele>
        <time>2024-09-08T09:01:52.122945Z</time>
      </trkpt>
      <trkpt lat="43.322649" lon="-4.262807">
        <ele>218.0</ele>
        <time>2024-09-08T09:01:54.558127Z</time>
      </trkpt>
      <trkpt lat="43.322579" lon="-4.262912">
        <ele>216.0</ele>
        <time>2024-09-08T09:01:58.798332Z</time>
      </trkpt>
      <trkpt lat="43.322517" lon="-4.262993">
        <ele>215.1</ele>
        <time>2024-09-08T09:02:01.905401Z</time>
      </trkpt>
      <trkpt lat="43.322459" lon="-4.263083">
        <ele>214.0</ele>
        <time>2024-09-08T09:02:04.999909Z</time>
      </trkpt>
      <trkpt lat="43.322404" lon="-4.263197">
        <ele>212.0</ele>
        <time>2024-09-08T09:02:08.854931Z</time>
      </trkpt>
      <trkpt lat="43.322344" lon="-4.263334">
        <ele>209.8</ele>
        <time>2024-09-08T09:02:15.530870Z</time>
      </trkpt>
      <trkpt lat="43.322302" lon="-4.263465">
        <ele>208.3</ele>
        <time>2024-09-08T09:02:24.902050Z</time>
      </trkpt>
      <trkpt lat="43.322276" lon="-4.263569">
        <ele>207.0</ele>
        <time>2024-09-08T09:02:38.932459Z</time>
      </trkpt>
      <trkpt lat="43.322273" lon="-4.26366">
        <ele>206.0</ele>
        <time>2024-09-08T09:02:41.929467Z</time>
      </trkpt>
      <trkpt lat="43.322291" lon="-4.263777">
        <ele>205.0</ele>
        <time>2024-09-08T09:04:27.545743Z</time>
      </trkpt>
      <trkpt lat="43.322309" lon="-4.263878">
        <ele>204.0</ele>
        <time>2024-09-08T09:05:54.519032Z</time>
      </trkpt>
      <trkpt lat="43.322322" lon="-4.26398">
        <ele>204.0</ele>
        <time>2024-09-08T09:05:57.834401Z</time>
      </trkpt>
      <trkpt lat="43.322315" lon="-4.264116">
        <ele>203.9</ele>
        <time>2024-09-08T09:06:01.586654Z</time>
      </trkpt>
      <trkpt lat="43.322314" lon="-4.264187">
        <ele>202.6</ele>
        <time>2024-09-08T09:06:04.127598Z</time>
      </trkpt>
      <trkpt lat="43.322345" lon="-4.264318">
        <ele>201.1</ele>
        <time>2024-09-08T09:06:08.127598Z</time>
      </trkpt>
      <trkpt lat="43.322406" lon="-4.264464">
        <ele>199.3</ele>
        <time>2024-09-08T09:06:12.762340Z</time>
      </trkpt>
      <trkpt lat="43.322456" lon="-4.264583">
        <ele>198.9</ele>
        <time>2024-09-08T09:06:16.729410Z</time>
      </trkpt>
      <trkpt lat="43.32255" lon="-4.264846">
        <ele>196.0</ele>
        <time>2024-09-08T09:06:25.195039Z</time>
      </trkpt>
      <trkpt lat="43.322603" lon="-4.265036">
        <ele>194.0</ele>
        <time>2024-09-08T09:06:31.113587Z</time>
      </trkpt>
      <trkpt lat="43.322652" lon="-4.265251">
        <ele>191.0</ele>
        <time>2024-09-08T09:06:37.592851Z</time>
      </trkpt>
      <trkpt lat="43.322717" lon="-4.26543">
        <ele>189.0</ele>
        <time>2024-09-08T09:06:43.127598Z</time>
      </trkpt>
      <trkpt lat="43.322776" lon="-4.26555">
        <ele>187.4</ele>
        <time>2024-09-08T09:06:47.408405Z</time>
      </trkpt>
      <trkpt lat="43.322843" lon="-4.265639">
        <ele>186.2</ele>
        <time>2024-09-08T09:06:51.044424Z</time>
      </trkpt>
      <trkpt lat="43.322898" lon="-4.265726">
        <ele>185.0</ele>
        <time>2024-09-08T09:06:54.551846Z</time>
      </trkpt>
      <trkpt lat="43.32295" lon="-4.265845">
        <ele>183.1</ele>
        <time>2024-09-08T09:06:58.496481Z</time>
      </trkpt>
      <trkpt lat="43.322969" lon="-4.265967">
        <ele>183.0</ele>
        <time>2024-09-08T09:07:01.434424Z</time>
      </trkpt>
      <trkpt lat="43.322936" lon="-4.26605">
        <ele>182.0</ele>
        <time>2024-09-08T09:07:04.055534Z</time>
      </trkpt>
      <trkpt lat="43.322891" lon="-4.266129">
        <ele>181.0</ele>
        <time>2024-09-08T09:07:07.466115Z</time>
      </trkpt>
      <trkpt lat="43.322844" lon="-4.26618">
        <ele>180.0</ele>
        <time>2024-09-08T09:07:09.863012Z</time>
      </trkpt>
      <trkpt lat="43.322772" lon="-4.266232">
        <ele>179.0</ele>
        <time>2024-09-08T09:07:12.832371Z</time>
      </trkpt>
      <trkpt lat="43.322714" lon="-4.266273">
        <ele>178.1</ele>
        <time>2024-09-08T09:07:15.430274Z</time>
      </trkpt>
      <trkpt lat="43.32266" lon="-4.266291">
        <ele>178.0</ele>
        <time>2024-09-08T09:07:17.637529Z</time>
      </trkpt>
      <trkpt lat="43.322603" lon="-4.266312">
        <ele>177.0</ele>
        <time>2024-09-08T09:07:19.890929Z</time>
      </trkpt>
      <trkpt lat="43.322532" lon="-4.266317">
        <ele>176.0</ele>
        <time>2024-09-08T09:07:22.450895Z</time>
      </trkpt>
      <trkpt lat="43.322459" lon="-4.266327">
        <ele>175.0</ele>
        <time>2024-09-08T09:07:25.163079Z</time>
      </trkpt>
      <trkpt lat="43.322391" lon="-4.266305">
        <ele>174.0</ele>
        <time>2024-09-08T09:07:28.156933Z</time>
      </trkpt>
      <trkpt lat="43.322308" lon="-4.266272">
        <ele>173.0</ele>
        <time>2024-09-08T09:07:31.708190Z</time>
      </trkpt>
      <trkpt lat="43.322233" lon="-4.266226">
        <ele>171.0</ele>
        <time>2024-09-08T09:07:34.833517Z</time>
      </trkpt>
      <trkpt lat="43.322191" lon="-4.266222">
        <ele>170.0</ele>
        <time>2024-09-08T09:07:36.779233Z</time>
      </trkpt>
      <trkpt lat="43.322153" lon="-4.266237">
        <ele>169.0</ele>
        <time>2024-09-08T09:07:38.127598Z</time>
      </trkpt>
      <trkpt lat="43.322138" lon="-4.266274">
        <ele>168.8</ele>
        <time>2024-09-08T09:07:39.345507Z</time>
      </trkpt>
      <trkpt lat="43.322133" lon="-4.266339">
        <ele>168.0</ele>
        <time>2024-09-08T09:07:41.627598Z</time>
      </trkpt>
      <trkpt lat="43.322156" lon="-4.266424">
        <ele>166.6</ele>
        <time>2024-09-08T09:07:44.304396Z</time>
      </trkpt>
      <trkpt lat="43.3222" lon="-4.266545">
        <ele>165.2</ele>
        <time>2024-09-08T09:07:45.818114Z</time>
      </trkpt>
      <trkpt lat="43.322255" lon="-4.266676">
        <ele>163.1</ele>
        <time>2024-09-08T09:07:45.818114Z</time>
      </trkpt>
      <trkpt lat="43.322316" lon="-4.266821">
        <ele>161.5</ele>
        <time>2024-09-08T09:07:45.818114Z</time>
      </trkpt>
      <trkpt lat="43.322382" lon="-4.266948">
        <ele>159.0</ele>
        <time>2024-09-08T09:07:45.818114Z</time>
      </trkpt>
      <trkpt lat="43.322424" lon="-4.267005">
        <ele>157.7</ele>
        <time>2024-09-08T09:07:45.818114Z</time>
      </trkpt>
      <trkpt lat="43.322483" lon="-4.267065">
        <ele>157.0</ele>
        <time>2024-09-08T09:07:45.818114Z</time>
      </trkpt>
      <trkpt lat="43.322477" lon="-4.267129">
        <ele>156.0</ele>
        <time>2024-09-08T09:07:45.818114Z</time>
      </trkpt>
      <trkpt lat="43.322457" lon="-4.267151">
        <ele>156.0</ele>
        <time>2024-09-08T09:07:45.818114Z</time>
      </trkpt>
      <trkpt lat="43.322422" lon="-4.26717">
        <ele>156.0</ele>
        <time>2024-09-08T09:07:45.818114Z</time>
      </trkpt>
      <trkpt lat="43.322387" lon="-4.26716">
        <ele>156.0</ele>
        <time>2024-09-08T09:07:45.818114Z</time>
      </trkpt>
      <trkpt lat="43.322327" lon="-4.267141">
        <ele>156.0</ele>
        <time>2024-09-08T09:07:45.818114Z</time>
      </trkpt>
      <trkpt lat="43.322268" lon="-4.267115">
        <ele>155.0</ele>
        <time>2024-09-08T09:07:45.818114Z</time>
      </trkpt>
      <trkpt lat="43.322217" lon="-4.267082">
        <ele>155.0</ele>
        <time>2024-09-08T09:07:45.818114Z</time>
      </trkpt>
      <trkpt lat="43.322167" lon="-4.267032">
        <ele>154.0</ele>
        <time>2024-09-08T09:07:45.818114Z</time>
      </trkpt>
      <trkpt lat="43.3221" lon="-4.266973">
        <ele>153.0</ele>
        <time>2024-09-08T09:07:45.818114Z</time>
      </trkpt>
      <trkpt lat="43.322068" lon="-4.266937">
        <ele>153.0</ele>
        <time>2024-09-08T09:07:45.818114Z</time>
      </trkpt>
      <trkpt lat="43.322043" lon="-4.266954">
        <ele>152.3</ele>
        <time>2024-09-08T09:07:45.818114Z</time>
      </trkpt>
      <trkpt lat="43.322024" lon="-4.266977">
        <ele>152.0</ele>
        <time>2024-09-08T09:07:45.818114Z</time>
      </trkpt>
      <trkpt lat="43.322042" lon="-4.267071">
        <ele>151.0</ele>
        <time>2024-09-08T09:07:45.818114Z</time>
      </trkpt>
      <trkpt lat="43.322003" lon="-4.266979">
        <ele>152.0</ele>
        <time>2024-09-08T09:07:45.818114Z</time>
      </trkpt>
      <trkpt lat="43.321959" lon="-4.266878">
        <ele>152.0</ele>
        <time>2024-09-08T09:07:45.818114Z</time>
      </trkpt>
      <trkpt lat="43.321922" lon="-4.266779">
        <ele>152.0</ele>
        <time>2024-09-08T09:07:45.818114Z</time>
      </trkpt>
      <trkpt lat="43.321878" lon="-4.266654">
        <ele>152.9</ele>
        <time>2024-09-08T09:07:53.265157Z</time>
      </trkpt>
      <trkpt lat="43.321835" lon="-4.266529">
        <ele>153.0</ele>
        <time>2024-09-08T09:08:03.020988Z</time>
      </trkpt>
      <trkpt lat="43.321795" lon="-4.266403">
        <ele>153.0</ele>
        <time>2024-09-08T09:08:13Z</time>
      </trkpt>
      <trkpt lat="43.321771" lon="-4.266275">
        <ele>153.0</ele>
        <time>2024-09-08T09:08:22Z</time>
      </trkpt>
      <trkpt lat="43.321758" lon="-4.266186">
        <ele>153.9</ele>
        <time>2024-09-08T09:08:27.724442Z</time>
      </trkpt>
      <trkpt lat="43.321741" lon="-4.266127">
        <ele>153.3</ele>
        <time>2024-09-08T09:08:31.361568Z</time>
      </trkpt>
      <trkpt lat="43.321685" lon="-4.266055">
        <ele>153.0</ele>
        <time>2024-09-08T09:08:37.327944Z</time>
      </trkpt>
      <trkpt lat="43.32161" lon="-4.26597">
        <ele>153.7</ele>
        <time>2024-09-08T09:08:46.432385Z</time>
      </trkpt>
      <trkpt lat="43.321519" lon="-4.265876">
        <ele>154.0</ele>
        <time>2024-09-08T09:08:56.510819Z</time>
      </trkpt>
      <trkpt lat="43.321424" lon="-4.265804">
        <ele>154.0</ele>
        <time>2024-09-08T09:09:17.238184Z</time>
      </trkpt>
      <trkpt lat="43.321376" lon="-4.26578">
        <ele>154.0</ele>
        <time>2024-09-08T09:09:19.545547Z</time>
      </trkpt>
      <trkpt lat="43.321325" lon="-4.265749">
        <ele>154.0</ele>
        <time>2024-09-08T09:09:27.719560Z</time>
      </trkpt>
      <trkpt lat="43.3214" lon="-4.265807">
        <ele>154.0</ele>
        <time>2024-09-08T09:09:32.154340Z</time>
      </trkpt>
      <trkpt lat="43.321479" lon="-4.26586">
        <ele>154.0</ele>
        <time>2024-09-08T09:09:34.314065Z</time>
      </trkpt>
      <trkpt lat="43.321557" lon="-4.265932">
        <ele>153.6</ele>
        <time>2024-09-08T09:10:11.902595Z</time>
      </trkpt>
      <trkpt lat="43.321634" lon="-4.266011">
        <ele>153.9</ele>
        <time>2024-09-08T09:10:18.762960Z</time>
      </trkpt>
      <trkpt lat="43.321721" lon="-4.266116">
        <ele>153.0</ele>
        <time>2024-09-08T09:10:27.483081Z</time>
      </trkpt>
      <trkpt lat="43.32175" lon="-4.266201">
        <ele>153.5</ele>
        <time>2024-09-08T09:10:33.129349Z</time>
      </trkpt>
      <trkpt lat="43.321776" lon="-4.266349">
        <ele>153.0</ele>
        <time>2024-09-08T09:10:41.784706Z</time>
      </trkpt>
      <trkpt lat="43.321849" lon="-4.266588">
        <ele>153.0</ele>
        <time>2024-09-08T09:10:56.163038Z</time>
      </trkpt>
      <trkpt lat="43.321944" lon="-4.266863">
        <ele>152.0</ele>
        <time>2024-09-08T09:11:13.468652Z</time>
      </trkpt>
      <trkpt lat="43.32201" lon="-4.266897">
        <ele>152.1</ele>
        <time>2024-09-08T09:11:18.991847Z</time>
      </trkpt>
      <trkpt lat="43.322068" lon="-4.266937">
        <ele>153.0</ele>
        <time>2024-09-08T09:11:23.871183Z</time>
      </trkpt>
      <trkpt lat="43.322133" lon="-4.266986">
        <ele>153.3</ele>
        <time>2024-09-08T09:11:29.994695Z</time>
      </trkpt>
      <trkpt lat="43.322218" lon="-4.267063">
        <ele>155.0</ele>
        <time>2024-09-08T09:11:38.892102Z</time>
      </trkpt>
      <trkpt lat="43.322286" lon="-4.267111">
        <ele>155.0</ele>
        <time>2024-09-08T09:11:46Z</time>
      </trkpt>
      <trkpt lat="43.32236" lon="-4.267136">
        <ele>156.0</ele>
        <time>2024-09-08T09:11:52.646906Z</time>
      </trkpt>
      <trkpt lat="43.322418" lon="-4.267158">
        <ele>156.0</ele>
        <time>2024-09-08T09:11:57.578960Z</time>
      </trkpt>
      <trkpt lat="43.322457" lon="-4.267151">
        <ele>156.0</ele>
        <time>2024-09-08T09:12:00.325194Z</time>
      </trkpt>
      <trkpt lat="43.322471" lon="-4.267102">
        <ele>156.4</ele>
        <time>2024-09-08T09:12:03Z</time>
      </trkpt>
      <trkpt lat="43.322469" lon="-4.267076">
        <ele>157.0</ele>
        <time>2024-09-08T09:12:05.563181Z</time>
      </trkpt>
      <trkpt lat="43.322447" lon="-4.267043">
        <ele>157.0</ele>
        <time>2024-09-08T09:12:07.515438Z</time>
      </trkpt>
      <trkpt lat="43.322415" lon="-4.267018">
        <ele>158.0</ele>
        <time>2024-09-08T09:12:11Z</time>
      </trkpt>
      <trkpt lat="43.322391" lon="-4.266975">
        <ele>158.7</ele>
        <time>2024-09-08T09:12:15.296431Z</time>
      </trkpt>
      <trkpt lat="43.322343" lon="-4.266892">
        <ele>160.9</ele>
        <time>2024-09-08T09:12:23.611857Z</time>
      </trkpt>
      <trkpt lat="43.322295" lon="-4.266794">
        <ele>162.0</ele>
        <time>2024-09-08T09:12:32.582016Z</time>
      </trkpt>
      <trkpt lat="43.322255" lon="-4.266699">
        <ele>163.0</ele>
        <time>2024-09-08T09:12:40.412406Z</time>
      </trkpt>
      <trkpt lat="43.322213" lon="-4.266592">
        <ele>165.0</ele>
        <time>2024-09-08T09:12:49.687799Z</time>
      </trkpt>
      <trkpt lat="43.32217" lon="-4.266485">
        <ele>166.0</ele>
        <time>2024-09-08T09:12:58.175733Z</time>
      </trkpt>
      <trkpt lat="43.322132" lon="-4.26637">
        <ele>167.0</ele>
        <time>2024-09-08T09:13:06.996097Z</time>
      </trkpt>
      <trkpt lat="43.322129" lon="-4.266304">
        <ele>168.0</ele>
        <time>2024-09-08T09:13:12.415995Z</time>
      </trkpt>
      <trkpt lat="43.322139" lon="-4.266236">
        <ele>169.0</ele>
        <time>2024-09-08T09:13:17.723148Z</time>
      </trkpt>
      <trkpt lat="43.322164" lon="-4.266217">
        <ele>169.5</ele>
        <time>2024-09-08T09:13:20.490537Z</time>
      </trkpt>
      <trkpt lat="43.322198" lon="-4.266206">
        <ele>170.2</ele>
        <time>2024-09-08T09:13:24.447067Z</time>
      </trkpt>
      <trkpt lat="43.322232" lon="-4.266208">
        <ele>171.0</ele>
        <time>2024-09-08T09:13:27.307763Z</time>
      </trkpt>
      <trkpt lat="43.322306" lon="-4.266259">
        <ele>173.0</ele>
        <time>2024-09-08T09:13:36Z</time>
      </trkpt>
      <trkpt lat="43.322385" lon="-4.266288">
        <ele>174.0</ele>
        <time>2024-09-08T09:13:45.156556Z</time>
      </trkpt>
      <trkpt lat="43.322454" lon="-4.266313">
        <ele>175.0</ele>
        <time>2024-09-08T09:13:52.056205Z</time>
      </trkpt>
      <trkpt lat="43.322529" lon="-4.266332">
        <ele>176.0</ele>
        <time>2024-09-08T09:14:00.131136Z</time>
      </trkpt>
      <trkpt lat="43.322615" lon="-4.266322">
        <ele>177.1</ele>
        <time>2024-09-08T09:14:07.670549Z</time>
      </trkpt>
      <trkpt lat="43.322705" lon="-4.266284">
        <ele>178.0</ele>
        <time>2024-09-08T09:14:16.287425Z</time>
      </trkpt>
      <trkpt lat="43.322739" lon="-4.266267">
        <ele>179.0</ele>
        <time>2024-09-08T09:14:19.440083Z</time>
      </trkpt>
      <trkpt lat="43.322782" lon="-4.266237">
        <ele>179.0</ele>
        <time>2024-09-08T09:14:23.784890Z</time>
      </trkpt>
      <trkpt lat="43.322826" lon="-4.266208">
        <ele>180.0</ele>
        <time>2024-09-08T09:14:28.229392Z</time>
      </trkpt>
      <trkpt lat="43.322853" lon="-4.266182">
        <ele>180.0</ele>
        <time>2024-09-08T09:14:30.905968Z</time>
      </trkpt>
      <trkpt lat="43.322894" lon="-4.26614">
        <ele>181.0</ele>
        <time>2024-09-08T09:14:35.757596Z</time>
      </trkpt>
      <trkpt lat="43.322925" lon="-4.26609">
        <ele>181.6</ele>
        <time>2024-09-08T09:14:40.568305Z</time>
      </trkpt>
      <trkpt lat="43.32295" lon="-4.266043">
        <ele>182.0</ele>
        <time>2024-09-08T09:14:44.691720Z</time>
      </trkpt>
      <trkpt lat="43.322973" lon="-4.265994">
        <ele>183.0</ele>
        <time>2024-09-08T09:14:47.477808Z</time>
      </trkpt>
      <trkpt lat="43.322974" lon="-4.265934">
        <ele>183.0</ele>
        <time>2024-09-08T09:14:51.331577Z</time>
      </trkpt>
      <trkpt lat="43.322963" lon="-4.265866">
        <ele>183.0</ele>
        <time>2024-09-08T09:14:55.304800Z</time>
      </trkpt>
      <trkpt lat="43.322936" lon="-4.265794">
        <ele>184.0</ele>
        <time>2024-09-08T09:15:00.216586Z</time>
      </trkpt>
      <trkpt lat="43.322903" lon="-4.265725">
        <ele>185.0</ele>
        <time>2024-09-08T09:15:06.232303Z</time>
      </trkpt>
      <trkpt lat="43.322859" lon="-4.265653">
        <ele>186.0</ele>
        <time>2024-09-08T09:15:12.379659Z</time>
      </trkpt>
      <trkpt lat="43.32281" lon="-4.265581">
        <ele>187.0</ele>
        <time>2024-09-08T09:15:18.268638Z</time>
      </trkpt>
      <trkpt lat="43.322755" lon="-4.265518">
        <ele>188.0</ele>
        <time>2024-09-08T09:15:24.401276Z</time>
      </trkpt>
      <trkpt lat="43.322719" lon="-4.265451">
        <ele>189.0</ele>
        <time>2024-09-08T09:15:31.712750Z</time>
      </trkpt>
      <trkpt lat="43.3227" lon="-4.265406">
        <ele>189.3</ele>
        <time>2024-09-08T09:15:35.313805Z</time>
      </trkpt>
      <trkpt lat="43.322669" lon="-4.265317">
        <ele>191.0</ele>
        <time>2024-09-08T09:15:42.305798Z</time>
      </trkpt>
      <trkpt lat="43.322646" lon="-4.265244">
        <ele>191.3</ele>
        <time>2024-09-08T09:15:47.881558Z</time>
      </trkpt>
      <trkpt lat="43.322616" lon="-4.265127">
        <ele>193.0</ele>
        <time>2024-09-08T09:15:56.879193Z</time>
      </trkpt>
      <trkpt lat="43.322593" lon="-4.265024">
        <ele>194.0</ele>
        <time>2024-09-08T09:16:04.232781Z</time>
      </trkpt>
      <trkpt lat="43.322562" lon="-4.264918">
        <ele>195.0</ele>
        <time>2024-09-08T09:16:18.916633Z</time>
      </trkpt>
      <trkpt lat="43.322542" lon="-4.26485">
        <ele>195.5</ele>
        <time>2024-09-08T09:16:27.937244Z</time>
      </trkpt>
      <trkpt lat="43.322516" lon="-4.264778">
        <ele>196.0</ele>
        <time>2024-09-08T09:16:34.303821Z</time>
      </trkpt>
      <trkpt lat="43.322478" lon="-4.264669">
        <ele>198.0</ele>
        <time>2024-09-08T09:16:42.299110Z</time>
      </trkpt>
      <trkpt lat="43.32243" lon="-4.264545">
        <ele>199.0</ele>
        <time>2024-09-08T09:16:51.838713Z</time>
      </trkpt>
      <trkpt lat="43.322425" lon="-4.264531">
        <ele>199.0</ele>
        <time>2024-09-08T09:16:52.853664Z</time>
      </trkpt>
      <trkpt lat="43.322411" lon="-4.264494">
        <ele>199.1</ele>
        <time>2024-09-08T09:16:55.520745Z</time>
      </trkpt>
      <trkpt lat="43.322392" lon="-4.264448">
        <ele>200.0</ele>
        <time>2024-09-08T09:16:58.956509Z</time>
      </trkpt>
      <trkpt lat="43.322374" lon="-4.264408">
        <ele>200.0</ele>
        <time>2024-09-08T09:17:02.173292Z</time>
      </trkpt>
      <trkpt lat="43.322357" lon="-4.264367">
        <ele>201.0</ele>
        <time>2024-09-08T09:17:05.463623Z</time>
      </trkpt>
      <trkpt lat="43.32235" lon="-4.264349">
        <ele>201.0</ele>
        <time>2024-09-08T09:17:06.955931Z</time>
      </trkpt>
      <trkpt lat="43.322343" lon="-4.264332">
        <ele>201.0</ele>
        <time>2024-09-08T09:17:08Z</time>
      </trkpt>
      <trkpt lat="43.322339" lon="-4.264309">
        <ele>201.0</ele>
        <time>2024-09-08T09:17:09.672772Z</time>
      </trkpt>
      <trkpt lat="43.322327" lon="-4.264261">
        <ele>201.6</ele>
        <time>2024-09-08T09:17:12.802597Z</time>
      </trkpt>
      <trkpt lat="43.322314" lon="-4.264202">
        <ele>202.5</ele>
        <time>2024-09-08T09:17:16.679370Z</time>
      </trkpt>
      <trkpt lat="43.322311" lon="-4.264179">
        <ele>202.4</ele>
        <time>2024-09-08T09:17:18.194016Z</time>
      </trkpt>
      <trkpt lat="43.322311" lon="-4.264133">
        <ele>203.4</ele>
        <time>2024-09-08T09:17:21.314512Z</time>
      </trkpt>
      <trkpt lat="43.322314" lon="-4.264071">
        <ele>204.5</ele>
        <time>2024-09-08T09:17:25.196670Z</time>
      </trkpt>
      <trkpt lat="43.322317" lon="-4.264004">
        <ele>204.6</ele>
        <time>2024-09-08T09:17:29.114737Z</time>
      </trkpt>
      <trkpt lat="43.322318" lon="-4.263975">
        <ele>203.7</ele>
        <time>2024-09-08T09:17:30.565266Z</time>
      </trkpt>
      <trkpt lat="43.322312" lon="-4.26393">
        <ele>203.3</ele>
        <time>2024-09-08T09:17:33.161829Z</time>
      </trkpt>
      <trkpt lat="43.322307" lon="-4.263886">
        <ele>204.0</ele>
        <time>2024-09-08T09:17:38.821137Z</time>
      </trkpt>
      <trkpt lat="43.322296" lon="-4.263829">
        <ele>205.0</ele>
        <time>2024-09-08T09:17:43.192012Z</time>
      </trkpt>
      <trkpt lat="43.322286" lon="-4.263771">
        <ele>205.0</ele>
        <time>2024-09-08T09:17:43.534582Z</time>
      </trkpt>
      <trkpt lat="43.322268" lon="-4.263781">
        <ele>205.3</ele>
        <time>2024-09-08T09:17:44.834630Z</time>
      </trkpt>
      <trkpt lat="43.322231" lon="-4.2638">
        <ele>206.0</ele>
        <time>2024-09-08T09:17:51Z</time>
      </trkpt>
      <trkpt lat="43.322182" lon="-4.263817">
        <ele>205.0</ele>
        <time>2024-09-08T09:17:56.235431Z</time>
      </trkpt>
      <trkpt lat="43.322125" lon="-4.26384">
        <ele>205.0</ele>
        <time>2024-09-08T09:18:01.943496Z</time>
      </trkpt>
      <trkpt lat="43.322071" lon="-4.263853">
        <ele>205.0</ele>
        <time>2024-09-08T09:18:06.452286Z</time>
      </trkpt>
      <trkpt lat="43.322018" lon="-4.263844">
        <ele>204.2</ele>
        <time>2024-09-08T09:18:10.526856Z</time>
      </trkpt>
      <trkpt lat="43.321983" lon="-4.263816">
        <ele>205.0</ele>
        <time>2024-09-08T09:18:12.369755Z</time>
      </trkpt>
      <trkpt lat="43.321967" lon="-4.263771">
        <ele>205.0</ele>
        <time>2024-09-08T09:18:14.630666Z</time>
      </trkpt>
      <trkpt lat="43.321965" lon="-4.263689">
        <ele>205.0</ele>
        <time>2024-09-08T09:18:19.815408Z</time>
      </trkpt>
      <trkpt lat="43.32196" lon="-4.263578">
        <ele>205.0</ele>
        <time>2024-09-08T09:18:26.212231Z</time>
      </trkpt>
      <trkpt lat="43.32196" lon="-4.263525">
        <ele>205.0</ele>
        <time>2024-09-08T09:18:29.780714Z</time>
      </trkpt>
      <trkpt lat="43.32196" lon="-4.263468">
        <ele>204.4</ele>
        <time>2024-09-08T09:18:33.697333Z</time>
      </trkpt>
      <trkpt lat="43.321957" lon="-4.263408">
        <ele>204.0</ele>
        <time>2024-09-08T09:18:40Z</time>
      </trkpt>
      <trkpt lat="43.321932" lon="-4.263401">
        <ele>204.0</ele>
        <time>2024-09-08T09:19:07.100399Z</time>
      </trkpt>
      <trkpt lat="43.321848" lon="-4.263391">
        <ele>203.6</ele>
        <time>2024-09-08T09:19:14.625477Z</time>
      </trkpt>
      <trkpt lat="43.32183" lon="-4.263389">
        <ele>203.1</ele>
        <time>2024-09-08T09:19:16.127567Z</time>
      </trkpt>
      <trkpt lat="43.321807" lon="-4.263386">
        <ele>203.0</ele>
        <time>2024-09-08T09:19:18.049634Z</time>
      </trkpt>
      <trkpt lat="43.321782" lon="-4.263381">
        <ele>202.2</ele>
        <time>2024-09-08T09:19:19.648858Z</time>
      </trkpt>
      <trkpt lat="43.321752" lon="-4.26336">
        <ele>201.4</ele>
        <time>2024-09-08T09:19:22.237780Z</time>
      </trkpt>
      <trkpt lat="43.321717" lon="-4.263348">
        <ele>200.9</ele>
        <time>2024-09-08T09:19:25.000455Z</time>
      </trkpt>
      <trkpt lat="43.321682" lon="-4.263336">
        <ele>200.0</ele>
        <time>2024-09-08T09:19:27.803428Z</time>
      </trkpt>
      <trkpt lat="43.321646" lon="-4.263325">
        <ele>200.1</ele>
        <time>2024-09-08T09:19:30.742173Z</time>
      </trkpt>
      <trkpt lat="43.321611" lon="-4.263313">
        <ele>200.7</ele>
        <time>2024-09-08T09:19:33.537466Z</time>
      </trkpt>
      <trkpt lat="43.321576" lon="-4.263299">
        <ele>200.1</ele>
        <time>2024-09-08T09:19:36.632400Z</time>
      </trkpt>
      <trkpt lat="43.321544" lon="-4.263275">
        <ele>200.0</ele>
        <time>2024-09-08T09:19:40Z</time>
      </trkpt>
      <trkpt lat="43.321505" lon="-4.263265">
        <ele>199.9</ele>
        <time>2024-09-08T09:19:43.269320Z</time>
      </trkpt>
      <trkpt lat="43.321466" lon="-4.263256">
        <ele>199.5</ele>
        <time>2024-09-08T09:19:46.234672Z</time>
      </trkpt>
      <trkpt lat="43.321417" lon="-4.263248">
        <ele>199.2</ele>
        <time>2024-09-08T09:19:50.126504Z</time>
      </trkpt>
      <trkpt lat="43.32137" lon="-4.263238">
        <ele>198.9</ele>
        <time>2024-09-08T09:19:53.917244Z</time>
      </trkpt>
      <trkpt lat="43.321324" lon="-4.263225">
        <ele>198.0</ele>
        <time>2024-09-08T09:19:57.118374Z</time>
      </trkpt>
      <trkpt lat="43.321278" lon="-4.263211">
        <ele>197.0</ele>
        <time>2024-09-08T09:20:01.012654Z</time>
      </trkpt>
      <trkpt lat="43.321241" lon="-4.2632">
        <ele>197.0</ele>
        <time>2024-09-08T09:20:03.710504Z</time>
      </trkpt>
      <trkpt lat="43.321196" lon="-4.263191">
        <ele>197.0</ele>
        <time>2024-09-08T09:20:06.779550Z</time>
      </trkpt>
      <trkpt lat="43.321173" lon="-4.263192">
        <ele>196.1</ele>
        <time>2024-09-08T09:20:08.365698Z</time>
      </trkpt>
      <trkpt lat="43.321144" lon="-4.263207">
        <ele>196.0</ele>
        <time>2024-09-08T09:20:10.586511Z</time>
      </trkpt>
      <trkpt lat="43.321109" lon="-4.263216">
        <ele>195.3</ele>
        <time>2024-09-08T09:20:13.198748Z</time>
      </trkpt>
      <trkpt lat="43.321074" lon="-4.263229">
        <ele>195.0</ele>
        <time>2024-09-08T09:20:15.916170Z</time>
      </trkpt>
      <trkpt lat="43.321038" lon="-4.263242">
        <ele>194.4</ele>
        <time>2024-09-08T09:20:19Z</time>
      </trkpt>
      <trkpt lat="43.321005" lon="-4.263261">
        <ele>194.3</ele>
        <time>2024-09-08T09:20:22Z</time>
      </trkpt>
      <trkpt lat="43.320973" lon="-4.263285">
        <ele>194.0</ele>
        <time>2024-09-08T09:20:25.152363Z</time>
      </trkpt>
      <trkpt lat="43.320941" lon="-4.263309">
        <ele>193.1</ele>
        <time>2024-09-08T09:20:29Z</time>
      </trkpt>
      <trkpt lat="43.32093" lon="-4.263347">
        <ele>193.2</ele>
        <time>2024-09-08T09:20:31.156523Z</time>
      </trkpt>
      <trkpt lat="43.320928" lon="-4.2634">
        <ele>193.0</ele>
        <time>2024-09-08T09:20:34Z</time>
      </trkpt>
      <trkpt lat="43.320932" lon="-4.263468">
        <ele>192.2</ele>
        <time>2024-09-08T09:20:38.265333Z</time>
      </trkpt>
      <trkpt lat="43.320934" lon="-4.263524">
        <ele>191.1</ele>
        <time>2024-09-08T09:20:42Z</time>
      </trkpt>
      <trkpt lat="43.320945" lon="-4.263587">
        <ele>190.1</ele>
        <time>2024-09-08T09:20:46Z</time>
      </trkpt>
      <trkpt lat="43.32098" lon="-4.26371">
        <ele>189.2</ele>
        <time>2024-09-08T09:20:54Z</time>
      </trkpt>
      <trkpt lat="43.321044" lon="-4.263837">
        <ele>188.5</ele>
        <time>2024-09-08T09:21:02Z</time>
      </trkpt>
      <trkpt lat="43.321101" lon="-4.26389">
        <ele>188.0</ele>
        <time>2024-09-08T09:21:07.671072Z</time>
      </trkpt>
      <trkpt lat="43.321142" lon="-4.263944">
        <ele>187.0</ele>
        <time>2024-09-08T09:21:11.338512Z</time>
      </trkpt>
      <trkpt lat="43.321169" lon="-4.263986">
        <ele>186.7</ele>
        <time>2024-09-08T09:21:14.403298Z</time>
      </trkpt>
      <trkpt lat="43.321182" lon="-4.26403">
        <ele>185.6</ele>
        <time>2024-09-08T09:21:17.553431Z</time>
      </trkpt>
      <trkpt lat="43.321185" lon="-4.26412">
        <ele>185.8</ele>
        <time>2024-09-08T09:21:23.257132Z</time>
      </trkpt>
      <trkpt lat="43.3212" lon="-4.264308">
        <ele>185.0</ele>
        <time>2024-09-08T09:21:33.817952Z</time>
      </trkpt>
      <trkpt lat="43.321204" lon="-4.264393">
        <ele>184.0</ele>
        <time>2024-09-08T09:21:39.420682Z</time>
      </trkpt>
      <trkpt lat="43.321152" lon="-4.264424">
        <ele>183.0</ele>
        <time>2024-09-08T09:21:45Z</time>
      </trkpt>
      <trkpt lat="43.321133" lon="-4.264345">
        <ele>183.1</ele>
        <time>2024-09-08T09:21:49.706490Z</time>
      </trkpt>
      <trkpt lat="43.32112" lon="-4.264288">
        <ele>182.3</ele>
        <time>2024-09-08T09:21:54.164061Z</time>
      </trkpt>
      <trkpt lat="43.321108" lon="-4.264233">
        <ele>181.6</ele>
        <time>2024-09-08T09:21:59.548127Z</time>
      </trkpt>
      <trkpt lat="43.321092" lon="-4.264191">
        <ele>181.0</ele>
        <time>2024-09-08T09:22:01.545354Z</time>
      </trkpt>
      <trkpt lat="43.321047" lon="-4.264158">
        <ele>179.7</ele>
        <time>2024-09-08T09:22:06.103803Z</time>
      </trkpt>
      <trkpt lat="43.321018" lon="-4.264142">
        <ele>178.7</ele>
        <time>2024-09-08T09:22:08.117957Z</time>
      </trkpt>
      <trkpt lat="43.320996" lon="-4.264128">
        <ele>178.1</ele>
        <time>2024-09-08T09:22:09.608180Z</time>
      </trkpt>
      <trkpt lat="43.320962" lon="-4.264112">
        <ele>178.4</ele>
        <time>2024-09-08T09:22:12.191408Z</time>
      </trkpt>
      <trkpt lat="43.320934" lon="-4.264104">
        <ele>178.6</ele>
        <time>2024-09-08T09:22:14.402188Z</time>
      </trkpt>
      <trkpt lat="43.320913" lon="-4.264093">
        <ele>178.1</ele>
        <time>2024-09-08T09:22:16.061548Z</time>
      </trkpt>
      <trkpt lat="43.320893" lon="-4.264081">
        <ele>177.8</ele>
        <time>2024-09-08T09:22:17.617853Z</time>
      </trkpt>
      <trkpt lat="43.320873" lon="-4.264066">
        <ele>177.6</ele>
        <time>2024-09-08T09:22:19.357136Z</time>
      </trkpt>
      <trkpt lat="43.320842" lon="-4.264045">
        <ele>176.7</ele>
        <time>2024-09-08T09:22:22.130753Z</time>
      </trkpt>
      <trkpt lat="43.320819" lon="-4.264031">
        <ele>176.0</ele>
        <time>2024-09-08T09:22:24.345318Z</time>
      </trkpt>
      <trkpt lat="43.320798" lon="-4.26402">
        <ele>175.3</ele>
        <time>2024-09-08T09:22:26.293583Z</time>
      </trkpt>
      <trkpt lat="43.320769" lon="-4.264008">
        <ele>173.4</ele>
        <time>2024-09-08T09:22:28.856519Z</time>
      </trkpt>
      <trkpt lat="43.320729" lon="-4.26399">
        <ele>174.6</ele>
        <time>2024-09-08T09:22:31.332253Z</time>
      </trkpt>
      <trkpt lat="43.320682" lon="-4.263969">
        <ele>175.9</ele>
        <time>2024-09-08T09:22:34.531056Z</time>
      </trkpt>
      <trkpt lat="43.320591" lon="-4.26394">
        <ele>174.7</ele>
        <time>2024-09-08T09:22:42.010798Z</time>
      </trkpt>
      <trkpt lat="43.320571" lon="-4.263936">
        <ele>174.1</ele>
        <time>2024-09-08T09:22:43.510963Z</time>
      </trkpt>
      <trkpt lat="43.320509" lon="-4.263875">
        <ele>172.8</ele>
        <time>2024-09-08T09:22:49.881849Z</time>
      </trkpt>
      <trkpt lat="43.320471" lon="-4.263851">
        <ele>171.6</ele>
        <time>2024-09-08T09:22:52.869582Z</time>
      </trkpt>
      <trkpt lat="43.32043" lon="-4.263817">
        <ele>171.9</ele>
        <time>2024-09-08T09:22:56.424156Z</time>
      </trkpt>
      <trkpt lat="43.320386" lon="-4.263787">
        <ele>171.4</ele>
        <time>2024-09-08T09:22:59.723552Z</time>
      </trkpt>
      <trkpt lat="43.320321" lon="-4.263725">
        <ele>170.8</ele>
        <time>2024-09-08T09:23:06.104641Z</time>
      </trkpt>
      <trkpt lat="43.320264" lon="-4.263673">
        <ele>169.8</ele>
        <time>2024-09-08T09:23:11.437963Z</time>
      </trkpt>
      <trkpt lat="43.320224" lon="-4.263617">
        <ele>169.2</ele>
        <time>2024-09-08T09:23:14.715504Z</time>
      </trkpt>
      <trkpt lat="43.320197" lon="-4.263553">
        <ele>168.6</ele>
        <time>2024-09-08T09:23:18.367226Z</time>
      </trkpt>
      <trkpt lat="43.320197" lon="-4.263436">
        <ele>169.6</ele>
        <time>2024-09-08T09:23:24.550183Z</time>
      </trkpt>
      <trkpt lat="43.32022" lon="-4.263335">
        <ele>169.6</ele>
        <time>2024-09-08T09:23:33.660095Z</time>
      </trkpt>
      <trkpt lat="43.320237" lon="-4.263189">
        <ele>167.0</ele>
        <time>2024-09-08T09:23:43Z</time>
      </trkpt>
      <trkpt lat="43.32022" lon="-4.263072">
        <ele>163.7</ele>
        <time>2024-09-08T09:23:49.132942Z</time>
      </trkpt>
      <trkpt lat="43.320167" lon="-4.262986">
        <ele>161.0</ele>
        <time>2024-09-08T09:23:55.541771Z</time>
      </trkpt>
      <trkpt lat="43.32009" lon="-4.262838">
        <ele>160.5</ele>
        <time>2024-09-08T09:24:05.494418Z</time>
      </trkpt>
      <trkpt lat="43.320052" lon="-4.262752">
        <ele>160.1</ele>
        <time>2024-09-08T09:24:11.584573Z</time>
      </trkpt>
      <trkpt lat="43.320016" lon="-4.262677">
        <ele>158.0</ele>
        <time>2024-09-08T09:24:17Z</time>
      </trkpt>
      <trkpt lat="43.319947" lon="-4.262643">
        <ele>156.0</ele>
        <time>2024-09-08T09:24:24.125487Z</time>
      </trkpt>
      <trkpt lat="43.319897" lon="-4.262632">
        <ele>155.0</ele>
        <time>2024-09-08T09:24:28.283553Z</time>
      </trkpt>
      <trkpt lat="43.319833" lon="-4.262593">
        <ele>155.0</ele>
        <time>2024-09-08T09:24:36.669912Z</time>
      </trkpt>
      <trkpt lat="43.319761" lon="-4.262569">
        <ele>155.2</ele>
        <time>2024-09-08T09:25:06.513916Z</time>
      </trkpt>
      <trkpt lat="43.319702" lon="-4.262444">
        <ele>156.0</ele>
        <time>2024-09-08T09:25:26.414643Z</time>
      </trkpt>
      <trkpt lat="43.319606" lon="-4.262374">
        <ele>157.0</ele>
        <time>2024-09-08T09:25:35.344378Z</time>
      </trkpt>
      <trkpt lat="43.319554" lon="-4.262298">
        <ele>156.8</ele>
        <time>2024-09-08T09:25:42Z</time>
      </trkpt>
      <trkpt lat="43.319476" lon="-4.262233">
        <ele>156.0</ele>
        <time>2024-09-08T09:25:49.374632Z</time>
      </trkpt>
      <trkpt lat="43.319402" lon="-4.262166">
        <ele>155.6</ele>
        <time>2024-09-08T09:25:56.213078Z</time>
      </trkpt>
      <trkpt lat="43.319299" lon="-4.262092">
        <ele>155.0</ele>
        <time>2024-09-08T09:26:23Z</time>
      </trkpt>
      <trkpt lat="43.319223" lon="-4.262067">
        <ele>154.9</ele>
        <time>2024-09-08T09:26:30.791893Z</time>
      </trkpt>
      <trkpt lat="43.319138" lon="-4.262036">
        <ele>154.0</ele>
        <time>2024-09-08T09:26:37.867959Z</time>
      </trkpt>
      <trkpt lat="43.319054" lon="-4.261977">
        <ele>154.0</ele>
        <time>2024-09-08T09:26:46.058507Z</time>
      </trkpt>
      <trkpt lat="43.318947" lon="-4.261897">
        <ele>153.0</ele>
        <time>2024-09-08T09:26:56.343619Z</time>
      </trkpt>
      <trkpt lat="43.318807" lon="-4.261783">
        <ele>151.4</ele>
        <time>2024-09-08T09:27:09.764241Z</time>
      </trkpt>
      <trkpt lat="43.318752" lon="-4.261716">
        <ele>151.0</ele>
        <time>2024-09-08T09:27:16.436940Z</time>
      </trkpt>
      <trkpt lat="43.318663" lon="-4.261608">
        <ele>150.0</ele>
        <time>2024-09-08T09:27:26.818578Z</time>
      </trkpt>
      <trkpt lat="43.318597" lon="-4.261517">
        <ele>149.0</ele>
        <time>2024-09-08T09:27:35.098261Z</time>
      </trkpt>
      <trkpt lat="43.318499" lon="-4.261378">
        <ele>148.0</ele>
        <time>2024-09-08T09:27:46.665208Z</time>
      </trkpt>
      <trkpt lat="43.318395" lon="-4.261208">
        <ele>147.0</ele>
        <time>2024-09-08T09:27:59.860808Z</time>
      </trkpt>
      <trkpt lat="43.318325" lon="-4.261098">
        <ele>146.5</ele>
        <time>2024-09-08T09:28:07Z</time>
      </trkpt>
      <trkpt lat="43.318297" lon="-4.260985">
        <ele>146.0</ele>
        <time>2024-09-08T09:28:16.899019Z</time>
      </trkpt>
      <trkpt lat="43.318317" lon="-4.260949">
        <ele>145.7</ele>
        <time>2024-09-08T09:28:17.689795Z</time>
      </trkpt>
      <trkpt lat="43.318416" lon="-4.260886">
        <ele>145.0</ele>
        <time>2024-09-08T09:28:30.228678Z</time>
      </trkpt>
      <trkpt lat="43.318449" lon="-4.260868">
        <ele>145.0</ele>
        <time>2024-09-08T09:28:33.419099Z</time>
      </trkpt>
      <trkpt lat="43.318485" lon="-4.260859">
        <ele>145.0</ele>
        <time>2024-09-08T09:28:36.037908Z</time>
      </trkpt>
      <trkpt lat="43.318526" lon="-4.260848">
        <ele>145.0</ele>
        <time>2024-09-08T09:28:40Z</time>
      </trkpt>
      <trkpt lat="43.31856" lon="-4.26083">
        <ele>145.0</ele>
        <time>2024-09-08T09:28:44.608314Z</time>
      </trkpt>
      <trkpt lat="43.318596" lon="-4.260812">
        <ele>146.0</ele>
        <time>2024-09-08T09:28:49.052805Z</time>
      </trkpt>
      <trkpt lat="43.318635" lon="-4.260793">
        <ele>146.0</ele>
        <time>2024-09-08T09:28:59Z</time>
      </trkpt>
      <trkpt lat="43.318664" lon="-4.260766">
        <ele>146.0</ele>
        <time>2024-09-08T09:29:09Z</time>
      </trkpt>
      <trkpt lat="43.318684" lon="-4.260719">
        <ele>147.0</ele>
        <time>2024-09-08T09:29:20Z</time>
      </trkpt>
      <trkpt lat="43.318701" lon="-4.260694">
        <ele>147.0</ele>
        <time>2024-09-08T09:29:29Z</time>
      </trkpt>
      <trkpt lat="43.318726" lon="-4.260658">
        <ele>147.2</ele>
        <time>2024-09-08T09:35:28.162438Z</time>
      </trkpt>
      <trkpt lat="43.318759" lon="-4.260626">
        <ele>148.0</ele>
        <time>2024-09-08T09:35:28.162438Z</time>
      </trkpt>
      <trkpt lat="43.318799" lon="-4.260596">
        <ele>148.0</ele>
        <time>2024-09-08T09:35:28.162438Z</time>
      </trkpt>
      <trkpt lat="43.318795" lon="-4.260565">
        <ele>148.0</ele>
        <time>2024-09-08T09:35:28.162438Z</time>
      </trkpt>
      <trkpt lat="43.318773" lon="-4.260556">
        <ele>147.7</ele>
        <time>2024-09-08T09:35:28.162438Z</time>
      </trkpt>
      <trkpt lat="43.318807" lon="-4.260543">
        <ele>148.0</ele>
        <time>2024-09-08T09:36:08.881946Z</time>
      </trkpt>
      <trkpt lat="43.318871" lon="-4.260498">
        <ele>148.1</ele>
        <time>2024-09-08T09:39:44.107109Z</time>
      </trkpt>
      <trkpt lat="43.318915" lon="-4.260454">
        <ele>149.5</ele>
        <time>2024-09-08T09:39:44.107109Z</time>
      </trkpt>
      <trkpt lat="43.318943" lon="-4.260443">
        <ele>150.1</ele>
        <time>2024-09-08T09:40:14.393257Z</time>
      </trkpt>
      <trkpt lat="43.318962" lon="-4.26041">
        <ele>151.0</ele>
        <time>2024-09-08T09:41:55.525764Z</time>
      </trkpt>
      <trkpt lat="43.318973" lon="-4.260352">
        <ele>151.7</ele>
        <time>2024-09-08T09:45:40.615073Z</time>
      </trkpt>
      <trkpt lat="43.318985" lon="-4.26029">
        <ele>152.3</ele>
        <time>2024-09-08T09:45:47.413900Z</time>
      </trkpt>
      <trkpt lat="43.319039" lon="-4.260064">
        <ele>154.2</ele>
        <time>2024-09-08T09:51:53.006418Z</time>
      </trkpt>
      <trkpt lat="43.319058" lon="-4.260035">
        <ele>155.2</ele>
        <time>2024-09-08T09:51:53.006418Z</time>
      </trkpt>
      <trkpt lat="43.319087" lon="-4.26">
        <ele>156.8</ele>
        <time>2024-09-08T09:51:53.006418Z</time>
      </trkpt>
      <trkpt lat="43.319106" lon="-4.259965">
        <ele>157.9</ele>
        <time>2024-09-08T09:51:53.006418Z</time>
      </trkpt>
      <trkpt lat="43.319109" lon="-4.259923">
        <ele>158.6</ele>
        <time>2024-09-08T09:51:53.006418Z</time>
      </trkpt>
      <trkpt lat="43.319117" lon="-4.259894">
        <ele>159.4</ele>
        <time>2024-09-08T09:51:53.006418Z</time>
      </trkpt>
      <trkpt lat="43.319122" lon="-4.259866">
        <ele>159.7</ele>
        <time>2024-09-08T09:51:53.006418Z</time>
      </trkpt>
      <trkpt lat="43.31911" lon="-4.259835">
        <ele>159.0</ele>
        <time>2024-09-08T09:51:53.006418Z</time>
      </trkpt>
      <trkpt lat="43.319134" lon="-4.259771">
        <ele>159.4</ele>
        <time>2024-09-08T09:51:53.006418Z</time>
      </trkpt>
      <trkpt lat="43.31916" lon="-4.259716">
        <ele>159.0</ele>
        <time>2024-09-08T09:51:53.006418Z</time>
      </trkpt>
      <trkpt lat="43.319185" lon="-4.259663">
        <ele>159.0</ele>
        <time>2024-09-08T09:51:53.006418Z</time>
      </trkpt>
      <trkpt lat="43.319217" lon="-4.259598">
        <ele>159.8</ele>
        <time>2024-09-08T09:51:53.006418Z</time>
      </trkpt>
      <trkpt lat="43.319249" lon="-4.259418">
        <ele>161.5</ele>
        <time>2024-09-08T09:51:53.006418Z</time>
      </trkpt>
      <trkpt lat="43.319264" lon="-4.259355">
        <ele>163.3</ele>
        <time>2024-09-08T09:51:53.006418Z</time>
      </trkpt>
      <trkpt lat="43.31927" lon="-4.259275">
        <ele>164.6</ele>
        <time>2024-09-08T09:51:53.006418Z</time>
      </trkpt>
      <trkpt lat="43.319269" lon="-4.259208">
        <ele>164.4</ele>
        <time>2024-09-08T09:51:53.006418Z</time>
      </trkpt>
      <trkpt lat="43.319288" lon="-4.259157">
        <ele>164.6</ele>
        <time>2024-09-08T09:51:53.006418Z</time>
      </trkpt>
      <trkpt lat="43.319319" lon="-4.259084">
        <ele>166.1</ele>
        <time>2024-09-08T09:51:53.006418Z</time>
      </trkpt>
      <trkpt lat="43.31934" lon="-4.259049">
        <ele>166.2</ele>
        <time>2024-09-08T09:51:53.006418Z</time>
      </trkpt>
      <trkpt lat="43.319399" lon="-4.258969">
        <ele>166.0</ele>
        <time>2024-09-08T09:51:53.006418Z</time>
      </trkpt>
      <trkpt lat="43.319447" lon="-4.258945">
        <ele>166.0</ele>
        <time>2024-09-08T09:51:53.006418Z</time>
      </trkpt>
      <trkpt lat="43.319504" lon="-4.258905">
        <ele>165.7</ele>
        <time>2024-09-08T09:51:53.006418Z</time>
      </trkpt>
      <trkpt lat="43.319541" lon="-4.258892">
        <ele>165.5</ele>
        <time>2024-09-08T09:51:53.006418Z</time>
      </trkpt>
      <trkpt lat="43.319686" lon="-4.258795">
        <ele>170.5</ele>
        <time>2024-09-08T09:51:53.006418Z</time>
      </trkpt>
      <trkpt lat="43.319811" lon="-4.258848">
        <ele>176.0</ele>
        <time>2024-09-08T09:51:53.006418Z</time>
      </trkpt>
      <trkpt lat="43.31984" lon="-4.258942">
        <ele>178.9</ele>
        <time>2024-09-08T09:51:53.006418Z</time>
      </trkpt>
      <trkpt lat="43.319895" lon="-4.259">
        <ele>181.0</ele>
        <time>2024-09-08T09:51:53.006418Z</time>
      </trkpt>
      <trkpt lat="43.320015" lon="-4.258917">
        <ele>182.7</ele>
        <time>2024-09-08T09:51:53.006418Z</time>
      </trkpt>
      <trkpt lat="43.320061" lon="-4.258816">
        <ele>184.2</ele>
        <time>2024-09-08T09:51:53.006418Z</time>
      </trkpt>
      <trkpt lat="43.320096" lon="-4.258685">
        <ele>184.0</ele>
        <time>2024-09-08T09:51:53.006418Z</time>
      </trkpt>
      <trkpt lat="43.320113" lon="-4.258538">
        <ele>183.0</ele>
        <time>2024-09-08T09:51:53.006418Z</time>
      </trkpt>
      <trkpt lat="43.320114" lon="-4.258477">
        <ele>183.1</ele>
        <time>2024-09-08T09:51:53.006418Z</time>
      </trkpt>
      <trkpt lat="43.320118" lon="-4.25833">
        <ele>185.0</ele>
        <time>2024-09-08T09:51:53.006418Z</time>
      </trkpt>
      <trkpt lat="43.320124" lon="-4.258141">
        <ele>181.4</ele>
        <time>2024-09-08T09:51:53.006418Z</time>
      </trkpt>
      <trkpt lat="43.320127" lon="-4.258322">
        <ele>185.5</ele>
        <time>2024-09-08T09:51:53.006418Z</time>
      </trkpt>
      <trkpt lat="43.320126" lon="-4.258433">
        <ele>184.0</ele>
        <time>2024-09-08T09:51:53.006418Z</time>
      </trkpt>
      <trkpt lat="43.320128" lon="-4.258526">
        <ele>183.7</ele>
        <time>2024-09-08T09:51:53.006418Z</time>
      </trkpt>
      <trkpt lat="43.320109" lon="-4.25865">
        <ele>184.7</ele>
        <time>2024-09-08T09:51:53.006418Z</time>
      </trkpt>
      <trkpt lat="43.320104" lon="-4.258813">
        <ele>185.8</ele>
        <time>2024-09-08T09:51:53.006418Z</time>
      </trkpt>
      <trkpt lat="43.320123" lon="-4.25887">
        <ele>186.6</ele>
        <time>2024-09-08T09:51:53.006418Z</time>
      </trkpt>
      <trkpt lat="43.320151" lon="-4.258972">
        <ele>186.0</ele>
        <time>2024-09-08T09:51:53.006418Z</time>
      </trkpt>
      <trkpt lat="43.320185" lon="-4.259035">
        <ele>184.5</ele>
        <time>2024-09-08T09:51:53.006418Z</time>
      </trkpt>
      <trkpt lat="43.32014" lon="-4.259104">
        <ele>184.0</ele>
        <time>2024-09-08T09:51:53.006418Z</time>
      </trkpt>
      <trkpt lat="43.320079" lon="-4.259193">
        <ele>184.0</ele>
        <time>2024-09-08T09:51:53.006418Z</time>
      </trkpt>
      <trkpt lat="43.320035" lon="-4.259289">
        <ele>183.0</ele>
        <time>2024-09-08T09:51:53.006418Z</time>
      </trkpt>
      <trkpt lat="43.320047" lon="-4.259374">
        <ele>180.7</ele>
        <time>2024-09-08T09:51:53.006418Z</time>
      </trkpt>
      <trkpt lat="43.320071" lon="-4.259446">
        <ele>178.8</ele>
        <time>2024-09-08T09:51:53.006418Z</time>
      </trkpt>
      <trkpt lat="43.319939" lon="-4.259368">
        <ele>181.0</ele>
        <time>2024-09-08T09:51:53.006418Z</time>
      </trkpt>
      <trkpt lat="43.319789" lon="-4.259429">
        <ele>179.4</ele>
        <time>2024-09-08T09:51:53.006418Z</time>
      </trkpt>
      <trkpt lat="43.319732" lon="-4.259471">
        <ele>179.0</ele>
        <time>2024-09-08T09:51:53.006418Z</time>
      </trkpt>
      <trkpt lat="43.319696" lon="-4.259517">
        <ele>178.0</ele>
        <time>2024-09-08T09:51:53.006418Z</time>
      </trkpt>
      <trkpt lat="43.319686" lon="-4.259703">
        <ele>176.0</ele>
        <time>2024-09-08T09:51:53.006418Z</time>
      </trkpt>
      <trkpt lat="43.319745" lon="-4.259857">
        <ele>174.0</ele>
        <time>2024-09-08T09:51:53.006418Z</time>
      </trkpt>
      <trkpt lat="43.319843" lon="-4.259953">
        <ele>173.0</ele>
        <time>2024-09-08T09:51:53.006418Z</time>
      </trkpt>
      <trkpt lat="43.319771" lon="-4.259969">
        <ele>171.4</ele>
        <time>2024-09-08T09:51:53.006418Z</time>
      </trkpt>
      <trkpt lat="43.319736" lon="-4.260006">
        <ele>169.8</ele>
        <time>2024-09-08T09:51:53.006418Z</time>
      </trkpt>
      <trkpt lat="43.319732" lon="-4.260018">
        <ele>169.3</ele>
        <time>2024-09-08T09:51:53.006418Z</time>
      </trkpt>
      <trkpt lat="43.319685" lon="-4.260032">
        <ele>169.0</ele>
        <time>2024-09-08T09:51:53.006418Z</time>
      </trkpt>
      <trkpt lat="43.319642" lon="-4.260009">
        <ele>169.6</ele>
        <time>2024-09-08T09:51:53.006418Z</time>
      </trkpt>
      <trkpt lat="43.319601" lon="-4.260022">
        <ele>169.0</ele>
        <time>2024-09-08T09:51:53.006418Z</time>
      </trkpt>
      <trkpt lat="43.319562" lon="-4.260039">
        <ele>168.0</ele>
        <time>2024-09-08T09:51:53.006418Z</time>
      </trkpt>
      <trkpt lat="43.319532" lon="-4.260046">
        <ele>167.5</ele>
        <time>2024-09-08T09:51:53.006418Z</time>
      </trkpt>
      <trkpt lat="43.319499" lon="-4.260057">
        <ele>167.0</ele>
        <time>2024-09-08T09:51:53.006418Z</time>
      </trkpt>
      <trkpt lat="43.319404" lon="-4.260104">
        <ele>165.8</ele>
        <time>2024-09-08T09:51:53.006418Z</time>
      </trkpt>
      <trkpt lat="43.319373" lon="-4.260125">
        <ele>164.7</ele>
        <time>2024-09-08T09:51:53.006418Z</time>
      </trkpt>
      <trkpt lat="43.319323" lon="-4.260136">
        <ele>163.2</ele>
        <time>2024-09-08T09:51:53.006418Z</time>
      </trkpt>
      <trkpt lat="43.319291" lon="-4.260121">
        <ele>163.2</ele>
        <time>2024-09-08T09:51:53.006418Z</time>
      </trkpt>
      <trkpt lat="43.319244" lon="-4.260166">
        <ele>162.0</ele>
        <time>2024-09-08T09:51:53.006418Z</time>
      </trkpt>
      <trkpt lat="43.319188" lon="-4.260245">
        <ele>159.4</ele>
        <time>2024-09-08T09:51:53.006418Z</time>
      </trkpt>
      <trkpt lat="43.319132" lon="-4.260228">
        <ele>158.2</ele>
        <time>2024-09-08T09:51:53.006418Z</time>
      </trkpt>
      <trkpt lat="43.319097" lon="-4.260216">
        <ele>157.0</ele>
        <time>2024-09-08T09:51:53.006418Z</time>
      </trkpt>
      <trkpt lat="43.31904" lon="-4.260312">
        <ele>154.3</ele>
        <time>2024-09-08T09:51:53.006418Z</time>
      </trkpt>
      <trkpt lat="43.319018" lon="-4.260365">
        <ele>153.0</ele>
        <time>2024-09-08T09:51:53.006418Z</time>
      </trkpt>
      <trkpt lat="43.31899" lon="-4.260429">
        <ele>151.7</ele>
        <time>2024-09-08T09:51:53.006418Z</time>
      </trkpt>
      <trkpt lat="43.318948" lon="-4.260475">
        <ele>150.4</ele>
        <time>2024-09-08T09:51:53.006418Z</time>
      </trkpt>
      <trkpt lat="43.318911" lon="-4.260524">
        <ele>149.4</ele>
        <time>2024-09-08T09:51:53.006418Z</time>
      </trkpt>
      <trkpt lat="43.31888" lon="-4.26059">
        <ele>149.0</ele>
        <time>2024-09-08T09:51:53.006418Z</time>
      </trkpt>
      <trkpt lat="43.318851" lon="-4.260646">
        <ele>149.0</ele>
        <time>2024-09-08T09:51:53.006418Z</time>
      </trkpt>
      <trkpt lat="43.318831" lon="-4.260679">
        <ele>148.0</ele>
        <time>2024-09-08T09:51:53.006418Z</time>
      </trkpt>
      <trkpt lat="43.31874" lon="-4.260712">
        <ele>147.0</ele>
        <time>2024-09-08T09:51:53.006418Z</time>
      </trkpt>
      <trkpt lat="43.318817" lon="-4.260609">
        <ele>148.0</ele>
        <time>2024-09-08T09:51:53.006418Z</time>
      </trkpt>
      <trkpt lat="43.31883" lon="-4.260542">
        <ele>148.0</ele>
        <time>2024-09-08T09:51:53.006418Z</time>
      </trkpt>
      <trkpt lat="43.318892" lon="-4.260488">
        <ele>149.0</ele>
        <time>2024-09-08T09:51:53.006418Z</time>
      </trkpt>
      <trkpt lat="43.318923" lon="-4.260454">
        <ele>150.0</ele>
        <time>2024-09-08T09:51:53.006418Z</time>
      </trkpt>
      <trkpt lat="43.318967" lon="-4.26042">
        <ele>151.0</ele>
        <time>2024-09-08T09:51:53.006418Z</time>
      </trkpt>
      <trkpt lat="43.31904" lon="-4.260341">
        <ele>153.8</ele>
        <time>2024-09-08T09:51:53.006418Z</time>
      </trkpt>
      <trkpt lat="43.319071" lon="-4.260294">
        <ele>155.6</ele>
        <time>2024-09-08T09:51:53.006418Z</time>
      </trkpt>
      <trkpt lat="43.319168" lon="-4.260195">
        <ele>159.4</ele>
        <time>2024-09-08T09:51:53.006418Z</time>
      </trkpt>
      <trkpt lat="43.319211" lon="-4.260123">
        <ele>161.8</ele>
        <time>2024-09-08T09:51:53.006418Z</time>
      </trkpt>
      <trkpt lat="43.319213" lon="-4.259961">
        <ele>163.9</ele>
        <time>2024-09-08T09:51:53.006418Z</time>
      </trkpt>
      <trkpt lat="43.319204" lon="-4.259904">
        <ele>163.6</ele>
        <time>2024-09-08T09:51:53.006418Z</time>
      </trkpt>
      <trkpt lat="43.31924" lon="-4.259809">
        <ele>163.2</ele>
        <time>2024-09-08T09:51:53.006418Z</time>
      </trkpt>
      <trkpt lat="43.319267" lon="-4.259729">
        <ele>163.2</ele>
        <time>2024-09-08T09:51:53.006418Z</time>
      </trkpt>
      <trkpt lat="43.31927" lon="-4.259622">
        <ele>162.8</ele>
        <time>2024-09-08T09:51:53.006418Z</time>
      </trkpt>
      <trkpt lat="43.319237" lon="-4.259434">
        <ele>160.9</ele>
        <time>2024-09-08T09:51:53.006418Z</time>
      </trkpt>
      <trkpt lat="43.319282" lon="-4.259253">
        <ele>165.2</ele>
        <time>2024-09-08T09:51:53.006418Z</time>
      </trkpt>
      <trkpt lat="43.319355" lon="-4.25901">
        <ele>166.0</ele>
        <time>2024-09-08T09:51:53.006418Z</time>
      </trkpt>
      <trkpt lat="43.319506" lon="-4.258919">
        <ele>166.0</ele>
        <time>2024-09-08T09:51:53.006418Z</time>
      </trkpt>
      <trkpt lat="43.319699" lon="-4.258789">
        <ele>170.9</ele>
        <time>2024-09-08T09:51:53.006418Z</time>
      </trkpt>
      <trkpt lat="43.319805" lon="-4.258835">
        <ele>175.7</ele>
        <time>2024-09-08T09:51:53.006418Z</time>
      </trkpt>
      <trkpt lat="43.31983" lon="-4.258935">
        <ele>178.3</ele>
        <time>2024-09-08T09:51:53.006418Z</time>
      </trkpt>
      <trkpt lat="43.319907" lon="-4.259011">
        <ele>181.0</ele>
        <time>2024-09-08T09:51:53.006418Z</time>
      </trkpt>
      <trkpt lat="43.320043" lon="-4.258879">
        <ele>183.4</ele>
        <time>2024-09-08T09:51:53.006418Z</time>
      </trkpt>
      <trkpt lat="43.320097" lon="-4.258764">
        <ele>185.1</ele>
        <time>2024-09-08T09:51:53.006418Z</time>
      </trkpt>
      <trkpt lat="43.320107" lon="-4.258871">
        <ele>186.0</ele>
        <time>2024-09-08T09:51:53.006418Z</time>
      </trkpt>
      <trkpt lat="43.320233" lon="-4.258872">
        <ele>187.2</ele>
        <time>2024-09-08T09:51:53.006418Z</time>
      </trkpt>
      <trkpt lat="43.320266" lon="-4.258907">
        <ele>186.8</ele>
        <time>2024-09-08T09:51:53.006418Z</time>
      </trkpt>
      <trkpt lat="43.320258" lon="-4.258817">
        <ele>188.0</ele>
        <time>2024-09-08T09:51:53.006418Z</time>
      </trkpt>
      <trkpt lat="43.320371" lon="-4.258256">
        <ele>194.3</ele>
        <time>2024-09-08T09:51:53.006418Z</time>
      </trkpt>
      <trkpt lat="43.320466" lon="-4.258054">
        <ele>197.0</ele>
        <time>2024-09-08T09:51:53.006418Z</time>
      </trkpt>
      <trkpt lat="43.320606" lon="-4.257702">
        <ele>198.1</ele>
        <time>2024-09-08T09:51:53.006418Z</time>
      </trkpt>
      <trkpt lat="43.320415" lon="-4.257534">
        <ele>199.6</ele>
        <time>2024-09-08T09:51:53.006418Z</time>
      </trkpt>
      <trkpt lat="43.320373" lon="-4.25759">
        <ele>198.1</ele>
        <time>2024-09-08T09:51:53.006418Z</time>
      </trkpt>
      <trkpt lat="43.320415" lon="-4.25756">
        <ele>199.0</ele>
        <time>2024-09-08T09:51:53.006418Z</time>
      </trkpt>
      <trkpt lat="43.320547" lon="-4.257672">
        <ele>199.0</ele>
        <time>2024-09-08T09:51:53.006418Z</time>
      </trkpt>
      <trkpt lat="43.320621" lon="-4.257719">
        <ele>198.3</ele>
        <time>2024-09-08T09:51:53.006418Z</time>
      </trkpt>
      <trkpt lat="43.320715" lon="-4.257727">
        <ele>198.0</ele>
        <time>2024-09-08T09:51:53.006418Z</time>
      </trkpt>
      <trkpt lat="43.320798" lon="-4.257707">
        <ele>197.0</ele>
        <time>2024-09-08T09:51:53.006418Z</time>
      </trkpt>
      <trkpt lat="43.320999" lon="-4.257727">
        <ele>196.0</ele>
        <time>2024-09-08T09:51:53.006418Z</time>
      </trkpt>
      <trkpt lat="43.321168" lon="-4.257714">
        <ele>195.9</ele>
        <time>2024-09-08T09:51:53.006418Z</time>
      </trkpt>
      <trkpt lat="43.321313" lon="-4.25775">
        <ele>195.0</ele>
        <time>2024-09-08T09:51:53.006418Z</time>
      </trkpt>
      <trkpt lat="43.321449" lon="-4.257779">
        <ele>195.0</ele>
        <time>2024-09-08T09:51:53.006418Z</time>
      </trkpt>
      <trkpt lat="43.321559" lon="-4.257803">
        <ele>195.0</ele>
        <time>2024-09-08T09:51:53.006418Z</time>
      </trkpt>
      <trkpt lat="43.321642" lon="-4.25782">
        <ele>195.0</ele>
        <time>2024-09-08T09:51:53.006418Z</time>
      </trkpt>
      <trkpt lat="43.321687" lon="-4.257845">
        <ele>195.0</ele>
        <time>2024-09-08T09:51:53.006418Z</time>
      </trkpt>
      <trkpt lat="43.321772" lon="-4.257871">
        <ele>195.1</ele>
        <time>2024-09-08T09:51:53.006418Z</time>
      </trkpt>
      <trkpt lat="43.321902" lon="-4.257918">
        <ele>195.9</ele>
        <time>2024-09-08T09:51:53.006418Z</time>
      </trkpt>
      <trkpt lat="43.321982" lon="-4.25796">
        <ele>196.0</ele>
        <time>2024-09-08T09:51:53.006418Z</time>
      </trkpt>
      <trkpt lat="43.3221" lon="-4.258008">
        <ele>196.0</ele>
        <time>2024-09-08T09:51:53.006418Z</time>
      </trkpt>
      <trkpt lat="43.32217" lon="-4.25802">
        <ele>196.6</ele>
        <time>2024-09-08T09:51:53.006418Z</time>
      </trkpt>
      <trkpt lat="43.322241" lon="-4.258046">
        <ele>197.0</ele>
        <time>2024-09-08T09:51:53.006418Z</time>
      </trkpt>
      <trkpt lat="43.322356" lon="-4.258133">
        <ele>197.0</ele>
        <time>2024-09-08T09:51:53.006418Z</time>
      </trkpt>
      <trkpt lat="43.32246" lon="-4.258233">
        <ele>197.0</ele>
        <time>2024-09-08T09:51:53.006418Z</time>
      </trkpt>
      <trkpt lat="43.322558" lon="-4.258335">
        <ele>198.0</ele>
        <time>2024-09-08T09:51:53.006418Z</time>
      </trkpt>
      <trkpt lat="43.322648" lon="-4.258448">
        <ele>198.0</ele>
        <time>2024-09-08T09:51:53.006418Z</time>
      </trkpt>
      <trkpt lat="43.322734" lon="-4.258567">
        <ele>198.8</ele>
        <time>2024-09-08T09:51:53.006418Z</time>
      </trkpt>
      <trkpt lat="43.322823" lon="-4.258683">
        <ele>199.0</ele>
        <time>2024-09-08T09:51:53.006418Z</time>
      </trkpt>
      <trkpt lat="43.322912" lon="-4.258799">
        <ele>199.5</ele>
        <time>2024-09-08T09:51:53.006418Z</time>
      </trkpt>
      <trkpt lat="43.323001" lon="-4.258916">
        <ele>200.0</ele>
        <time>2024-09-08T09:51:53.006418Z</time>
      </trkpt>
      <trkpt lat="43.323201" lon="-4.259178">
        <ele>201.0</ele>
        <time>2024-09-08T09:51:53.006418Z</time>
      </trkpt>
      <trkpt lat="43.32333" lon="-4.259342">
        <ele>202.0</ele>
        <time>2024-09-08T09:51:53.006418Z</time>
      </trkpt>
      <trkpt lat="43.323459" lon="-4.259495">
        <ele>202.0</ele>
        <time>2024-09-08T09:51:53.006418Z</time>
      </trkpt>
      <trkpt lat="43.32364" lon="-4.259666">
        <ele>203.0</ele>
        <time>2024-09-08T09:51:53.006418Z</time>
      </trkpt>
      <trkpt lat="43.323749" lon="-4.259789">
        <ele>204.0</ele>
        <time>2024-09-08T09:51:53.006418Z</time>
      </trkpt>
      <trkpt lat="43.323987" lon="-4.26">
        <ele>206.0</ele>
        <time>2024-09-08T09:51:53.006418Z</time>
      </trkpt>
      <trkpt lat="43.324092" lon="-4.260086">
        <ele>206.9</ele>
        <time>2024-09-08T09:51:53.006418Z</time>
      </trkpt>
      <trkpt lat="43.324173" lon="-4.260137">
        <ele>207.0</ele>
        <time>2024-09-08T09:51:53.006418Z</time>
      </trkpt>
      <trkpt lat="43.324254" lon="-4.260193">
        <ele>208.0</ele>
        <time>2024-09-08T09:51:53.006418Z</time>
      </trkpt>
      <trkpt lat="43.32433" lon="-4.260263">
        <ele>208.8</ele>
        <time>2024-09-08T09:51:53.006418Z</time>
      </trkpt>
      <trkpt lat="43.324416" lon="-4.260344">
        <ele>210.0</ele>
        <time>2024-09-08T09:51:53.006418Z</time>
      </trkpt>
      <trkpt lat="43.324495" lon="-4.260408">
        <ele>210.0</ele>
        <time>2024-09-08T09:51:53.006418Z</time>
      </trkpt>
      <trkpt lat="43.324582" lon="-4.260468">
        <ele>210.0</ele>
        <time>2024-09-08T09:51:53.006418Z</time>
      </trkpt>
      <trkpt lat="43.324674" lon="-4.260534">
        <ele>211.0</ele>
        <time>2024-09-08T09:51:53.006418Z</time>
      </trkpt>
      <trkpt lat="43.324816" lon="-4.260734">
        <ele>212.0</ele>
        <time>2024-09-08T09:51:53.006418Z</time>
      </trkpt>
      <trkpt lat="43.324883" lon="-4.26083">
        <ele>212.0</ele>
        <time>2024-09-08T09:51:53.006418Z</time>
      </trkpt>
      <trkpt lat="43.324932" lon="-4.26089">
        <ele>212.0</ele>
        <time>2024-09-08T09:51:53.006418Z</time>
      </trkpt>
      <trkpt lat="43.325029" lon="-4.260946">
        <ele>213.0</ele>
        <time>2024-09-08T09:51:53.006418Z</time>
      </trkpt>
      <trkpt lat="43.325135" lon="-4.260991">
        <ele>213.3</ele>
        <time>2024-09-08T09:51:53.006418Z</time>
      </trkpt>
      <trkpt lat="43.325244" lon="-4.260996">
        <ele>214.0</ele>
        <time>2024-09-08T09:51:53.006418Z</time>
      </trkpt>
      <trkpt lat="43.325329" lon="-4.260985">
        <ele>215.0</ele>
        <time>2024-09-08T09:51:53.006418Z</time>
      </trkpt>
      <trkpt lat="43.325417" lon="-4.260962">
        <ele>215.0</ele>
        <time>2024-09-08T09:51:53.006418Z</time>
      </trkpt>
      <trkpt lat="43.325495" lon="-4.26092">
        <ele>216.0</ele>
        <time>2024-09-08T09:51:53.006418Z</time>
      </trkpt>
      <trkpt lat="43.325557" lon="-4.260865">
        <ele>217.0</ele>
        <time>2024-09-08T09:51:53.006418Z</time>
      </trkpt>
      <trkpt lat="43.325577" lon="-4.260836">
        <ele>217.0</ele>
        <time>2024-09-08T09:51:53.006418Z</time>
      </trkpt>
    </trkseg>
  </trk>
</gpx>