<?xml version="1.0" encoding="UTF-8"?>
<gpx xmlns="http://www.topografix.com/GPX/1/1" xmlns:xsi="http://www.w3.org/2001/XMLSchema-instance" xsi:schemaLocation="http://www.topografix.com/GPX/1/1 http://www.topografix.com/GPX/1/1/gpx.xsd" version="1.1" creator="gpx.py -- https://github.com/tkrajina/gpxpy">
  <trk>
    <name>7_pattern_elev_fixed.gpx</name>
    <trkseg>
      <trkpt lat="43.385408" lon="-5.820863">
        <ele>165.0</ele>
        <time>2025-10-17T14:23:42Z</time>
      </trkpt>
      <trkpt lat="43.385453" lon="-5.820821">
        <ele>165.0</ele>
        <time>2025-10-17T14:23:47.431000Z</time>
      </trkpt>
      <trkpt lat="43.385605" lon="-5.82117">
        <ele>165.0</ele>
        <time>2025-10-17T14:24:17.027000Z</time>
      </trkpt>
      <trkpt lat="43.385675" lon="-5.821102">
        <ele>165.0</ele>
        <time>2025-10-17T14:24:25.597000Z</time>
      </trkpt>
      <trkpt lat="43.385737" lon="-5.821036">
        <ele>165.0</ele>
        <time>2025-10-17T14:24:33.446000Z</time>
      </trkpt>
      <trkpt lat="43.385798" lon="-5.820955">
        <ele>165.0</ele>
        <time>2025-10-17T14:24:41.929000Z</time>
      </trkpt>
      <trkpt lat="43.38587" lon="-5.820877">
        <ele>164.0</ele>
        <time>2025-10-17T14:24:51.135000Z</time>
      </trkpt>
      <trkpt lat="43.385931" lon="-5.820789">
        <ele>164.0</ele>
        <time>2025-10-17T14:24:59.982000Z</time>
      </trkpt>
      <trkpt lat="43.385993" lon="-5.82068">
        <ele>164.0</ele>
        <time>2025-10-17T14:25:10.049000Z</time>
      </trkpt>
      <trkpt lat="43.386046" lon="-5.820557">
        <ele>164.0</ele>
        <time>2025-10-17T14:25:20.450000Z</time>
      </trkpt>
      <trkpt lat="43.386075" lon="-5.820465">
        <ele>164.0</ele>
        <time>2025-10-17T14:25:27.746000Z</time>
      </trkpt>
      <trkpt lat="43.386087" lon="-5.820442">
        <ele>164.0</ele>
        <time>2025-10-17T14:25:29.807000Z</time>
      </trkpt>
      <trkpt lat="43.386222" lon="-5.820527">
        <ele>164.0</ele>
        <time>2025-10-17T14:25:44.660000Z</time>
      </trkpt>
      <trkpt lat="43.38624" lon="-5.820498">
        <ele>164.2</ele>
        <time>2025-10-17T14:25:47.446000Z</time>
      </trkpt>
      <trkpt lat="43.386247" lon="-5.820457">
        <ele>164.0</ele>
        <time>2025-10-17T14:25:50.517000Z</time>
      </trkpt>
      <trkpt lat="43.38626" lon="-5.820431">
        <ele>164.0</ele>
        <time>2025-10-17T14:25:52.815000Z</time>
      </trkpt>
      <trkpt lat="43.386466" lon="-5.820539">
        <ele>161.2</ele>
        <time>2025-10-17T14:26:15.026000Z</time>
      </trkpt>
      <trkpt lat="43.386564" lon="-5.820582">
        <ele>161.0</ele>
        <time>2025-10-17T14:26:25.311000Z</time>
      </trkpt>
      <trkpt lat="43.386753" lon="-5.820668">
        <ele>161.0</ele>
        <time>2025-10-17T14:26:45.242000Z</time>
      </trkpt>
      <trkpt lat="43.386925" lon="-5.820754">
        <ele>161.0</ele>
        <time>2025-10-17T14:27:03.555000Z</time>
      </trkpt>
      <trkpt lat="43.387068" lon="-5.820909">
        <ele>161.0</ele>
        <time>2025-10-17T14:27:21.776000Z</time>
      </trkpt>
      <trkpt lat="43.387179" lon="-5.820987">
        <ele>161.0</ele>
        <time>2025-10-17T14:27:34.245000Z</time>
      </trkpt>
      <trkpt lat="43.387275" lon="-5.821028">
        <ele>161.0</ele>
        <time>2025-10-17T14:27:44.311000Z</time>
      </trkpt>
      <trkpt lat="43.387322" lon="-5.821044">
        <ele>161.0</ele>
        <time>2025-10-17T14:27:49.149000Z</time>
      </trkpt>
      <trkpt lat="43.387443" lon="-5.820941">
        <ele>161.0</ele>
        <time>2025-10-17T14:28:03.388000Z</time>
      </trkpt>
      <trkpt lat="43.387575" lon="-5.82082">
        <ele>161.0</ele>
        <time>2025-10-17T14:28:19.257000Z</time>
      </trkpt>
      <trkpt lat="43.387693" lon="-5.820824">
        <ele>161.0</ele>
        <time>2025-10-17T14:28:31.071000Z</time>
      </trkpt>
      <trkpt lat="43.387747" lon="-5.820836">
        <ele>161.0</ele>
        <time>2025-10-17T14:28:36.542000Z</time>
      </trkpt>
      <trkpt lat="43.387901" lon="-5.821146">
        <ele>161.0</ele>
        <time>2025-10-17T14:29:03.853000Z</time>
      </trkpt>
      <trkpt lat="43.387937" lon="-5.821194">
        <ele>160.2</ele>
        <time>2025-10-17T14:29:08.929000Z</time>
      </trkpt>
      <trkpt lat="43.387976" lon="-5.821197">
        <ele>160.0</ele>
        <time>2025-10-17T14:29:12.832000Z</time>
      </trkpt>
      <trkpt lat="43.388013" lon="-5.821203">
        <ele>160.0</ele>
        <time>2025-10-17T14:29:16.564000Z</time>
      </trkpt>
      <trkpt lat="43.388079" lon="-5.821313">
        <ele>160.1</ele>
        <time>2025-10-17T14:29:26.949000Z</time>
      </trkpt>
      <trkpt lat="43.388126" lon="-5.821297">
        <ele>160.0</ele>
        <time>2025-10-17T14:29:31.791000Z</time>
      </trkpt>
      <trkpt lat="43.388169" lon="-5.821259">
        <ele>160.0</ele>
        <time>2025-10-17T14:29:36.908000Z</time>
      </trkpt>
      <trkpt lat="43.388267" lon="-5.821431">
        <ele>160.0</ele>
        <time>2025-10-17T14:29:52.797000Z</time>
      </trkpt>
      <trkpt lat="43.388383" lon="-5.821665">
        <ele>161.0</ele>
        <time>2025-10-17T14:30:13.408000Z</time>
      </trkpt>
      <trkpt lat="43.388477" lon="-5.821879">
        <ele>161.0</ele>
        <time>2025-10-17T14:30:31.601000Z</time>
      </trkpt>
      <trkpt lat="43.388453" lon="-5.821929">
        <ele>161.0</ele>
        <time>2025-10-17T14:30:35.955000Z</time>
      </trkpt>
      <trkpt lat="43.38846" lon="-5.822017">
        <ele>161.0</ele>
        <time>2025-10-17T14:30:42.392000Z</time>
      </trkpt>
      <trkpt lat="43.388507" lon="-5.822106">
        <ele>161.0</ele>
        <time>2025-10-17T14:30:50.400000Z</time>
      </trkpt>
      <trkpt lat="43.388621" lon="-5.822222">
        <ele>161.0</ele>
        <time>2025-10-17T14:31:04.589000Z</time>
      </trkpt>
      <trkpt lat="43.388694" lon="-5.822236">
        <ele>161.0</ele>
        <time>2025-10-17T14:31:11.959000Z</time>
      </trkpt>
      <trkpt lat="43.388796" lon="-5.822134">
        <ele>161.0</ele>
        <time>2025-10-17T14:31:24.588000Z</time>
      </trkpt>
      <trkpt lat="43.389075" lon="-5.821882">
        <ele>161.0</ele>
        <time>2025-10-17T14:31:57.981000Z</time>
      </trkpt>
      <trkpt lat="43.389299" lon="-5.821666">
        <ele>160.0</ele>
        <time>2025-10-17T14:32:25.370000Z</time>
      </trkpt>
      <trkpt lat="43.389591" lon="-5.821391">
        <ele>160.0</ele>
        <time>2025-10-17T14:33:00.779000Z</time>
      </trkpt>
      <trkpt lat="43.389763" lon="-5.821218">
        <ele>159.0</ele>
        <time>2025-10-17T14:33:22.119000Z</time>
      </trkpt>
      <trkpt lat="43.389945" lon="-5.82105">
        <ele>159.0</ele>
        <time>2025-10-17T14:33:44.055000Z</time>
      </trkpt>
      <trkpt lat="43.390266" lon="-5.820749">
        <ele>158.8</ele>
        <time>2025-10-17T14:34:22.934000Z</time>
      </trkpt>
      <trkpt lat="43.390515" lon="-5.820522">
        <ele>158.0</ele>
        <time>2025-10-17T14:34:52.828000Z</time>
      </trkpt>
      <trkpt lat="43.3908" lon="-5.820249">
        <ele>158.0</ele>
        <time>2025-10-17T14:35:27.574000Z</time>
      </trkpt>
      <trkpt lat="43.39117" lon="-5.819907">
        <ele>158.0</ele>
        <time>2025-10-17T14:36:12.177000Z</time>
      </trkpt>
      <trkpt lat="43.390968" lon="-5.8195">
        <ele>157.0</ele>
        <time>2025-10-17T14:36:48.033000Z</time>
      </trkpt>
      <trkpt lat="43.391052" lon="-5.819441">
        <ele>157.0</ele>
        <time>2025-10-17T14:36:57.470000Z</time>
      </trkpt>
      <trkpt lat="43.391187" lon="-5.819364">
        <ele>157.0</ele>
        <time>2025-10-17T14:37:12.109000Z</time>
      </trkpt>
      <trkpt lat="43.391351" lon="-5.819226">
        <ele>157.0</ele>
        <time>2025-10-17T14:37:31.341000Z</time>
      </trkpt>
      <trkpt lat="43.391517" lon="-5.819086">
        <ele>157.0</ele>
        <time>2025-10-17T14:37:50.821000Z</time>
      </trkpt>
      <trkpt lat="43.391687" lon="-5.818936">
        <ele>157.0</ele>
        <time>2025-10-17T14:38:11.031000Z</time>
      </trkpt>
      <trkpt lat="43.391851" lon="-5.818782">
        <ele>157.0</ele>
        <time>2025-10-17T14:38:30.905000Z</time>
      </trkpt>
      <trkpt lat="43.392021" lon="-5.818633">
        <ele>157.0</ele>
        <time>2025-10-17T14:38:51.076000Z</time>
      </trkpt>
      <trkpt lat="43.392174" lon="-5.818497">
        <ele>157.0</ele>
        <time>2025-10-17T14:39:09.292000Z</time>
      </trkpt>
      <trkpt lat="43.392369" lon="-5.818332">
        <ele>158.0</ele>
        <time>2025-10-17T14:39:32.234000Z</time>
      </trkpt>
      <trkpt lat="43.392508" lon="-5.818229">
        <ele>158.0</ele>
        <time>2025-10-17T14:39:48.029000Z</time>
      </trkpt>
      <trkpt lat="43.392688" lon="-5.818075">
        <ele>158.0</ele>
        <time>2025-10-17T14:40:09.231000Z</time>
      </trkpt>
      <trkpt lat="43.392886" lon="-5.81787">
        <ele>158.0</ele>
        <time>2025-10-17T14:40:34.041000Z</time>
      </trkpt>
      <trkpt lat="43.393124" lon="-5.817678">
        <ele>158.0</ele>
        <time>2025-10-17T14:41:01.637000Z</time>
      </trkpt>
      <trkpt lat="43.393217" lon="-5.817614">
        <ele>158.0</ele>
        <time>2025-10-17T14:41:12.047000Z</time>
      </trkpt>
      <trkpt lat="43.393403" lon="-5.817677">
        <ele>158.0</ele>
        <time>2025-10-17T14:41:31.225000Z</time>
      </trkpt>
      <trkpt lat="43.393479" lon="-5.817805">
        <ele>158.0</ele>
        <time>2025-10-17T14:41:43.246000Z</time>
      </trkpt>
      <trkpt lat="43.393502" lon="-5.817971">
        <ele>158.0</ele>
        <time>2025-10-17T14:41:55.531000Z</time>
      </trkpt>
      <trkpt lat="43.393516" lon="-5.818143">
        <ele>158.0</ele>
        <time>2025-10-17T14:42:08.118000Z</time>
      </trkpt>
      <trkpt lat="43.393486" lon="-5.818296">
        <ele>158.0</ele>
        <time>2025-10-17T14:42:19.647000Z</time>
      </trkpt>
      <trkpt lat="43.393444" lon="-5.818486">
        <ele>158.0</ele>
        <time>2025-10-17T14:42:34.087000Z</time>
      </trkpt>
      <trkpt lat="43.393393" lon="-5.818711">
        <ele>157.0</ele>
        <time>2025-10-17T14:42:51.246000Z</time>
      </trkpt>
      <trkpt lat="43.393361" lon="-5.818913">
        <ele>157.0</ele>
        <time>2025-10-17T14:43:06.282000Z</time>
      </trkpt>
      <trkpt lat="43.393346" lon="-5.819126">
        <ele>157.0</ele>
        <time>2025-10-17T14:43:21.848000Z</time>
      </trkpt>
      <trkpt lat="43.393353" lon="-5.819368">
        <ele>157.0</ele>
        <time>2025-10-17T14:43:39.453000Z</time>
      </trkpt>
      <trkpt lat="43.393369" lon="-5.819524">
        <ele>157.0</ele>
        <time>2025-10-17T14:43:50.916000Z</time>
      </trkpt>
      <trkpt lat="43.393407" lon="-5.819655">
        <ele>156.2</ele>
        <time>2025-10-17T14:44:01.189000Z</time>
      </trkpt>
      <trkpt lat="43.393446" lon="-5.819766">
        <ele>156.0</ele>
        <time>2025-10-17T14:44:10.158000Z</time>
      </trkpt>
      <trkpt lat="43.393501" lon="-5.819889">
        <ele>156.0</ele>
        <time>2025-10-17T14:44:20.663000Z</time>
      </trkpt>
      <trkpt lat="43.393565" lon="-5.820037">
        <ele>156.1</ele>
        <time>2025-10-17T14:44:33.191000Z</time>
      </trkpt>
      <trkpt lat="43.393653" lon="-5.820137">
        <ele>156.0</ele>
        <time>2025-10-17T14:44:44.617000Z</time>
      </trkpt>
      <trkpt lat="43.393776" lon="-5.820267">
        <ele>156.0</ele>
        <time>2025-10-17T14:45:00.137000Z</time>
      </trkpt>
      <trkpt lat="43.39386" lon="-5.820336">
        <ele>156.0</ele>
        <time>2025-10-17T14:45:09.929000Z</time>
      </trkpt>
      <trkpt lat="43.393983" lon="-5.820387">
        <ele>156.0</ele>
        <time>2025-10-17T14:45:22.772000Z</time>
      </trkpt>
      <trkpt lat="43.394117" lon="-5.820431">
        <ele>156.0</ele>
        <time>2025-10-17T14:45:36.567000Z</time>
      </trkpt>
      <trkpt lat="43.394255" lon="-5.820454">
        <ele>156.0</ele>
        <time>2025-10-17T14:45:50.477000Z</time>
      </trkpt>
      <trkpt lat="43.394402" lon="-5.820464">
        <ele>156.0</ele>
        <time>2025-10-17T14:46:05.207000Z</time>
      </trkpt>
      <trkpt lat="43.394549" lon="-5.820474">
        <ele>156.0</ele>
        <time>2025-10-17T14:46:19.938000Z</time>
      </trkpt>
      <trkpt lat="43.394712" lon="-5.82049">
        <ele>156.0</ele>
        <time>2025-10-17T14:46:36.286000Z</time>
      </trkpt>
      <trkpt lat="43.394879" lon="-5.820509">
        <ele>156.0</ele>
        <time>2025-10-17T14:46:53.053000Z</time>
      </trkpt>
      <trkpt lat="43.395048" lon="-5.820525">
        <ele>156.0</ele>
        <time>2025-10-17T14:47:10.004000Z</time>
      </trkpt>
      <trkpt lat="43.395217" lon="-5.820542">
        <ele>156.0</ele>
        <time>2025-10-17T14:47:26.976000Z</time>
      </trkpt>
      <trkpt lat="43.395386" lon="-5.820558">
        <ele>156.0</ele>
        <time>2025-10-17T14:47:43.927000Z</time>
      </trkpt>
      <trkpt lat="43.395555" lon="-5.820574">
        <ele>156.0</ele>
        <time>2025-10-17T14:48:00.878000Z</time>
      </trkpt>
      <trkpt lat="43.395724" lon="-5.820591">
        <ele>156.0</ele>
        <time>2025-10-17T14:48:17.834000Z</time>
      </trkpt>
      <trkpt lat="43.395892" lon="-5.820607">
        <ele>156.0</ele>
        <time>2025-10-17T14:48:34.684000Z</time>
      </trkpt>
      <trkpt lat="43.396061" lon="-5.820623">
        <ele>156.0</ele>
        <time>2025-10-17T14:48:51.635000Z</time>
      </trkpt>
      <trkpt lat="43.39623" lon="-5.820639">
        <ele>156.0</ele>
        <time>2025-10-17T14:49:08.586000Z</time>
      </trkpt>
      <trkpt lat="43.396399" lon="-5.820656">
        <ele>156.0</ele>
        <time>2025-10-17T14:49:25.542000Z</time>
      </trkpt>
      <trkpt lat="43.396568" lon="-5.820672">
        <ele>156.0</ele>
        <time>2025-10-17T14:49:42.509000Z</time>
      </trkpt>
      <trkpt lat="43.396736" lon="-5.820688">
        <ele>156.0</ele>
        <time>2025-10-17T14:49:59.359000Z</time>
      </trkpt>
      <trkpt lat="43.396905" lon="-5.820704">
        <ele>156.0</ele>
        <time>2025-10-17T14:50:16.310000Z</time>
      </trkpt>
      <trkpt lat="43.397074" lon="-5.820721">
        <ele>156.0</ele>
        <time>2025-10-17T14:50:33.265000Z</time>
      </trkpt>
      <trkpt lat="43.397243" lon="-5.820737">
        <ele>156.0</ele>
        <time>2025-10-17T14:50:50.216000Z</time>
      </trkpt>
      <trkpt lat="43.3974" lon="-5.820753">
        <ele>156.0</ele>
        <time>2025-10-17T14:51:05.979000Z</time>
      </trkpt>
      <trkpt lat="43.397557" lon="-5.820792">
        <ele>156.0</ele>
        <time>2025-10-17T14:51:21.936000Z</time>
      </trkpt>
      <trkpt lat="43.397694" lon="-5.820894">
        <ele>156.0</ele>
        <time>2025-10-17T14:51:37.518000Z</time>
      </trkpt>
      <trkpt lat="43.39778" lon="-5.820981">
        <ele>156.0</ele>
        <time>2025-10-17T14:51:48.199000Z</time>
      </trkpt>
      <trkpt lat="43.397824" lon="-5.82107">
        <ele>156.0</ele>
        <time>2025-10-17T14:51:56.033000Z</time>
      </trkpt>
      <trkpt lat="43.39806" lon="-5.821338">
        <ele>156.0</ele>
        <time>2025-10-17T14:52:26.658000Z</time>
      </trkpt>
      <trkpt lat="43.398127" lon="-5.82141">
        <ele>156.0</ele>
        <time>2025-10-17T14:52:35.152000Z</time>
      </trkpt>
      <trkpt lat="43.398207" lon="-5.821468">
        <ele>156.0</ele>
        <time>2025-10-17T14:52:44.212000Z</time>
      </trkpt>
      <trkpt lat="43.398318" lon="-5.821555">
        <ele>156.0</ele>
        <time>2025-10-17T14:52:56.994000Z</time>
      </trkpt>
      <trkpt lat="43.398437" lon="-5.821607">
        <ele>156.0</ele>
        <time>2025-10-17T14:53:09.490000Z</time>
      </trkpt>
      <trkpt lat="43.398575" lon="-5.821635">
        <ele>156.0</ele>
        <time>2025-10-17T14:53:23.447000Z</time>
      </trkpt>
      <trkpt lat="43.398731" lon="-5.821657">
        <ele>155.0</ele>
        <time>2025-10-17T14:53:39.158000Z</time>
      </trkpt>
      <trkpt lat="43.398888" lon="-5.821678">
        <ele>155.0</ele>
        <time>2025-10-17T14:53:54.951000Z</time>
      </trkpt>
      <trkpt lat="43.399055" lon="-5.821678">
        <ele>155.0</ele>
        <time>2025-10-17T14:54:11.660000Z</time>
      </trkpt>
      <trkpt lat="43.399225" lon="-5.821683">
        <ele>155.0</ele>
        <time>2025-10-17T14:54:28.676000Z</time>
      </trkpt>
      <trkpt lat="43.399395" lon="-5.821688">
        <ele>155.0</ele>
        <time>2025-10-17T14:54:45.691000Z</time>
      </trkpt>
      <trkpt lat="43.399559" lon="-5.821704">
        <ele>155.0</ele>
        <time>2025-10-17T14:55:02.155000Z</time>
      </trkpt>
      <trkpt lat="43.399737" lon="-5.821746">
        <ele>155.0</ele>
        <time>2025-10-17T14:55:20.216000Z</time>
      </trkpt>
      <trkpt lat="43.399858" lon="-5.821819">
        <ele>155.0</ele>
        <time>2025-10-17T14:55:33.439000Z</time>
      </trkpt>
      <trkpt lat="43.399876" lon="-5.8219">
        <ele>155.0</ele>
        <time>2025-10-17T14:55:39.599000Z</time>
      </trkpt>
      <trkpt lat="43.399867" lon="-5.822001">
        <ele>155.0</ele>
        <time>2025-10-17T14:55:47.005000Z</time>
      </trkpt>
      <trkpt lat="43.399818" lon="-5.822098">
        <ele>155.0</ele>
        <time>2025-10-17T14:55:55.586000Z</time>
      </trkpt>
      <trkpt lat="43.399757" lon="-5.822137">
        <ele>155.0</ele>
        <time>2025-10-17T14:56:02.321000Z</time>
      </trkpt>
      <trkpt lat="43.399697" lon="-5.822179">
        <ele>155.0</ele>
        <time>2025-10-17T14:56:09.061000Z</time>
      </trkpt>
      <trkpt lat="43.399637" lon="-5.822233">
        <ele>155.0</ele>
        <time>2025-10-17T14:56:16.236000Z</time>
      </trkpt>
      <trkpt lat="43.399581" lon="-5.8223">
        <ele>155.0</ele>
        <time>2025-10-17T14:56:23.655000Z</time>
      </trkpt>
      <trkpt lat="43.399522" lon="-5.822364">
        <ele>155.0</ele>
        <time>2025-10-17T14:56:31.176000Z</time>
      </trkpt>
      <trkpt lat="43.399469" lon="-5.822431">
        <ele>155.0</ele>
        <time>2025-10-17T14:56:38.378000Z</time>
      </trkpt>
      <trkpt lat="43.39942" lon="-5.822502">
        <ele>155.0</ele>
        <time>2025-10-17T14:56:45.502000Z</time>
      </trkpt>
      <trkpt lat="43.399374" lon="-5.822581">
        <ele>155.0</ele>
        <time>2025-10-17T14:56:52.866000Z</time>
      </trkpt>
      <trkpt lat="43.399328" lon="-5.822661">
        <ele>155.0</ele>
        <time>2025-10-17T14:57:00.278000Z</time>
      </trkpt>
      <trkpt lat="43.399286" lon="-5.822754">
        <ele>155.0</ele>
        <time>2025-10-17T14:57:08.247000Z</time>
      </trkpt>
      <trkpt lat="43.399245" lon="-5.822847">
        <ele>155.0</ele>
        <time>2025-10-17T14:57:16.152000Z</time>
      </trkpt>
      <trkpt lat="43.399204" lon="-5.82294">
        <ele>155.2</ele>
        <time>2025-10-17T14:57:24.062000Z</time>
      </trkpt>
      <trkpt lat="43.399163" lon="-5.823046">
        <ele>156.0</ele>
        <time>2025-10-17T14:57:32.823000Z</time>
      </trkpt>
      <trkpt lat="43.399154" lon="-5.823114">
        <ele>156.0</ele>
        <time>2025-10-17T14:57:37.851000Z</time>
      </trkpt>
      <trkpt lat="43.399151" lon="-5.823173">
        <ele>156.0</ele>
        <time>2025-10-17T14:57:42.153000Z</time>
      </trkpt>
      <trkpt lat="43.399158" lon="-5.823231">
        <ele>156.0</ele>
        <time>2025-10-17T14:57:46.429000Z</time>
      </trkpt>
      <trkpt lat="43.399172" lon="-5.823294">
        <ele>156.4</ele>
        <time>2025-10-17T14:57:51.232000Z</time>
      </trkpt>
      <trkpt lat="43.399199" lon="-5.823374">
        <ele>157.0</ele>
        <time>2025-10-17T14:57:57.666000Z</time>
      </trkpt>
      <trkpt lat="43.399234" lon="-5.823468">
        <ele>157.0</ele>
        <time>2025-10-17T14:58:05.351000Z</time>
      </trkpt>
      <trkpt lat="43.399279" lon="-5.823608">
        <ele>157.0</ele>
        <time>2025-10-17T14:58:16.478000Z</time>
      </trkpt>
      <trkpt lat="43.399327" lon="-5.823757">
        <ele>157.0</ele>
        <time>2025-10-17T14:58:28.336000Z</time>
      </trkpt>
      <trkpt lat="43.39938" lon="-5.823924">
        <ele>157.2</ele>
        <time>2025-10-17T14:58:41.584000Z</time>
      </trkpt>
      <trkpt lat="43.399442" lon="-5.824114">
        <ele>157.0</ele>
        <time>2025-10-17T14:58:56.727000Z</time>
      </trkpt>
      <trkpt lat="43.399504" lon="-5.82431">
        <ele>157.0</ele>
        <time>2025-10-17T14:59:12.263000Z</time>
      </trkpt>
      <trkpt lat="43.399607" lon="-5.82462">
        <ele>157.0</ele>
        <time>2025-10-17T14:59:37.062000Z</time>
      </trkpt>
      <trkpt lat="43.399714" lon="-5.824901">
        <ele>157.0</ele>
        <time>2025-10-17T15:00:00.125000Z</time>
      </trkpt>
      <trkpt lat="43.399788" lon="-5.825064">
        <ele>157.0</ele>
        <time>2025-10-17T15:00:14.103000Z</time>
      </trkpt>
      <trkpt lat="43.399906" lon="-5.825238">
        <ele>157.0</ele>
        <time>2025-10-17T15:00:31.399000Z</time>
      </trkpt>
      <trkpt lat="43.400039" lon="-5.825425">
        <ele>157.0</ele>
        <time>2025-10-17T15:00:50.438000Z</time>
      </trkpt>
      <trkpt lat="43.400187" lon="-5.825633">
        <ele>157.0</ele>
        <time>2025-10-17T15:01:11.602000Z</time>
      </trkpt>
      <trkpt lat="43.400338" lon="-5.825848">
        <ele>158.0</ele>
        <time>2025-10-17T15:01:33.359000Z</time>
      </trkpt>
      <trkpt lat="43.400471" lon="-5.826069">
        <ele>159.0</ele>
        <time>2025-10-17T15:01:54.248000Z</time>
      </trkpt>
      <trkpt lat="43.400572" lon="-5.826235">
        <ele>160.0</ele>
        <time>2025-10-17T15:02:10.019000Z</time>
      </trkpt>
      <trkpt lat="43.400688" lon="-5.826347">
        <ele>160.3</ele>
        <time>2025-10-17T15:02:24.201000Z</time>
      </trkpt>
      <trkpt lat="43.400735" lon="-5.826393">
        <ele>161.0</ele>
        <time>2025-10-17T15:02:30.012000Z</time>
      </trkpt>
      <trkpt lat="43.400734" lon="-5.826416">
        <ele>161.0</ele>
        <time>2025-10-17T15:02:31.686000Z</time>
      </trkpt>
      <trkpt lat="43.400735" lon="-5.826444">
        <ele>161.0</ele>
        <time>2025-10-17T15:02:33.724000Z</time>
      </trkpt>
      <trkpt lat="43.400715" lon="-5.826485">
        <ele>161.0</ele>
        <time>2025-10-17T15:02:37.325000Z</time>
      </trkpt>
      <trkpt lat="43.400648" lon="-5.826646">
        <ele>162.0</ele>
        <time>2025-10-17T15:02:50.836000Z</time>
      </trkpt>
      <trkpt lat="43.400627" lon="-5.826685">
        <ele>162.4</ele>
        <time>2025-10-17T15:02:54.395000Z</time>
      </trkpt>
      <trkpt lat="43.400608" lon="-5.826714">
        <ele>162.8</ele>
        <time>2025-10-17T15:02:57.253000Z</time>
      </trkpt>
      <trkpt lat="43.400594" lon="-5.82672">
        <ele>163.0</ele>
        <time>2025-10-17T15:02:58.724000Z</time>
      </trkpt>
      <trkpt lat="43.400478" lon="-5.826599">
        <ele>164.0</ele>
        <time>2025-10-17T15:03:13.320000Z</time>
      </trkpt>
      <trkpt lat="43.400347" lon="-5.826477">
        <ele>164.0</ele>
        <time>2025-10-17T15:03:29.159000Z</time>
      </trkpt>
      <trkpt lat="43.400219" lon="-5.82638">
        <ele>164.7</ele>
        <time>2025-10-17T15:03:43.790000Z</time>
      </trkpt>
      <trkpt lat="43.40009" lon="-5.826281">
        <ele>165.0</ele>
        <time>2025-10-17T15:03:58.577000Z</time>
      </trkpt>
      <trkpt lat="43.399929" lon="-5.826176">
        <ele>165.0</ele>
        <time>2025-10-17T15:04:16.399000Z</time>
      </trkpt>
      <trkpt lat="43.399765" lon="-5.826065">
        <ele>165.0</ele>
        <time>2025-10-17T15:04:34.704000Z</time>
      </trkpt>
      <trkpt lat="43.3996" lon="-5.82595">
        <ele>165.0</ele>
        <time>2025-10-17T15:04:53.209000Z</time>
      </trkpt>
      <trkpt lat="43.399434" lon="-5.825835">
        <ele>165.0</ele>
        <time>2025-10-17T15:05:11.804000Z</time>
      </trkpt>
      <trkpt lat="43.399263" lon="-5.825719">
        <ele>165.0</ele>
        <time>2025-10-17T15:05:30.882000Z</time>
      </trkpt>
      <trkpt lat="43.399087" lon="-5.825595">
        <ele>165.0</ele>
        <time>2025-10-17T15:05:50.666000Z</time>
      </trkpt>
      <trkpt lat="43.398893" lon="-5.825459">
        <ele>165.0</ele>
        <time>2025-10-17T15:06:12.449000Z</time>
      </trkpt>
      <trkpt lat="43.398696" lon="-5.825324">
        <ele>165.0</ele>
        <time>2025-10-17T15:06:34.474000Z</time>
      </trkpt>
      <trkpt lat="43.398499" lon="-5.82519">
        <ele>166.0</ele>
        <time>2025-10-17T15:06:56.495000Z</time>
      </trkpt>
      <trkpt lat="43.398293" lon="-5.825047">
        <ele>167.0</ele>
        <time>2025-10-17T15:07:19.589000Z</time>
      </trkpt>
      <trkpt lat="43.39824" lon="-5.825009">
        <ele>167.0</ele>
        <time>2025-10-17T15:07:25.584000Z</time>
      </trkpt>
      <trkpt lat="43.39818" lon="-5.824988">
        <ele>168.0</ele>
        <time>2025-10-17T15:07:31.830000Z</time>
      </trkpt>
      <trkpt lat="43.398099" lon="-5.824987">
        <ele>168.0</ele>
        <time>2025-10-17T15:07:39.950000Z</time>
      </trkpt>
      <trkpt lat="43.397997" lon="-5.825001">
        <ele>169.0</ele>
        <time>2025-10-17T15:07:50.239000Z</time>
      </trkpt>
      <trkpt lat="43.397888" lon="-5.825031">
        <ele>169.0</ele>
        <time>2025-10-17T15:08:01.360000Z</time>
      </trkpt>
      <trkpt lat="43.397769" lon="-5.825074">
        <ele>170.0</ele>
        <time>2025-10-17T15:08:13.709000Z</time>
      </trkpt>
      <trkpt lat="43.397652" lon="-5.825133">
        <ele>170.0</ele>
        <time>2025-10-17T15:08:26.180000Z</time>
      </trkpt>
      <trkpt lat="43.397534" lon="-5.825203">
        <ele>170.9</ele>
        <time>2025-10-17T15:08:39.064000Z</time>
      </trkpt>
      <trkpt lat="43.397405" lon="-5.825275">
        <ele>171.0</ele>
        <time>2025-10-17T15:08:53.005000Z</time>
      </trkpt>
      <trkpt lat="43.39727" lon="-5.82535">
        <ele>171.7</ele>
        <time>2025-10-17T15:09:07.581000Z</time>
      </trkpt>
      <trkpt lat="43.39722" lon="-5.825376">
        <ele>172.0</ele>
        <time>2025-10-17T15:09:12.932000Z</time>
      </trkpt>
      <trkpt lat="43.397162" lon="-5.825396">
        <ele>172.0</ele>
        <time>2025-10-17T15:09:18.918000Z</time>
      </trkpt>
      <trkpt lat="43.397073" lon="-5.825418">
        <ele>172.0</ele>
        <time>2025-10-17T15:09:27.969000Z</time>
      </trkpt>
      <trkpt lat="43.396994" lon="-5.825434">
        <ele>172.0</ele>
        <time>2025-10-17T15:09:35.955000Z</time>
      </trkpt>
      <trkpt lat="43.396897" lon="-5.825441">
        <ele>173.0</ele>
        <time>2025-10-17T15:09:45.724000Z</time>
      </trkpt>
      <trkpt lat="43.396787" lon="-5.825442">
        <ele>173.2</ele>
        <time>2025-10-17T15:09:56.731000Z</time>
      </trkpt>
      <trkpt lat="43.396659" lon="-5.825447">
        <ele>174.0</ele>
        <time>2025-10-17T15:10:09.573000Z</time>
      </trkpt>
      <trkpt lat="43.396523" lon="-5.825456">
        <ele>175.0</ele>
        <time>2025-10-17T15:10:23.225000Z</time>
      </trkpt>
      <trkpt lat="43.396379" lon="-5.825463">
        <ele>176.0</ele>
        <time>2025-10-17T15:10:37.672000Z</time>
      </trkpt>
      <trkpt lat="43.396225" lon="-5.825458">
        <ele>177.3</ele>
        <time>2025-10-17T15:10:53.138000Z</time>
      </trkpt>
      <trkpt lat="43.396066" lon="-5.825467">
        <ele>178.0</ele>
        <time>2025-10-17T15:11:09.068000Z</time>
      </trkpt>
      <trkpt lat="43.395898" lon="-5.825475">
        <ele>179.0</ele>
        <time>2025-10-17T15:11:25.913000Z</time>
      </trkpt>
      <trkpt lat="43.395715" lon="-5.825475">
        <ele>180.0</ele>
        <time>2025-10-17T15:11:44.255000Z</time>
      </trkpt>
      <trkpt lat="43.395519" lon="-5.825468">
        <ele>181.0</ele>
        <time>2025-10-17T15:12:03.894000Z</time>
      </trkpt>
      <trkpt lat="43.395321" lon="-5.825447">
        <ele>181.0</ele>
        <time>2025-10-17T15:12:23.765000Z</time>
      </trkpt>
      <trkpt lat="43.395122" lon="-5.825426">
        <ele>180.8</ele>
        <time>2025-10-17T15:12:43.738000Z</time>
      </trkpt>
      <trkpt lat="43.394921" lon="-5.825407">
        <ele>181.0</ele>
        <time>2025-10-17T15:13:03.902000Z</time>
      </trkpt>
      <trkpt lat="43.39471" lon="-5.825377">
        <ele>181.0</ele>
        <time>2025-10-17T15:13:25.136000Z</time>
      </trkpt>
      <trkpt lat="43.394603" lon="-5.825367">
        <ele>181.0</ele>
        <time>2025-10-17T15:13:35.864000Z</time>
      </trkpt>
      <trkpt lat="43.394542" lon="-5.825383">
        <ele>181.9</ele>
        <time>2025-10-17T15:13:42.132000Z</time>
      </trkpt>
      <trkpt lat="43.394494" lon="-5.825405">
        <ele>182.0</ele>
        <time>2025-10-17T15:13:47.189000Z</time>
      </trkpt>
      <trkpt lat="43.394424" lon="-5.825457">
        <ele>182.0</ele>
        <time>2025-10-17T15:13:55.161000Z</time>
      </trkpt>
      <trkpt lat="43.394322" lon="-5.825516">
        <ele>183.0</ele>
        <time>2025-10-17T15:14:06.264000Z</time>
      </trkpt>
      <trkpt lat="43.394239" lon="-5.825574">
        <ele>184.0</ele>
        <time>2025-10-17T15:14:15.621000Z</time>
      </trkpt>
      <trkpt lat="43.39416" lon="-5.825643">
        <ele>185.0</ele>
        <time>2025-10-17T15:14:25.035000Z</time>
      </trkpt>
      <trkpt lat="43.394081" lon="-5.825711">
        <ele>186.0</ele>
        <time>2025-10-17T15:14:34.403000Z</time>
      </trkpt>
      <trkpt lat="43.393991" lon="-5.825773">
        <ele>186.0</ele>
        <time>2025-10-17T15:14:44.478000Z</time>
      </trkpt>
      <trkpt lat="43.393901" lon="-5.825805">
        <ele>186.0</ele>
        <time>2025-10-17T15:14:53.780000Z</time>
      </trkpt>
      <trkpt lat="43.393858" lon="-5.825813">
        <ele>186.0</ele>
        <time>2025-10-17T15:14:58.114000Z</time>
      </trkpt>
      <trkpt lat="43.393809" lon="-5.825812">
        <ele>186.0</ele>
        <time>2025-10-17T15:15:03.030000Z</time>
      </trkpt>
      <trkpt lat="43.393751" lon="-5.825807">
        <ele>186.0</ele>
        <time>2025-10-17T15:15:08.846000Z</time>
      </trkpt>
      <trkpt lat="43.393689" lon="-5.825785">
        <ele>186.0</ele>
        <time>2025-10-17T15:15:15.239000Z</time>
      </trkpt>
      <trkpt lat="43.393622" lon="-5.825748">
        <ele>186.0</ele>
        <time>2025-10-17T15:15:22.470000Z</time>
      </trkpt>
      <trkpt lat="43.39355" lon="-5.825689">
        <ele>185.0</ele>
        <time>2025-10-17T15:15:30.906000Z</time>
      </trkpt>
      <trkpt lat="43.393458" lon="-5.825584">
        <ele>184.0</ele>
        <time>2025-10-17T15:15:42.896000Z</time>
      </trkpt>
      <trkpt lat="43.393327" lon="-5.825444">
        <ele>184.0</ele>
        <time>2025-10-17T15:15:59.500000Z</time>
      </trkpt>
      <trkpt lat="43.393172" lon="-5.825262">
        <ele>183.0</ele>
        <time>2025-10-17T15:16:19.906000Z</time>
      </trkpt>
      <trkpt lat="43.393015" lon="-5.825078">
        <ele>182.0</ele>
        <time>2025-10-17T15:16:40.563000Z</time>
      </trkpt>
      <trkpt lat="43.392851" lon="-5.824887">
        <ele>182.0</ele>
        <time>2025-10-17T15:17:02.066000Z</time>
      </trkpt>
      <trkpt lat="43.392751" lon="-5.824797">
        <ele>181.2</ele>
        <time>2025-10-17T15:17:14.046000Z</time>
      </trkpt>
      <trkpt lat="43.392639" lon="-5.824698">
        <ele>181.0</ele>
        <time>2025-10-17T15:17:27.370000Z</time>
      </trkpt>
      <trkpt lat="43.39258" lon="-5.824655">
        <ele>181.9</ele>
        <time>2025-10-17T15:17:34.104000Z</time>
      </trkpt>
      <trkpt lat="43.392528" lon="-5.824645">
        <ele>182.0</ele>
        <time>2025-10-17T15:17:39.355000Z</time>
      </trkpt>
      <trkpt lat="43.392464" lon="-5.824646">
        <ele>182.0</ele>
        <time>2025-10-17T15:17:45.764000Z</time>
      </trkpt>
      <trkpt lat="43.392391" lon="-5.824662">
        <ele>181.4</ele>
        <time>2025-10-17T15:17:53.173000Z</time>
      </trkpt>
      <trkpt lat="43.392342" lon="-5.824686">
        <ele>181.0</ele>
        <time>2025-10-17T15:17:58.401000Z</time>
      </trkpt>
      <trkpt lat="43.392232" lon="-5.824729">
        <ele>180.7</ele>
        <time>2025-10-17T15:18:09.847000Z</time>
      </trkpt>
      <trkpt lat="43.392194" lon="-5.824748">
        <ele>180.4</ele>
        <time>2025-10-17T15:18:13.890000Z</time>
      </trkpt>
      <trkpt lat="43.39216" lon="-5.824767">
        <ele>180.0</ele>
        <time>2025-10-17T15:18:17.585000Z</time>
      </trkpt>
      <trkpt lat="43.392121" lon="-5.82479">
        <ele>180.0</ele>
        <time>2025-10-17T15:18:21.836000Z</time>
      </trkpt>
      <trkpt lat="43.392071" lon="-5.824818">
        <ele>180.0</ele>
        <time>2025-10-17T15:18:27.234000Z</time>
      </trkpt>
      <trkpt lat="43.392006" lon="-5.82485">
        <ele>179.0</ele>
        <time>2025-10-17T15:18:34.206000Z</time>
      </trkpt>
      <trkpt lat="43.391934" lon="-5.824887">
        <ele>179.0</ele>
        <time>2025-10-17T15:18:41.886000Z</time>
      </trkpt>
      <trkpt lat="43.391857" lon="-5.824927">
        <ele>178.0</ele>
        <time>2025-10-17T15:18:50.184000Z</time>
      </trkpt>
      <trkpt lat="43.391767" lon="-5.824975">
        <ele>177.0</ele>
        <time>2025-10-17T15:18:59.885000Z</time>
      </trkpt>
      <trkpt lat="43.391695" lon="-5.825001">
        <ele>176.0</ele>
        <time>2025-10-17T15:19:07.381000Z</time>
      </trkpt>
      <trkpt lat="43.39161" lon="-5.82504">
        <ele>175.7</ele>
        <time>2025-10-17T15:19:16.352000Z</time>
      </trkpt>
      <trkpt lat="43.391524" lon="-5.825083">
        <ele>174.4</ele>
        <time>2025-10-17T15:19:25.585000Z</time>
      </trkpt>
      <trkpt lat="43.391491" lon="-5.825121">
        <ele>175.0</ele>
        <time>2025-10-17T15:19:29.922000Z</time>
      </trkpt>
      <trkpt lat="43.391399" lon="-5.825166">
        <ele>174.0</ele>
        <time>2025-10-17T15:19:39.740000Z</time>
      </trkpt>
      <trkpt lat="43.391298" lon="-5.825222">
        <ele>173.0</ele>
        <time>2025-10-17T15:19:50.667000Z</time>
      </trkpt>
      <trkpt lat="43.391191" lon="-5.825278">
        <ele>172.0</ele>
        <time>2025-10-17T15:20:02.170000Z</time>
      </trkpt>
      <trkpt lat="43.391018" lon="-5.825357">
        <ele>170.0</ele>
        <time>2025-10-17T15:20:20.483000Z</time>
      </trkpt>
      <trkpt lat="43.390846" lon="-5.825436">
        <ele>169.0</ele>
        <time>2025-10-17T15:20:38.667000Z</time>
      </trkpt>
      <trkpt lat="43.390766" lon="-5.825471">
        <ele>169.0</ele>
        <time>2025-10-17T15:20:47.065000Z</time>
      </trkpt>
      <trkpt lat="43.39071" lon="-5.825489">
        <ele>168.4</ele>
        <time>2025-10-17T15:20:52.843000Z</time>
      </trkpt>
      <trkpt lat="43.390647" lon="-5.825506">
        <ele>168.0</ele>
        <time>2025-10-17T15:20:59.283000Z</time>
      </trkpt>
      <trkpt lat="43.390587" lon="-5.825505">
        <ele>168.0</ele>
        <time>2025-10-17T15:21:05.290000Z</time>
      </trkpt>
      <trkpt lat="43.390508" lon="-5.825499">
        <ele>168.0</ele>
        <time>2025-10-17T15:21:13.203000Z</time>
      </trkpt>
      <trkpt lat="43.390398" lon="-5.825483">
        <ele>168.0</ele>
        <time>2025-10-17T15:21:24.269000Z</time>
      </trkpt>
      <trkpt lat="43.390273" lon="-5.825472">
        <ele>168.0</ele>
        <time>2025-10-17T15:21:36.810000Z</time>
      </trkpt>
      <trkpt lat="43.390145" lon="-5.825463">
        <ele>167.0</ele>
        <time>2025-10-17T15:21:49.659000Z</time>
      </trkpt>
      <trkpt lat="43.39001" lon="-5.825445">
        <ele>167.0</ele>
        <time>2025-10-17T15:22:03.226000Z</time>
      </trkpt>
      <trkpt lat="43.389812" lon="-5.825411">
        <ele>167.0</ele>
        <time>2025-10-17T15:22:23.210000Z</time>
      </trkpt>
      <trkpt lat="43.389608" lon="-5.825373">
        <ele>167.0</ele>
        <time>2025-10-17T15:22:43.795000Z</time>
      </trkpt>
      <trkpt lat="43.389398" lon="-5.825327">
        <ele>167.0</ele>
        <time>2025-10-17T15:23:05.082000Z</time>
      </trkpt>
      <trkpt lat="43.389094" lon="-5.82525">
        <ele>167.0</ele>
        <time>2025-10-17T15:23:36.024000Z</time>
      </trkpt>
      <trkpt lat="43.388861" lon="-5.825327">
        <ele>167.0</ele>
        <time>2025-10-17T15:23:59.989000Z</time>
      </trkpt>
      <trkpt lat="43.388749" lon="-5.825318">
        <ele>167.0</ele>
        <time>2025-10-17T15:24:11.232000Z</time>
      </trkpt>
      <trkpt lat="43.388674" lon="-5.825339">
        <ele>167.1</ele>
        <time>2025-10-17T15:24:18.887000Z</time>
      </trkpt>
      <trkpt lat="43.388591" lon="-5.825374">
        <ele>168.0</ele>
        <time>2025-10-17T15:24:27.608000Z</time>
      </trkpt>
      <trkpt lat="43.388453" lon="-5.825491">
        <ele>168.0</ele>
        <time>2025-10-17T15:24:43.827000Z</time>
      </trkpt>
      <trkpt lat="43.388267" lon="-5.825661">
        <ele>169.0</ele>
        <time>2025-10-17T15:25:06.197000Z</time>
      </trkpt>
      <trkpt lat="43.388239" lon="-5.825754">
        <ele>170.0</ele>
        <time>2025-10-17T15:25:13.576000Z</time>
      </trkpt>
      <trkpt lat="43.388123" lon="-5.825876">
        <ele>170.3</ele>
        <time>2025-10-17T15:25:28.191000Z</time>
      </trkpt>
      <trkpt lat="43.387894" lon="-5.826097">
        <ele>172.0</ele>
        <time>2025-10-17T15:25:56.222000Z</time>
      </trkpt>
      <trkpt lat="43.387631" lon="-5.826338">
        <ele>173.0</ele>
        <time>2025-10-17T15:26:27.861000Z</time>
      </trkpt>
      <trkpt lat="43.387367" lon="-5.826579">
        <ele>174.0</ele>
        <time>2025-10-17T15:26:59.584000Z</time>
      </trkpt>
      <trkpt lat="43.387099" lon="-5.826834">
        <ele>176.0</ele>
        <time>2025-10-17T15:27:32.231000Z</time>
      </trkpt>
      <trkpt lat="43.386831" lon="-5.82709">
        <ele>177.1</ele>
        <time>2025-10-17T15:28:04.899000Z</time>
      </trkpt>
      <trkpt lat="43.386563" lon="-5.827345">
        <ele>179.0</ele>
        <time>2025-10-17T15:28:37.555000Z</time>
      </trkpt>
      <trkpt lat="43.386295" lon="-5.8276">
        <ele>180.0</ele>
        <time>2025-10-17T15:29:10.165000Z</time>
      </trkpt>
      <trkpt lat="43.386237" lon="-5.827649">
        <ele>180.3</ele>
        <time>2025-10-17T15:29:16.980000Z</time>
      </trkpt>
      <trkpt lat="43.386122" lon="-5.827482">
        <ele>180.0</ele>
        <time>2025-10-17T15:29:33.713000Z</time>
      </trkpt>
      <trkpt lat="43.386067" lon="-5.827526">
        <ele>181.0</ele>
        <time>2025-10-17T15:29:40.144000Z</time>
      </trkpt>
      <trkpt lat="43.386008" lon="-5.827533">
        <ele>181.0</ele>
        <time>2025-10-17T15:29:46.071000Z</time>
      </trkpt>
      <trkpt lat="43.385962" lon="-5.827529">
        <ele>181.0</ele>
        <time>2025-10-17T15:29:50.693000Z</time>
      </trkpt>
      <trkpt lat="43.385932" lon="-5.827527">
        <ele>181.0</ele>
        <time>2025-10-17T15:29:53.700000Z</time>
      </trkpt>
      <trkpt lat="43.385907" lon="-5.827509">
        <ele>181.0</ele>
        <time>2025-10-17T15:29:56.525000Z</time>
      </trkpt>
      <trkpt lat="43.385885" lon="-5.827496">
        <ele>181.0</ele>
        <time>2025-10-17T15:29:58.915000Z</time>
      </trkpt>
      <trkpt lat="43.38585" lon="-5.82746">
        <ele>181.0</ele>
        <time>2025-10-17T15:30:03.292000Z</time>
      </trkpt>
      <trkpt lat="43.385802" lon="-5.827372">
        <ele>181.0</ele>
        <time>2025-10-17T15:30:11.292000Z</time>
      </trkpt>
      <trkpt lat="43.385722" lon="-5.827219">
        <ele>181.0</ele>
        <time>2025-10-17T15:30:25.001000Z</time>
      </trkpt>
      <trkpt lat="43.385632" lon="-5.827028">
        <ele>180.0</ele>
        <time>2025-10-17T15:30:41.578000Z</time>
      </trkpt>
      <trkpt lat="43.38552" lon="-5.826797">
        <ele>179.0</ele>
        <time>2025-10-17T15:31:01.793000Z</time>
      </trkpt>
      <trkpt lat="43.385442" lon="-5.826683">
        <ele>179.0</ele>
        <time>2025-10-17T15:31:13.189000Z</time>
      </trkpt>
      <trkpt lat="43.385359" lon="-5.82654">
        <ele>178.0</ele>
        <time>2025-10-17T15:31:26.528000Z</time>
      </trkpt>
      <trkpt lat="43.385281" lon="-5.826374">
        <ele>178.0</ele>
        <time>2025-10-17T15:31:40.900000Z</time>
      </trkpt>
      <trkpt lat="43.385195" lon="-5.826188">
        <ele>178.0</ele>
        <time>2025-10-17T15:31:56.938000Z</time>
      </trkpt>
      <trkpt lat="43.385086" lon="-5.825946">
        <ele>177.0</ele>
        <time>2025-10-17T15:32:17.657000Z</time>
      </trkpt>
      <trkpt lat="43.38502" lon="-5.825807">
        <ele>176.9</ele>
        <time>2025-10-17T15:32:29.744000Z</time>
      </trkpt>
      <trkpt lat="43.384949" lon="-5.825534">
        <ele>176.0</ele>
        <time>2025-10-17T15:32:50.839000Z</time>
      </trkpt>
      <trkpt lat="43.384846" lon="-5.825279">
        <ele>175.0</ele>
        <time>2025-10-17T15:33:12.080000Z</time>
      </trkpt>
      <trkpt lat="43.384767" lon="-5.825131">
        <ele>175.0</ele>
        <time>2025-10-17T15:33:25.434000Z</time>
      </trkpt>
      <trkpt lat="43.384767" lon="-5.825089">
        <ele>174.9</ele>
        <time>2025-10-17T15:33:28.496000Z</time>
      </trkpt>
      <trkpt lat="43.384796" lon="-5.82505">
        <ele>174.8</ele>
        <time>2025-10-17T15:33:32.550000Z</time>
      </trkpt>
      <trkpt lat="43.384865" lon="-5.82499">
        <ele>174.0</ele>
        <time>2025-10-17T15:33:40.742000Z</time>
      </trkpt>
      <trkpt lat="43.384913" lon="-5.824904">
        <ele>174.0</ele>
        <time>2025-10-17T15:33:48.635000Z</time>
      </trkpt>
      <trkpt lat="43.384926" lon="-5.824818">
        <ele>173.4</ele>
        <time>2025-10-17T15:33:55.045000Z</time>
      </trkpt>
      <trkpt lat="43.384934" lon="-5.824748">
        <ele>173.5</ele>
        <time>2025-10-17T15:34:00.205000Z</time>
      </trkpt>
      <trkpt lat="43.384936" lon="-5.82471">
        <ele>173.0</ele>
        <time>2025-10-17T15:34:03.004000Z</time>
      </trkpt>
      <trkpt lat="43.384929" lon="-5.824613">
        <ele>173.0</ele>
        <time>2025-10-17T15:34:10.099000Z</time>
      </trkpt>
      <trkpt lat="43.384899" lon="-5.824566">
        <ele>173.0</ele>
        <time>2025-10-17T15:34:14.645000Z</time>
      </trkpt>
      <trkpt lat="43.38488" lon="-5.824518">
        <ele>172.4</ele>
        <time>2025-10-17T15:34:18.662000Z</time>
      </trkpt>
      <trkpt lat="43.384891" lon="-5.82445">
        <ele>172.2</ele>
        <time>2025-10-17T15:34:23.726000Z</time>
      </trkpt>
      <trkpt lat="43.384909" lon="-5.82439">
        <ele>172.0</ele>
        <time>2025-10-17T15:34:28.448000Z</time>
      </trkpt>
      <trkpt lat="43.384806" lon="-5.824233">
        <ele>172.0</ele>
        <time>2025-10-17T15:34:43.842000Z</time>
      </trkpt>
      <trkpt lat="43.384762" lon="-5.824254">
        <ele>172.0</ele>
        <time>2025-10-17T15:34:48.494000Z</time>
      </trkpt>
      <trkpt lat="43.384669" lon="-5.824234">
        <ele>171.0</ele>
        <time>2025-10-17T15:34:57.960000Z</time>
      </trkpt>
      <trkpt lat="43.384608" lon="-5.824234">
        <ele>171.0</ele>
        <time>2025-10-17T15:35:04.067000Z</time>
      </trkpt>
      <trkpt lat="43.384551" lon="-5.82424">
        <ele>171.0</ele>
        <time>2025-10-17T15:35:09.788000Z</time>
      </trkpt>
      <trkpt lat="43.384509" lon="-5.824249">
        <ele>171.0</ele>
        <time>2025-10-17T15:35:14.033000Z</time>
      </trkpt>
      <trkpt lat="43.384474" lon="-5.824284">
        <ele>171.0</ele>
        <time>2025-10-17T15:35:18.361000Z</time>
      </trkpt>
      <trkpt lat="43.384438" lon="-5.824306">
        <ele>171.0</ele>
        <time>2025-10-17T15:35:22.311000Z</time>
      </trkpt>
      <trkpt lat="43.384416" lon="-5.824292">
        <ele>171.0</ele>
        <time>2025-10-17T15:35:24.735000Z</time>
      </trkpt>
      <trkpt lat="43.384316" lon="-5.824112">
        <ele>170.5</ele>
        <time>2025-10-17T15:35:41.217000Z</time>
      </trkpt>
      <trkpt lat="43.384331" lon="-5.824024">
        <ele>170.2</ele>
        <time>2025-10-17T15:35:47.795000Z</time>
      </trkpt>
      <trkpt lat="43.384351" lon="-5.823888">
        <ele>170.0</ele>
        <time>2025-10-17T15:35:57.885000Z</time>
      </trkpt>
      <trkpt lat="43.384435" lon="-5.823528">
        <ele>169.0</ele>
        <time>2025-10-17T15:36:25.393000Z</time>
      </trkpt>
      <trkpt lat="43.384545" lon="-5.82292">
        <ele>168.0</ele>
        <time>2025-10-17T15:37:10.977000Z</time>
      </trkpt>
      <trkpt lat="43.384583" lon="-5.822695">
        <ele>167.8</ele>
        <time>2025-10-17T15:37:27.774000Z</time>
      </trkpt>
      <trkpt lat="43.384603" lon="-5.822569">
        <ele>167.0</ele>
        <time>2025-10-17T15:37:37.188000Z</time>
      </trkpt>
      <trkpt lat="43.384586" lon="-5.822428">
        <ele>167.0</ele>
        <time>2025-10-17T15:37:47.584000Z</time>
      </trkpt>
      <trkpt lat="43.38458" lon="-5.822323">
        <ele>167.0</ele>
        <time>2025-10-17T15:37:55.240000Z</time>
      </trkpt>
      <trkpt lat="43.38459" lon="-5.822287">
        <ele>167.0</ele>
        <time>2025-10-17T15:37:58.048000Z</time>
      </trkpt>
      <trkpt lat="43.384601" lon="-5.822251">
        <ele>167.0</ele>
        <time>2025-10-17T15:38:00.894000Z</time>
      </trkpt>
      <trkpt lat="43.38462" lon="-5.822219">
        <ele>167.0</ele>
        <time>2025-10-17T15:38:03.896000Z</time>
      </trkpt>
      <trkpt lat="43.384675" lon="-5.822144">
        <ele>166.0</ele>
        <time>2025-10-17T15:38:11.693000Z</time>
      </trkpt>
      <trkpt lat="43.384689" lon="-5.822095">
        <ele>166.0</ele>
        <time>2025-10-17T15:38:15.534000Z</time>
      </trkpt>
      <trkpt lat="43.384727" lon="-5.821934">
        <ele>166.0</ele>
        <time>2025-10-17T15:38:27.837000Z</time>
      </trkpt>
      <trkpt lat="43.384718" lon="-5.821864">
        <ele>166.0</ele>
        <time>2025-10-17T15:38:32.999000Z</time>
      </trkpt>
      <trkpt lat="43.384719" lon="-5.821799">
        <ele>166.0</ele>
        <time>2025-10-17T15:38:37.730000Z</time>
      </trkpt>
      <trkpt lat="43.384735" lon="-5.821725">
        <ele>166.0</ele>
        <time>2025-10-17T15:38:43.350000Z</time>
      </trkpt>
      <trkpt lat="43.384752" lon="-5.821632">
        <ele>166.0</ele>
        <time>2025-10-17T15:38:50.314000Z</time>
      </trkpt>
      <trkpt lat="43.384852" lon="-5.821482">
        <ele>165.0</ele>
        <time>2025-10-17T15:39:05.153000Z</time>
      </trkpt>
      <trkpt lat="43.3849" lon="-5.821415">
        <ele>165.0</ele>
        <time>2025-10-17T15:39:11.995000Z</time>
      </trkpt>
      <trkpt lat="43.384929" lon="-5.821351">
        <ele>165.0</ele>
        <time>2025-10-17T15:39:17.482000Z</time>
      </trkpt>
    </trkseg>
  </trk>
</gpx>