<?xml version="1.0" encoding="UTF-8"?>
<gpx xmlns="http://www.topografix.com/GPX/1/1" xmlns:xsi="http://www.w3.org/2001/XMLSchema-instance" xsi:schemaLocation="http://www.topografix.com/GPX/1/1 http://www.topografix.com/GPX/1/1/gpx.xsd" version="1.1" creator="gpx.py -- https://github.com/tkrajina/gpxpy">
  <trk>
    <name>10_pattern_elev_fixed.gpx</name>
    <trkseg>
      <trkpt lat="43.385408" lon="-5.820863">
        <ele>165.0</ele>
        <time>2024-08-25T20:42:22.258000Z</time>
      </trkpt>
      <trkpt lat="43.385453" lon="-5.820821">
        <ele>165.0</ele>
        <time>2024-08-25T20:42:22.860000Z</time>
      </trkpt>
      <trkpt lat="43.385605" lon="-5.82117">
        <ele>165.0</ele>
        <time>2024-08-25T20:42:26.148000Z</time>
      </trkpt>
      <trkpt lat="43.385675" lon="-5.821102">
        <ele>165.0</ele>
        <time>2024-08-25T20:42:27.100000Z</time>
      </trkpt>
      <trkpt lat="43.385737" lon="-5.821036">
        <ele>165.0</ele>
        <time>2024-08-25T20:42:27.971000Z</time>
      </trkpt>
      <trkpt lat="43.385798" lon="-5.820955">
        <ele>165.0</ele>
        <time>2024-08-25T20:42:28.909000Z</time>
      </trkpt>
      <trkpt lat="43.38587" lon="-5.820877">
        <ele>164.0</ele>
        <time>2024-08-25T20:42:29.935000Z</time>
      </trkpt>
      <trkpt lat="43.385931" lon="-5.820789">
        <ele>164.0</ele>
        <time>2024-08-25T20:42:30.918000Z</time>
      </trkpt>
      <trkpt lat="43.385993" lon="-5.82068">
        <ele>164.0</ele>
        <time>2024-08-25T20:42:32.044000Z</time>
      </trkpt>
      <trkpt lat="43.386046" lon="-5.820557">
        <ele>164.0</ele>
        <time>2024-08-25T20:42:33.200000Z</time>
      </trkpt>
      <trkpt lat="43.386075" lon="-5.820465">
        <ele>164.0</ele>
        <time>2024-08-25T20:42:34.005000Z</time>
      </trkpt>
      <trkpt lat="43.386087" lon="-5.820442">
        <ele>164.0</ele>
        <time>2024-08-25T20:42:34.235000Z</time>
      </trkpt>
      <trkpt lat="43.386222" lon="-5.820527">
        <ele>164.0</ele>
        <time>2024-08-25T20:42:35.882000Z</time>
      </trkpt>
      <trkpt lat="43.38624" lon="-5.820498">
        <ele>164.2</ele>
        <time>2024-08-25T20:42:36.195000Z</time>
      </trkpt>
      <trkpt lat="43.386247" lon="-5.820457">
        <ele>164.0</ele>
        <time>2024-08-25T20:42:36.539000Z</time>
      </trkpt>
      <trkpt lat="43.38626" lon="-5.820431">
        <ele>164.0</ele>
        <time>2024-08-25T20:42:36.789000Z</time>
      </trkpt>
      <trkpt lat="43.386466" lon="-5.820539">
        <ele>161.2</ele>
        <time>2024-08-25T20:42:39.261000Z</time>
      </trkpt>
      <trkpt lat="43.386564" lon="-5.820582">
        <ele>161.0</ele>
        <time>2024-08-25T20:42:40.406000Z</time>
      </trkpt>
      <trkpt lat="43.386753" lon="-5.820668">
        <ele>161.0</ele>
        <time>2024-08-25T20:42:42.615000Z</time>
      </trkpt>
      <trkpt lat="43.386925" lon="-5.820754">
        <ele>161.0</ele>
        <time>2024-08-25T20:42:44.656000Z</time>
      </trkpt>
      <trkpt lat="43.387068" lon="-5.820909">
        <ele>161.0</ele>
        <time>2024-08-25T20:42:46.675000Z</time>
      </trkpt>
      <trkpt lat="43.387179" lon="-5.820987">
        <ele>161.0</ele>
        <time>2024-08-25T20:42:48.065000Z</time>
      </trkpt>
      <trkpt lat="43.387275" lon="-5.821028">
        <ele>161.0</ele>
        <time>2024-08-25T20:42:49.178000Z</time>
      </trkpt>
      <trkpt lat="43.387322" lon="-5.821044">
        <ele>161.0</ele>
        <time>2024-08-25T20:42:49.720000Z</time>
      </trkpt>
      <trkpt lat="43.387443" lon="-5.820941">
        <ele>161.0</ele>
        <time>2024-08-25T20:42:51.297000Z</time>
      </trkpt>
      <trkpt lat="43.387575" lon="-5.82082">
        <ele>161.0</ele>
        <time>2024-08-25T20:42:53.073000Z</time>
      </trkpt>
      <trkpt lat="43.387693" lon="-5.820824">
        <ele>161.0</ele>
        <time>2024-08-25T20:42:54.378000Z</time>
      </trkpt>
      <trkpt lat="43.387747" lon="-5.820836">
        <ele>161.0</ele>
        <time>2024-08-25T20:42:54.994000Z</time>
      </trkpt>
      <trkpt lat="43.387901" lon="-5.821146">
        <ele>161.0</ele>
        <time>2024-08-25T20:42:58.023000Z</time>
      </trkpt>
      <trkpt lat="43.387937" lon="-5.821194">
        <ele>160.2</ele>
        <time>2024-08-25T20:42:58.591000Z</time>
      </trkpt>
      <trkpt lat="43.387976" lon="-5.821197">
        <ele>160.0</ele>
        <time>2024-08-25T20:42:59.020000Z</time>
      </trkpt>
      <trkpt lat="43.388013" lon="-5.821203">
        <ele>160.0</ele>
        <time>2024-08-25T20:42:59.434000Z</time>
      </trkpt>
      <trkpt lat="43.388079" lon="-5.821313">
        <ele>160.1</ele>
        <time>2024-08-25T20:43:00.587000Z</time>
      </trkpt>
      <trkpt lat="43.388126" lon="-5.821297">
        <ele>160.0</ele>
        <time>2024-08-25T20:43:01.131000Z</time>
      </trkpt>
      <trkpt lat="43.388169" lon="-5.821259">
        <ele>160.0</ele>
        <time>2024-08-25T20:43:01.691000Z</time>
      </trkpt>
      <trkpt lat="43.388267" lon="-5.821431">
        <ele>160.0</ele>
        <time>2024-08-25T20:43:03.458000Z</time>
      </trkpt>
      <trkpt lat="43.388383" lon="-5.821665">
        <ele>160.0</ele>
        <time>2024-08-25T20:43:05.747000Z</time>
      </trkpt>
      <trkpt lat="43.388477" lon="-5.821879">
        <ele>160.0</ele>
        <time>2024-08-25T20:43:07.768000Z</time>
      </trkpt>
      <trkpt lat="43.388453" lon="-5.821929">
        <ele>161.0</ele>
        <time>2024-08-25T20:43:08.268000Z</time>
      </trkpt>
      <trkpt lat="43.38846" lon="-5.822017">
        <ele>161.0</ele>
        <time>2024-08-25T20:43:08.982000Z</time>
      </trkpt>
      <trkpt lat="43.388507" lon="-5.822106">
        <ele>161.0</ele>
        <time>2024-08-25T20:43:09.866000Z</time>
      </trkpt>
      <trkpt lat="43.388621" lon="-5.822222">
        <ele>161.0</ele>
        <time>2024-08-25T20:43:11.445000Z</time>
      </trkpt>
      <trkpt lat="43.388694" lon="-5.822236">
        <ele>161.0</ele>
        <time>2024-08-25T20:43:12.269000Z</time>
      </trkpt>
      <trkpt lat="43.388796" lon="-5.822134">
        <ele>161.0</ele>
        <time>2024-08-25T20:43:13.663000Z</time>
      </trkpt>
      <trkpt lat="43.389075" lon="-5.821882">
        <ele>161.0</ele>
        <time>2024-08-25T20:43:17.372000Z</time>
      </trkpt>
      <trkpt lat="43.389299" lon="-5.821666">
        <ele>160.0</ele>
        <time>2024-08-25T20:43:20.422000Z</time>
      </trkpt>
      <trkpt lat="43.389591" lon="-5.821391">
        <ele>160.0</ele>
        <time>2024-08-25T20:43:24.359000Z</time>
      </trkpt>
      <trkpt lat="43.389763" lon="-5.821218">
        <ele>159.0</ele>
        <time>2024-08-25T20:43:26.726000Z</time>
      </trkpt>
      <trkpt lat="43.389945" lon="-5.82105">
        <ele>159.0</ele>
        <time>2024-08-25T20:43:29.168000Z</time>
      </trkpt>
      <trkpt lat="43.390266" lon="-5.820749">
        <ele>158.8</ele>
        <time>2024-08-25T20:43:33.481000Z</time>
      </trkpt>
      <trkpt lat="43.390515" lon="-5.820522">
        <ele>158.0</ele>
        <time>2024-08-25T20:43:36.803000Z</time>
      </trkpt>
      <trkpt lat="43.3908" lon="-5.820249">
        <ele>158.0</ele>
        <time>2024-08-25T20:43:40.669000Z</time>
      </trkpt>
      <trkpt lat="43.39117" lon="-5.819907">
        <ele>158.0</ele>
        <time>2024-08-25T20:43:45.623000Z</time>
      </trkpt>
      <trkpt lat="43.390968" lon="-5.8195">
        <ele>157.0</ele>
        <time>2024-08-25T20:43:49.611000Z</time>
      </trkpt>
      <trkpt lat="43.391052" lon="-5.819441">
        <ele>157.0</ele>
        <time>2024-08-25T20:43:50.667000Z</time>
      </trkpt>
      <trkpt lat="43.391187" lon="-5.819364">
        <ele>157.0</ele>
        <time>2024-08-25T20:43:52.285000Z</time>
      </trkpt>
      <trkpt lat="43.391351" lon="-5.819226">
        <ele>157.0</ele>
        <time>2024-08-25T20:43:54.421000Z</time>
      </trkpt>
      <trkpt lat="43.391517" lon="-5.819086">
        <ele>157.0</ele>
        <time>2024-08-25T20:43:56.590000Z</time>
      </trkpt>
      <trkpt lat="43.391687" lon="-5.818936">
        <ele>157.0</ele>
        <time>2024-08-25T20:43:58.840000Z</time>
      </trkpt>
      <trkpt lat="43.391851" lon="-5.818782">
        <ele>157.0</ele>
        <time>2024-08-25T20:44:01.041000Z</time>
      </trkpt>
      <trkpt lat="43.392021" lon="-5.818633">
        <ele>157.0</ele>
        <time>2024-08-25T20:44:03.280000Z</time>
      </trkpt>
      <trkpt lat="43.392174" lon="-5.818497">
        <ele>157.0</ele>
        <time>2024-08-25T20:44:05.307000Z</time>
      </trkpt>
      <trkpt lat="43.392369" lon="-5.818332">
        <ele>158.0</ele>
        <time>2024-08-25T20:44:07.856000Z</time>
      </trkpt>
      <trkpt lat="43.392508" lon="-5.818229">
        <ele>158.0</ele>
        <time>2024-08-25T20:44:09.613000Z</time>
      </trkpt>
      <trkpt lat="43.392688" lon="-5.818075">
        <ele>158.0</ele>
        <time>2024-08-25T20:44:11.972000Z</time>
      </trkpt>
      <trkpt lat="43.392886" lon="-5.81787">
        <ele>158.0</ele>
        <time>2024-08-25T20:44:14.721000Z</time>
      </trkpt>
      <trkpt lat="43.393124" lon="-5.817678">
        <ele>158.0</ele>
        <time>2024-08-25T20:44:17.795000Z</time>
      </trkpt>
      <trkpt lat="43.393217" lon="-5.817614">
        <ele>158.0</ele>
        <time>2024-08-25T20:44:18.953000Z</time>
      </trkpt>
      <trkpt lat="43.393403" lon="-5.817677">
        <ele>158.0</ele>
        <time>2024-08-25T20:44:21.076000Z</time>
      </trkpt>
      <trkpt lat="43.393479" lon="-5.817805">
        <ele>158.0</ele>
        <time>2024-08-25T20:44:22.413000Z</time>
      </trkpt>
      <trkpt lat="43.393502" lon="-5.817971">
        <ele>158.0</ele>
        <time>2024-08-25T20:44:23.782000Z</time>
      </trkpt>
      <trkpt lat="43.393516" lon="-5.818143">
        <ele>158.0</ele>
        <time>2024-08-25T20:44:25.178000Z</time>
      </trkpt>
      <trkpt lat="43.393486" lon="-5.818296">
        <ele>158.0</ele>
        <time>2024-08-25T20:44:26.461000Z</time>
      </trkpt>
      <trkpt lat="43.393444" lon="-5.818486">
        <ele>158.0</ele>
        <time>2024-08-25T20:44:28.062000Z</time>
      </trkpt>
      <trkpt lat="43.393393" lon="-5.818711">
        <ele>157.0</ele>
        <time>2024-08-25T20:44:29.971000Z</time>
      </trkpt>
      <trkpt lat="43.393361" lon="-5.818913">
        <ele>157.0</ele>
        <time>2024-08-25T20:44:31.642000Z</time>
      </trkpt>
      <trkpt lat="43.393346" lon="-5.819126">
        <ele>157.0</ele>
        <time>2024-08-25T20:44:33.366000Z</time>
      </trkpt>
      <trkpt lat="43.393353" lon="-5.819368">
        <ele>157.0</ele>
        <time>2024-08-25T20:44:35.327000Z</time>
      </trkpt>
      <trkpt lat="43.393369" lon="-5.819524">
        <ele>157.0</ele>
        <time>2024-08-25T20:44:36.600000Z</time>
      </trkpt>
      <trkpt lat="43.393407" lon="-5.819655">
        <ele>156.2</ele>
        <time>2024-08-25T20:44:37.746000Z</time>
      </trkpt>
      <trkpt lat="43.393446" lon="-5.819766">
        <ele>156.0</ele>
        <time>2024-08-25T20:44:38.739000Z</time>
      </trkpt>
      <trkpt lat="43.393501" lon="-5.819889">
        <ele>156.0</ele>
        <time>2024-08-25T20:44:39.909000Z</time>
      </trkpt>
      <trkpt lat="43.393565" lon="-5.820037">
        <ele>156.1</ele>
        <time>2024-08-25T20:44:41.299000Z</time>
      </trkpt>
      <trkpt lat="43.393653" lon="-5.820137">
        <ele>156.0</ele>
        <time>2024-08-25T20:44:42.568000Z</time>
      </trkpt>
      <trkpt lat="43.393776" lon="-5.820267">
        <ele>156.0</ele>
        <time>2024-08-25T20:44:44.293000Z</time>
      </trkpt>
      <trkpt lat="43.39386" lon="-5.820336">
        <ele>156.0</ele>
        <time>2024-08-25T20:44:45.381000Z</time>
      </trkpt>
      <trkpt lat="43.393983" lon="-5.820387">
        <ele>156.0</ele>
        <time>2024-08-25T20:44:46.814000Z</time>
      </trkpt>
      <trkpt lat="43.394117" lon="-5.820431">
        <ele>156.0</ele>
        <time>2024-08-25T20:44:48.344000Z</time>
      </trkpt>
      <trkpt lat="43.394255" lon="-5.820454">
        <ele>156.0</ele>
        <time>2024-08-25T20:44:49.882000Z</time>
      </trkpt>
      <trkpt lat="43.394402" lon="-5.820464">
        <ele>156.0</ele>
        <time>2024-08-25T20:44:51.521000Z</time>
      </trkpt>
      <trkpt lat="43.394549" lon="-5.820474">
        <ele>156.0</ele>
        <time>2024-08-25T20:44:53.159000Z</time>
      </trkpt>
      <trkpt lat="43.394712" lon="-5.82049">
        <ele>156.0</ele>
        <time>2024-08-25T20:44:54.980000Z</time>
      </trkpt>
      <trkpt lat="43.394879" lon="-5.820509">
        <ele>156.0</ele>
        <time>2024-08-25T20:44:56.845000Z</time>
      </trkpt>
      <trkpt lat="43.395048" lon="-5.820525">
        <ele>156.0</ele>
        <time>2024-08-25T20:44:58.726000Z</time>
      </trkpt>
      <trkpt lat="43.395217" lon="-5.820542">
        <ele>156.0</ele>
        <time>2024-08-25T20:45:00.608000Z</time>
      </trkpt>
      <trkpt lat="43.395386" lon="-5.820558">
        <ele>156.0</ele>
        <time>2024-08-25T20:45:02.490000Z</time>
      </trkpt>
      <trkpt lat="43.395555" lon="-5.820574">
        <ele>156.0</ele>
        <time>2024-08-25T20:45:04.372000Z</time>
      </trkpt>
      <trkpt lat="43.395724" lon="-5.820591">
        <ele>156.0</ele>
        <time>2024-08-25T20:45:06.253000Z</time>
      </trkpt>
      <trkpt lat="43.395892" lon="-5.820607">
        <ele>156.0</ele>
        <time>2024-08-25T20:45:08.135000Z</time>
      </trkpt>
      <trkpt lat="43.396061" lon="-5.820623">
        <ele>156.0</ele>
        <time>2024-08-25T20:45:10.017000Z</time>
      </trkpt>
      <trkpt lat="43.39623" lon="-5.820639">
        <ele>156.0</ele>
        <time>2024-08-25T20:45:11.898000Z</time>
      </trkpt>
      <trkpt lat="43.396399" lon="-5.820656">
        <ele>156.0</ele>
        <time>2024-08-25T20:45:13.780000Z</time>
      </trkpt>
      <trkpt lat="43.396568" lon="-5.820672">
        <ele>156.0</ele>
        <time>2024-08-25T20:45:15.662000Z</time>
      </trkpt>
      <trkpt lat="43.396736" lon="-5.820688">
        <ele>156.0</ele>
        <time>2024-08-25T20:45:17.544000Z</time>
      </trkpt>
      <trkpt lat="43.396905" lon="-5.820704">
        <ele>156.0</ele>
        <time>2024-08-25T20:45:19.425000Z</time>
      </trkpt>
      <trkpt lat="43.397074" lon="-5.820721">
        <ele>156.0</ele>
        <time>2024-08-25T20:45:21.307000Z</time>
      </trkpt>
      <trkpt lat="43.397243" lon="-5.820737">
        <ele>156.0</ele>
        <time>2024-08-25T20:45:23.189000Z</time>
      </trkpt>
      <trkpt lat="43.3974" lon="-5.820753">
        <ele>156.0</ele>
        <time>2024-08-25T20:45:24.937000Z</time>
      </trkpt>
      <trkpt lat="43.397557" lon="-5.820792">
        <ele>156.0</ele>
        <time>2024-08-25T20:45:26.716000Z</time>
      </trkpt>
      <trkpt lat="43.397694" lon="-5.820894">
        <ele>156.0</ele>
        <time>2024-08-25T20:45:28.443000Z</time>
      </trkpt>
      <trkpt lat="43.39778" lon="-5.820981">
        <ele>156.0</ele>
        <time>2024-08-25T20:45:29.630000Z</time>
      </trkpt>
      <trkpt lat="43.397824" lon="-5.82107">
        <ele>156.0</ele>
        <time>2024-08-25T20:45:30.500000Z</time>
      </trkpt>
      <trkpt lat="43.39806" lon="-5.821338">
        <ele>156.0</ele>
        <time>2024-08-25T20:45:33.904000Z</time>
      </trkpt>
      <trkpt lat="43.398127" lon="-5.82141">
        <ele>156.0</ele>
        <time>2024-08-25T20:45:34.852000Z</time>
      </trkpt>
      <trkpt lat="43.398207" lon="-5.821468">
        <ele>156.0</ele>
        <time>2024-08-25T20:45:35.856000Z</time>
      </trkpt>
      <trkpt lat="43.398318" lon="-5.821555">
        <ele>156.0</ele>
        <time>2024-08-25T20:45:37.276000Z</time>
      </trkpt>
      <trkpt lat="43.398437" lon="-5.821607">
        <ele>156.0</ele>
        <time>2024-08-25T20:45:38.660000Z</time>
      </trkpt>
      <trkpt lat="43.398575" lon="-5.821635">
        <ele>156.0</ele>
        <time>2024-08-25T20:45:40.212000Z</time>
      </trkpt>
      <trkpt lat="43.398731" lon="-5.821657">
        <ele>155.0</ele>
        <time>2024-08-25T20:45:41.966000Z</time>
      </trkpt>
      <trkpt lat="43.398888" lon="-5.821678">
        <ele>155.0</ele>
        <time>2024-08-25T20:45:43.718000Z</time>
      </trkpt>
      <trkpt lat="43.399055" lon="-5.821678">
        <ele>155.0</ele>
        <time>2024-08-25T20:45:45.578000Z</time>
      </trkpt>
      <trkpt lat="43.399225" lon="-5.821683">
        <ele>155.0</ele>
        <time>2024-08-25T20:45:47.465000Z</time>
      </trkpt>
      <trkpt lat="43.399395" lon="-5.821688">
        <ele>155.0</ele>
        <time>2024-08-25T20:45:49.352000Z</time>
      </trkpt>
      <trkpt lat="43.399559" lon="-5.821704">
        <ele>155.0</ele>
        <time>2024-08-25T20:45:51.180000Z</time>
      </trkpt>
      <trkpt lat="43.399737" lon="-5.821746">
        <ele>155.0</ele>
        <time>2024-08-25T20:45:53.192000Z</time>
      </trkpt>
      <trkpt lat="43.399858" lon="-5.821819">
        <ele>155.0</ele>
        <time>2024-08-25T20:45:54.660000Z</time>
      </trkpt>
      <trkpt lat="43.399876" lon="-5.8219">
        <ele>155.0</ele>
        <time>2024-08-25T20:45:55.341000Z</time>
      </trkpt>
      <trkpt lat="43.399867" lon="-5.822001">
        <ele>155.0</ele>
        <time>2024-08-25T20:45:56.165000Z</time>
      </trkpt>
      <trkpt lat="43.399818" lon="-5.822098">
        <ele>155.0</ele>
        <time>2024-08-25T20:45:57.119000Z</time>
      </trkpt>
      <trkpt lat="43.399757" lon="-5.822137">
        <ele>155.0</ele>
        <time>2024-08-25T20:45:57.876000Z</time>
      </trkpt>
      <trkpt lat="43.399697" lon="-5.822179">
        <ele>155.0</ele>
        <time>2024-08-25T20:45:58.620000Z</time>
      </trkpt>
      <trkpt lat="43.399637" lon="-5.822233">
        <ele>155.0</ele>
        <time>2024-08-25T20:45:59.417000Z</time>
      </trkpt>
      <trkpt lat="43.399581" lon="-5.8223">
        <ele>155.0</ele>
        <time>2024-08-25T20:46:00.243000Z</time>
      </trkpt>
      <trkpt lat="43.399522" lon="-5.822364">
        <ele>155.0</ele>
        <time>2024-08-25T20:46:01.078000Z</time>
      </trkpt>
      <trkpt lat="43.399469" lon="-5.822431">
        <ele>155.0</ele>
        <time>2024-08-25T20:46:01.877000Z</time>
      </trkpt>
      <trkpt lat="43.39942" lon="-5.822502">
        <ele>155.0</ele>
        <time>2024-08-25T20:46:02.670000Z</time>
      </trkpt>
      <trkpt lat="43.399374" lon="-5.822581">
        <ele>155.0</ele>
        <time>2024-08-25T20:46:03.488000Z</time>
      </trkpt>
      <trkpt lat="43.399328" lon="-5.822661">
        <ele>155.0</ele>
        <time>2024-08-25T20:46:04.311000Z</time>
      </trkpt>
      <trkpt lat="43.399286" lon="-5.822754">
        <ele>155.0</ele>
        <time>2024-08-25T20:46:05.194000Z</time>
      </trkpt>
      <trkpt lat="43.399245" lon="-5.822847">
        <ele>155.0</ele>
        <time>2024-08-25T20:46:06.076000Z</time>
      </trkpt>
      <trkpt lat="43.399204" lon="-5.82294">
        <ele>155.2</ele>
        <time>2024-08-25T20:46:06.959000Z</time>
      </trkpt>
      <trkpt lat="43.399163" lon="-5.823046">
        <ele>156.0</ele>
        <time>2024-08-25T20:46:07.928000Z</time>
      </trkpt>
      <trkpt lat="43.399154" lon="-5.823114">
        <ele>156.0</ele>
        <time>2024-08-25T20:46:08.486000Z</time>
      </trkpt>
      <trkpt lat="43.399151" lon="-5.823173">
        <ele>156.0</ele>
        <time>2024-08-25T20:46:08.967000Z</time>
      </trkpt>
      <trkpt lat="43.399158" lon="-5.823231">
        <ele>156.0</ele>
        <time>2024-08-25T20:46:09.437000Z</time>
      </trkpt>
      <trkpt lat="43.399172" lon="-5.823294">
        <ele>156.4</ele>
        <time>2024-08-25T20:46:09.968000Z</time>
      </trkpt>
      <trkpt lat="43.399199" lon="-5.823374">
        <ele>157.0</ele>
        <time>2024-08-25T20:46:10.690000Z</time>
      </trkpt>
      <trkpt lat="43.399234" lon="-5.823468">
        <ele>157.0</ele>
        <time>2024-08-25T20:46:11.539000Z</time>
      </trkpt>
      <trkpt lat="43.399279" lon="-5.823608">
        <ele>157.0</ele>
        <time>2024-08-25T20:46:12.778000Z</time>
      </trkpt>
      <trkpt lat="43.399327" lon="-5.823757">
        <ele>157.0</ele>
        <time>2024-08-25T20:46:14.100000Z</time>
      </trkpt>
      <trkpt lat="43.39938" lon="-5.823924">
        <ele>157.2</ele>
        <time>2024-08-25T20:46:15.570000Z</time>
      </trkpt>
      <trkpt lat="43.399442" lon="-5.824114">
        <ele>157.0</ele>
        <time>2024-08-25T20:46:17.250000Z</time>
      </trkpt>
      <trkpt lat="43.399504" lon="-5.82431">
        <ele>157.0</ele>
        <time>2024-08-25T20:46:18.978000Z</time>
      </trkpt>
      <trkpt lat="43.399607" lon="-5.82462">
        <ele>157.0</ele>
        <time>2024-08-25T20:46:21.735000Z</time>
      </trkpt>
      <trkpt lat="43.399714" lon="-5.824901">
        <ele>157.0</ele>
        <time>2024-08-25T20:46:24.297000Z</time>
      </trkpt>
      <trkpt lat="43.399788" lon="-5.825064">
        <ele>157.0</ele>
        <time>2024-08-25T20:46:25.851000Z</time>
      </trkpt>
      <trkpt lat="43.399906" lon="-5.825238">
        <ele>157.0</ele>
        <time>2024-08-25T20:46:27.766000Z</time>
      </trkpt>
      <trkpt lat="43.400039" lon="-5.825425">
        <ele>157.0</ele>
        <time>2024-08-25T20:46:29.884000Z</time>
      </trkpt>
      <trkpt lat="43.400187" lon="-5.825633">
        <ele>157.0</ele>
        <time>2024-08-25T20:46:32.236000Z</time>
      </trkpt>
      <trkpt lat="43.400338" lon="-5.825848">
        <ele>158.0</ele>
        <time>2024-08-25T20:46:34.653000Z</time>
      </trkpt>
      <trkpt lat="43.400471" lon="-5.826069">
        <ele>159.0</ele>
        <time>2024-08-25T20:46:36.977000Z</time>
      </trkpt>
      <trkpt lat="43.400572" lon="-5.826235">
        <ele>160.0</ele>
        <time>2024-08-25T20:46:38.728000Z</time>
      </trkpt>
      <trkpt lat="43.400688" lon="-5.826347">
        <ele>160.3</ele>
        <time>2024-08-25T20:46:40.301000Z</time>
      </trkpt>
      <trkpt lat="43.400735" lon="-5.826393">
        <ele>161.0</ele>
        <time>2024-08-25T20:46:40.949000Z</time>
      </trkpt>
      <trkpt lat="43.400734" lon="-5.826416">
        <ele>161.0</ele>
        <time>2024-08-25T20:46:41.138000Z</time>
      </trkpt>
      <trkpt lat="43.400735" lon="-5.826444">
        <ele>162.0</ele>
        <time>2024-08-25T20:46:41.383000Z</time>
      </trkpt>
      <trkpt lat="43.400715" lon="-5.826485">
        <ele>162.0</ele>
        <time>2024-08-25T20:46:41.772000Z</time>
      </trkpt>
      <trkpt lat="43.400648" lon="-5.826646">
        <ele>163.0</ele>
        <time>2024-08-25T20:46:43.283000Z</time>
      </trkpt>
      <trkpt lat="43.400627" lon="-5.826685">
        <ele>163.0</ele>
        <time>2024-08-25T20:46:43.674000Z</time>
      </trkpt>
      <trkpt lat="43.400608" lon="-5.826714">
        <ele>163.0</ele>
        <time>2024-08-25T20:46:43.985000Z</time>
      </trkpt>
      <trkpt lat="43.400594" lon="-5.82672">
        <ele>163.0</ele>
        <time>2024-08-25T20:46:44.158000Z</time>
      </trkpt>
      <trkpt lat="43.400478" lon="-5.826599">
        <ele>164.0</ele>
        <time>2024-08-25T20:46:45.775000Z</time>
      </trkpt>
      <trkpt lat="43.400347" lon="-5.826477">
        <ele>164.0</ele>
        <time>2024-08-25T20:46:47.534000Z</time>
      </trkpt>
      <trkpt lat="43.400219" lon="-5.82638">
        <ele>164.7</ele>
        <time>2024-08-25T20:46:49.159000Z</time>
      </trkpt>
      <trkpt lat="43.40009" lon="-5.826281">
        <ele>165.0</ele>
        <time>2024-08-25T20:46:50.802000Z</time>
      </trkpt>
      <trkpt lat="43.399929" lon="-5.826176">
        <ele>165.0</ele>
        <time>2024-08-25T20:46:52.791000Z</time>
      </trkpt>
      <trkpt lat="43.399765" lon="-5.826065">
        <ele>165.0</ele>
        <time>2024-08-25T20:46:54.814000Z</time>
      </trkpt>
      <trkpt lat="43.3996" lon="-5.82595">
        <ele>165.0</ele>
        <time>2024-08-25T20:46:56.877000Z</time>
      </trkpt>
      <trkpt lat="43.399434" lon="-5.825835">
        <ele>165.0</ele>
        <time>2024-08-25T20:46:58.942000Z</time>
      </trkpt>
      <trkpt lat="43.399263" lon="-5.825719">
        <ele>165.0</ele>
        <time>2024-08-25T20:47:01.066000Z</time>
      </trkpt>
      <trkpt lat="43.399087" lon="-5.825595">
        <ele>165.0</ele>
        <time>2024-08-25T20:47:03.258000Z</time>
      </trkpt>
      <trkpt lat="43.398893" lon="-5.825459">
        <ele>165.0</ele>
        <time>2024-08-25T20:47:05.686000Z</time>
      </trkpt>
      <trkpt lat="43.398696" lon="-5.825324">
        <ele>165.0</ele>
        <time>2024-08-25T20:47:08.133000Z</time>
      </trkpt>
      <trkpt lat="43.398499" lon="-5.82519">
        <ele>166.0</ele>
        <time>2024-08-25T20:47:10.577000Z</time>
      </trkpt>
      <trkpt lat="43.398293" lon="-5.825047">
        <ele>167.0</ele>
        <time>2024-08-25T20:47:13.147000Z</time>
      </trkpt>
      <trkpt lat="43.39824" lon="-5.825009">
        <ele>167.0</ele>
        <time>2024-08-25T20:47:13.805000Z</time>
      </trkpt>
      <trkpt lat="43.39818" lon="-5.824988">
        <ele>168.0</ele>
        <time>2024-08-25T20:47:14.509000Z</time>
      </trkpt>
      <trkpt lat="43.398099" lon="-5.824987">
        <ele>168.0</ele>
        <time>2024-08-25T20:47:15.402000Z</time>
      </trkpt>
      <trkpt lat="43.397997" lon="-5.825001">
        <ele>169.0</ele>
        <time>2024-08-25T20:47:16.556000Z</time>
      </trkpt>
      <trkpt lat="43.397888" lon="-5.825031">
        <ele>169.0</ele>
        <time>2024-08-25T20:47:17.788000Z</time>
      </trkpt>
      <trkpt lat="43.397769" lon="-5.825074">
        <ele>170.0</ele>
        <time>2024-08-25T20:47:19.155000Z</time>
      </trkpt>
      <trkpt lat="43.397652" lon="-5.825133">
        <ele>170.0</ele>
        <time>2024-08-25T20:47:20.540000Z</time>
      </trkpt>
      <trkpt lat="43.397534" lon="-5.825203">
        <ele>170.9</ele>
        <time>2024-08-25T20:47:21.979000Z</time>
      </trkpt>
      <trkpt lat="43.397405" lon="-5.825275">
        <ele>171.0</ele>
        <time>2024-08-25T20:47:23.521000Z</time>
      </trkpt>
      <trkpt lat="43.39727" lon="-5.82535">
        <ele>171.7</ele>
        <time>2024-08-25T20:47:25.140000Z</time>
      </trkpt>
      <trkpt lat="43.39722" lon="-5.825376">
        <ele>172.0</ele>
        <time>2024-08-25T20:47:25.740000Z</time>
      </trkpt>
      <trkpt lat="43.397162" lon="-5.825396">
        <ele>172.0</ele>
        <time>2024-08-25T20:47:26.404000Z</time>
      </trkpt>
      <trkpt lat="43.397073" lon="-5.825418">
        <ele>172.0</ele>
        <time>2024-08-25T20:47:27.413000Z</time>
      </trkpt>
      <trkpt lat="43.396994" lon="-5.825434">
        <ele>172.0</ele>
        <time>2024-08-25T20:47:28.299000Z</time>
      </trkpt>
      <trkpt lat="43.396897" lon="-5.825441">
        <ele>173.0</ele>
        <time>2024-08-25T20:47:29.377000Z</time>
      </trkpt>
      <trkpt lat="43.396787" lon="-5.825442">
        <ele>173.2</ele>
        <time>2024-08-25T20:47:30.611000Z</time>
      </trkpt>
      <trkpt lat="43.396659" lon="-5.825447">
        <ele>174.0</ele>
        <time>2024-08-25T20:47:32.026000Z</time>
      </trkpt>
      <trkpt lat="43.396523" lon="-5.825456">
        <ele>175.0</ele>
        <time>2024-08-25T20:47:33.544000Z</time>
      </trkpt>
      <trkpt lat="43.396379" lon="-5.825463">
        <ele>176.0</ele>
        <time>2024-08-25T20:47:35.149000Z</time>
      </trkpt>
      <trkpt lat="43.396225" lon="-5.825458">
        <ele>177.3</ele>
        <time>2024-08-25T20:47:36.871000Z</time>
      </trkpt>
      <trkpt lat="43.396066" lon="-5.825467">
        <ele>178.0</ele>
        <time>2024-08-25T20:47:38.647000Z</time>
      </trkpt>
      <trkpt lat="43.395898" lon="-5.825475">
        <ele>179.0</ele>
        <time>2024-08-25T20:47:40.513000Z</time>
      </trkpt>
      <trkpt lat="43.395715" lon="-5.825475">
        <ele>180.0</ele>
        <time>2024-08-25T20:47:42.547000Z</time>
      </trkpt>
      <trkpt lat="43.395519" lon="-5.825468">
        <ele>181.0</ele>
        <time>2024-08-25T20:47:44.733000Z</time>
      </trkpt>
      <trkpt lat="43.395321" lon="-5.825447">
        <ele>181.0</ele>
        <time>2024-08-25T20:47:46.948000Z</time>
      </trkpt>
      <trkpt lat="43.395122" lon="-5.825426">
        <ele>180.8</ele>
        <time>2024-08-25T20:47:49.164000Z</time>
      </trkpt>
      <trkpt lat="43.394921" lon="-5.825407">
        <ele>181.0</ele>
        <time>2024-08-25T20:47:51.404000Z</time>
      </trkpt>
      <trkpt lat="43.39471" lon="-5.825377">
        <ele>181.0</ele>
        <time>2024-08-25T20:47:53.760000Z</time>
      </trkpt>
      <trkpt lat="43.394603" lon="-5.825367">
        <ele>181.0</ele>
        <time>2024-08-25T20:47:54.959000Z</time>
      </trkpt>
      <trkpt lat="43.394542" lon="-5.825383">
        <ele>181.9</ele>
        <time>2024-08-25T20:47:55.647000Z</time>
      </trkpt>
      <trkpt lat="43.394494" lon="-5.825405">
        <ele>182.0</ele>
        <time>2024-08-25T20:47:56.211000Z</time>
      </trkpt>
      <trkpt lat="43.394424" lon="-5.825457">
        <ele>182.0</ele>
        <time>2024-08-25T20:47:57.096000Z</time>
      </trkpt>
      <trkpt lat="43.394322" lon="-5.825516">
        <ele>183.0</ele>
        <time>2024-08-25T20:47:58.334000Z</time>
      </trkpt>
      <trkpt lat="43.394239" lon="-5.825574">
        <ele>184.0</ele>
        <time>2024-08-25T20:47:59.368000Z</time>
      </trkpt>
      <trkpt lat="43.39416" lon="-5.825643">
        <ele>185.0</ele>
        <time>2024-08-25T20:48:00.411000Z</time>
      </trkpt>
      <trkpt lat="43.394081" lon="-5.825711">
        <ele>186.0</ele>
        <time>2024-08-25T20:48:01.454000Z</time>
      </trkpt>
      <trkpt lat="43.393991" lon="-5.825773">
        <ele>186.0</ele>
        <time>2024-08-25T20:48:02.579000Z</time>
      </trkpt>
      <trkpt lat="43.393901" lon="-5.825805">
        <ele>186.0</ele>
        <time>2024-08-25T20:48:03.604000Z</time>
      </trkpt>
      <trkpt lat="43.393858" lon="-5.825813">
        <ele>186.0</ele>
        <time>2024-08-25T20:48:04.089000Z</time>
      </trkpt>
      <trkpt lat="43.393809" lon="-5.825812">
        <ele>186.0</ele>
        <time>2024-08-25T20:48:04.641000Z</time>
      </trkpt>
      <trkpt lat="43.393751" lon="-5.825807">
        <ele>186.0</ele>
        <time>2024-08-25T20:48:05.284000Z</time>
      </trkpt>
      <trkpt lat="43.393689" lon="-5.825785">
        <ele>186.0</ele>
        <time>2024-08-25T20:48:05.999000Z</time>
      </trkpt>
      <trkpt lat="43.393622" lon="-5.825748">
        <ele>186.0</ele>
        <time>2024-08-25T20:48:06.794000Z</time>
      </trkpt>
      <trkpt lat="43.39355" lon="-5.825689">
        <ele>185.0</ele>
        <time>2024-08-25T20:48:07.738000Z</time>
      </trkpt>
      <trkpt lat="43.393458" lon="-5.825584">
        <ele>184.0</ele>
        <time>2024-08-25T20:48:09.067000Z</time>
      </trkpt>
      <trkpt lat="43.393327" lon="-5.825444">
        <ele>184.0</ele>
        <time>2024-08-25T20:48:10.917000Z</time>
      </trkpt>
      <trkpt lat="43.393172" lon="-5.825262">
        <ele>183.0</ele>
        <time>2024-08-25T20:48:13.179000Z</time>
      </trkpt>
      <trkpt lat="43.393015" lon="-5.825078">
        <ele>182.0</ele>
        <time>2024-08-25T20:48:15.473000Z</time>
      </trkpt>
      <trkpt lat="43.392851" lon="-5.824887">
        <ele>182.0</ele>
        <time>2024-08-25T20:48:17.862000Z</time>
      </trkpt>
      <trkpt lat="43.392751" lon="-5.824797">
        <ele>181.2</ele>
        <time>2024-08-25T20:48:19.197000Z</time>
      </trkpt>
      <trkpt lat="43.392639" lon="-5.824698">
        <ele>181.0</ele>
        <time>2024-08-25T20:48:20.678000Z</time>
      </trkpt>
      <trkpt lat="43.39258" lon="-5.824655">
        <ele>181.9</ele>
        <time>2024-08-25T20:48:21.423000Z</time>
      </trkpt>
      <trkpt lat="43.392528" lon="-5.824645">
        <ele>182.0</ele>
        <time>2024-08-25T20:48:22.007000Z</time>
      </trkpt>
      <trkpt lat="43.392464" lon="-5.824646">
        <ele>182.0</ele>
        <time>2024-08-25T20:48:22.712000Z</time>
      </trkpt>
      <trkpt lat="43.392391" lon="-5.824662">
        <ele>181.4</ele>
        <time>2024-08-25T20:48:23.546000Z</time>
      </trkpt>
      <trkpt lat="43.392342" lon="-5.824686">
        <ele>181.0</ele>
        <time>2024-08-25T20:48:24.127000Z</time>
      </trkpt>
      <trkpt lat="43.392232" lon="-5.824729">
        <ele>180.7</ele>
        <time>2024-08-25T20:48:25.393000Z</time>
      </trkpt>
      <trkpt lat="43.392194" lon="-5.824748">
        <ele>180.4</ele>
        <time>2024-08-25T20:48:25.847000Z</time>
      </trkpt>
      <trkpt lat="43.39216" lon="-5.824767">
        <ele>180.0</ele>
        <time>2024-08-25T20:48:26.253000Z</time>
      </trkpt>
      <trkpt lat="43.392121" lon="-5.82479">
        <ele>180.0</ele>
        <time>2024-08-25T20:48:26.721000Z</time>
      </trkpt>
      <trkpt lat="43.392071" lon="-5.824818">
        <ele>180.0</ele>
        <time>2024-08-25T20:48:27.327000Z</time>
      </trkpt>
      <trkpt lat="43.392006" lon="-5.82485">
        <ele>179.0</ele>
        <time>2024-08-25T20:48:28.094000Z</time>
      </trkpt>
      <trkpt lat="43.391934" lon="-5.824887">
        <ele>179.0</ele>
        <time>2024-08-25T20:48:28.954000Z</time>
      </trkpt>
      <trkpt lat="43.391857" lon="-5.824927">
        <ele>178.0</ele>
        <time>2024-08-25T20:48:29.879000Z</time>
      </trkpt>
      <trkpt lat="43.391767" lon="-5.824975">
        <ele>177.0</ele>
        <time>2024-08-25T20:48:30.952000Z</time>
      </trkpt>
      <trkpt lat="43.391695" lon="-5.825001">
        <ele>176.0</ele>
        <time>2024-08-25T20:48:31.788000Z</time>
      </trkpt>
      <trkpt lat="43.39161" lon="-5.82504">
        <ele>175.7</ele>
        <time>2024-08-25T20:48:32.781000Z</time>
      </trkpt>
      <trkpt lat="43.391524" lon="-5.825083">
        <ele>174.4</ele>
        <time>2024-08-25T20:48:33.808000Z</time>
      </trkpt>
      <trkpt lat="43.391491" lon="-5.825121">
        <ele>175.0</ele>
        <time>2024-08-25T20:48:34.295000Z</time>
      </trkpt>
      <trkpt lat="43.391399" lon="-5.825166">
        <ele>174.0</ele>
        <time>2024-08-25T20:48:35.384000Z</time>
      </trkpt>
      <trkpt lat="43.391298" lon="-5.825222">
        <ele>173.0</ele>
        <time>2024-08-25T20:48:36.604000Z</time>
      </trkpt>
      <trkpt lat="43.391191" lon="-5.825278">
        <ele>172.0</ele>
        <time>2024-08-25T20:48:37.874000Z</time>
      </trkpt>
      <trkpt lat="43.391018" lon="-5.825357">
        <ele>170.0</ele>
        <time>2024-08-25T20:48:39.909000Z</time>
      </trkpt>
      <trkpt lat="43.390846" lon="-5.825436">
        <ele>169.0</ele>
        <time>2024-08-25T20:48:41.937000Z</time>
      </trkpt>
      <trkpt lat="43.390766" lon="-5.825471">
        <ele>169.0</ele>
        <time>2024-08-25T20:48:42.867000Z</time>
      </trkpt>
      <trkpt lat="43.39071" lon="-5.825489">
        <ele>168.4</ele>
        <time>2024-08-25T20:48:43.510000Z</time>
      </trkpt>
      <trkpt lat="43.390647" lon="-5.825506">
        <ele>168.0</ele>
        <time>2024-08-25T20:48:44.223000Z</time>
      </trkpt>
      <trkpt lat="43.390587" lon="-5.825505">
        <ele>168.0</ele>
        <time>2024-08-25T20:48:44.890000Z</time>
      </trkpt>
      <trkpt lat="43.390508" lon="-5.825499">
        <ele>168.0</ele>
        <time>2024-08-25T20:48:45.766000Z</time>
      </trkpt>
      <trkpt lat="43.390398" lon="-5.825483">
        <ele>168.0</ele>
        <time>2024-08-25T20:48:47.004000Z</time>
      </trkpt>
      <trkpt lat="43.390273" lon="-5.825472">
        <ele>168.0</ele>
        <time>2024-08-25T20:48:48.392000Z</time>
      </trkpt>
      <trkpt lat="43.390145" lon="-5.825463">
        <ele>167.0</ele>
        <time>2024-08-25T20:48:49.827000Z</time>
      </trkpt>
      <trkpt lat="43.39001" lon="-5.825445">
        <ele>167.0</ele>
        <time>2024-08-25T20:48:51.325000Z</time>
      </trkpt>
      <trkpt lat="43.389812" lon="-5.825411">
        <ele>167.0</ele>
        <time>2024-08-25T20:48:53.550000Z</time>
      </trkpt>
      <trkpt lat="43.389608" lon="-5.825373">
        <ele>167.0</ele>
        <time>2024-08-25T20:48:55.841000Z</time>
      </trkpt>
      <trkpt lat="43.389398" lon="-5.825327">
        <ele>167.0</ele>
        <time>2024-08-25T20:48:58.201000Z</time>
      </trkpt>
      <trkpt lat="43.389094" lon="-5.82525">
        <ele>167.0</ele>
        <time>2024-08-25T20:49:01.639000Z</time>
      </trkpt>
      <trkpt lat="43.388861" lon="-5.825327">
        <ele>167.0</ele>
        <time>2024-08-25T20:49:04.310000Z</time>
      </trkpt>
      <trkpt lat="43.388749" lon="-5.825318">
        <ele>167.0</ele>
        <time>2024-08-25T20:49:05.550000Z</time>
      </trkpt>
      <trkpt lat="43.388674" lon="-5.825339">
        <ele>167.1</ele>
        <time>2024-08-25T20:49:06.405000Z</time>
      </trkpt>
      <trkpt lat="43.388591" lon="-5.825374">
        <ele>168.0</ele>
        <time>2024-08-25T20:49:07.375000Z</time>
      </trkpt>
      <trkpt lat="43.388453" lon="-5.825491">
        <ele>168.0</ele>
        <time>2024-08-25T20:49:09.179000Z</time>
      </trkpt>
      <trkpt lat="43.388267" lon="-5.825661">
        <ele>169.0</ele>
        <time>2024-08-25T20:49:11.666000Z</time>
      </trkpt>
      <trkpt lat="43.388239" lon="-5.825754">
        <ele>170.0</ele>
        <time>2024-08-25T20:49:12.477000Z</time>
      </trkpt>
      <trkpt lat="43.388123" lon="-5.825876">
        <ele>170.3</ele>
        <time>2024-08-25T20:49:14.106000Z</time>
      </trkpt>
      <trkpt lat="43.387894" lon="-5.826097">
        <ele>172.0</ele>
        <time>2024-08-25T20:49:17.219000Z</time>
      </trkpt>
      <trkpt lat="43.387631" lon="-5.826338">
        <ele>173.0</ele>
        <time>2024-08-25T20:49:20.740000Z</time>
      </trkpt>
      <trkpt lat="43.387367" lon="-5.826579">
        <ele>174.0</ele>
        <time>2024-08-25T20:49:24.261000Z</time>
      </trkpt>
      <trkpt lat="43.387099" lon="-5.826834">
        <ele>176.0</ele>
        <time>2024-08-25T20:49:27.891000Z</time>
      </trkpt>
      <trkpt lat="43.386831" lon="-5.82709">
        <ele>177.1</ele>
        <time>2024-08-25T20:49:31.518000Z</time>
      </trkpt>
      <trkpt lat="43.386563" lon="-5.827345">
        <ele>179.0</ele>
        <time>2024-08-25T20:49:35.148000Z</time>
      </trkpt>
      <trkpt lat="43.386295" lon="-5.8276">
        <ele>180.0</ele>
        <time>2024-08-25T20:49:38.774000Z</time>
      </trkpt>
      <trkpt lat="43.386237" lon="-5.827649">
        <ele>180.3</ele>
        <time>2024-08-25T20:49:39.531000Z</time>
      </trkpt>
      <trkpt lat="43.386122" lon="-5.827482">
        <ele>180.0</ele>
        <time>2024-08-25T20:49:41.397000Z</time>
      </trkpt>
      <trkpt lat="43.386067" lon="-5.827526">
        <ele>181.0</ele>
        <time>2024-08-25T20:49:42.109000Z</time>
      </trkpt>
      <trkpt lat="43.386008" lon="-5.827533">
        <ele>181.0</ele>
        <time>2024-08-25T20:49:42.771000Z</time>
      </trkpt>
      <trkpt lat="43.385962" lon="-5.827529">
        <ele>181.0</ele>
        <time>2024-08-25T20:49:43.283000Z</time>
      </trkpt>
      <trkpt lat="43.385932" lon="-5.827527">
        <ele>181.0</ele>
        <time>2024-08-25T20:49:43.612000Z</time>
      </trkpt>
      <trkpt lat="43.385907" lon="-5.827509">
        <ele>181.0</ele>
        <time>2024-08-25T20:49:43.931000Z</time>
      </trkpt>
      <trkpt lat="43.385885" lon="-5.827496">
        <ele>181.0</ele>
        <time>2024-08-25T20:49:44.195000Z</time>
      </trkpt>
      <trkpt lat="43.38585" lon="-5.82746">
        <ele>181.0</ele>
        <time>2024-08-25T20:49:44.678000Z</time>
      </trkpt>
      <trkpt lat="43.385802" lon="-5.827372">
        <ele>181.0</ele>
        <time>2024-08-25T20:49:45.570000Z</time>
      </trkpt>
      <trkpt lat="43.385722" lon="-5.827219">
        <ele>181.0</ele>
        <time>2024-08-25T20:49:47.090000Z</time>
      </trkpt>
      <trkpt lat="43.385632" lon="-5.827028">
        <ele>180.0</ele>
        <time>2024-08-25T20:49:48.935000Z</time>
      </trkpt>
      <trkpt lat="43.38552" lon="-5.826797">
        <ele>179.0</ele>
        <time>2024-08-25T20:49:51.186000Z</time>
      </trkpt>
      <trkpt lat="43.385442" lon="-5.826683">
        <ele>179.0</ele>
        <time>2024-08-25T20:49:52.446000Z</time>
      </trkpt>
      <trkpt lat="43.385359" lon="-5.82654">
        <ele>178.0</ele>
        <time>2024-08-25T20:49:53.928000Z</time>
      </trkpt>
      <trkpt lat="43.385281" lon="-5.826374">
        <ele>178.0</ele>
        <time>2024-08-25T20:49:55.522000Z</time>
      </trkpt>
      <trkpt lat="43.385195" lon="-5.826188">
        <ele>178.0</ele>
        <time>2024-08-25T20:49:57.308000Z</time>
      </trkpt>
      <trkpt lat="43.385086" lon="-5.825946">
        <ele>177.0</ele>
        <time>2024-08-25T20:49:59.612000Z</time>
      </trkpt>
      <trkpt lat="43.38502" lon="-5.825807">
        <ele>176.9</ele>
        <time>2024-08-25T20:50:00.956000Z</time>
      </trkpt>
      <trkpt lat="43.384949" lon="-5.825534">
        <ele>176.0</ele>
        <time>2024-08-25T20:50:03.297000Z</time>
      </trkpt>
      <trkpt lat="43.384846" lon="-5.825279">
        <ele>175.0</ele>
        <time>2024-08-25T20:50:05.657000Z</time>
      </trkpt>
      <trkpt lat="43.384767" lon="-5.825131">
        <ele>175.0</ele>
        <time>2024-08-25T20:50:07.146000Z</time>
      </trkpt>
      <trkpt lat="43.384767" lon="-5.825089">
        <ele>174.9</ele>
        <time>2024-08-25T20:50:07.482000Z</time>
      </trkpt>
      <trkpt lat="43.384796" lon="-5.82505">
        <ele>174.8</ele>
        <time>2024-08-25T20:50:07.934000Z</time>
      </trkpt>
      <trkpt lat="43.384865" lon="-5.82499">
        <ele>174.0</ele>
        <time>2024-08-25T20:50:08.844000Z</time>
      </trkpt>
      <trkpt lat="43.384913" lon="-5.824904">
        <ele>174.0</ele>
        <time>2024-08-25T20:50:09.722000Z</time>
      </trkpt>
      <trkpt lat="43.384926" lon="-5.824818">
        <ele>173.4</ele>
        <time>2024-08-25T20:50:10.436000Z</time>
      </trkpt>
      <trkpt lat="43.384934" lon="-5.824748">
        <ele>173.5</ele>
        <time>2024-08-25T20:50:11.003000Z</time>
      </trkpt>
      <trkpt lat="43.384936" lon="-5.82471">
        <ele>173.0</ele>
        <time>2024-08-25T20:50:11.318000Z</time>
      </trkpt>
      <trkpt lat="43.384929" lon="-5.824613">
        <ele>173.0</ele>
        <time>2024-08-25T20:50:12.106000Z</time>
      </trkpt>
      <trkpt lat="43.384899" lon="-5.824566">
        <ele>173.0</ele>
        <time>2024-08-25T20:50:12.611000Z</time>
      </trkpt>
      <trkpt lat="43.38488" lon="-5.824518">
        <ele>172.4</ele>
        <time>2024-08-25T20:50:13.057000Z</time>
      </trkpt>
      <trkpt lat="43.384891" lon="-5.82445">
        <ele>172.2</ele>
        <time>2024-08-25T20:50:13.617000Z</time>
      </trkpt>
      <trkpt lat="43.384909" lon="-5.82439">
        <ele>172.0</ele>
        <time>2024-08-25T20:50:14.146000Z</time>
      </trkpt>
      <trkpt lat="43.384806" lon="-5.824233">
        <ele>172.0</ele>
        <time>2024-08-25T20:50:15.853000Z</time>
      </trkpt>
      <trkpt lat="43.384762" lon="-5.824254">
        <ele>172.0</ele>
        <time>2024-08-25T20:50:16.366000Z</time>
      </trkpt>
      <trkpt lat="43.384669" lon="-5.824234">
        <ele>172.0</ele>
        <time>2024-08-25T20:50:17.416000Z</time>
      </trkpt>
      <trkpt lat="43.384608" lon="-5.824234">
        <ele>172.0</ele>
        <time>2024-08-25T20:50:18.093000Z</time>
      </trkpt>
      <trkpt lat="43.384551" lon="-5.82424">
        <ele>171.9</ele>
        <time>2024-08-25T20:50:18.725000Z</time>
      </trkpt>
      <trkpt lat="43.384509" lon="-5.824249">
        <ele>171.0</ele>
        <time>2024-08-25T20:50:19.212000Z</time>
      </trkpt>
      <trkpt lat="43.384474" lon="-5.824284">
        <ele>171.0</ele>
        <time>2024-08-25T20:50:19.694000Z</time>
      </trkpt>
      <trkpt lat="43.384438" lon="-5.824306">
        <ele>171.0</ele>
        <time>2024-08-25T20:50:20.128000Z</time>
      </trkpt>
      <trkpt lat="43.384416" lon="-5.824292">
        <ele>171.0</ele>
        <time>2024-08-25T20:50:20.398000Z</time>
      </trkpt>
      <trkpt lat="43.384316" lon="-5.824112">
        <ele>170.5</ele>
        <time>2024-08-25T20:50:22.230000Z</time>
      </trkpt>
      <trkpt lat="43.384331" lon="-5.824024">
        <ele>170.2</ele>
        <time>2024-08-25T20:50:22.969000Z</time>
      </trkpt>
      <trkpt lat="43.384351" lon="-5.823888">
        <ele>170.0</ele>
        <time>2024-08-25T20:50:24.085000Z</time>
      </trkpt>
      <trkpt lat="43.384435" lon="-5.823528">
        <ele>169.0</ele>
        <time>2024-08-25T20:50:27.146000Z</time>
      </trkpt>
      <trkpt lat="43.384545" lon="-5.82292">
        <ele>168.0</ele>
        <time>2024-08-25T20:50:32.205000Z</time>
      </trkpt>
      <trkpt lat="43.384583" lon="-5.822695">
        <ele>167.8</ele>
        <time>2024-08-25T20:50:34.072000Z</time>
      </trkpt>
      <trkpt lat="43.384603" lon="-5.822569">
        <ele>167.0</ele>
        <time>2024-08-25T20:50:35.120000Z</time>
      </trkpt>
      <trkpt lat="43.384586" lon="-5.822428">
        <ele>167.0</ele>
        <time>2024-08-25T20:50:36.275000Z</time>
      </trkpt>
      <trkpt lat="43.38458" lon="-5.822323">
        <ele>167.0</ele>
        <time>2024-08-25T20:50:37.127000Z</time>
      </trkpt>
      <trkpt lat="43.38459" lon="-5.822287">
        <ele>167.0</ele>
        <time>2024-08-25T20:50:37.436000Z</time>
      </trkpt>
      <trkpt lat="43.384601" lon="-5.822251">
        <ele>167.0</ele>
        <time>2024-08-25T20:50:37.749000Z</time>
      </trkpt>
      <trkpt lat="43.38462" lon="-5.822219">
        <ele>167.0</ele>
        <time>2024-08-25T20:50:38.085000Z</time>
      </trkpt>
      <trkpt lat="43.384675" lon="-5.822144">
        <ele>166.0</ele>
        <time>2024-08-25T20:50:38.952000Z</time>
      </trkpt>
      <trkpt lat="43.384689" lon="-5.822095">
        <ele>166.0</ele>
        <time>2024-08-25T20:50:39.380000Z</time>
      </trkpt>
      <trkpt lat="43.384727" lon="-5.821934">
        <ele>166.0</ele>
        <time>2024-08-25T20:50:40.742000Z</time>
      </trkpt>
      <trkpt lat="43.384718" lon="-5.821864">
        <ele>166.0</ele>
        <time>2024-08-25T20:50:41.321000Z</time>
      </trkpt>
      <trkpt lat="43.384719" lon="-5.821799">
        <ele>166.0</ele>
        <time>2024-08-25T20:50:41.843000Z</time>
      </trkpt>
      <trkpt lat="43.384735" lon="-5.821725">
        <ele>166.0</ele>
        <time>2024-08-25T20:50:42.464000Z</time>
      </trkpt>
      <trkpt lat="43.384752" lon="-5.821632">
        <ele>166.0</ele>
        <time>2024-08-25T20:50:43.245000Z</time>
      </trkpt>
      <trkpt lat="43.384852" lon="-5.821482">
        <ele>165.0</ele>
        <time>2024-08-25T20:50:44.891000Z</time>
      </trkpt>
      <trkpt lat="43.3849" lon="-5.821415">
        <ele>165.0</ele>
        <time>2024-08-25T20:50:45.653000Z</time>
      </trkpt>
      <trkpt lat="43.384929" lon="-5.821351">
        <ele>165.0</ele>
        <time>2024-08-25T20:50:46.266000Z</time>
      </trkpt>
    </trkseg>
  </trk>
</gpx>